{"objects":{"water":{"type":"GeometryCollection","geometries":[{"type":"MultiPolygon","properties":{"source":"naturalearthdata.com","kind":"ocean","area":990044000000000,"sort_rank":200,"min_zoom":0,"id":1},"arcs":[[[0],[1],[2],[3]]]},{"type":"LineString","properties":{"source":"naturalearthdata.com","kind":"ocean","sort_rank":205,"boundary":true,"min_zoom":0,"id":41},"arcs":[4]},{"type":"LineString","properties":{"source":"naturalearthdata.com","kind":"ocean","sort_rank":205,"boundary":true,"min_zoom":0,"id":91},"arcs":[5]},{"type":"LineString","properties":{"source":"naturalearthdata.com","kind":"ocean","sort_rank":205,"boundary":true,"min_zoom":0,"id":92},"arcs":[6]},{"type":"LineString","properties":{"source":"naturalearthdata.com","kind":"ocean","sort_rank":205,"boundary":true,"min_zoom":0,"id":93},"arcs":[7]},{"type":"MultiLineString","properties":{"source":"naturalearthdata.com","kind":"ocean","sort_rank":205,"boundary":true,"min_zoom":0,"id":675},"arcs":[[8],[9]]},{"type":"LineString","properties":{"source":"naturalearthdata.com","kind":"ocean","sort_rank":205,"boundary":true,"min_zoom":0,"id":1184},"arcs":[10]}]},"buildings":{"type":"GeometryCollection","geometries":[]},"places":{"type":"GeometryCollection","geometries":[]},"transit":{"type":"GeometryCollection","geometries":[]},"pois":{"type":"GeometryCollection","geometries":[]},"boundaries":{"type":"GeometryCollection","geometries":[]},"roads":{"type":"GeometryCollection","geometries":[]},"earth":{"type":"GeometryCollection","geometries":[{"type":"MultiPolygon","properties":{"sort_rank":10,"source":"naturalearthdata.com","min_zoom":0.5,"kind":"earth","area":310777748658},"arcs":[[[11]]]},{"type":"MultiPolygon","properties":{"sort_rank":10,"source":"naturalearthdata.com","kind":"earth","min_zoom":2.0,"area":650942670114},"arcs":[[[12]]]},{"type":"MultiPolygon","properties":{"sort_rank":10,"source":"naturalearthdata.com","kind":"earth","min_zoom":4.0,"area":34679318797},"arcs":[[[13]]]},{"type":"MultiPolygon","properties":{"sort_rank":10,"source":"naturalearthdata.com","min_zoom":3.0,"kind":"earth","area":331560690158},"arcs":[[[14]]]},{"type":"MultiPolygon","properties":{"sort_rank":10,"source":"naturalearthdata.com","min_zoom":0,"kind":"earth","area":158482837729342},"arcs":[[[15]],[[16]]]}]},"landuse":{"type":"GeometryCollection","geometries":[{"type":"MultiPolygon","properties":{"kind":"nature_reserve","protect_class":"4","area":851317118699,"sort_rank":23,"source":"openstreetmap.org","min_zoom":4.0,"tier":2,"id":-9173183},"arcs":[[[17]],[[18]],[[19]]]}]}},"type":"Topology","transform":{"translate":[90.0,79.1713346408],"scale":[0.0054931641,0.0008557008]},"arcs":[[[0,2366],[0,1730],[4096,0],[0,-4096],[-1769,0],[1,6],[18,91],[10,20],[20,13],[8,19],[-10,38],[-46,71],[-70,48],[-22,-4],[-10,-20],[-9,-46],[0,-71],[13,-66],[-22,-4],[-23,13],[-16,56],[-16,68],[-12,2],[-21,-12],[-10,-13],[-6,-44],[-3,-68],[-42,-25],[-21,-33],[-6,-39],[-315,0],[-21,65],[-50,77],[11,15],[12,1],[40,-37],[27,2],[26,55],[8,72],[-3,91],[3,34],[5,27],[4,61],[2,71],[4,29],[6,19],[14,81],[27,45],[-21,84],[-24,57],[-16,26],[-35,25],[-11,34],[-19,18],[-14,36],[-78,33],[-49,8],[-12,-10],[-11,-40],[5,-65],[-26,-81],[-15,-12],[-38,32],[-35,-57],[-27,-83],[-13,-24],[-11,16],[6,89],[25,53],[8,70],[18,56],[21,22],[-21,84],[-42,74],[-16,12],[-85,-18],[-128,-57],[-25,7],[-21,-15],[-56,15],[-65,-5],[-20,-39],[-9,-35],[-11,-14],[-53,78],[-7,-9],[-24,-64],[-18,-27],[-68,-81],[-16,-132],[-40,-86],[-35,-63],[-80,-82],[-61,-159],[37,-44],[37,6],[51,-14],[84,-57],[17,-111],[31,-104],[25,-30],[1,-25],[-842,0],[0,2268],[223,-56],[62,90],[-16,50],[-67,18],[-189,17],[-13,-21]],[[939,2454],[-18,-97],[-40,-57],[-41,-29],[-43,-8],[-43,-21],[-46,-37],[-46,-23],[-25,1],[-26,-9],[-53,-50],[-23,-74],[-32,-38],[-10,-24],[-18,-73],[-3,-34],[33,-14],[89,26],[-51,-103],[-28,-99],[-46,-99],[-60,-40],[-64,-26],[-38,-69],[-30,-70],[21,-103],[46,-24],[37,-31],[20,-51],[146,-90],[118,-108],[40,0],[83,77],[43,59],[18,-4],[54,32],[163,31],[240,75],[23,37],[21,59],[-23,23],[-7,24],[-25,156],[-7,27],[-9,18],[16,92],[20,45],[80,30],[15,24],[20,-1],[3,76],[-7,41],[-24,34],[-52,17],[-120,136],[-12,42],[-23,42],[-7,53],[-10,28],[-52,99],[-20,10],[-17,22],[-15,58],[-18,23],[-117,-11]],[[1810,584],[-5,-81],[40,15],[30,65],[-29,16],[-13,20],[-21,-12],[-2,-23]],[[195,947],[10,-90],[46,-81],[55,-52],[86,-124],[52,-11],[45,12],[44,22],[41,39],[42,54],[40,38],[36,103],[-58,43],[-162,64],[-76,58],[-77,8],[-59,-4],[-36,-22],[-29,-57]],[[472,964],[-76,58],[-77,8],[-59,-4],[-36,-22],[-29,-57],[10,-90],[46,-81],[55,-52],[86,-124],[52,-11],[45,12],[44,22],[41,39],[42,54],[40,38],[36,103],[-58,43],[-162,64]],[[1433,1860],[-7,41],[-24,34],[-52,17],[-120,136],[-12,42],[-23,42],[-7,53],[-10,28],[-52,99],[-20,10],[-17,22],[-15,58],[-18,23],[-117,-11],[-18,-97],[-40,-57],[-41,-29],[-43,-8],[-43,-21],[-46,-37],[-46,-23],[-25,1],[-26,-9],[-53,-50],[-23,-74],[-32,-38],[-10,-24],[-18,-73],[-3,-34],[33,-14],[89,26],[-51,-103],[-28,-99],[-46,-99],[-60,-40],[-64,-26],[-38,-69],[-30,-70],[21,-103],[46,-24],[37,-31],[20,-51],[146,-90],[118,-108],[40,0],[83,77],[43,59],[18,-4],[54,32],[163,31],[240,75],[23,37],[21,59],[-23,23],[-7,24],[-25,156],[-7,27],[-9,18],[16,92],[20,45],[80,30],[15,24],[20,-1],[3,76]],[[1717,0],[-21,65],[-50,77],[11,15],[12,1],[40,-37],[27,2],[26,55],[8,72],[-3,91],[3,34],[5,27],[4,61],[2,71],[4,29],[6,19],[14,81],[27,45],[-21,84],[-24,57],[-16,26],[-35,25],[-11,34],[-19,18],[-14,36],[-78,33],[-49,8],[-12,-10],[-11,-40],[5,-65],[-26,-81],[-15,-12],[-38,32],[-35,-57],[-27,-83],[-13,-24],[-11,16],[6,89],[25,53],[8,70],[18,56],[21,22],[-21,84],[-42,74],[-16,12],[-85,-18],[-128,-57],[-25,7],[-21,-15],[-56,15],[-65,-5],[-20,-39],[-9,-35],[-11,-14],[-53,78],[-7,-9],[-24,-64],[-18,-27],[-68,-81],[-16,-132],[-40,-86],[-35,-63],[-80,-82],[-61,-159],[37,-44],[37,6],[51,-14],[84,-57],[17,-111],[31,-104],[25,-30],[1,-25]],[[2327,0],[1,6],[18,91],[10,20],[20,13],[8,19],[-10,38],[-46,71],[-70,48],[-22,-4],[-10,-20],[-9,-46],[0,-71],[13,-66],[-22,-4],[-23,13],[-16,56],[-16,68],[-12,2],[-21,-12],[-10,-13],[-6,-44],[-3,-68],[-42,-25],[-21,-33],[-6,-39]],[[269,2352],[-67,18],[-189,17],[-13,-21]],[[0,2268],[223,-56],[62,90],[-16,50]],[[1833,619],[-21,-12],[-2,-23],[-5,-81],[40,15],[30,65],[-29,16],[-13,20]],[[2327,0],[-295,0],[6,39],[21,33],[42,25],[3,68],[6,44],[10,13],[21,12],[12,-2],[16,-68],[16,-56],[23,-13],[22,4],[-13,66],[0,71],[9,46],[10,20],[22,4],[70,-48],[46,-71],[10,-38],[-8,-19],[-20,-13],[-10,-20],[-18,-91],[-1,-6]],[[489,601],[-45,-12],[-52,11],[-86,124],[-55,52],[-46,81],[-10,90],[29,57],[36,22],[59,4],[77,-8],[76,-58],[162,-64],[58,-43],[-36,-103],[-40,-38],[-42,-54],[-41,-39],[-44,-22]],[[1845,518],[-40,-15],[5,81],[2,23],[21,12],[13,-20],[29,-16],[-30,-65]],[[0,2268],[0,98],[13,21],[189,-17],[67,-18],[16,-50],[-62,-90],[-223,56]],[[1717,0],[-875,0],[-1,25],[-25,30],[-31,104],[-17,111],[-84,57],[-51,14],[-37,-6],[-37,44],[61,159],[80,82],[35,63],[40,86],[16,132],[68,81],[18,27],[24,64],[7,9],[53,-78],[11,14],[9,35],[20,39],[65,5],[56,-15],[21,15],[25,-7],[128,57],[85,18],[16,-12],[42,-74],[21,-84],[-21,-22],[-18,-56],[-8,-70],[-25,-53],[-6,-89],[11,-16],[13,24],[27,83],[35,57],[38,-32],[15,12],[26,81],[-5,65],[11,40],[12,10],[49,-8],[78,-33],[14,-36],[19,-18],[11,-34],[35,-25],[16,-26],[24,-57],[21,-84],[-27,-45],[-14,-81],[-6,-19],[-4,-29],[-2,-71],[-4,-61],[-5,-27],[-3,-34],[3,-91],[-8,-72],[-26,-55],[-27,-2],[-40,37],[-12,-1],[-11,-15],[50,-77],[21,-65]],[[1188,2225],[7,-53],[23,-42],[12,-42],[120,-136],[52,-17],[24,-34],[7,-41],[-3,-76],[-20,1],[-15,-24],[-80,-30],[-20,-45],[-16,-92],[9,-18],[7,-27],[25,-156],[7,-24],[23,-23],[-21,-59],[-23,-37],[-240,-75],[-163,-31],[-54,-32],[-18,4],[-43,-59],[-83,-77],[-40,0],[-118,108],[-146,90],[-20,51],[-37,31],[-46,24],[-21,103],[30,70],[38,69],[64,26],[60,40],[46,99],[28,99],[51,103],[-89,-26],[-33,14],[3,34],[18,73],[10,24],[32,38],[23,74],[53,50],[26,9],[25,-1],[46,23],[46,37],[43,21],[43,8],[41,29],[40,57],[18,97],[117,11],[18,-23],[15,-58],[17,-22],[20,-10],[52,-99],[10,-28]],[[2529,0],[-342,0],[-4,29],[34,87],[83,17],[44,111],[32,-90],[26,7],[128,-159],[-1,-2]],[[1171,569],[120,410],[170,108],[117,-22],[-35,-96],[12,-74],[-122,-440],[29,-170],[76,-61],[-47,-34],[-33,-88],[-88,91],[-38,-10],[-135,273],[-26,113]],[[522,447],[31,20],[55,-31],[69,92],[64,165],[131,-47],[54,-72],[46,-154],[-272,-117],[-103,21],[-21,25],[18,23],[-72,75]]]}