{"objects":{"water":{"type":"GeometryCollection","geometries":[{"type":"Polygon","properties":{"source":"naturalearthdata.com","kind":"ocean","area":990044000000000,"sort_rank":200,"min_zoom":0,"id":1},"arcs":[[0],[1],[2],[3],[4],[5],[6]]},{"type":"LineString","properties":{"source":"naturalearthdata.com","kind":"ocean","sort_rank":205,"boundary":true,"min_zoom":0,"id":213},"arcs":[7]},{"type":"LineString","properties":{"source":"naturalearthdata.com","kind":"ocean","sort_rank":205,"boundary":true,"min_zoom":0,"id":215},"arcs":[8]},{"type":"LineString","properties":{"source":"naturalearthdata.com","kind":"ocean","sort_rank":205,"boundary":true,"min_zoom":0,"id":220},"arcs":[9]},{"type":"LineString","properties":{"source":"naturalearthdata.com","kind":"ocean","sort_rank":205,"boundary":true,"min_zoom":0,"id":223},"arcs":[10]},{"type":"LineString","properties":{"source":"naturalearthdata.com","kind":"ocean","sort_rank":205,"boundary":true,"min_zoom":0,"id":224},"arcs":[11]},{"type":"LineString","properties":{"source":"naturalearthdata.com","kind":"ocean","sort_rank":205,"boundary":true,"min_zoom":0,"id":225},"arcs":[12]},{"type":"MultiLineString","properties":{"source":"naturalearthdata.com","kind":"ocean","sort_rank":205,"boundary":true,"min_zoom":0,"id":1386},"arcs":[[13],[14],[15],[16],[17],[18]]}]},"buildings":{"type":"GeometryCollection","geometries":[]},"places":{"type":"GeometryCollection","geometries":[]},"transit":{"type":"GeometryCollection","geometries":[]},"pois":{"type":"GeometryCollection","geometries":[]},"boundaries":{"type":"GeometryCollection","geometries":[]},"roads":{"type":"GeometryCollection","geometries":[]},"earth":{"type":"GeometryCollection","geometries":[{"type":"MultiPolygon","properties":{"sort_rank":10,"source":"naturalearthdata.com","kind":"earth","min_zoom":2.0,"area":199684559020},"arcs":[[[19]]]},{"type":"MultiPolygon","properties":{"sort_rank":10,"source":"naturalearthdata.com","kind":"earth","min_zoom":4.0,"area":6407785552},"arcs":[[[20]]]},{"type":"MultiPolygon","properties":{"sort_rank":10,"source":"naturalearthdata.com","min_zoom":3.0,"kind":"earth","area":87663321458},"arcs":[[[21]],[[22]],[[23]],[[24]]]},{"type":"MultiPolygon","properties":{"sort_rank":10,"source":"naturalearthdata.com","min_zoom":0,"kind":"earth","area":198841645716179},"arcs":[[[25]],[[26]],[[27]],[[28]],[[29]],[[30]]]}]},"landuse":{"type":"GeometryCollection","geometries":[]}},"type":"Topology","transform":{"translate":[90.0,-66.5132604431],"scale":[0.0054931641,0.0026212616]},"arcs":[[[4096,252],[-67,-18],[-124,-23],[-99,-44],[-58,-90],[6,-77],[-591,0],[-37,16],[-143,23],[-252,94],[-61,11],[-69,37],[-61,19],[-34,0],[-23,-4],[-86,32],[-90,19],[-51,-25],[-40,-9],[-127,1],[-17,-8],[-11,-18],[1,-31],[-80,-98],[-54,-25],[-69,-19],[-37,-15],[-271,0],[-11,6],[-37,11],[-32,-17],[-169,0],[-9,5],[-16,-5],[-376,0],[-20,5],[-13,-5],[-486,0],[-5,2],[-9,-2],[-368,0],[0,4096],[4096,0],[0,-3844]],[[2328,487],[48,-19],[11,-10],[2,-10],[3,-37],[7,-7],[29,-5],[11,8],[-3,8],[-22,18],[-14,18],[0,9],[1,27],[-10,18],[-44,23],[-18,-3],[-6,-12],[5,-26]],[[2017,424],[-36,9],[-50,-7],[-11,-5],[-25,-21],[-16,-21],[-9,-32],[4,-18],[10,-8],[30,-1],[6,-10],[79,9],[47,43],[4,14],[-7,21],[-26,27]],[[425,269],[25,-5],[24,5],[12,13],[-1,5],[-6,12],[-25,10],[-35,-1],[-10,-13],[3,-8],[13,-18]],[[1148,125],[16,-15],[98,9],[15,14],[1,10],[-3,16],[-13,15],[-37,-1],[-21,9],[-21,-4],[-18,-13],[-17,-40]],[[1835,118],[10,-10],[24,5],[3,14],[1,26],[-21,-7],[-18,-22],[1,-6]],[[1576,23],[17,-11],[17,5],[19,18],[-36,20],[-28,-5],[2,-7],[9,-20]],[[1895,400],[-16,-21],[-9,-32],[4,-18],[10,-8],[30,-1],[6,-10],[79,9],[47,43],[4,14],[-7,21],[-26,27],[-36,9],[-50,-7],[-11,-5],[-25,-21]],[[419,308],[-10,-13],[3,-8],[13,-18],[25,-5],[24,5],[12,13],[-1,5],[-6,12],[-25,10],[-35,-1]],[[1225,173],[-21,9],[-21,-4],[-18,-13],[-17,-40],[16,-15],[98,9],[15,14],[1,10],[-3,16],[-13,15],[-37,-1]],[[1852,146],[-18,-22],[1,-6],[10,-10],[24,5],[3,14],[1,26],[-21,-7]],[[1576,23],[17,-11],[17,5],[19,18],[-36,20],[-28,-5],[2,-7],[9,-20]],[[2400,451],[0,9],[1,27],[-10,18],[-44,23],[-18,-3],[-6,-12],[5,-26],[48,-19],[11,-10],[2,-10],[3,-37],[7,-7],[29,-5],[11,8],[-3,8],[-22,18],[-14,18]],[[368,0],[9,2],[5,-2]],[[868,0],[13,5],[20,-5]],[[1277,0],[16,5],[9,-5]],[[1471,0],[32,17],[37,-11],[11,-6]],[[1822,0],[37,15],[69,19],[54,25],[80,98],[-1,31],[11,18],[17,8],[127,-1],[40,9],[51,25],[90,-19],[86,-32],[23,4],[34,0],[61,-19],[69,-37],[61,-11],[252,-94],[143,-23],[37,-16]],[[3754,0],[-6,77],[58,90],[99,44],[124,23],[67,18]],[[1999,319],[-79,-9],[-6,10],[-30,1],[-10,8],[-4,18],[9,32],[16,21],[25,21],[11,5],[50,7],[36,-9],[26,-27],[7,-21],[-4,-14],[-47,-43]],[[1869,113],[-24,-5],[-10,10],[-1,6],[18,22],[21,7],[-1,-26],[-3,-14]],[[1204,182],[21,-9],[37,1],[13,-15],[3,-16],[-1,-10],[-15,-14],[-98,-9],[-16,15],[17,40],[18,13],[21,4]],[[1610,17],[-17,-5],[-17,11],[-9,20],[-2,7],[28,5],[36,-20],[-19,-18]],[[474,269],[-24,-5],[-25,5],[-13,18],[-3,8],[10,13],[35,1],[25,-10],[6,-12],[1,-5],[-12,-13]],[[2439,407],[-11,-8],[-29,5],[-7,7],[-3,37],[-2,10],[-11,10],[-48,19],[-5,26],[6,12],[18,3],[44,-23],[10,-18],[-1,-27],[0,-9],[14,-18],[22,-18],[3,-8]],[[4096,252],[0,-252],[-342,0],[-6,77],[58,90],[99,44],[124,23],[67,18]],[[382,0],[-14,0],[9,2],[5,-2]],[[901,0],[-33,0],[13,5],[20,-5]],[[1302,0],[-25,0],[16,5],[9,-5]],[[1551,0],[-80,0],[32,17],[37,-11],[11,-6]],[[3163,0],[-1341,0],[37,15],[69,19],[54,25],[80,98],[-1,31],[11,18],[17,8],[127,-1],[40,9],[51,25],[90,-19],[86,-32],[23,4],[34,0],[61,-19],[69,-37],[61,-11],[252,-94],[143,-23],[37,-16]]]}