{"objects":{"water":{"type":"GeometryCollection","geometries":[{"type":"Polygon","properties":{"name:pt":null,"collision_rank":400,"name:nl":"Tajmyrmeer","name:id":null,"name:hi":null,"name:tr":null,"name:ar":null,"min_zoom":4.0,"name:it":"lago Tajmyr","name:vi":null,"name:ru":"\u0422\u0430\u0439\u043c\u044b\u0440","name:sv":null,"name:pl":"Tajmyr","name:hu":null,"id":139,"name:ja":"\u30bf\u30a4\u30df\u30eb\u6e56","name:el":null,"kind":"lake","name:en":"Lake Taymyr","name":"Lake Taymyr","area":69763900000,"sort_rank":204,"name:bn":null,"name:de":"Taimyrsee","name:ko":null,"name:fr":"lac Ta\u00efmyr","source":"naturalearthdata.com","wikidata_id":"Q845868","name:zh":"\u6cf0\u6885\u723e\u6e56","name:es":"Lago Taimir"},"arcs":[[0]]},{"type":"MultiPolygon","properties":{"source":"naturalearthdata.com","kind":"ocean","area":990044000000000,"sort_rank":200,"min_zoom":0,"id":1},"arcs":[[[1]],[[2]]]},{"type":"MultiLineString","properties":{"source":"naturalearthdata.com","min_zoom":4.0,"area":69763900000,"sort_rank":367,"boundary":true,"id":139,"kind":"lake"},"arcs":[[3],[4]]},{"type":"MultiLineString","properties":{"source":"naturalearthdata.com","kind":"ocean","sort_rank":205,"boundary":true,"min_zoom":0,"id":1388},"arcs":[[5],[6]]}]},"buildings":{"type":"GeometryCollection","geometries":[]},"places":{"type":"GeometryCollection","geometries":[]},"transit":{"type":"GeometryCollection","geometries":[]},"pois":{"type":"GeometryCollection","geometries":[]},"boundaries":{"type":"GeometryCollection","geometries":[]},"roads":{"type":"GeometryCollection","geometries":[]},"earth":{"type":"GeometryCollection","geometries":[{"type":"MultiPolygon","properties":{"sort_rank":10,"source":"naturalearthdata.com","min_zoom":0,"kind":"earth","area":158482837729342},"arcs":[[[7]]]}]},"landuse":{"type":"GeometryCollection","geometries":[{"type":"MultiPolygon","properties":{"kind":"nature_reserve","protect_class":"1","area":3380599052966,"sort_rank":23,"source":"openstreetmap.org","min_zoom":4.0,"tier":2,"id":-9349959},"arcs":[[[8]],[[9]]]}]}},"type":"Topology","transform":{"translate":[90.0,66.5132604431],"scale":[0.0054931641,0.0018325886]},"arcs":[[[2007,4009],[-14,18],[14,24],[14,30],[-2,15],[68,0],[12,-36],[4,-41],[-4,-20],[-17,-2],[-11,3],[-46,3],[-18,6]],[[3917,4096],[179,0],[0,-163],[-18,-5],[-46,-1],[-63,19],[-73,45],[-19,32],[-13,45],[43,20],[10,8]],[[3466,4096],[377,0],[-10,-44],[-25,5],[-120,38],[-32,-13],[-39,-35],[-17,-26],[-20,-45],[8,-30],[8,-12],[61,-8],[55,10],[60,29],[14,-11],[13,-16],[-17,-22],[-63,-33],[-104,-86],[-40,-10],[-56,19],[-30,-48],[-14,-12],[-93,-32],[-41,-5],[-12,-24],[-25,-5],[-27,-12],[-46,-34],[-69,-5],[-47,7],[-115,-20],[-30,-18],[-19,-25],[-9,-32],[-17,-29],[-65,-61],[-56,-26],[-47,-7],[45,35],[52,64],[93,191],[89,12],[21,25],[68,116],[19,18],[90,2],[79,37],[153,178]],[[2007,4009],[-14,18],[14,24],[14,30],[-2,15]],[[2087,4096],[12,-36],[4,-41],[-4,-20],[-17,-2],[-11,3],[-46,3],[-18,6]],[[4096,3933],[-18,-5],[-46,-1],[-63,19],[-73,45],[-19,32],[-13,45],[43,20],[10,8]],[[3843,4096],[-10,-44],[-25,5],[-120,38],[-32,-13],[-39,-35],[-17,-26],[-20,-45],[8,-30],[8,-12],[61,-8],[55,10],[60,29],[14,-11],[13,-16],[-17,-22],[-63,-33],[-104,-86],[-40,-10],[-56,19],[-30,-48],[-14,-12],[-93,-32],[-41,-5],[-12,-24],[-25,-5],[-27,-12],[-46,-34],[-69,-5],[-47,7],[-115,-20],[-30,-18],[-19,-25],[-9,-32],[-17,-29],[-65,-61],[-56,-26],[-47,-7],[45,35],[52,64],[93,191],[89,12],[21,25],[68,116],[19,18],[90,2],[79,37],[153,178]],[[4096,3933],[0,-3933],[-4096,0],[0,4096],[3466,0],[-153,-178],[-79,-37],[-90,-2],[-19,-18],[-68,-116],[-21,-25],[-89,-12],[-93,-191],[-52,-64],[-45,-35],[47,7],[56,26],[65,61],[17,29],[9,32],[19,25],[30,18],[115,20],[47,-7],[69,5],[46,34],[27,12],[25,5],[12,24],[41,5],[93,32],[14,12],[30,48],[56,-19],[40,10],[104,86],[63,33],[17,22],[-13,16],[-14,11],[-60,-29],[-55,-10],[-61,8],[-8,12],[-8,30],[20,45],[17,26],[39,35],[32,13],[120,-38],[25,-5],[10,44],[74,0],[-10,-8],[-43,-20],[13,-45],[19,-32],[73,-45],[63,-19],[46,1],[18,5]],[[1394,4096],[660,0],[3,-3],[-58,-63],[1,-31],[-38,-18],[6,-37],[-139,-16],[24,-67],[-62,-1],[-12,24],[-57,-4],[-30,19],[-91,-38],[-58,9],[-32,-34],[33,-40],[0,-26],[-23,-4],[36,-12],[-4,-40],[27,3],[3,-21],[-33,-27],[-107,29],[-47,-27],[1,50],[-63,-10],[-50,20],[-14,-155],[-70,-8],[-37,18],[-29,-30],[-17,76],[0,1],[-23,-19],[-7,31],[-31,4],[26,13],[-11,39],[30,39],[-10,92],[34,41],[92,25],[4,37],[71,51],[10,55],[84,9],[8,46]],[[323,1327],[1,77],[25,19],[-13,31],[40,51],[30,1],[-11,33],[115,104],[48,160],[51,38],[148,-43],[55,15],[-6,-102],[94,-126],[47,-151],[146,-114],[10,14],[14,-33],[67,-21],[22,-125],[-24,-46],[-44,-19],[-147,17],[7,-22],[-77,-34],[-25,-48],[-61,-7],[-57,36],[-45,-23],[-162,46],[35,123],[-72,-4],[-174,53],[8,83],[-32,-8],[-13,25]]]}