{"objects":{"water":{"type":"GeometryCollection","geometries":[{"type":"Polygon","properties":{"source":"naturalearthdata.com","kind":"ocean","area":990044000000000,"sort_rank":200,"min_zoom":0,"id":1},"arcs":[[0]]}]},"buildings":{"type":"GeometryCollection","geometries":[]},"places":{"type":"GeometryCollection","geometries":[]},"transit":{"type":"GeometryCollection","geometries":[]},"pois":{"type":"GeometryCollection","geometries":[]},"boundaries":{"type":"GeometryCollection","geometries":[]},"roads":{"type":"GeometryCollection","geometries":[]},"earth":{"type":"GeometryCollection","geometries":[]},"landuse":{"type":"GeometryCollection","geometries":[{"type":"MultiPolygon","properties":{"kind":"nature_reserve","protect_class":"6","area":1534127873995,"sort_rank":23,"operator":"Parks Australia","source":"openstreetmap.org","min_zoom":4.0,"tier":2,"id":-8426743},"arcs":[[[1]],[[2]]]},{"type":"MultiPolygon","properties":{"kind":"nature_reserve","protect_class":"4","area":2451986384914,"sort_rank":23,"operator":"Parks Australia","source":"openstreetmap.org","min_zoom":4.0,"tier":2,"id":-8448061},"arcs":[[[3]],[[4]],[[5]],[[6]]]},{"type":"MultiPolygon","properties":{"kind":"nature_reserve","protect_class":"2","area":757356017581,"sort_rank":23,"operator":"Parks Australia","source":"openstreetmap.org","min_zoom":4.0,"tier":2,"id":-8601871},"arcs":[[[7]],[[8]]]}]}},"type":"Topology","transform":{"translate":[90.0,-40.9798980696],"scale":[0.0054931641,0.0046476691]},"arcs":[[[4096,0],[-4096,0],[0,4096],[4096,0],[0,-4096]],[[4096,1609],[0,-735],[-139,138],[-113,237],[-29,276],[5,84],[276,0]],[[4096,2771],[0,-150],[-485,0],[6,230],[-85,221],[-9,70],[-12,38],[7,0],[-17,121],[52,288],[161,0],[0,-409],[127,-409],[255,0]],[[4096,1244],[0,-373],[-146,150],[0,223],[146,0]],[[3664,4096],[432,0],[0,-155],[-452,0],[20,155]],[[3750,3653],[0,147],[146,0],[0,-147],[-146,0]],[[3501,3301],[52,288],[161,0],[0,-409],[-204,0],[-9,121]],[[4096,2668],[0,-47],[-27,0],[27,47]],[[3815,1525],[5,84],[130,0],[0,-588],[-108,234],[-27,270]]]}