{"objects":{"water":{"type":"GeometryCollection","geometries":[{"type":"Polygon","properties":{"source":"naturalearthdata.com","kind":"ocean","area":989871000000000,"sort_rank":200,"min_zoom":0,"id":1},"arcs":[[0]]}]},"buildings":{"type":"GeometryCollection","geometries":[]},"places":{"type":"GeometryCollection","geometries":[]},"transit":{"type":"GeometryCollection","geometries":[]},"pois":{"type":"GeometryCollection","geometries":[]},"boundaries":{"type":"GeometryCollection","geometries":[]},"roads":{"type":"GeometryCollection","geometries":[]},"earth":{"type":"GeometryCollection","geometries":[]},"landuse":{"type":"GeometryCollection","geometries":[{"type":"MultiPolygon","properties":{"source":"openstreetmap.org","kind":"protected_area","area":1505296014243,"tier":2,"min_zoom":4.0,"id":-6063105,"sort_rank":17},"arcs":[[[1]]]},{"type":"MultiPolygon","properties":{"kind":"nature_reserve","protect_class":"4","area":1505285525851,"sort_rank":23,"source":"openstreetmap.org","min_zoom":4.0,"tier":2,"id":-3411897},"arcs":[[[2]]]},{"type":"MultiPolygon","properties":{"kind":"protected_area","protect_class":"4","area":1870422308431,"sort_rank":17,"source":"openstreetmap.org","min_zoom":4.0,"tier":2,"id":-9299402},"arcs":[[[3]],[[4]]]}]}},"type":"Topology","transform":{"translate":[45.0,-55.7765730187],"scale":[0.002746582,0.0016733579]},"arcs":[[[4096,0],[-4096,0],[0,4096],[4096,0],[0,-4096]],[[1646,4096],[1398,0],[233,-404],[-165,-56],[-376,-66],[-916,28],[-174,498]],[[1646,4096],[1398,0],[233,-404],[-165,-56],[-376,-66],[-916,28],[-174,498]],[[3044,4096],[821,0],[-41,-47],[-250,-199],[-297,-158],[-233,404]],[[787,4096],[859,0],[174,-497],[-327,66],[-315,132],[-287,194],[-104,105]]]}