{"objects":{"water":{"type":"GeometryCollection","geometries":[{"type":"Polygon","properties":{"source":"naturalearthdata.com","kind":"ocean","area":989871000000000,"sort_rank":200,"min_zoom":0,"id":1},"arcs":[[0]]},{"type":"LineString","properties":{"source":"naturalearthdata.com","kind":"ocean","sort_rank":205,"boundary":true,"min_zoom":0,"id":1},"arcs":[1]}]},"buildings":{"type":"GeometryCollection","geometries":[]},"places":{"type":"GeometryCollection","geometries":[]},"transit":{"type":"GeometryCollection","geometries":[]},"pois":{"type":"GeometryCollection","geometries":[]},"boundaries":{"type":"GeometryCollection","geometries":[]},"roads":{"type":"GeometryCollection","geometries":[]},"earth":{"type":"GeometryCollection","geometries":[{"type":"MultiPolygon","properties":{"sort_rank":10,"source":"naturalearthdata.com","min_zoom":0,"kind":"earth","area":10988269200426},"arcs":[[[2]]]}]},"landuse":{"type":"GeometryCollection","geometries":[]}},"type":"Topology","transform":{"translate":[45.0,-66.5132604431],"scale":[0.002746582,0.0011979649]},"arcs":[[[4096,117],[-3,4],[-6,16],[-2,14],[-3,10],[-9,3],[-8,-1],[-7,2],[-7,5],[-7,8],[-19,36],[-7,8],[-32,19],[-12,13],[-16,23],[-10,27],[6,24],[-6,3],[-19,-2],[-8,3],[-7,6],[-50,67],[-156,81],[-172,23],[-171,23],[-83,-12],[-21,5],[-61,33],[-20,-1],[-122,-47],[-44,2],[-157,-52],[-114,-4],[-114,-5],[-163,-54],[-58,-47],[-49,-22],[-28,-35],[-7,-17],[-5,-18],[-6,-15],[-11,-5],[-41,12],[-11,-2],[-9,-5],[-19,-17],[-18,-11],[-94,-20],[-94,-20],[-41,-29],[-37,-46],[-30,-68],[-2,-13],[-2,-19],[-1904,0],[0,4096],[4096,0],[0,-3979]],[[4096,117],[-3,4],[-6,16],[-2,14],[-3,10],[-9,3],[-8,-1],[-7,2],[-7,5],[-7,8],[-19,36],[-7,8],[-32,19],[-12,13],[-16,23],[-10,27],[6,24],[-6,3],[-19,-2],[-8,3],[-7,6],[-50,67],[-156,81],[-172,23],[-171,23],[-83,-12],[-21,5],[-61,33],[-20,-1],[-122,-47],[-44,2],[-157,-52],[-114,-4],[-114,-5],[-163,-54],[-58,-47],[-49,-22],[-28,-35],[-7,-17],[-5,-18],[-6,-15],[-11,-5],[-41,12],[-11,-2],[-9,-5],[-19,-17],[-18,-11],[-94,-20],[-94,-20],[-41,-29],[-37,-46],[-30,-68],[-2,-13],[-2,-19]],[[4096,117],[0,-117],[-2046,0],[-146,0],[2,19],[2,13],[30,68],[37,46],[41,29],[34,7],[60,13],[94,20],[18,11],[19,17],[9,5],[11,2],[41,-12],[11,5],[6,15],[5,18],[7,17],[28,35],[49,22],[58,47],[163,54],[114,5],[114,4],[157,52],[44,-2],[122,47],[20,1],[61,-33],[21,-5],[83,12],[171,-23],[172,-23],[156,-81],[50,-67],[7,-6],[8,-3],[19,2],[6,-3],[-6,-24],[10,-27],[16,-23],[12,-13],[32,-19],[7,-8],[19,-36],[7,-8],[7,-5],[7,-2],[8,1],[9,-3],[3,-10],[2,-14],[6,-16],[3,-4]]]}