{"objects":{"water":{"type":"GeometryCollection","geometries":[{"type":"MultiPolygon","properties":{"source":"naturalearthdata.com","kind":"ocean","area":989871000000000,"sort_rank":200,"min_zoom":0,"id":1},"arcs":[[[0]],[[1]],[[2]],[[3],[4],[5]]]},{"type":"MultiLineString","properties":{"source":"naturalearthdata.com","kind":"ocean","sort_rank":205,"boundary":true,"min_zoom":0,"id":1},"arcs":[[6],[7],[8],[9]]},{"type":"LineString","properties":{"source":"naturalearthdata.com","kind":"ocean","sort_rank":205,"boundary":true,"min_zoom":0,"id":3072},"arcs":[10]},{"type":"LineString","properties":{"source":"naturalearthdata.com","kind":"ocean","sort_rank":205,"boundary":true,"min_zoom":0,"id":3076},"arcs":[11]}]},"buildings":{"type":"GeometryCollection","geometries":[]},"places":{"type":"GeometryCollection","geometries":[]},"transit":{"type":"GeometryCollection","geometries":[]},"pois":{"type":"GeometryCollection","geometries":[]},"boundaries":{"type":"GeometryCollection","geometries":[]},"roads":{"type":"GeometryCollection","geometries":[]},"earth":{"type":"GeometryCollection","geometries":[{"type":"Polygon","properties":{"sort_rank":10,"source":"naturalearthdata.com","min_zoom":0,"kind":"earth","area":92616631212867},"arcs":[[12]]},{"type":"MultiPolygon","properties":{"sort_rank":10,"source":"naturalearthdata.com","min_zoom":3.0,"kind":"earth","area":25285855466},"arcs":[[[13]]]},{"type":"MultiPolygon","properties":{"sort_rank":10,"source":"naturalearthdata.com","kind":"earth","min_zoom":5.0,"area":3734460224},"arcs":[[[14]]]}]},"landuse":{"type":"GeometryCollection","geometries":[]}},"type":"Topology","transform":{"translate":[45.0,-70.612614238],"scale":[0.002746582,0.0010008188]},"arcs":[[[4096,3542],[0,-237],[-15,-32],[-6,-21],[-5,-23],[-3,-28],[-13,13],[-6,9],[-5,13],[-4,16],[-2,10],[20,118],[4,34],[-154,-68],[11,56],[34,37],[129,88],[15,15]],[[4096,3678],[0,-31],[-35,11],[15,18],[20,2]],[[4096,3997],[0,-92],[-9,4],[-6,-1],[-14,-10],[-4,8],[-3,13],[-6,11],[-5,2],[-12,1],[-27,15],[19,15],[8,13],[0,22],[-6,11],[-29,15],[12,10],[12,1],[30,-9],[13,2],[6,-2],[6,-4],[14,-25],[1,0]],[[0,4096],[1904,0],[-1,-9],[-2,-13],[-8,-23],[-2,-12],[-1,-16],[2,-25],[7,-49],[2,-26],[7,-57],[17,-26],[22,-6],[39,3],[5,-3],[12,-15],[3,-2],[10,6],[18,19],[10,5],[22,4],[12,-2],[10,-7],[4,0],[7,12],[4,1],[20,-20],[-17,-35],[-8,-12],[-67,-29],[-4,-8],[-7,-25],[-3,-4],[-4,-1],[-6,-4],[-7,-9],[-17,-39],[-7,-22],[9,-16],[26,-16],[-11,-6],[-4,-7],[-1,-13],[1,-16],[-1,-13],[-2,-10],[-5,-9],[35,15],[10,-2],[7,-4],[12,-2],[7,-3],[14,-17],[53,-15],[21,-19],[11,-5],[10,7],[-4,-19],[1,-13],[5,-11],[7,-11],[-30,6],[-16,-2],[-13,-14],[23,-38],[-19,1],[-6,4],[-17,23],[-6,5],[-24,6],[-12,-1],[-11,-7],[8,-23],[19,-15],[10,-15],[-22,-6],[-7,2],[-6,5],[-8,15],[-6,5],[-42,22],[-25,24],[-37,9],[-36,41],[-14,6],[-6,-1],[-7,-3],[-6,-8],[-7,-28],[-5,-5],[-20,1],[-5,-2],[-5,-5],[-5,-8],[-5,-12],[-8,-29],[-4,-11],[-13,-10],[-29,-5],[-10,-14],[-9,-20],[-13,-11],[-13,-3],[-11,10],[42,60],[5,9],[13,44],[15,32],[8,27],[-4,29],[-10,24],[-11,16],[-12,10],[-111,5],[-64,-23],[-13,3],[-4,8],[-9,25],[-5,8],[-6,2],[-18,-1],[33,28],[35,18],[-5,15],[1,37],[-3,19],[-15,41],[-6,12],[-20,12],[-19,-20],[-19,-29],[-19,-17],[-172,-53],[-82,-79],[-7,-20],[-1,-28],[2,-31],[3,-26],[6,-21],[9,-16],[20,-23],[10,-6],[20,-5],[19,-16],[21,-10],[33,-2],[114,69],[8,1],[8,-6],[9,-15],[-10,-22],[62,20],[34,-9],[20,-40],[-11,-3],[-11,4],[-12,-1],[-8,-15],[4,-9],[9,-34],[1,-8],[-26,-10],[-9,-7],[-5,-8],[-5,-11],[-3,-13],[4,-11],[-3,-8],[-7,-11],[-2,-9],[-19,5],[-10,-1],[-10,-4],[-21,-17],[-139,-58],[-8,-9],[-9,-14],[-5,-20],[0,-23],[8,-42],[2,-30],[2,-11],[8,-19],[6,-18],[3,-7],[18,-22],[8,-15],[2,-21],[-2,-26],[-4,-22],[-21,-90],[-13,-38],[-15,-32],[-18,-30],[-33,-39],[-7,-16],[-5,-16],[-6,-11],[-40,-2],[-9,5],[-7,15],[-5,42],[-7,11],[3,4],[5,11],[3,4],[-9,24],[-11,21],[80,130],[7,4],[7,1],[5,6],[4,17],[-27,1],[-26,11],[-51,60],[-13,6],[-81,3],[-13,-6],[-83,-92],[-32,-21],[-2,-5],[-1,-6],[-2,-5],[-16,-8],[-7,-1],[-45,20],[-13,11],[-6,19],[96,33],[14,18],[9,32],[-134,10],[-6,-5],[-10,-16],[-19,-23],[-14,-11],[-14,0],[-12,20],[13,1],[12,4],[24,21],[-36,2],[7,28],[9,14],[10,4],[13,-3],[11,3],[14,11],[12,16],[8,18],[-35,20],[-37,2],[-55,-36],[-17,-2],[3,19],[6,10],[7,7],[2,7],[-3,16],[-5,8],[-14,9],[103,43],[17,-5],[5,2],[6,7],[11,19],[6,6],[42,25],[-50,39],[-102,17],[-12,6],[-10,14],[-3,20],[10,24],[-16,16],[-9,6],[-8,2],[-9,-3],[-18,-11],[-19,3],[-29,-13],[-9,1],[-28,13],[-38,0],[-20,-8],[-17,-13],[-36,-38],[-6,-14],[-4,-25],[-2,-27],[4,-16],[-9,-33],[29,-25],[-15,-30],[4,-9],[2,-10],[2,-26],[1,-7],[4,-3],[16,-10],[87,-10],[12,-11],[-4,-22],[-20,-6],[-48,3],[-7,-4],[-5,-13],[-3,-27],[2,-20],[4,-18],[12,-32],[-12,-16],[-11,2],[-23,28],[-6,11],[-17,40],[-10,11],[-134,-4],[-11,-8],[-29,-43],[4,-11],[8,-39],[-11,-3],[-10,-19],[-9,-23],[-11,-14],[-28,-7],[-14,7],[-10,19],[8,7],[7,11],[6,16],[4,19],[-10,16],[-10,10],[-11,6],[-17,4],[-18,14],[-5,-1],[-10,-15],[-6,-4],[-35,0],[-12,-6],[-20,-20],[-11,-6],[-10,3],[-24,12],[-14,1],[0,1217]],[[1047,3046],[-4,6],[-1,0],[-6,2],[-4,-2],[-23,-24],[-13,-8],[-14,-3],[-74,20],[9,5],[14,12],[13,15],[6,17],[-18,3],[-15,-6],[-12,-14],[-9,-18],[-18,-63],[21,-15],[23,-5],[94,22],[48,34],[-3,0],[-14,22]],[[1374,3889],[-18,17],[-127,4],[-14,-8],[-12,-14],[-6,-15],[-2,-15],[0,-16],[11,-42],[32,1],[71,31],[61,-6],[17,16],[-13,47]],[[4096,3305],[-15,-32],[-6,-21],[-5,-23],[-3,-28],[-13,13],[-6,9],[-5,13],[-4,16],[-2,10],[20,118],[4,34],[-154,-68],[11,56],[34,37],[129,88],[15,15]],[[4096,3647],[-35,11],[15,18],[20,2]],[[4096,3905],[-9,4],[-6,-1],[-14,-10],[-4,8],[-3,13],[-6,11],[-5,2],[-12,1],[-27,15],[19,15],[8,13],[0,22],[-6,11],[-29,15],[12,10],[12,1],[30,-9],[13,2],[6,-2],[6,-4],[14,-25],[1,0]],[[1904,4096],[-1,-9],[-2,-13],[-8,-23],[-2,-12],[-1,-16],[2,-25],[7,-49],[2,-26],[7,-57],[17,-26],[22,-6],[39,3],[5,-3],[12,-15],[3,-2],[10,6],[18,19],[10,5],[22,4],[12,-2],[10,-7],[4,0],[7,12],[4,1],[20,-20],[-17,-35],[-8,-12],[-67,-29],[-4,-8],[-7,-25],[-3,-4],[-4,-1],[-6,-4],[-7,-9],[-17,-39],[-7,-22],[9,-16],[26,-16],[-11,-6],[-4,-7],[-1,-13],[1,-16],[-1,-13],[-2,-10],[-5,-9],[35,15],[10,-2],[7,-4],[12,-2],[7,-3],[14,-17],[53,-15],[21,-19],[11,-5],[10,7],[-4,-19],[1,-13],[5,-11],[7,-11],[-30,6],[-16,-2],[-13,-14],[23,-38],[-19,1],[-6,4],[-17,23],[-6,5],[-24,6],[-12,-1],[-11,-7],[8,-23],[19,-15],[10,-15],[-22,-6],[-7,2],[-6,5],[-8,15],[-6,5],[-42,22],[-25,24],[-37,9],[-36,41],[-14,6],[-6,-1],[-7,-3],[-6,-8],[-7,-28],[-5,-5],[-20,1],[-5,-2],[-5,-5],[-5,-8],[-5,-12],[-8,-29],[-4,-11],[-13,-10],[-29,-5],[-10,-14],[-9,-20],[-13,-11],[-13,-3],[-11,10],[42,60],[5,9],[13,44],[15,32],[8,27],[-4,29],[-10,24],[-11,16],[-12,10],[-111,5],[-64,-23],[-13,3],[-4,8],[-9,25],[-5,8],[-6,2],[-18,-1],[33,28],[35,18],[-5,15],[1,37],[-3,19],[-15,41],[-6,12],[-20,12],[-19,-20],[-19,-29],[-19,-17],[-172,-53],[-82,-79],[-7,-20],[-1,-28],[2,-31],[3,-26],[6,-21],[9,-16],[20,-23],[10,-6],[20,-5],[19,-16],[21,-10],[33,-2],[114,69],[8,1],[8,-6],[9,-15],[-10,-22],[62,20],[34,-9],[20,-40],[-11,-3],[-11,4],[-12,-1],[-8,-15],[4,-9],[9,-34],[1,-8],[-26,-10],[-9,-7],[-5,-8],[-5,-11],[-3,-13],[4,-11],[-3,-8],[-7,-11],[-2,-9],[-19,5],[-10,-1],[-10,-4],[-21,-17],[-139,-58],[-8,-9],[-9,-14],[-5,-20],[0,-23],[8,-42],[2,-30],[2,-11],[8,-19],[6,-18],[3,-7],[18,-22],[8,-15],[2,-21],[-2,-26],[-4,-22],[-21,-90],[-13,-38],[-15,-32],[-18,-30],[-33,-39],[-7,-16],[-5,-16],[-6,-11],[-40,-2],[-9,5],[-7,15],[-5,42],[-7,11],[3,4],[5,11],[3,4],[-9,24],[-11,21],[80,130],[7,4],[7,1],[5,6],[4,17],[-27,1],[-26,11],[-51,60],[-13,6],[-81,3],[-13,-6],[-83,-92],[-32,-21],[-2,-5],[-1,-6],[-2,-5],[-16,-8],[-7,-1],[-45,20],[-13,11],[-6,19],[96,33],[14,18],[9,32],[-134,10],[-6,-5],[-10,-16],[-19,-23],[-14,-11],[-14,0],[-12,20],[13,1],[12,4],[24,21],[-36,2],[7,28],[9,14],[10,4],[13,-3],[11,3],[14,11],[12,16],[8,18],[-35,20],[-37,2],[-55,-36],[-17,-2],[3,19],[6,10],[7,7],[2,7],[-3,16],[-5,8],[-14,9],[103,43],[17,-5],[5,2],[6,7],[11,19],[6,6],[42,25],[-50,39],[-102,17],[-12,6],[-10,14],[-3,20],[10,24],[-16,16],[-9,6],[-8,2],[-9,-3],[-18,-11],[-19,3],[-29,-13],[-9,1],[-28,13],[-38,0],[-20,-8],[-17,-13],[-36,-38],[-6,-14],[-4,-25],[-2,-27],[4,-16],[-9,-33],[29,-25],[-15,-30],[4,-9],[2,-10],[2,-26],[1,-7],[4,-3],[16,-10],[87,-10],[12,-11],[-4,-22],[-20,-6],[-48,3],[-7,-4],[-5,-13],[-3,-27],[2,-20],[4,-18],[12,-32],[-12,-16],[-11,2],[-23,28],[-6,11],[-17,40],[-10,11],[-134,-4],[-11,-8],[-29,-43],[4,-11],[8,-39],[-11,-3],[-10,-19],[-9,-23],[-11,-14],[-28,-7],[-14,7],[-10,19],[8,7],[7,11],[6,16],[4,19],[-10,16],[-10,10],[-11,6],[-17,4],[-18,14],[-5,-1],[-10,-15],[-6,-4],[-35,0],[-12,-6],[-20,-20],[-11,-6],[-10,3],[-24,12],[-14,1]],[[1047,3046],[-4,6],[-1,0],[-6,2],[-4,-2],[-23,-24],[-13,-8],[-14,-3],[-74,20],[9,5],[14,12],[13,15],[6,17],[-18,3],[-15,-6],[-12,-14],[-9,-18],[-18,-63],[21,-15],[23,-5],[94,22],[48,34],[-3,0],[-14,22]],[[1374,3889],[-18,17],[-127,4],[-14,-8],[-12,-14],[-6,-15],[-2,-15],[0,-16],[11,-42],[32,1],[71,31],[61,-6],[17,16],[-13,47]],[[0,2879],[14,-1],[24,-12],[10,-3],[11,6],[20,20],[12,6],[35,0],[6,4],[10,15],[5,1],[18,-14],[17,-4],[11,-6],[10,-10],[10,-16],[-4,-19],[-6,-16],[-7,-11],[-8,-7],[10,-19],[14,-7],[28,7],[11,14],[9,23],[10,19],[11,3],[-8,39],[-4,11],[29,43],[11,8],[134,4],[10,-11],[17,-40],[6,-11],[23,-28],[11,-2],[12,16],[-12,32],[-4,18],[-2,20],[3,27],[5,13],[7,4],[48,-3],[20,6],[4,22],[-12,11],[-87,10],[-16,10],[-4,3],[-1,7],[-2,26],[-2,10],[-4,9],[15,30],[-29,25],[9,33],[-4,16],[2,27],[4,25],[6,14],[36,38],[17,13],[20,8],[38,0],[28,-13],[9,-1],[29,13],[19,-3],[18,11],[9,3],[8,-2],[9,-6],[16,-16],[-10,-24],[3,-20],[10,-14],[12,-6],[102,-17],[50,-39],[-42,-25],[-6,-6],[-11,-19],[-6,-7],[-5,-2],[-17,5],[-103,-43],[14,-9],[5,-8],[3,-16],[-2,-7],[-7,-7],[-6,-10],[-3,-19],[17,2],[55,36],[37,-2],[35,-20],[-8,-18],[-12,-16],[-14,-11],[-11,-3],[-13,3],[-10,-4],[-9,-14],[-7,-28],[36,-2],[-24,-21],[-12,-4],[-13,-1],[12,-20],[14,0],[14,11],[19,23],[10,16],[6,5],[134,-10],[-9,-32],[-14,-18],[-96,-33],[6,-19],[13,-11],[45,-20],[7,1],[16,8],[2,5],[1,6],[2,5],[32,21],[83,92],[13,6],[81,-3],[13,-6],[51,-60],[26,-11],[27,-1],[-4,-17],[-5,-6],[-7,-1],[-7,-4],[-80,-130],[11,-21],[9,-24],[-3,-4],[-5,-11],[-3,-4],[7,-11],[5,-42],[7,-15],[9,-5],[40,2],[6,11],[5,16],[7,16],[33,39],[18,30],[15,32],[13,38],[21,90],[4,22],[2,26],[-2,21],[-8,15],[-18,22],[-3,7],[-6,18],[-8,19],[-2,11],[-2,30],[-8,42],[0,23],[5,20],[9,14],[8,9],[139,58],[21,17],[10,4],[10,1],[19,-5],[2,9],[7,11],[3,8],[-4,11],[3,13],[5,11],[5,8],[9,7],[26,10],[-1,8],[-9,34],[-4,9],[8,15],[12,1],[11,-4],[11,3],[-20,40],[-34,9],[-62,-20],[10,22],[-9,15],[-8,6],[-8,-1],[-114,-69],[-33,2],[-21,10],[-19,16],[-20,5],[-10,6],[-20,23],[-9,16],[-6,21],[-3,26],[-2,31],[1,28],[7,20],[82,79],[172,53],[19,17],[19,29],[19,20],[20,-12],[6,-12],[15,-41],[3,-19],[-1,-37],[5,-15],[-35,-18],[-33,-28],[18,1],[6,-2],[5,-8],[9,-25],[4,-8],[13,-3],[64,23],[111,-5],[12,-10],[11,-16],[10,-24],[4,-29],[-8,-27],[-15,-32],[-13,-44],[-5,-9],[-42,-60],[11,-10],[13,3],[13,11],[9,20],[10,14],[29,5],[13,10],[4,11],[8,29],[5,12],[5,8],[5,5],[5,2],[20,-1],[5,5],[7,28],[6,8],[7,3],[6,1],[14,-6],[36,-41],[37,-9],[25,-24],[42,-22],[6,-5],[8,-15],[2,-1],[4,-4],[7,-2],[22,6],[-10,15],[-19,15],[-4,11],[-4,12],[4,3],[7,4],[12,1],[24,-6],[6,-5],[17,-23],[6,-4],[19,-1],[-23,38],[13,14],[16,2],[30,-6],[-7,11],[-5,11],[-1,13],[4,19],[-10,-7],[-11,5],[-21,19],[-53,15],[-14,17],[-7,3],[-2,0],[-10,2],[-7,4],[-10,2],[-35,-15],[5,9],[2,10],[1,13],[-1,16],[1,13],[4,7],[11,6],[-26,16],[-9,16],[7,22],[17,39],[7,9],[6,4],[4,1],[3,4],[7,25],[4,8],[19,8],[48,21],[8,12],[17,35],[-20,20],[-4,-1],[-7,-12],[-4,0],[-10,7],[-12,2],[-16,-3],[-6,-1],[-10,-5],[-18,-19],[-10,-6],[-3,2],[-12,15],[-5,3],[-39,-3],[-22,6],[-17,26],[-7,57],[-2,26],[-7,49],[-2,25],[1,16],[2,12],[8,23],[2,13],[1,9],[146,0],[2046,0],[0,-99],[-1,0],[-14,25],[-6,4],[-6,2],[-13,-2],[-30,9],[-12,-1],[-12,-10],[29,-15],[6,-11],[0,-22],[-8,-13],[-19,-15],[27,-15],[12,-1],[5,-2],[6,-11],[3,-13],[4,-8],[14,10],[6,1],[9,-4],[0,-227],[-20,-2],[-15,-18],[35,-11],[0,-105],[-15,-15],[-129,-88],[-34,-37],[-11,-56],[154,68],[-4,-34],[-20,-118],[2,-10],[4,-16],[5,-13],[6,-9],[13,-13],[3,28],[5,23],[6,21],[15,32],[0,-3305],[-4096,0],[0,2879]],[[1374,3889],[13,-47],[-17,-16],[-61,6],[-71,-31],[-32,-1],[-11,42],[0,16],[2,15],[6,15],[12,14],[14,8],[127,-4],[18,-17]],[[1047,3046],[14,-22],[3,0],[-48,-34],[-94,-22],[-23,5],[-21,15],[18,63],[9,18],[12,14],[15,6],[18,-3],[-6,-17],[-13,-15],[-14,-12],[-9,-5],[74,-20],[14,3],[13,8],[23,24],[4,2],[6,-2],[1,0],[4,-6]]]}