{"objects":{"water":{"type":"GeometryCollection","geometries":[{"type":"MultiPolygon","properties":{"source":"naturalearthdata.com","kind":"ocean","area":989871000000000,"sort_rank":200,"min_zoom":0,"id":1},"arcs":[[[0],[1],[2],[3],[4],[5],[6],[7],[8],[9],[10],[11]],[[12]]]},{"type":"LineString","properties":{"source":"naturalearthdata.com","kind":"ocean","sort_rank":205,"boundary":true,"min_zoom":0,"id":1987},"arcs":[13]},{"type":"LineString","properties":{"source":"naturalearthdata.com","kind":"ocean","sort_rank":205,"boundary":true,"min_zoom":0,"id":1990},"arcs":[14]},{"type":"MultiLineString","properties":{"source":"naturalearthdata.com","kind":"ocean","sort_rank":205,"boundary":true,"min_zoom":0,"id":2000},"arcs":[[15],[16]]},{"type":"MultiLineString","properties":{"source":"naturalearthdata.com","kind":"ocean","sort_rank":205,"boundary":true,"min_zoom":0,"id":2001},"arcs":[[17],[18]]},{"type":"LineString","properties":{"source":"naturalearthdata.com","kind":"ocean","sort_rank":205,"boundary":true,"min_zoom":0,"id":2004},"arcs":[19]},{"type":"LineString","properties":{"source":"naturalearthdata.com","kind":"ocean","sort_rank":205,"boundary":true,"min_zoom":0,"id":2005},"arcs":[20]},{"type":"LineString","properties":{"source":"naturalearthdata.com","kind":"ocean","sort_rank":205,"boundary":true,"min_zoom":0,"id":2008},"arcs":[21]},{"type":"MultiLineString","properties":{"source":"naturalearthdata.com","kind":"ocean","sort_rank":205,"boundary":true,"min_zoom":0,"id":2009},"arcs":[[22],[23],[24]]},{"type":"MultiLineString","properties":{"source":"naturalearthdata.com","kind":"ocean","sort_rank":205,"boundary":true,"min_zoom":0,"id":2010},"arcs":[[25],[26]]},{"type":"MultiLineString","properties":{"source":"naturalearthdata.com","kind":"ocean","sort_rank":205,"boundary":true,"min_zoom":0,"id":3006},"arcs":[[27],[28]]},{"type":"LineString","properties":{"source":"naturalearthdata.com","kind":"ocean","sort_rank":205,"boundary":true,"min_zoom":0,"id":3007},"arcs":[29]},{"type":"LineString","properties":{"source":"naturalearthdata.com","kind":"ocean","sort_rank":205,"boundary":true,"min_zoom":0,"id":3009},"arcs":[30]},{"type":"LineString","properties":{"source":"naturalearthdata.com","kind":"ocean","sort_rank":205,"boundary":true,"min_zoom":0,"id":3508},"arcs":[31]},{"type":"LineString","properties":{"source":"naturalearthdata.com","kind":"ocean","sort_rank":205,"boundary":true,"min_zoom":0,"id":3509},"arcs":[32]},{"type":"LineString","properties":{"source":"naturalearthdata.com","kind":"ocean","sort_rank":205,"boundary":true,"min_zoom":0,"id":3510},"arcs":[33]},{"type":"LineString","properties":{"source":"naturalearthdata.com","kind":"ocean","sort_rank":205,"boundary":true,"min_zoom":0,"id":3511},"arcs":[34]},{"type":"LineString","properties":{"source":"naturalearthdata.com","kind":"ocean","sort_rank":205,"boundary":true,"min_zoom":0,"id":3512},"arcs":[35]}]},"buildings":{"type":"GeometryCollection","geometries":[]},"places":{"type":"GeometryCollection","geometries":[]},"transit":{"type":"GeometryCollection","geometries":[]},"pois":{"type":"GeometryCollection","geometries":[]},"boundaries":{"type":"GeometryCollection","geometries":[]},"roads":{"type":"GeometryCollection","geometries":[]},"earth":{"type":"GeometryCollection","geometries":[{"type":"MultiPolygon","properties":{"sort_rank":10,"source":"naturalearthdata.com","kind":"earth","min_zoom":2.0,"area":372226641930},"arcs":[[[36]],[[37]],[[38]],[[39]],[[40]]]},{"type":"MultiPolygon","properties":{"sort_rank":10,"source":"naturalearthdata.com","kind":"earth","min_zoom":4.0,"area":36266068607},"arcs":[[[41]],[[42]],[[43]],[[44]],[[45]]]},{"type":"MultiPolygon","properties":{"sort_rank":10,"source":"naturalearthdata.com","kind":"earth","min_zoom":5.0,"area":29754728941},"arcs":[[[46]]]},{"type":"MultiPolygon","properties":{"sort_rank":10,"source":"naturalearthdata.com","min_zoom":1.0,"kind":"earth","area":300698960507},"arcs":[[[47]],[[48]]]},{"type":"MultiPolygon","properties":{"sort_rank":10,"source":"naturalearthdata.com","min_zoom":3.0,"kind":"earth","area":203468181153},"arcs":[[[49]],[[50]],[[51]],[[52]]]}]},"landuse":{"type":"GeometryCollection","geometries":[{"type":"MultiPolygon","properties":{"kind":"nature_reserve","protect_class":"2","area":5534799985934,"sort_rank":23,"source":"openstreetmap.org","min_zoom":4.0,"tier":2,"id":-7008461},"arcs":[[[53]]]}]}},"type":"Topology","transform":{"translate":[45.0,79.1713346408],"scale":[0.002746582,0.0004692088]},"arcs":[[[4096,1926],[0,-1926],[-4096,0],[0,3046],[99,-24],[38,-34],[19,-33],[6,-15],[10,-40],[6,-17],[10,-9],[39,31],[18,27],[14,8],[14,23],[4,1],[3,-9],[2,-11],[3,-6],[19,3],[58,55],[18,-8],[10,-13],[5,-24],[-3,-21],[-13,-46],[-4,-20],[-3,-57],[3,-50],[8,-36],[12,-17],[144,42],[18,30],[-3,22],[-10,51],[9,22],[10,11],[19,-2],[17,-16],[8,4],[7,26],[-20,57],[13,22],[118,-29],[7,7],[3,13],[5,34],[2,13],[8,25],[19,22],[10,17],[22,24],[72,-73],[12,6],[4,14],[-3,22],[-47,89],[20,76],[26,-6],[28,-26],[23,15],[-8,29],[-22,51],[-5,36],[7,-1],[13,-12],[30,-3],[-5,7],[-9,27],[-6,11],[29,11],[29,32],[12,4],[11,-12],[51,-114],[11,-8],[18,3],[3,-16],[-7,-45],[27,-38],[135,-21],[9,-8],[18,-30],[49,-21],[20,-24],[11,-6],[9,14],[1,17],[0,23],[1,27],[2,23],[-35,39],[-12,5],[-6,39],[-59,61],[16,47],[39,-9],[18,22],[-58,91],[-81,69],[-86,-50],[-63,11],[-120,95],[-145,-31],[-16,-24],[9,-21],[30,-24],[-7,-24],[-25,-22],[-32,-59],[-38,-25],[-174,-7],[-9,-8],[-7,-15],[33,-17],[10,1],[0,-13],[-172,-51],[-173,-51],[-173,-51],[-32,-33],[-2,0],[0,979],[1949,0],[-2,-5],[47,-45],[-5,-23],[-8,-23],[-10,-16],[-8,-9],[-3,-13],[-2,-8],[-1,-8],[13,-21],[15,8],[45,63],[64,-11],[8,6],[4,20],[-2,19],[-10,12],[-2,20],[7,24],[63,7],[4,3],[1318,0],[-9,-20],[-3,-20],[6,-23],[-11,-16],[-13,-3],[-12,-13],[-8,-42],[-2,-10],[-3,-34],[11,-22],[42,-5],[108,13],[2,-5],[3,-12],[2,-16],[1,-18],[18,-32],[24,-25],[76,6],[40,46],[23,-15],[7,-7],[2,-16],[-1,-11],[-9,-41],[62,-76],[69,-12],[8,-7],[2,-16],[0,-21],[4,-21],[9,-15],[158,-48],[6,-2],[0,-114],[-34,-7],[-136,-28],[-8,-12],[0,-29],[-14,-20],[-41,20],[-23,-11],[-17,-20],[-20,-17],[-5,-11],[23,-29],[77,-1],[-9,-26],[-29,-47],[16,-35],[37,2],[17,-17],[16,-22],[150,43],[0,-655],[-44,14],[-51,-31],[-3,-8],[-3,-21],[1,-8],[6,-26],[1,-10],[-2,-26],[-4,-23],[-9,-38],[5,-22],[10,-17],[5,-18],[-2,-11],[-3,-35],[5,-3],[14,-25],[-10,-39],[-112,-167],[17,1],[69,-55],[110,-7]],[[2311,1667],[7,18],[8,11],[-15,21],[-33,13],[-14,25],[-3,13],[-3,21],[-2,24],[1,22],[5,21],[12,16],[7,14],[-65,13],[-12,24],[-9,35],[-10,27],[-14,-2],[-39,-74],[-59,-29],[-15,-19],[-10,-32],[-15,-74],[-11,-14],[-118,14],[-64,-34],[-1,-3],[-2,-6],[167,-42],[167,-41],[166,-41],[17,8],[14,28],[-12,23],[-32,24],[-13,-4]],[[1850,1911],[2,12],[-3,11],[-6,8],[-4,2],[3,14],[3,12],[4,9],[3,8],[-5,16],[19,66],[70,55],[7,29],[-7,31],[-32,64],[-120,17],[-7,-10],[-15,-31],[-101,-89],[-11,-31],[7,-32],[9,-15],[19,-11],[39,-61],[20,-14],[34,-56],[43,-29],[14,6],[15,19]],[[3920,3436],[61,16],[19,27],[-112,62],[-113,62],[-41,61],[-58,26],[-28,-9],[-13,-13],[-12,-22],[-22,-65],[-12,-26],[-13,-7],[-25,18],[7,24],[-3,18],[-8,12],[-7,4],[-115,-43],[-30,27],[-81,-27],[-43,-49],[-1,-26],[3,-29],[8,-14],[97,-17],[96,-18],[17,18],[25,0],[8,-12],[4,-29],[-3,-16],[-4,-15],[-3,-27],[78,-44],[162,67],[162,66]],[[2436,3316],[-76,20],[-11,11],[-21,41],[-22,15],[-10,16],[1,9],[1,22],[-56,-31],[-5,-17],[6,-26],[-21,-15],[-13,6],[-5,31],[-5,20],[-11,6],[-46,-8],[-14,-12],[-18,-55],[-11,-2],[-11,12],[-20,35],[-10,4],[-102,-111],[-12,5],[-8,18],[-7,20],[-7,15],[-10,2],[9,31],[13,18],[72,25],[13,29],[-6,12],[-21,17],[0,13],[80,8],[38,39],[68,-1],[13,12],[10,31],[-45,79],[-16,49],[-8,15],[-11,1],[-37,-50],[-127,-40],[-128,-40],[-10,15],[10,16],[20,9],[19,27],[114,35],[0,15],[-17,17],[-35,4],[-23,23],[-159,-86],[-16,-19],[-29,-66],[-123,-83],[-122,-83],[30,-1],[10,-12],[-14,-23],[-31,-24],[-13,-27],[16,-33],[17,-10],[72,64],[21,4],[14,-25],[-13,-1],[-15,-13],[-14,-29],[-8,-44],[155,79],[20,-21],[-25,-73],[4,2],[3,-1],[4,-6],[4,-9],[-6,-24],[-2,-7],[9,-23],[4,-5],[-14,-28],[-74,32],[-52,-20],[9,-34],[12,-19],[13,-8],[11,2],[-7,-43],[-12,-21],[-31,-11],[-3,-9],[-3,-11],[-3,-9],[-7,-9],[-13,-8],[-6,-10],[5,-17],[15,-24],[-15,-33],[-19,-9],[-64,29],[-9,-3],[-7,-8],[-16,-37],[-16,-22],[-15,3],[-31,34],[-49,-20],[-13,20],[3,18],[6,27],[3,14],[-14,4],[-41,54],[-14,2],[-28,-21],[-38,-55],[-12,-4],[-54,28],[-109,-86],[-109,-85],[-13,-27],[16,-23],[145,71],[54,-18],[48,18],[14,-18],[-11,-32],[-4,-14],[12,-23],[26,-3],[12,-15],[-12,-23],[-106,-12],[-106,-11],[6,-37],[9,-22],[10,-10],[81,-8],[56,-49],[30,-5],[15,-14],[-20,-23],[-59,-10],[16,-26],[-138,15],[-29,-27],[-47,40],[-74,-29],[-19,30],[6,43],[-9,32],[-16,21],[-12,7],[-159,-123],[-12,-40],[15,-45],[84,-80],[6,-19],[-1,-22],[-4,-29],[1,-25],[75,-46],[40,42],[64,-7],[-4,17],[-14,40],[42,56],[54,-4],[28,21],[92,-1],[14,-26],[-10,-22],[-26,-1],[-9,-23],[20,-25],[67,12],[-14,-39],[-93,-30],[-20,-28],[-37,-94],[1,-32],[-11,-30],[0,-21],[8,-14],[13,-5],[129,41],[6,7],[5,15],[0,14],[-2,12],[1,13],[11,28],[15,13],[27,3],[12,-8],[24,-46],[10,-27],[20,-18],[26,19],[24,50],[15,73],[-4,24],[-16,49],[12,35],[20,-14],[54,-93],[86,-15],[5,4],[2,9],[-1,10],[2,7],[7,6],[19,-1],[9,9],[7,36],[-14,22],[-33,29],[5,16],[13,20],[4,23],[-35,68],[-17,19],[-78,11],[-19,17],[10,47],[59,71],[-7,24],[-3,5],[18,51],[118,-26],[119,-26],[119,80],[4,17],[1,16],[-4,12],[-4,8],[-4,2],[0,54],[-14,24],[-19,14],[-12,24],[19,28],[116,9],[15,35],[13,25],[150,11],[151,10],[17,23],[46,117],[19,34],[96,62],[96,63],[11,36],[-2,16],[2,11],[3,8],[1,8],[-3,20],[-5,8],[-11,0]],[[2775,2157],[8,-24],[154,0],[154,-1],[8,17],[3,21],[4,46],[3,21],[9,28],[9,18],[11,9],[9,3],[7,-7],[5,-16],[5,-19],[5,-16],[11,-7],[11,11],[21,39],[12,40],[5,24],[-3,10],[-120,72],[-66,108],[-10,39],[7,43],[-17,21],[-53,8],[-37,-29],[-9,3],[-26,26],[-17,0],[-16,-15],[-33,-53],[-26,-27],[-5,-21],[0,-29],[5,-19],[6,-9],[6,-3],[0,-14],[-9,-11],[-39,-6],[-4,-13],[2,-30],[-9,-12],[-96,7],[-18,-18],[-19,-3],[-8,-15],[45,-113],[18,-30],[90,-20],[7,-34]],[[3203,2774],[161,-112],[18,0],[16,17],[5,17],[4,23],[4,20],[8,8],[7,2],[7,7],[7,13],[6,23],[-2,11],[-1,8],[1,24],[-21,28],[-5,22],[8,38],[-89,11],[-11,17],[13,35],[18,13],[34,-3],[-16,25],[-141,47],[-11,-23],[-4,-56],[6,-41],[31,-33],[11,-21],[-33,-41],[-9,2],[-4,-2],[-3,-10],[6,-49],[-21,-20]],[[3425,2373],[-4,10],[-35,32],[-21,9],[-18,-3],[-22,-28],[-8,-16],[-3,-29],[1,-29],[2,-14],[4,-8],[11,-14],[6,-12],[0,-17],[-5,-17],[-1,-10],[0,-9],[-1,-12],[-3,-12],[-1,-9],[2,-10],[5,-6],[8,0],[4,8],[2,10],[4,6],[40,3],[24,18],[9,23],[0,34],[-3,32],[0,15],[3,3],[6,10],[1,15],[-3,14],[-4,13]],[[3822,2441],[-41,22],[-3,7],[-9,7],[-20,-3],[-82,-67],[-2,-18],[9,-13],[13,-1],[5,-3],[6,-11],[-1,-7],[-39,-21],[-6,-8],[-7,-4],[-11,3],[-6,4],[-10,1],[-3,-10],[2,-7],[2,-6],[1,-10],[-4,-5],[0,-5],[4,-7],[4,-4],[8,-2],[2,1],[6,-1],[17,-31],[11,-9],[58,19],[9,11],[15,29],[45,27],[13,16],[14,22],[3,17],[-1,17],[5,14],[3,14],[-3,15],[-7,7]],[[3636,2649],[-2,-4],[-3,-10],[1,-9],[4,-7],[31,-19],[2,-5],[3,-7],[1,-9],[-1,-10],[16,-5],[34,13],[15,21],[-2,14],[2,13],[2,14],[0,19],[-1,13],[-1,13],[-7,17],[-17,-1],[-31,-35],[-8,-4],[-9,1],[-29,-13]],[[3583,2685],[-9,20],[-6,17],[-22,37],[-5,13],[-7,8],[-29,3],[-10,-12],[-8,-19],[-23,-36],[-8,-25],[-7,-46],[-5,-21],[-9,-16],[-9,-10],[-6,-3],[-1,-5],[3,-5],[46,-20],[90,39],[4,4],[4,11],[4,13],[11,15],[4,9],[2,9],[0,9],[-2,8],[-2,3]],[[3576,2757],[58,-34],[15,20],[9,19],[7,22],[2,14],[-1,4],[1,12],[-1,15],[-5,9],[-62,64],[-64,-15],[-25,-19],[-7,-12],[3,-20],[70,-79]],[[4096,4072],[0,-132],[-84,50],[-161,-77],[-21,2],[-72,89],[-167,73],[-13,19],[462,0],[0,-5],[17,3],[39,-22]],[[2311,1667],[7,18],[8,11],[-15,21],[-33,13],[-14,25],[-3,13],[-3,21],[-2,24],[1,22],[5,21],[12,16],[7,14],[-65,13],[-12,24],[-9,35],[-10,27],[-14,-2],[-39,-74],[-59,-29],[-15,-19],[-10,-32],[-15,-74],[-11,-14],[-118,14],[-64,-34],[-1,-3],[-2,-6],[167,-42],[167,-41],[166,-41],[17,8],[14,28],[-12,23],[-32,24],[-13,-4]],[[1850,1911],[2,12],[-3,11],[-6,8],[-4,2],[3,14],[3,12],[4,9],[3,8],[-5,16],[19,66],[70,55],[7,29],[-7,31],[-32,64],[-120,17],[-7,-10],[-15,-31],[-101,-89],[-11,-31],[7,-32],[9,-15],[19,-11],[39,-61],[20,-14],[34,-56],[43,-29],[14,6],[15,19]],[[3930,3135],[16,-22],[150,43]],[[4096,3423],[-34,-7],[-136,-28],[-8,-12],[0,-29],[-14,-20],[-41,20],[-23,-11],[-17,-20],[-20,-17],[-5,-11],[23,-29],[77,-1],[-9,-26],[-29,-47],[16,-35],[37,2],[17,-17]],[[614,2894],[-20,57],[13,22],[118,-29],[7,7],[3,13],[5,34],[2,13],[8,25],[19,22],[10,17],[22,24],[72,-73],[12,6],[4,14],[-3,22],[-47,89],[20,76],[26,-6],[28,-26],[23,15],[-8,29],[-22,51],[-5,36],[7,-1],[13,-12],[30,-3],[-5,7],[-9,27],[-6,11],[29,11],[29,32],[12,4],[11,-12],[51,-114],[11,-8],[18,3],[3,-16],[-7,-45],[27,-38],[135,-21],[9,-8],[18,-30],[49,-21],[20,-24],[11,-6],[9,14],[1,17],[0,23],[1,27],[2,23],[-35,39],[-12,5],[-6,39],[-59,61],[16,47],[39,-9],[18,22],[-58,91],[-81,69],[-86,-50],[-63,11],[-120,95],[-145,-31],[-16,-24],[9,-21],[30,-24],[-7,-24],[-25,-22],[-32,-59],[-38,-25],[-174,-7],[-9,-8],[-7,-15],[33,-17],[10,1],[0,-13],[-172,-51],[-173,-51],[-173,-51],[-32,-33],[-2,0]],[[0,3046],[99,-24],[38,-34],[19,-33],[6,-15],[10,-40],[6,-17],[10,-9],[39,31],[18,27],[14,8],[14,23],[4,1],[3,-9],[2,-11],[3,-6],[19,3],[58,55],[18,-8],[10,-13],[5,-24],[-3,-21],[-13,-46],[-4,-20],[-3,-57],[3,-50],[8,-36],[12,-17],[144,42],[18,30],[-3,22],[-10,51],[9,22],[10,11],[19,-2],[17,-16],[8,4],[7,26]],[[3920,3436],[61,16],[19,27],[-112,62],[-113,62],[-41,61],[-58,26],[-28,-9],[-13,-13],[-12,-22],[-22,-65],[-12,-26],[-13,-7],[-25,18],[7,24],[-3,18],[-8,12],[-7,4],[-115,-43],[-30,27],[-81,-27],[-43,-49],[-1,-26],[3,-29],[8,-14],[97,-17],[96,-18],[17,18],[25,0],[8,-12],[4,-29],[-3,-16],[-4,-15],[-3,-27],[78,-44],[162,67],[162,66]],[[2436,3316],[-76,20],[-11,11],[-21,41],[-22,15],[-10,16],[1,9],[1,22],[-56,-31],[-5,-17],[6,-26],[-21,-15],[-13,6],[-5,31],[-5,20],[-11,6],[-46,-8],[-14,-12],[-18,-55],[-11,-2],[-11,12],[-20,35],[-10,4],[-102,-111],[-12,5],[-8,18],[-7,20],[-7,15],[-10,2],[9,31],[13,18],[72,25],[13,29],[-6,12],[-21,17],[0,13],[80,8],[38,39],[68,-1],[13,12],[10,31],[-45,79],[-16,49],[-8,15],[-11,1],[-37,-50],[-127,-40],[-128,-40],[-10,15],[10,16],[20,9],[19,27],[114,35],[0,15],[-17,17],[-35,4],[-23,23],[-159,-86],[-16,-19],[-29,-66],[-123,-83],[-122,-83],[30,-1],[10,-12],[-14,-23],[-31,-24],[-13,-27],[16,-33],[17,-10],[72,64],[21,4],[14,-25],[-13,-1],[-15,-13],[-14,-29],[-8,-44],[155,79],[20,-21],[-25,-73],[4,2],[3,-1],[4,-6],[4,-9],[-6,-24],[-2,-7],[9,-23],[4,-5],[-14,-28],[-74,32],[-52,-20],[9,-34],[12,-19],[13,-8],[11,2],[-7,-43],[-12,-21],[-31,-11],[-3,-9],[-3,-11],[-3,-9],[-7,-9],[-13,-8],[-6,-10],[5,-17],[15,-24],[-15,-33],[-19,-9],[-64,29],[-9,-3],[-7,-8],[-16,-37],[-16,-22],[-15,3],[-31,34],[-49,-20],[-13,20],[3,18],[6,27],[3,14],[-14,4],[-41,54],[-14,2],[-28,-21],[-38,-55],[-12,-4],[-54,28],[-109,-86],[-109,-85],[-13,-27],[16,-23],[145,71],[54,-18],[48,18],[14,-18],[-11,-32],[-4,-14],[12,-23],[26,-3],[12,-15],[-12,-23],[-106,-12],[-106,-11],[6,-37],[9,-22],[10,-10],[81,-8],[56,-49],[30,-5],[15,-14],[-20,-23],[-59,-10],[16,-26],[-138,15],[-29,-27],[-47,40],[-74,-29],[-19,30],[6,43],[-9,32],[-16,21],[-12,7],[-159,-123],[-12,-40],[15,-45],[84,-80],[6,-19],[-1,-22],[-4,-29],[1,-25],[75,-46],[40,42],[64,-7],[-4,17],[-14,40],[42,56],[54,-4],[28,21],[92,-1],[14,-26],[-10,-22],[-26,-1],[-9,-23],[20,-25],[67,12],[-14,-39],[-93,-30],[-20,-28],[-37,-94],[1,-32],[-11,-30],[0,-21],[8,-14],[13,-5],[129,41],[6,7],[5,15],[0,14],[-2,12],[1,13],[11,28],[15,13],[27,3],[12,-8],[24,-46],[10,-27],[20,-18],[26,19],[24,50],[15,73],[-4,24],[-16,49],[12,35],[20,-14],[54,-93],[86,-15],[5,4],[2,9],[-1,10],[2,7],[7,6],[19,-1],[9,9],[7,36],[-14,22],[-33,29],[5,16],[13,20],[4,23],[-35,68],[-17,19],[-78,11],[-19,17],[10,47],[59,71],[-7,24],[-3,5],[18,51],[118,-26],[119,-26],[119,80],[4,17],[1,16],[-4,12],[-4,8],[-4,2],[0,54],[-14,24],[-19,14],[-12,24],[19,28],[116,9],[15,35],[13,25],[150,11],[151,10],[17,23],[46,117],[19,34],[96,62],[96,63],[11,36],[-2,16],[2,11],[3,8],[1,8],[-3,20],[-5,8],[-11,0]],[[4040,4096],[0,-5],[17,3],[39,-22]],[[3482,3888],[108,13],[2,-5],[3,-12],[2,-16],[1,-18],[18,-32],[24,-25],[76,6],[40,46],[23,-15],[7,-7],[2,-16],[-1,-11],[-9,-41],[62,-76],[69,-12],[8,-7],[2,-16],[0,-21],[4,-21],[9,-15],[158,-48],[6,-2]],[[4096,3940],[-84,50],[-161,-77],[-21,2],[-72,89],[-167,73],[-13,19]],[[3484,4096],[-9,-20],[-3,-20],[6,-23],[-11,-16],[-13,-3],[-12,-13],[-8,-42],[-2,-10],[-3,-34],[11,-22],[42,-5]],[[1994,4046],[-5,-23],[-8,-23],[-10,-16],[-8,-9],[-3,-13],[-2,-8],[-1,-8],[13,-21],[15,8],[45,63],[64,-11],[8,6],[4,20],[-2,19],[-10,12],[-2,20],[7,24],[63,7],[4,3]],[[1949,4096],[-2,-5],[47,-45]],[[3900,1987],[112,167],[10,39],[-14,25],[-5,3],[3,35],[2,11],[-5,18],[-10,17],[-5,22],[9,38],[4,23],[2,26],[-1,10],[-6,26],[-1,8],[3,21],[3,8],[51,31],[44,-14]],[[4096,1926],[-110,7],[-69,55],[-17,-1]],[[2775,2157],[-7,34],[-90,20],[-18,30],[-45,113],[8,15],[19,3],[18,18],[96,-7],[9,12],[-2,30],[4,13],[39,6],[9,11],[0,14],[-6,3],[-6,9],[-5,19],[0,29],[5,21],[26,27],[33,53],[16,15],[17,0],[26,-26],[9,-3],[37,29],[53,-8],[17,-21],[-7,-43],[10,-39],[66,-108],[120,-72],[3,-10],[-5,-24],[-12,-40],[-21,-39],[-11,-11],[-11,7],[-5,16],[-5,19],[-5,16],[-7,7],[-9,-3],[-11,-9],[-9,-18],[-9,-28],[-3,-21],[-4,-46],[-3,-21],[-8,-17],[-154,1],[-154,0],[-8,24]],[[3203,2774],[21,20],[-6,49],[3,10],[4,2],[9,-2],[33,41],[-11,21],[-31,33],[-6,41],[4,56],[11,23],[141,-47],[16,-25],[-34,3],[-18,-13],[-13,-35],[11,-17],[89,-11],[-8,-38],[5,-22],[21,-28],[-1,-24],[1,-8],[2,-11],[-6,-23],[-7,-13],[-7,-7],[-7,-2],[-8,-8],[-4,-20],[-4,-23],[-5,-17],[-16,-17],[-18,0],[-161,112]],[[3425,2373],[-4,10],[-35,32],[-21,9],[-18,-3],[-22,-28],[-8,-16],[-3,-29],[1,-29],[2,-14],[4,-8],[11,-14],[6,-12],[0,-17],[-5,-17],[-1,-10],[0,-9],[-1,-12],[-3,-12],[-1,-9],[2,-10],[5,-6],[8,0],[4,8],[2,10],[4,6],[40,3],[24,18],[9,23],[0,34],[-3,32],[0,15],[3,3],[6,10],[1,15],[-3,14],[-4,13]],[[3822,2441],[-41,22],[-3,7],[-9,7],[-20,-3],[-82,-67],[-2,-18],[9,-13],[13,-1],[5,-3],[6,-11],[-1,-7],[-39,-21],[-6,-8],[-7,-4],[-11,3],[-6,4],[-10,1],[-3,-10],[2,-7],[2,-6],[1,-10],[-4,-5],[0,-5],[4,-7],[4,-4],[8,-2],[2,1],[6,-1],[17,-31],[11,-9],[58,19],[9,11],[15,29],[45,27],[13,16],[14,22],[3,17],[-1,17],[5,14],[3,14],[-3,15],[-7,7]],[[3636,2649],[-2,-4],[-3,-10],[1,-9],[4,-7],[31,-19],[2,-5],[3,-7],[1,-9],[-1,-10],[16,-5],[34,13],[15,21],[-2,14],[2,13],[2,14],[0,19],[-1,13],[-1,13],[-7,17],[-17,-1],[-31,-35],[-8,-4],[-9,1],[-29,-13]],[[3583,2685],[-9,20],[-6,17],[-22,37],[-5,13],[-7,8],[-29,3],[-10,-12],[-8,-19],[-23,-36],[-8,-25],[-7,-46],[-5,-21],[-9,-16],[-9,-10],[-6,-3],[-1,-5],[3,-5],[46,-20],[90,39],[4,4],[4,11],[4,13],[11,15],[4,9],[2,9],[0,9],[-2,8],[-2,3]],[[3576,2757],[58,-34],[15,20],[9,19],[7,22],[2,14],[-1,4],[1,12],[-1,15],[-5,9],[-62,64],[-64,-15],[-25,-19],[-7,-12],[3,-20],[70,-79]],[[4096,2501],[0,-575],[-110,7],[-69,55],[-17,-1],[112,167],[10,39],[-14,25],[-5,3],[3,35],[2,11],[-5,18],[-10,17],[-5,22],[9,38],[4,23],[2,26],[-1,10],[-6,26],[-1,8],[3,21],[3,8],[51,31],[44,-14]],[[4096,3423],[0,-267],[-150,-43],[-16,22],[-17,17],[-37,-2],[-16,35],[29,47],[9,26],[-77,1],[-23,29],[5,11],[20,17],[17,20],[23,11],[41,-20],[14,20],[0,29],[8,12],[136,28],[34,7]],[[3920,3436],[-162,-66],[-162,-67],[-78,44],[3,27],[4,15],[3,16],[-4,29],[-8,12],[-25,0],[-17,-18],[-96,18],[-97,17],[-8,14],[-3,29],[1,26],[43,49],[81,27],[30,-27],[115,43],[7,-4],[8,-12],[3,-18],[-7,-24],[25,-18],[13,7],[12,26],[22,65],[12,22],[13,13],[28,9],[58,-26],[41,-61],[113,-62],[112,-62],[-19,-27],[-61,-16]],[[4096,3940],[0,-403],[-6,2],[-158,48],[-9,15],[-4,21],[0,21],[-2,16],[-8,7],[-69,12],[-62,76],[9,41],[1,11],[-2,16],[-7,7],[-23,15],[-40,-46],[-76,-6],[-24,25],[-18,32],[-1,18],[-2,16],[-3,12],[-2,5],[-108,-13],[-42,5],[-11,22],[3,34],[2,10],[8,42],[12,13],[13,3],[11,16],[-6,23],[3,20],[9,20],[94,0],[13,-19],[167,-73],[72,-89],[21,-2],[161,77],[84,-50]],[[4040,4096],[56,0],[0,-24],[-39,22],[-17,-3],[0,5]],[[1949,4096],[217,0],[-4,-3],[-63,-7],[-7,-24],[2,-20],[10,-12],[2,-19],[-4,-20],[-8,-6],[-64,11],[-45,-63],[-15,-8],[-13,21],[1,8],[2,8],[3,13],[8,9],[10,16],[8,23],[5,23],[-47,45],[2,5]],[[3583,2685],[2,-3],[2,-8],[0,-9],[-2,-9],[-4,-9],[-11,-15],[-4,-13],[-4,-11],[-4,-4],[-90,-39],[-46,20],[-3,5],[1,5],[6,3],[9,10],[9,16],[5,21],[7,46],[8,25],[23,36],[8,19],[10,12],[29,-3],[7,-8],[5,-13],[22,-37],[6,-17],[9,-20]],[[3576,2757],[-70,79],[-3,20],[7,12],[25,19],[64,15],[62,-64],[5,-9],[1,-15],[-1,-12],[1,-4],[-2,-14],[-7,-22],[-9,-19],[-15,-20],[-58,34]],[[3425,2373],[4,-13],[3,-14],[-1,-15],[-6,-10],[-3,-3],[0,-15],[3,-32],[0,-34],[-9,-23],[-24,-18],[-40,-3],[-4,-6],[-2,-10],[-4,-8],[-8,0],[-5,6],[-2,10],[1,9],[3,12],[1,12],[0,9],[1,10],[5,17],[0,17],[-6,12],[-11,14],[-4,8],[-2,14],[-1,29],[3,29],[8,16],[22,28],[18,3],[21,-9],[35,-32],[4,-10]],[[3822,2441],[7,-7],[3,-15],[-3,-14],[-5,-14],[1,-17],[-3,-17],[-14,-22],[-13,-16],[-45,-27],[-15,-29],[-9,-11],[-58,-19],[-11,9],[-17,31],[-6,1],[-2,-1],[-8,2],[-4,4],[-4,7],[0,5],[4,5],[-1,10],[-2,6],[-2,7],[3,10],[10,-1],[6,-4],[11,-3],[7,4],[6,8],[39,21],[1,7],[-6,11],[-5,3],[-13,1],[-9,13],[2,18],[82,67],[20,3],[9,-7],[3,-7],[41,-22]],[[3636,2649],[29,13],[9,-1],[8,4],[31,35],[17,1],[7,-17],[1,-13],[1,-13],[0,-19],[-2,-14],[-2,-13],[2,-14],[-15,-21],[-34,-13],[-16,5],[1,10],[-1,9],[-3,7],[-2,5],[-31,19],[-4,7],[-1,9],[3,10],[2,4]],[[2436,3316],[11,0],[5,-8],[3,-20],[-1,-8],[-3,-8],[-2,-11],[2,-16],[-11,-36],[-96,-63],[-96,-62],[-19,-34],[-46,-117],[-17,-23],[-151,-10],[-150,-11],[-13,-25],[-15,-35],[-116,-9],[-19,-28],[12,-24],[19,-14],[14,-24],[0,-54],[4,-2],[4,-8],[4,-12],[-1,-16],[-4,-17],[-119,-80],[-119,26],[-118,26],[-18,-51],[3,-5],[7,-24],[-59,-71],[-10,-47],[19,-17],[78,-11],[17,-19],[35,-68],[-4,-23],[-13,-20],[-5,-16],[33,-29],[14,-22],[-7,-36],[-9,-9],[-19,1],[-7,-6],[-2,-7],[1,-10],[-2,-9],[-5,-4],[-86,15],[-54,93],[-20,14],[-12,-35],[16,-49],[4,-24],[-15,-73],[-24,-50],[-26,-19],[-20,18],[-10,27],[-24,46],[-12,8],[-27,-3],[-15,-13],[-11,-28],[-1,-13],[2,-12],[0,-14],[-5,-15],[-6,-7],[-129,-41],[-13,5],[-8,14],[0,21],[11,30],[-1,32],[37,94],[20,28],[93,30],[14,39],[-67,-12],[-20,25],[9,23],[26,1],[10,22],[-14,26],[-92,1],[-28,-21],[-54,4],[-42,-56],[14,-40],[4,-17],[-64,7],[-40,-42],[-75,46],[-1,25],[4,29],[1,22],[-6,19],[-84,80],[-15,45],[12,40],[159,123],[12,-7],[16,-21],[9,-32],[-6,-43],[19,-30],[74,29],[47,-40],[29,27],[138,-15],[-16,26],[59,10],[20,23],[-15,14],[-30,5],[-56,49],[-81,8],[-10,10],[-9,22],[-6,37],[106,11],[106,12],[12,23],[-12,15],[-26,3],[-12,23],[4,14],[11,32],[-14,18],[-48,-18],[-54,18],[-145,-71],[-16,23],[13,27],[109,85],[109,86],[54,-28],[12,4],[38,55],[28,21],[14,-2],[41,-54],[14,-4],[-3,-14],[-6,-27],[-3,-18],[13,-20],[49,20],[31,-34],[15,-3],[16,22],[16,37],[7,8],[9,3],[64,-29],[19,9],[15,33],[-15,24],[-5,17],[6,10],[13,8],[7,9],[3,9],[3,11],[3,9],[31,11],[12,21],[7,43],[-11,-2],[-13,8],[-12,19],[-9,34],[52,20],[74,-32],[14,28],[-4,5],[-9,23],[2,7],[6,24],[-4,9],[-4,6],[-3,1],[-4,-2],[25,73],[-20,21],[-155,-79],[8,44],[14,29],[15,13],[13,1],[-14,25],[-21,-4],[-72,-64],[-17,10],[-16,33],[13,27],[31,24],[14,23],[-10,12],[-30,1],[122,83],[123,83],[29,66],[16,19],[159,86],[23,-23],[35,-4],[17,-17],[0,-15],[-114,-35],[-19,-27],[-20,-9],[-10,-16],[10,-15],[128,40],[127,40],[37,50],[11,-1],[8,-15],[16,-49],[45,-79],[-10,-31],[-13,-12],[-68,1],[-38,-39],[-80,-8],[0,-13],[21,-17],[6,-12],[-13,-29],[-72,-25],[-13,-18],[-9,-31],[10,-2],[7,-15],[7,-20],[8,-18],[12,-5],[102,111],[10,-4],[20,-35],[11,-12],[11,2],[18,55],[14,12],[46,8],[11,-6],[5,-20],[5,-31],[13,-6],[21,15],[-6,26],[5,17],[56,31],[-1,-22],[-1,-9],[10,-16],[22,-15],[21,-41],[11,-11],[76,-20]],[[0,3046],[0,71],[2,0],[32,33],[173,51],[173,51],[172,51],[0,13],[-10,-1],[-33,17],[7,15],[9,8],[174,7],[38,25],[32,59],[25,22],[7,24],[-30,24],[-9,21],[16,24],[145,31],[120,-95],[63,-11],[86,50],[81,-69],[58,-91],[-18,-22],[-39,9],[-16,-47],[59,-61],[6,-39],[12,-5],[35,-39],[-2,-23],[-1,-27],[0,-23],[-1,-17],[-9,-14],[-11,6],[-20,24],[-49,21],[-18,30],[-9,8],[-135,21],[-27,38],[7,45],[-3,16],[-18,-3],[-11,8],[-51,114],[-11,12],[-12,-4],[-29,-32],[-29,-11],[6,-11],[9,-27],[5,-7],[-30,3],[-13,12],[-7,1],[5,-36],[22,-51],[8,-29],[-23,-15],[-28,26],[-26,6],[-20,-76],[47,-89],[3,-22],[-4,-14],[-12,-6],[-72,73],[-22,-24],[-10,-17],[-19,-22],[-8,-25],[-2,-13],[-5,-34],[-3,-13],[-7,-7],[-118,29],[-13,-22],[20,-57],[-7,-26],[-8,-4],[-17,16],[-19,2],[-10,-11],[-9,-22],[10,-51],[3,-22],[-18,-30],[-144,-42],[-12,17],[-8,36],[-3,50],[3,57],[4,20],[13,46],[3,21],[-5,24],[-10,13],[-18,8],[-58,-55],[-19,-3],[-3,6],[-2,11],[-3,9],[-4,-1],[-14,-23],[-14,-8],[-18,-27],[-39,-31],[-10,9],[-6,17],[-10,40],[-6,15],[-19,33],[-38,34],[-99,24]],[[2775,2157],[-7,34],[-90,20],[-18,30],[-45,113],[8,15],[19,3],[18,18],[96,-7],[9,12],[-2,30],[4,13],[39,6],[9,11],[0,14],[-6,3],[-6,9],[-5,19],[0,29],[5,21],[26,27],[33,53],[16,15],[17,0],[26,-26],[9,-3],[37,29],[53,-8],[17,-21],[-7,-43],[10,-39],[66,-108],[120,-72],[3,-10],[-5,-24],[-12,-40],[-21,-39],[-11,-11],[-11,7],[-5,16],[-5,19],[-5,16],[-7,7],[-9,-3],[-11,-9],[-9,-18],[-9,-28],[-3,-21],[-4,-46],[-3,-21],[-8,-17],[-154,1],[-154,0],[-8,24]],[[2311,1667],[13,4],[32,-24],[12,-23],[-14,-28],[-17,-8],[-166,41],[-167,41],[-167,42],[2,6],[1,3],[64,34],[118,-14],[11,14],[15,74],[10,32],[15,19],[59,29],[39,74],[14,2],[10,-27],[9,-35],[12,-24],[65,-13],[-7,-14],[-12,-16],[-5,-21],[-1,-22],[2,-24],[3,-21],[3,-13],[14,-25],[33,-13],[15,-21],[-8,-11],[-7,-18]],[[1850,1911],[-15,-19],[-14,-6],[-43,29],[-34,56],[-20,14],[-39,61],[-19,11],[-9,15],[-7,32],[11,31],[101,89],[15,31],[7,10],[120,-17],[32,-64],[7,-31],[-7,-29],[-70,-55],[-19,-66],[5,-16],[-3,-8],[-4,-9],[-3,-12],[-3,-14],[4,-2],[6,-8],[3,-11],[-2,-12]],[[3203,2774],[21,20],[-6,49],[3,10],[4,2],[9,-2],[33,41],[-11,21],[-31,33],[-6,41],[4,56],[11,23],[141,-47],[16,-25],[-34,3],[-18,-13],[-13,-35],[11,-17],[89,-11],[-8,-38],[5,-22],[21,-28],[-1,-24],[1,-8],[2,-11],[-6,-23],[-7,-13],[-7,-7],[-7,-2],[-8,-8],[-4,-20],[-4,-23],[-5,-17],[-16,-17],[-18,0],[-161,112]],[[0,700],[0,3396],[4096,0],[0,-3396],[-4096,0]]]}