{"objects":{"water":{"type":"GeometryCollection","geometries":[]},"buildings":{"type":"GeometryCollection","geometries":[]},"places":{"type":"GeometryCollection","geometries":[{"type":"Point","properties":{"collision_rank":397,"name:sk":"Komijsko","name:ja":"\u30b3\u30df\u5171\u548c\u56fd","name:lt":"Komijos Respublika","max_zoom":10.2,"kind":"region","name:tt":"\u041a\u043e\u043c\u0438 \u0420\u0435\u0441\u043f\u0443\u0431\u043b\u0438\u043a\u0430\u0441\u044b","min_zoom":5,"official_name":"\u0420\u0435\u0441\u043f\u0443\u0431\u043b\u0438\u043a\u0430 \u041a\u043e\u043c\u0438","name:uk":"\u0420\u0435\u0441\u043f\u0443\u0431\u043b\u0456\u043a\u0430 \u041a\u043e\u043c\u0456","name:be":"\u041a\u043e\u043c\u0456","name:ru":"\u041a\u043e\u043c\u0438","name:pl":"Republika Komi","name:hu":"Komif\u00f6ld","name:hr":"Republika Komi","id":559621143,"name":"\u041a\u043e\u043c\u0438","name:eo":"Komiio","name:en":"Komi","population_rank":0,"kind_detail":"state","name:de":"Republik Komi","source":"openstreetmap.org","name:fr":"R\u00e9publique des Komis","wikidata_id":"Q2073","name:es":"Komi"},"coordinates":[3398,1988]}]},"transit":{"type":"GeometryCollection","geometries":[]},"pois":{"type":"GeometryCollection","geometries":[]},"boundaries":{"type":"GeometryCollection","geometries":[{"type":"MultiLineString","properties":{"sort_rank":256,"kind_detail":"4","kind":"region","min_zoom":2.0,"source":"naturalearthdata.com"},"arcs":[[0],[1],[2],[3],[4],[5],[6]]},{"type":"MultiLineString","properties":{"sort_rank":256,"kind_detail":"4","kind":"region","min_zoom":2.0,"source":"naturalearthdata.com"},"arcs":[[7],[8],[9],[10],[11],[12],[13],[14],[15],[16],[17],[18],[19],[20],[21],[22],[23],[24],[25],[26],[27],[28],[29],[30],[31]]},{"type":"LineString","properties":{"sort_rank":256,"kind_detail":"4","kind":"region","min_zoom":2.0,"source":"naturalearthdata.com"},"arcs":[32]}]},"roads":{"type":"GeometryCollection","geometries":[{"type":"LineString","properties":{"source":"naturalearthdata.com","kind":"major_road","sort_rank":379,"kind_detail":"secondary","min_zoom":5.1,"id":11433},"arcs":[33]},{"type":"LineString","properties":{"source":"naturalearthdata.com","kind":"major_road","kind_detail":"secondary","sort_rank":379,"landuse_kind":"urban_area","min_zoom":5.1,"id":11506},"arcs":[34]},{"type":"LineString","properties":{"source":"naturalearthdata.com","kind":"major_road","sort_rank":379,"kind_detail":"secondary","min_zoom":5.1,"id":11506},"arcs":[35]},{"type":"LineString","properties":{"source":"naturalearthdata.com","kind":"major_road","sort_rank":379,"kind_detail":"secondary","min_zoom":5.1,"id":11552},"arcs":[36]}]},"earth":{"type":"GeometryCollection","geometries":[{"type":"MultiPolygon","properties":{"sort_rank":10,"source":"naturalearthdata.com","min_zoom":0,"kind":"earth","area":78050086222359},"arcs":[[[37]]]}]},"landuse":{"type":"GeometryCollection","geometries":[{"type":"MultiPolygon","properties":{"source":"openstreetmap.org","kind":"park","area":738110878988,"tier":2,"min_zoom":4.0,"id":-7558382,"sort_rank":24},"arcs":[[[38]]]},{"type":"MultiPolygon","properties":{"source":"naturalearthdata.com","kind":"urban_area","area":671764153083,"sort_rank":11,"min_zoom":4.0,"id":1145},"arcs":[[[39]],[[40]]]}]}},"type":"Topology","transform":{"translate":[45.0,61.6063963714],"scale":[0.002746582,0.0011979649]},"arcs":[[[270,3724],[-270,126]],[[1459,3767],[-310,9]],[[1149,3776],[-6,-2],[-4,-3],[-3,-4],[-9,-18],[-6,-14],[-3,-4],[-3,-3],[-31,-11],[-5,-4],[-17,-16],[-60,-79],[-6,-14],[-2,-4],[0,-5],[0,-4],[11,-36],[1,-4],[1,-4],[-1,-5],[-1,-5],[-2,-5],[-2,-5],[-2,-4],[-3,-4],[-3,-3],[-8,-4],[-16,-5]],[[784,3514],[-16,4],[-277,173],[-188,50]],[[303,3741],[-5,0],[-28,-17]],[[969,3507],[-93,24]],[[876,3531],[-92,-17]],[[1464,3032],[-8,1],[-3,11],[-1,13],[2,126],[5,584]],[[1935,2426],[7,9],[5,12],[44,212],[-5,7],[-107,39],[-21,18],[-15,18],[-145,304],[-10,16],[-11,13],[-14,3]],[[1663,3077],[-199,-45]],[[1685,2492],[235,-66],[15,0]],[[1620,2385],[8,8],[6,10],[26,69],[6,12],[7,8],[12,0]],[[1438,2408],[182,-23]],[[1385,2288],[13,8],[31,96],[4,10],[5,6]],[[1281,2295],[104,-7]],[[1241,2185],[9,9],[6,13],[18,78],[2,5],[5,5]],[[1134,2289],[6,-11],[1,-13],[-1,-13],[1,-13],[6,-16],[8,-14],[9,-12],[25,-9],[52,-3]],[[482,2219],[105,52],[547,18]],[[335,2239],[147,-20]],[[922,1286],[-37,5],[-17,7],[-7,5],[-20,24],[-13,10],[-14,9],[-53,23],[-12,11],[-1,5],[0,10],[-4,8],[-8,11],[-20,23],[-7,11],[-4,9],[1,5],[1,5],[3,9],[3,14],[1,5],[0,5],[0,4],[-1,5],[-2,9],[0,4],[-1,5],[0,5],[1,6],[1,5],[1,4],[3,9],[14,29],[6,17],[2,4],[0,10],[-2,14],[-6,30],[-9,28],[-4,10],[-49,82],[-6,7],[-139,117],[-119,49],[-57,5],[-25,10],[-37,38],[-69,45],[-9,10],[-46,65],[-5,15],[5,14],[73,44],[66,36],[35,4]],[[944,481],[-42,2],[-23,6],[-4,11],[-2,13],[3,57],[-7,26],[-37,19],[-18,7],[-3,23],[5,174],[0,17],[-1,23],[-5,18],[-21,47],[-31,105],[1,7],[3,4],[40,25],[72,61],[10,11],[3,4],[22,42],[3,4],[4,7],[3,12],[11,58],[1,16],[-1,7]],[[930,1287],[-8,-1]],[[1584,443],[2,0],[2,2],[2,3],[1,5],[87,519],[-267,49]],[[1411,1021],[-59,-12],[-12,-70],[-3,-12],[-6,-8],[-10,-1]],[[1321,918],[-95,19]],[[1226,937],[-8,-8],[-4,-12],[-36,-194],[0,-7],[0,-6],[0,-4],[3,-8],[5,-11],[4,-7],[11,-11],[1,-4],[1,-5],[0,-39],[-1,-13],[-4,-11],[-7,-3],[-17,-1]],[[1174,593],[-172,4]],[[1002,597],[-37,-21],[-5,-71],[-2,-12],[-4,-10],[-10,-2]],[[1556,447],[18,-4],[10,0]],[[1552,415],[3,2],[1,3],[-1,3],[-2,7],[-1,4],[-1,9],[2,3],[3,1]],[[1543,415],[9,0]],[[1614,0],[-6,10],[-20,5],[-96,28],[-17,28],[59,334],[1,4],[2,4],[3,2],[3,0]],[[1459,3767],[538,329]],[[164,64],[-20,10],[-21,21],[-7,7],[-12,34],[-5,11],[-12,10],[-22,38],[-3,7],[-3,31],[3,21],[-2,17],[-10,20],[-21,28],[-6,10],[-8,14],[0,21],[5,38],[-2,17],[-10,31],[-8,12]],[[2113,44],[0,-5]],[[2113,39],[-1,-16],[-11,-17],[-5,-6]],[[164,64],[19,-7],[11,-10],[13,-17],[12,-14],[21,-16]],[[4096,4096],[0,-4096],[-4096,0],[0,4096],[1807,0],[2289,0]],[[132,159],[68,-2],[6,84],[73,-3],[-9,-196],[-45,10],[-93,107]],[[3171,1708],[37,-85],[-33,-9],[-32,20],[28,74]],[[2085,65],[9,53],[-33,42],[32,74],[38,-148],[28,19],[27,-19],[-47,-72],[-54,51]]]}