{"objects":{"water":{"type":"GeometryCollection","geometries":[{"type":"MultiPolygon","properties":{"source":"naturalearthdata.com","kind":"ocean","area":989871000000000,"sort_rank":200,"min_zoom":0,"id":1},"arcs":[[[0]],[[1]],[[2]],[[3]],[[4]],[[5]]]},{"type":"Polygon","properties":{"source":"naturalearthdata.com","kind":"lake","area":15676400000,"sort_rank":204,"min_zoom":4.0,"id":51},"arcs":[[6]]},{"type":"LineString","properties":{"source":"naturalearthdata.com","kind":"lake","area":15676400000,"sort_rank":367,"boundary":true,"min_zoom":4.0,"id":51},"arcs":[7]},{"type":"MultiLineString","properties":{"source":"naturalearthdata.com","kind":"ocean","sort_rank":205,"boundary":true,"min_zoom":0,"id":1015},"arcs":[[8],[9],[10],[11],[12],[13],[14]]}]},"buildings":{"type":"GeometryCollection","geometries":[]},"places":{"type":"GeometryCollection","geometries":[]},"transit":{"type":"GeometryCollection","geometries":[]},"pois":{"type":"GeometryCollection","geometries":[]},"boundaries":{"type":"GeometryCollection","geometries":[]},"roads":{"type":"GeometryCollection","geometries":[]},"earth":{"type":"GeometryCollection","geometries":[{"type":"MultiPolygon","properties":{"sort_rank":10,"source":"naturalearthdata.com","min_zoom":0,"kind":"earth","area":44884805284559},"arcs":[[[15]],[[16]]]}]},"landuse":{"type":"GeometryCollection","geometries":[]}},"type":"Topology","transform":{"translate":[-78.75,81.0932138526],"scale":[0.002746582,0.000386492]},"arcs":[[[4096,853],[0,-195],[-102,-68],[-2,-11],[-155,-85],[-154,-86],[-154,-86],[-155,-85],[-19,-27],[-35,-92],[-142,-85],[8,26],[66,65],[28,52],[29,27],[9,21],[-158,-46],[-52,46],[18,36],[88,-14],[81,61],[44,0],[77,74],[19,4],[-13,25],[-31,0],[-13,26],[17,39],[147,-39],[31,16],[21,28],[23,-7],[30,41],[41,6],[19,24],[-2,0],[49,20],[67,86],[40,16],[37,59],[138,89],[60,39]],[[4096,1307],[0,-95],[-75,-22],[-159,-48],[-159,-48],[-101,70],[0,19],[182,-19],[-12,61],[-157,173],[-157,173],[-20,55],[133,-137],[132,-136],[133,-137],[99,39],[98,39],[63,13]],[[3746,4096],[350,0],[0,-50],[-122,-20],[-142,-24],[-143,-25],[-20,24],[13,36],[55,43],[9,16]],[[798,4096],[214,0],[72,-44],[121,-75],[15,-29],[-23,-47],[-75,-19],[-92,-178],[-92,-178],[-16,-10],[-12,42],[-5,0],[12,66],[14,57],[15,40],[26,27],[31,75],[19,23],[9,19],[9,30],[-25,5],[-74,84],[-42,5],[-17,31],[-13,-3],[-6,11],[-6,16],[-13,22],[-46,28],[0,2]],[[0,4088],[0,8],[74,0],[0,-1],[-74,-7]],[[0,111],[0,26],[6,42],[9,44],[9,32],[33,53],[40,34],[106,206],[116,80],[34,57],[169,126],[168,126],[23,-9],[17,-29],[-5,-20],[-76,-69],[-38,-79],[-45,2],[-62,-94],[-94,-49],[-15,-38],[-64,-57],[-54,-93],[-25,-76],[-37,-68],[-38,-34],[-42,-3],[-24,-21],[-11,-48],[29,-15],[-10,-62],[-17,-46],[-18,-29],[-84,0],[0,52],[5,1],[17,30],[-7,-1],[-6,7],[-9,22]],[[2210,1528],[3,8],[-85,-35],[11,47],[174,85],[175,85],[174,85],[174,85],[174,85],[174,85],[174,85],[175,85],[-3,0],[10,2],[38,-31],[-2,-24],[-9,-24],[-8,-11],[-147,-40],[-19,-31],[-21,-48],[-171,-83],[-172,-84],[-171,-83],[-172,-83],[-171,-83],[-172,-84],[-172,-83],[-11,29],[50,18],[0,16],[-5,0],[5,27]],[[2210,1528],[3,8],[-85,-35],[11,47],[174,85],[175,85],[174,85],[174,85],[174,85],[174,85],[174,85],[175,85],[-3,0],[10,2],[38,-31],[-2,-24],[-9,-24],[-8,-11],[-147,-40],[-19,-31],[-21,-48],[-171,-83],[-172,-84],[-171,-83],[-172,-83],[-171,-83],[-172,-84],[-172,-83],[-11,29],[50,18],[0,16],[-5,0],[5,27]],[[4096,4046],[-122,-20],[-142,-24],[-143,-25],[-20,24],[13,36],[55,43],[9,16]],[[1012,4096],[72,-44],[121,-75],[15,-29],[-23,-47],[-75,-19],[-92,-178],[-92,-178],[-16,-10],[-12,42],[-5,0],[12,66],[14,57],[15,40],[26,27],[31,75],[19,23],[9,19],[9,30],[-25,5],[-74,84],[-42,5],[-17,31],[-13,-3],[-6,11],[-6,16],[-13,22],[-46,28],[0,2]],[[74,4096],[0,-1],[-74,-7]],[[0,52],[5,1],[17,30],[-7,-1],[-6,7],[-9,22]],[[0,137],[6,42],[9,44],[9,32],[33,53],[40,34],[106,206],[116,80],[34,57],[169,126],[168,126],[23,-9],[17,-29],[-5,-20],[-76,-69],[-38,-79],[-45,2],[-62,-94],[-94,-49],[-15,-38],[-64,-57],[-54,-93],[-25,-76],[-37,-68],[-38,-34],[-42,-3],[-24,-21],[-11,-48],[29,-15],[-10,-62],[-17,-46],[-18,-29]],[[4096,658],[-102,-68],[-2,-11],[-155,-85],[-154,-86],[-154,-86],[-155,-85],[-19,-27],[-35,-92],[-142,-85],[8,26],[66,65],[28,52],[29,27],[9,21],[-158,-46],[-52,46],[18,36],[88,-14],[81,61],[44,0],[77,74],[19,4],[-13,25],[-31,0],[-13,26],[17,39],[147,-39],[31,16],[21,28],[23,-7],[30,41],[41,6],[19,24],[-2,0],[49,20],[67,86],[40,16],[37,59],[138,89],[60,39]],[[4096,1212],[-75,-22],[-159,-48],[-159,-48],[-101,70],[0,19],[182,-19],[-12,61],[-157,173],[-157,173],[-20,55],[133,-137],[132,-136],[133,-137],[99,39],[98,39],[63,13]],[[4096,658],[0,-658],[-4012,0],[18,29],[17,46],[10,62],[-29,15],[11,48],[24,21],[42,3],[38,34],[37,68],[25,76],[54,93],[64,57],[15,38],[94,49],[62,94],[45,-2],[38,79],[76,69],[5,20],[-17,29],[-23,9],[-168,-126],[-169,-126],[-34,-57],[-116,-80],[-106,-206],[-40,-34],[-33,-53],[-9,-32],[-9,-44],[-6,-42],[0,3951],[74,7],[0,1],[724,0],[0,-2],[46,-28],[13,-22],[6,-16],[6,-11],[13,3],[17,-31],[42,-5],[74,-84],[25,-5],[-9,-30],[-9,-19],[-19,-23],[-31,-75],[-26,-27],[-15,-40],[-14,-57],[-12,-66],[5,0],[12,-42],[16,10],[92,178],[92,178],[75,19],[23,47],[-15,29],[-121,75],[-72,44],[2734,0],[-9,-16],[-55,-43],[-13,-36],[20,-24],[143,25],[142,24],[122,20],[0,-2739],[-63,-13],[-98,-39],[-99,-39],[-133,137],[-132,136],[-133,137],[20,-55],[157,-173],[157,-173],[12,-61],[-182,19],[0,-19],[101,-70],[159,48],[159,48],[75,22],[0,-359],[-60,-39],[-138,-89],[-37,-59],[-40,-16],[-67,-86],[-49,-20],[2,0],[-19,-24],[-41,-6],[-30,-41],[-23,7],[-21,-28],[-31,-16],[-147,39],[-11,-25],[-6,-14],[6,-12],[7,-14],[31,0],[13,-25],[-19,-4],[-32,-31],[-45,-43],[-44,0],[-81,-61],[-88,14],[-18,-36],[52,-46],[158,46],[-9,-21],[-29,-27],[-28,-52],[-66,-65],[-8,-26],[142,85],[35,92],[19,27],[10,5],[145,80],[154,86],[154,86],[155,85],[2,11],[102,68]],[[0,52],[0,59],[9,-22],[6,-7],[7,1],[-17,-30],[-5,-1]]]}