{"objects":{"water":{"type":"GeometryCollection","geometries":[{"type":"MultiPolygon","properties":{"source":"naturalearthdata.com","kind":"ocean","area":989871000000000,"sort_rank":200,"min_zoom":0,"id":1},"arcs":[[[0]]]},{"type":"MultiLineString","properties":{"source":"naturalearthdata.com","kind":"ocean","sort_rank":205,"boundary":true,"min_zoom":0,"id":2624},"arcs":[[1],[2]]}]},"buildings":{"type":"GeometryCollection","geometries":[]},"places":{"type":"GeometryCollection","geometries":[]},"transit":{"type":"GeometryCollection","geometries":[]},"pois":{"type":"GeometryCollection","geometries":[]},"boundaries":{"type":"GeometryCollection","geometries":[]},"roads":{"type":"GeometryCollection","geometries":[]},"earth":{"type":"GeometryCollection","geometries":[{"type":"MultiPolygon","properties":{"sort_rank":10,"source":"naturalearthdata.com","min_zoom":3.0,"kind":"earth","area":34889604215},"arcs":[[[3]]]}]},"landuse":{"type":"GeometryCollection","geometries":[]}},"type":"Topology","transform":{"translate":[-78.75,-61.6063963714],"scale":[0.002746582,0.0014232967]},"arcs":[[[4096,4056],[0,-4056],[-4096,0],[0,4096],[4096,0],[0,-29],[-1,-2],[-2,4],[-2,4],[-4,1],[-10,-3],[-6,3],[-7,4],[0,-5],[7,-8],[3,-12],[-8,-2],[-13,10],[-15,2],[-4,5],[-7,-5],[-8,-1],[-9,-1],[-10,1],[-9,3],[-4,6],[-10,-3],[-8,-5],[-10,-2],[-8,-1],[-6,-6],[2,-10],[3,-9],[-1,-8],[10,-7],[8,2],[6,1],[5,-7],[8,-5],[1,12],[2,6],[7,3],[7,6],[3,7],[5,-4],[3,-6],[2,-4],[-4,-6],[7,-6],[7,-2],[-1,6],[3,9],[4,5],[4,-2],[6,2],[6,1],[0,-10],[-4,-11],[-1,-11],[2,-7],[7,-3],[4,7],[0,13],[6,4],[9,-10],[9,6],[5,23],[0,12],[8,7],[3,-2]],[[4095,4065],[-2,4],[-2,4],[-4,1],[-10,-3],[-6,3],[-7,4],[0,-5],[7,-8],[3,-12],[-8,-2],[-13,10],[-15,2],[-4,5],[-7,-5],[-8,-1],[-9,-1],[-10,1],[-9,3],[-4,6],[-10,-3],[-8,-5],[-10,-2],[-8,-1],[-6,-6],[2,-10],[3,-9],[-1,-8],[10,-7],[8,2],[6,1],[5,-7],[8,-5],[1,12],[2,6],[7,3],[7,6],[3,7],[5,-4],[3,-6],[2,-4],[-4,-6],[7,-6],[7,-2],[-1,6],[3,9],[4,5],[4,-2],[6,2],[6,1],[0,-10],[-4,-11],[-1,-11],[2,-7],[7,-3],[4,7],[0,13],[6,4],[9,-10],[9,6],[5,23],[0,12],[8,7],[3,-2]],[[4096,4067],[-1,-2]],[[4096,4067],[0,-11],[-3,2],[-8,-7],[0,-12],[-5,-23],[-9,-6],[-9,10],[-6,-4],[0,-13],[-4,-7],[-7,3],[-2,7],[1,11],[4,11],[0,10],[-6,-1],[-6,-2],[-4,2],[-4,-5],[-3,-9],[1,-6],[-7,2],[-7,6],[4,6],[-2,4],[-3,6],[-5,4],[-3,-7],[-7,-6],[-7,-3],[-2,-6],[-1,-12],[-8,5],[-5,7],[-6,-1],[-8,-2],[-10,7],[1,8],[-3,9],[-2,10],[6,6],[8,1],[10,2],[8,5],[10,3],[4,-6],[9,-3],[10,-1],[9,1],[8,1],[7,5],[4,-5],[15,-2],[13,-10],[8,2],[-3,12],[-7,8],[0,5],[7,-4],[6,-3],[10,3],[4,-1],[2,-4],[2,-4],[1,2]]]}