{"objects":{"water":{"type":"GeometryCollection","geometries":[{"type":"MultiPolygon","properties":{"source":"naturalearthdata.com","kind":"ocean","area":989871000000000,"sort_rank":200,"min_zoom":0,"id":1},"arcs":[[[0]]]},{"type":"LineString","properties":{"source":"naturalearthdata.com","kind":"ocean","sort_rank":205,"boundary":true,"min_zoom":0,"id":2},"arcs":[1]}]},"buildings":{"type":"GeometryCollection","geometries":[]},"places":{"type":"GeometryCollection","geometries":[]},"transit":{"type":"GeometryCollection","geometries":[]},"pois":{"type":"GeometryCollection","geometries":[]},"boundaries":{"type":"GeometryCollection","geometries":[]},"roads":{"type":"GeometryCollection","geometries":[]},"earth":{"type":"GeometryCollection","geometries":[{"type":"MultiPolygon","properties":{"sort_rank":10,"source":"naturalearthdata.com","min_zoom":0,"kind":"earth","area":59133836386451},"arcs":[[[2]]]}]},"landuse":{"type":"GeometryCollection","geometries":[]}},"type":"Topology","transform":{"translate":[-78.75,-76.8408164144],"scale":[0.002746582,0.0006887874]},"arcs":[[[4096,1070],[0,-1070],[-3519,0],[-8,21],[-122,140],[-17,45],[10,13],[4,9],[2,12],[0,38],[2,15],[4,12],[-39,104],[-22,35],[-8,27],[2,42],[37,-90],[11,-40],[11,-28],[12,-20],[26,-25],[-17,45],[-7,23],[-6,35],[34,0],[11,16],[-20,69],[-6,26],[33,-79],[18,-30],[19,-13],[53,5],[69,-63],[65,-96],[15,-6],[-7,35],[-8,30],[-6,32],[-1,42],[47,19],[3,7],[1,10],[0,11],[2,10],[15,27],[15,5],[15,-11],[45,-63],[28,0],[59,28],[31,-19],[58,-86],[30,-25],[48,-9],[21,23],[7,11],[4,19],[-2,30],[-4,11],[-21,27],[19,0],[102,-61],[22,9],[5,47],[18,-1],[137,-62],[137,-62],[137,-62],[36,-2],[78,-35],[-1,34],[-9,14],[-38,8],[-7,13],[-7,27],[160,-28],[160,-28],[31,-31],[11,3],[6,5],[4,6],[2,12],[3,21],[3,8],[5,4],[113,-47],[60,22],[127,-53],[127,-54],[135,18],[136,17],[62,-18],[2,4],[2,18],[3,4],[68,-23],[31,22],[30,5],[10,6],[8,16],[-58,-6],[-19,13],[91,48],[116,-23],[15,10],[11,28],[-13,6],[-43,-17],[24,39],[23,23],[38,13],[13,13],[-59,-14],[-34,9],[-14,42],[8,34],[15,24],[29,21],[45,1],[14,17],[-66,2],[-19,32],[110,42],[-20,20],[-19,7],[-80,-32],[-22,7],[-17,26],[10,9],[19,29],[63,48],[19,-6],[8,2],[20,25],[30,11],[41,46],[21,15],[11,0],[5,-5],[6,-10],[4,-5],[139,45],[139,45],[139,46],[138,45],[-25,-7],[-7,4],[-6,11],[-10,30],[-6,11],[-17,24],[6,16],[9,10],[172,50],[48,14]],[[577,0],[-8,21],[-122,140],[-17,45],[10,13],[4,9],[2,12],[0,38],[2,15],[4,12],[-39,104],[-22,35],[-8,27],[2,42],[37,-90],[11,-40],[11,-28],[12,-20],[26,-25],[-17,45],[-7,23],[-6,35],[34,0],[11,16],[-20,69],[-6,26],[33,-79],[18,-30],[19,-13],[53,5],[69,-63],[65,-96],[15,-6],[-7,35],[-8,30],[-6,32],[-1,42],[47,19],[3,7],[1,10],[0,11],[2,10],[15,27],[15,5],[15,-11],[45,-63],[28,0],[59,28],[31,-19],[58,-86],[30,-25],[48,-9],[21,23],[7,11],[4,19],[-2,30],[-4,11],[-21,27],[19,0],[102,-61],[22,9],[5,47],[18,-1],[137,-62],[137,-62],[137,-62],[36,-2],[78,-35],[-1,34],[-9,14],[-38,8],[-7,13],[-7,27],[160,-28],[160,-28],[31,-31],[11,3],[6,5],[4,6],[2,12],[3,21],[3,8],[5,4],[113,-47],[60,22],[127,-53],[127,-54],[135,18],[136,17],[62,-18],[2,4],[2,18],[3,4],[68,-23],[31,22],[30,5],[10,6],[8,16],[-58,-6],[-19,13],[91,48],[116,-23],[15,10],[11,28],[-13,6],[-43,-17],[24,39],[23,23],[38,13],[13,13],[-59,-14],[-34,9],[-14,42],[8,34],[15,24],[29,21],[45,1],[14,17],[-66,2],[-19,32],[110,42],[-20,20],[-19,7],[-80,-32],[-22,7],[-17,26],[10,9],[19,29],[63,48],[19,-6],[8,2],[20,25],[30,11],[41,46],[21,15],[11,0],[5,-5],[6,-10],[4,-5],[139,45],[139,45],[139,46],[138,45],[-25,-7],[-7,4],[-6,11],[-10,30],[-6,11],[-17,24],[6,16],[9,10],[172,50],[48,14]],[[577,0],[-577,0],[0,4096],[4096,0],[0,-3026],[-48,-14],[-172,-50],[-9,-10],[-6,-16],[17,-24],[6,-11],[10,-30],[6,-11],[7,-4],[25,7],[-138,-45],[-139,-46],[-139,-45],[-139,-45],[-4,5],[-6,10],[-5,5],[-11,0],[-21,-15],[-41,-46],[-30,-11],[-20,-25],[-8,-2],[-19,6],[-63,-48],[-19,-29],[-10,-9],[17,-26],[22,-7],[80,32],[19,-7],[20,-20],[-110,-42],[19,-32],[66,-2],[-14,-17],[-45,-1],[-29,-21],[-15,-24],[-8,-34],[14,-42],[34,-9],[59,14],[-13,-13],[-38,-13],[-23,-23],[-24,-39],[43,17],[13,-6],[-11,-28],[-15,-10],[-116,23],[-91,-48],[19,-13],[58,6],[-8,-16],[-10,-6],[-30,-5],[-31,-22],[-68,23],[-3,-4],[-2,-18],[-2,-4],[-62,18],[-136,-17],[-135,-18],[-127,54],[-127,53],[-60,-22],[-113,47],[-5,-4],[-3,-8],[-3,-21],[-2,-12],[-4,-6],[-6,-5],[-11,-3],[-31,31],[-22,4],[-138,24],[-160,28],[7,-27],[7,-13],[38,-8],[9,-14],[1,-34],[-78,35],[-36,2],[-137,62],[-137,62],[-137,62],[-18,1],[-5,-47],[-22,-9],[-102,61],[-19,0],[21,-27],[4,-11],[2,-30],[-4,-19],[-7,-11],[-21,-23],[-48,9],[-30,25],[-58,86],[-31,19],[-59,-28],[-28,0],[-45,63],[-15,11],[-15,-5],[-15,-27],[-2,-10],[0,-11],[-1,-10],[-3,-7],[-47,-19],[1,-42],[6,-32],[8,-30],[7,-35],[-15,6],[-65,96],[-69,63],[-53,-5],[-19,13],[-18,30],[-33,79],[6,-26],[20,-69],[-11,-16],[-34,0],[6,-35],[7,-23],[17,-45],[-26,25],[-12,20],[-11,28],[-11,40],[-37,90],[-2,-42],[8,-27],[22,-35],[39,-104],[-4,-12],[-2,-15],[0,-38],[-2,-12],[-4,-9],[-10,-13],[17,-45],[122,-140],[8,-21]]]}