{"objects":{"water":{"type":"GeometryCollection","geometries":[{"type":"MultiPolygon","properties":{"source":"naturalearthdata.com","kind":"ocean","area":989871000000000,"sort_rank":200,"min_zoom":0,"id":1},"arcs":[[[0]],[[1],[2]]]},{"type":"MultiLineString","properties":{"source":"naturalearthdata.com","kind":"ocean","sort_rank":205,"boundary":true,"min_zoom":0,"id":2},"arcs":[[3],[4]]},{"type":"MultiLineString","properties":{"source":"naturalearthdata.com","kind":"ocean","sort_rank":205,"boundary":true,"min_zoom":0,"id":2520},"arcs":[[5],[6]]},{"type":"LineString","properties":{"source":"naturalearthdata.com","kind":"ocean","sort_rank":205,"boundary":true,"min_zoom":0,"id":2522},"arcs":[7]},{"type":"MultiLineString","properties":{"source":"naturalearthdata.com","kind":"ocean","sort_rank":205,"boundary":true,"min_zoom":0,"id":2523},"arcs":[[8],[9]]}]},"buildings":{"type":"GeometryCollection","geometries":[]},"places":{"type":"GeometryCollection","geometries":[]},"transit":{"type":"GeometryCollection","geometries":[]},"pois":{"type":"GeometryCollection","geometries":[]},"boundaries":{"type":"GeometryCollection","geometries":[]},"roads":{"type":"GeometryCollection","geometries":[]},"earth":{"type":"GeometryCollection","geometries":[{"type":"Polygon","properties":{"sort_rank":10,"source":"naturalearthdata.com","kind":"earth","min_zoom":1.5,"id":4532},"arcs":[[10]]},{"type":"MultiPolygon","properties":{"sort_rank":10,"source":"naturalearthdata.com","kind":"earth","min_zoom":5.0,"area":6168066812},"arcs":[[[11]],[[12]]]},{"type":"MultiPolygon","properties":{"sort_rank":10,"source":"naturalearthdata.com","min_zoom":0,"kind":"earth","area":59133836386451},"arcs":[[[13]],[[14]]]}]},"landuse":{"type":"GeometryCollection","geometries":[]}},"type":"Topology","transform":{"translate":[-78.75,-79.1713346408],"scale":[0.002746582,0.0005689742]},"arcs":[[[4096,842],[0,-842],[-195,0],[52,20],[106,41],[-37,4],[-3,-4],[9,20],[-12,11],[-115,-26],[-69,-60],[3,-6],[-322,0],[37,43],[9,15],[6,22],[0,7],[-2,15],[0,8],[6,20],[141,190],[141,191],[141,190],[104,141]],[[577,4096],[3519,0],[0,-2676],[-28,-15],[-18,-20],[-38,-65],[-155,-117],[-156,-118],[-155,-117],[-155,-117],[-6,-8],[-7,-19],[-38,-65],[-12,-11],[-32,-13],[-50,-82],[-161,-72],[-33,-57],[-16,-17],[-66,-5],[-146,-190],[-146,-190],[-53,-122],[-2625,0],[0,689],[54,11],[154,33],[155,33],[11,7],[8,11],[14,35],[110,142],[4,14],[5,20],[2,13],[0,17],[-3,32],[0,20],[3,44],[-2,15],[-7,25],[-3,16],[-1,94],[-17,50],[-170,109],[-170,109],[-147,94],[0,646],[21,-8],[166,-61],[165,-61],[9,5],[27,28],[179,-76],[180,-75],[180,-76],[179,-75],[180,-76],[25,-39],[11,-26],[4,-15],[3,-20],[2,-17],[2,-14],[5,-12],[10,-9],[10,3],[9,17],[7,34],[-6,23],[-2,6],[13,3],[26,25],[152,27],[152,28],[45,43],[-31,0],[-62,-39],[-30,10],[117,91],[117,92],[31,46],[9,2],[4,-11],[0,-15],[3,-11],[8,1],[4,6],[13,27],[-25,22],[6,13],[12,9],[6,7],[12,37],[69,108],[9,19],[8,24],[4,5],[8,1],[4,6],[4,14],[7,32],[17,53],[87,178],[8,30],[8,45],[0,34],[-5,30],[-8,33],[27,45],[-172,48],[-172,49],[-172,49],[-171,48],[-172,49],[-63,-36],[-20,-27],[-20,-47],[-27,-85],[-8,-7],[-24,19],[-5,11],[-4,17],[-3,25],[-2,14],[-13,24],[-25,76],[-9,16],[-34,21],[-11,18],[-34,88],[14,27],[-18,23],[-61,8],[-65,81],[-20,40],[-55,174],[-91,144],[-10,4],[-40,-10],[-51,86],[-4,16],[2,13],[4,9],[4,6],[5,2],[39,-34],[11,6],[4,37],[-6,34],[-11,22],[-42,45],[-20,40],[-46,148]],[[1151,727],[-9,-21],[-11,-32],[-6,-38],[4,-42],[7,-21],[10,-16],[18,-18],[15,-4],[7,7],[4,19],[-2,21],[-12,28],[-3,12],[1,20],[4,16],[6,12],[9,9],[3,23],[8,18],[18,30],[-1,2],[0,1],[0,2],[1,1],[-19,20],[-22,-9],[-30,-40]],[[0,689],[54,11],[154,33],[155,33],[11,7],[8,11],[14,35],[110,142],[4,14],[5,20],[2,13],[0,17],[-3,32],[0,20],[3,44],[-2,15],[-7,25],[-3,16],[-1,94],[-17,50],[-170,109],[-170,109],[-147,94]],[[0,2279],[21,-8],[166,-61],[165,-61],[9,5],[27,28],[179,-76],[180,-75],[180,-76],[179,-75],[180,-76],[25,-39],[11,-26],[4,-15],[3,-20],[2,-17],[2,-14],[5,-12],[10,-9],[10,3],[9,17],[7,34],[-6,23],[-2,6],[13,3],[26,25],[152,27],[152,28],[45,43],[-31,0],[-62,-39],[-30,10],[117,91],[117,92],[31,46],[9,2],[4,-11],[0,-15],[3,-11],[8,1],[4,6],[13,27],[-25,22],[6,13],[12,9],[6,7],[12,37],[69,108],[9,19],[8,24],[4,5],[8,1],[4,6],[4,14],[7,32],[17,53],[87,178],[8,30],[8,45],[0,34],[-5,30],[-8,33],[27,45],[-172,48],[-172,49],[-172,49],[-171,48],[-172,49],[-63,-36],[-20,-27],[-20,-47],[-27,-85],[-8,-7],[-24,19],[-5,11],[-4,17],[-3,25],[-2,14],[-13,24],[-25,76],[-9,16],[-34,21],[-11,18],[-34,88],[14,27],[-18,23],[-61,8],[-65,81],[-20,40],[-55,174],[-91,144],[-10,4],[-40,-10],[-51,86],[-4,16],[2,13],[4,9],[4,6],[5,2],[39,-34],[11,6],[4,37],[-6,34],[-11,22],[-42,45],[-20,40],[-46,148]],[[4019,61],[9,20],[-12,11],[-115,-26],[-69,-60],[3,-6]],[[3901,0],[52,20],[106,41],[-37,4],[-3,-4]],[[1151,727],[-9,-21],[-11,-32],[-6,-38],[4,-42],[7,-21],[10,-16],[18,-18],[15,-4],[7,7],[4,19],[-2,21],[-12,28],[-3,12],[1,20],[4,16],[6,12],[9,9],[3,23],[8,18],[18,30],[-1,2],[0,1],[0,2],[1,1],[-19,20],[-22,-9],[-30,-40]],[[4096,1420],[-28,-15],[-18,-20],[-38,-65],[-155,-117],[-156,-118],[-155,-117],[-155,-117],[-6,-8],[-7,-19],[-38,-65],[-12,-11],[-32,-13],[-50,-82],[-161,-72],[-33,-57],[-16,-17],[-66,-5],[-146,-190],[-146,-190],[-53,-122]],[[3513,0],[37,43],[9,15],[6,22],[0,7],[-2,15],[0,8],[6,20],[141,190],[141,191],[141,190],[104,141]],[[4096,842],[-104,-141],[-141,-190],[-141,-191],[-141,-190],[-6,-20],[0,-8],[2,-15],[0,-7],[-6,-22],[-9,-15],[-37,-43],[-888,0],[53,122],[146,190],[146,190],[66,5],[16,17],[33,57],[161,72],[50,82],[32,13],[12,11],[38,65],[7,19],[6,8],[155,117],[155,117],[156,118],[155,117],[38,65],[18,20],[28,15],[0,-578]],[[3901,0],[-66,0],[-3,6],[69,60],[115,26],[12,-11],[-9,-20],[3,4],[37,-4],[-106,-41],[-52,-20]],[[1151,727],[30,40],[22,9],[19,-20],[-1,-1],[0,-2],[0,-1],[1,-2],[-18,-30],[-8,-18],[-3,-23],[-9,-9],[-6,-12],[-4,-16],[-1,-20],[3,-12],[12,-28],[2,-21],[-4,-19],[-7,-7],[-15,4],[-18,18],[-10,16],[-7,21],[-4,42],[6,38],[11,32],[9,21]],[[0,2279],[0,1817],[577,0],[46,-148],[20,-40],[42,-45],[11,-22],[6,-34],[-4,-37],[-11,-6],[-39,34],[-5,-2],[-4,-6],[-4,-9],[-2,-13],[4,-16],[51,-86],[40,10],[10,-4],[91,-144],[55,-174],[20,-40],[65,-81],[61,-8],[18,-23],[-14,-27],[34,-88],[11,-18],[34,-21],[9,-16],[25,-76],[13,-24],[2,-14],[3,-25],[4,-17],[5,-11],[24,-19],[8,7],[27,85],[20,47],[20,27],[63,36],[172,-49],[171,-48],[172,-49],[172,-49],[27,-7],[145,-41],[-27,-45],[8,-33],[5,-30],[0,-34],[-8,-45],[-8,-30],[-87,-178],[-17,-53],[-7,-32],[-4,-14],[-4,-6],[-8,-1],[-4,-5],[-8,-24],[-9,-19],[-69,-108],[-12,-37],[-6,-7],[-12,-9],[-6,-13],[25,-22],[-13,-27],[-4,-6],[-8,-1],[-3,11],[0,15],[-4,11],[-9,-2],[-31,-46],[-117,-92],[-117,-91],[30,-10],[62,39],[31,0],[-45,-43],[-152,-28],[-152,-27],[-26,-25],[-13,-3],[2,-6],[6,-23],[-7,-34],[-9,-17],[-10,-3],[-10,9],[-5,12],[-2,14],[-2,17],[-3,20],[-4,15],[-11,26],[-25,39],[-180,76],[-179,75],[-180,76],[-180,75],[-179,76],[-27,-28],[-9,-5],[-165,61],[-166,61],[-21,8]],[[0,689],[0,944],[147,-94],[170,-109],[170,-109],[17,-50],[1,-94],[3,-16],[7,-25],[2,-15],[-3,-44],[0,-20],[3,-32],[0,-17],[-2,-13],[-5,-20],[-4,-14],[-110,-142],[-14,-35],[-8,-11],[-11,-7],[-155,-33],[-154,-33],[-54,-11]]]}