{"objects":{"water":{"type":"GeometryCollection","geometries":[{"type":"MultiPolygon","properties":{"source":"naturalearthdata.com","kind":"ocean","area":989871000000000,"sort_rank":200,"min_zoom":0,"id":1},"arcs":[[[0]],[[1]],[[2]],[[3]],[[4]]]},{"type":"MultiLineString","properties":{"source":"naturalearthdata.com","kind":"ocean","sort_rank":205,"boundary":true,"min_zoom":0,"id":515},"arcs":[[5],[6]]},{"type":"MultiLineString","properties":{"source":"naturalearthdata.com","kind":"ocean","sort_rank":205,"boundary":true,"min_zoom":0,"id":1015},"arcs":[[7],[8],[9],[10],[11],[12]]}]},"buildings":{"type":"GeometryCollection","geometries":[]},"places":{"type":"GeometryCollection","geometries":[]},"transit":{"type":"GeometryCollection","geometries":[]},"pois":{"type":"GeometryCollection","geometries":[]},"boundaries":{"type":"GeometryCollection","geometries":[]},"roads":{"type":"GeometryCollection","geometries":[]},"earth":{"type":"GeometryCollection","geometries":[{"type":"MultiPolygon","properties":{"sort_rank":10,"source":"naturalearthdata.com","min_zoom":0,"kind":"earth","area":44884805284559},"arcs":[[[13]],[[14]],[[15]],[[16]]]}]},"landuse":{"type":"GeometryCollection","geometries":[]}},"type":"Topology","transform":{"translate":[-78.75,79.1713346408],"scale":[0.002746582,0.0004692088]},"arcs":[[[4096,2201],[0,-2201],[-2660,0],[-7,17],[15,30],[69,3],[37,37],[9,32],[-120,36],[-93,-28],[-105,4],[-110,5],[-111,4],[-75,81],[-19,5],[-35,-30],[-76,-5],[-99,39],[-111,-25],[-149,-42],[15,26],[33,0],[15,16],[-15,29],[-97,85],[-73,-7],[-83,69],[0,14],[25,24],[25,7],[15,-2],[35,-34],[102,-32],[102,-31],[15,12],[8,0],[-6,25],[-15,17],[-7,22],[-9,42],[-5,17],[-14,23],[-23,80],[-8,35],[18,24],[40,-30],[19,10],[15,27],[9,3],[4,-26],[1,-43],[1,-25],[1,-18],[6,-22],[51,-84],[13,-9],[9,-20],[5,-6],[5,1],[9,11],[109,-8],[109,-8],[30,-24],[88,21],[12,21],[-11,20],[-37,11],[-51,51],[-5,17],[-4,21],[-6,18],[-5,18],[6,14],[18,22],[-19,50],[-93,27],[-47,-15],[-66,39],[-35,-25],[-33,25],[-66,0],[-15,14],[-7,16],[-2,21],[5,28],[5,20],[6,13],[5,4],[9,-9],[16,-39],[8,-9],[154,-30],[155,-30],[68,-123],[17,-18],[17,7],[27,49],[8,-2],[4,-7],[3,-9],[1,-12],[-3,-15],[7,-27],[11,-13],[22,-3],[-2,15],[10,31],[9,-9],[10,-23],[40,-49],[176,-49],[24,16],[20,53],[7,22],[-1,10],[-6,19],[-5,13],[-17,24],[-9,25],[-6,7],[0,9],[0,11],[-2,9],[-14,22],[-4,18],[11,24],[14,17],[14,4],[11,-16],[-5,-11],[-3,-2],[13,-27],[45,-29],[34,-54],[111,4],[40,-26],[91,22],[14,18],[12,28],[3,34],[-7,67],[-5,26],[-7,24],[14,45],[22,-20],[40,-92],[22,-32],[51,25],[48,-17],[53,20],[41,53],[6,3],[5,7],[9,30],[5,7],[3,7],[1,15],[-1,17],[-2,12],[-5,12],[-15,24],[7,25],[3,37],[-1,40],[-4,29],[-9,26],[-25,26],[-10,22],[2,16],[-18,21],[-8,14],[1,22],[-2,16],[-6,26],[-2,16],[3,5],[10,24],[-12,16],[-36,-31],[-37,0],[-140,51],[-140,52],[-116,-29],[-9,6],[-27,53],[1,30],[-9,14],[-19,13],[94,26],[95,26],[35,45],[168,-66],[9,-31],[-23,0],[-11,-8],[-11,-20],[19,-32],[156,35],[71,-33],[95,1],[9,-16],[-14,-16],[-44,2],[0,-16],[7,-8],[3,-18],[3,-23],[5,-23],[6,-14],[13,-19],[6,-23],[-1,-43],[11,-26],[106,-65],[86,16],[58,-51],[38,38],[40,9],[28,37],[167,76],[36,54],[88,56],[19,27],[1,29],[25,16],[6,38],[4,31],[21,52],[8,27],[-97,51],[-91,-61],[-12,23],[4,37],[13,33],[14,23],[122,53],[122,52],[12,36],[-2,15],[15,53],[39,8],[15,40],[-3,21],[-3,55],[-3,11],[-9,4],[-9,10],[-10,17],[-6,22],[-15,31],[-131,-44],[-115,-65],[-73,-51],[-69,13],[-47,-25],[-119,-13],[-63,13],[-5,16],[3,3],[3,6],[6,20],[-25,0],[0,15],[104,-10],[76,54],[0,14],[-12,8],[-34,63],[-144,133],[14,31],[17,4],[62,-75],[60,-6],[23,-22],[11,-19],[19,-63],[5,-10],[38,-44],[85,8],[54,66],[92,72],[129,45],[97,-21],[98,-20],[19,9],[28,82],[31,28],[14,38],[-21,48],[-159,127],[2,0],[-6,10],[-3,22],[1,28],[4,28],[7,26],[25,33],[-21,39],[-7,4],[-3,7],[-9,51],[-11,28],[-25,30],[-38,82],[-14,17],[-19,10],[-16,22],[-4,15],[2,23],[6,9],[7,-1],[165,-200],[24,-49],[18,-73],[-7,-34],[-21,-62],[-5,-35],[117,-3],[117,-3],[107,90],[15,25],[12,45],[3,21],[2,23],[2,24],[5,19],[18,38],[18,71],[12,30],[76,100],[13,45],[-16,-1],[-7,8],[-7,21],[72,46],[44,79],[25,14],[40,60],[26,22],[45,83],[107,78],[21,35],[27,21],[4,14],[-7,16],[11,36],[19,11],[35,-3],[28,29],[15,26],[12,32],[-21,52],[-7,22],[17,27],[23,-2],[0,-1419],[-4,-11],[-3,-18],[7,-7],[0,-112],[-2,-5],[2,-7]],[[0,3987],[0,109],[84,0],[-84,-109]],[[0,3363],[0,240],[98,24],[133,32],[43,38],[111,-2],[110,-1],[133,-38],[91,34],[68,-1],[38,-50],[-11,-48],[-20,-21],[-103,-15],[-103,-15],[-136,3],[-81,-35],[-167,-24],[-16,-28],[-38,-21],[-71,-5],[-38,-57],[-41,-10]],[[0,2968],[0,109],[127,-18],[140,-21],[0,-11],[-2,-1],[-1,-4],[-1,-5],[-1,-6],[-3,0],[1,-11],[2,-4],[-8,-17],[-21,-12],[-107,7],[-108,8],[-18,-14]],[[234,0],[-54,0],[-1,1],[12,35],[16,15],[177,5],[178,5],[81,-20],[140,25],[93,3],[93,2],[68,-71],[-684,0],[-102,17],[-17,-17]],[[4096,2361],[-4,-11],[-3,-18],[7,-7]],[[4096,2213],[-2,-5],[2,-7]],[[84,4096],[-84,-109]],[[0,3603],[98,24],[133,32],[43,38],[111,-2],[110,-1],[133,-38],[91,34],[68,-1],[38,-50],[-11,-48],[-20,-21],[-103,-15],[-103,-15],[-136,3],[-81,-35],[-167,-24],[-16,-28],[-38,-21],[-71,-5],[-38,-57],[-41,-10]],[[0,3077],[127,-18],[140,-21],[0,-11],[-2,-1],[-1,-4],[-1,-5],[-1,-6],[-3,0],[1,-11],[2,-4],[-8,-17],[-21,-12],[-107,7],[-108,8],[-18,-14]],[[353,0],[-102,17],[-17,-17]],[[180,0],[-1,1],[12,35],[16,15],[177,5],[178,5],[81,-20],[140,25],[93,3],[93,2],[68,-71]],[[1436,0],[-7,17],[15,30],[69,3],[37,37],[9,32],[-120,36],[-93,-28],[-105,4],[-110,5],[-111,4],[-75,81],[-19,5],[-35,-30],[-76,-5],[-99,39],[-111,-25],[-149,-42],[15,26],[33,0],[15,16],[-15,29],[-97,85],[-73,-7],[-83,69],[0,14],[25,24],[25,7],[15,-2],[35,-34],[102,-32],[102,-31],[15,12],[8,0],[-6,25],[-15,17],[-7,22],[-9,42],[-5,17],[-14,23],[-23,80],[-8,35],[18,24],[40,-30],[19,10],[15,27],[9,3],[4,-26],[1,-43],[1,-25],[1,-18],[6,-22],[51,-84],[13,-9],[9,-20],[5,-6],[5,1],[9,11],[109,-8],[109,-8],[30,-24],[88,21],[12,21],[-11,20],[-37,11],[-51,51],[-5,17],[-4,21],[-6,18],[-5,18],[6,14],[18,22],[-19,50],[-93,27],[-47,-15],[-66,39],[-35,-25],[-33,25],[-66,0],[-15,14],[-7,16],[-2,21],[5,28],[5,20],[6,13],[5,4],[9,-9],[16,-39],[8,-9],[154,-30],[155,-30],[68,-123],[17,-18],[17,7],[27,49],[8,-2],[4,-7],[3,-9],[1,-12],[-3,-15],[7,-27],[11,-13],[22,-3],[-2,15],[10,31],[9,-9],[10,-23],[40,-49],[176,-49],[24,16],[20,53],[7,22],[-1,10],[-6,19],[-5,13],[-17,24],[-9,25],[-6,7],[0,9],[0,11],[-2,9],[-14,22],[-4,18],[11,24],[14,17],[14,4],[11,-16],[-5,-11],[-3,-2],[13,-27],[45,-29],[34,-54],[111,4],[40,-26],[91,22],[14,18],[12,28],[3,34],[-7,67],[-5,26],[-7,24],[14,45],[22,-20],[40,-92],[22,-32],[51,25],[48,-17],[53,20],[41,53],[6,3],[5,7],[9,30],[5,7],[3,7],[1,15],[-1,17],[-2,12],[-5,12],[-15,24],[7,25],[3,37],[-1,40],[-4,29],[-9,26],[-25,26],[-10,22],[2,16],[-18,21],[-8,14],[1,22],[-2,16],[-6,26],[-2,16],[3,5],[10,24],[-12,16],[-36,-31],[-37,0],[-140,51],[-140,52],[-116,-29],[-9,6],[-27,53],[1,30],[-9,14],[-19,13],[94,26],[95,26],[35,45],[168,-66],[9,-31],[-23,0],[-11,-8],[-11,-20],[19,-32],[156,35],[71,-33],[95,1],[9,-16],[-14,-16],[-44,2],[0,-16],[7,-8],[3,-18],[3,-23],[5,-23],[6,-14],[13,-19],[6,-23],[-1,-43],[11,-26],[106,-65],[86,16],[58,-51],[38,38],[40,9],[28,37],[167,76],[36,54],[88,56],[19,27],[1,29],[25,16],[6,38],[4,31],[21,52],[8,27],[-97,51],[-91,-61],[-12,23],[4,37],[13,33],[14,23],[122,53],[122,52],[12,36],[-2,15],[15,53],[39,8],[15,40],[-3,21],[-3,55],[-3,11],[-9,4],[-9,10],[-10,17],[-6,22],[-15,31],[-131,-44],[-115,-65],[-73,-51],[-69,13],[-47,-25],[-119,-13],[-63,13],[-5,16],[3,3],[3,6],[6,20],[-25,0],[0,15],[104,-10],[76,54],[0,14],[-12,8],[-34,63],[-144,133],[14,31],[17,4],[62,-75],[60,-6],[23,-22],[11,-19],[19,-63],[5,-10],[38,-44],[85,8],[54,66],[92,72],[129,45],[97,-21],[98,-20],[19,9],[28,82],[31,28],[14,38],[-21,48],[-159,127],[2,0],[-6,10],[-3,22],[1,28],[4,28],[7,26],[25,33],[-21,39],[-7,4],[-3,7],[-9,51],[-11,28],[-25,30],[-38,82],[-14,17],[-19,10],[-16,22],[-4,15],[2,23],[6,9],[7,-1],[165,-200],[24,-49],[18,-73],[-7,-34],[-21,-62],[-5,-35],[117,-3],[117,-3],[107,90],[15,25],[12,45],[3,21],[2,23],[2,24],[5,19],[18,38],[18,71],[12,30],[76,100],[13,45],[-16,-1],[-7,8],[-7,21],[72,46],[44,79],[25,14],[40,60],[26,22],[45,83],[107,78],[21,35],[27,21],[4,14],[-7,16],[11,36],[19,11],[35,-3],[28,29],[15,26],[12,32],[-21,52],[-7,22],[17,27],[23,-2]],[[84,4096],[4012,0],[0,-316],[-23,2],[-17,-27],[7,-22],[21,-52],[-12,-32],[-15,-26],[-28,-29],[-35,3],[-19,-11],[-11,-36],[7,-16],[-4,-14],[-27,-21],[-21,-35],[-107,-78],[-45,-83],[-26,-22],[-40,-60],[-25,-14],[-44,-79],[-72,-46],[6,-18],[1,-3],[7,-8],[16,1],[-13,-45],[-76,-100],[-12,-30],[-18,-71],[-18,-38],[-5,-19],[-2,-24],[-2,-23],[-3,-21],[-12,-45],[-15,-25],[-30,-25],[-77,-65],[-117,3],[-117,3],[5,35],[21,62],[7,34],[-18,73],[-24,49],[-165,200],[-7,1],[-6,-9],[-2,-23],[4,-15],[16,-22],[19,-10],[14,-17],[38,-82],[25,-30],[11,-28],[9,-51],[3,-7],[7,-4],[21,-39],[-25,-33],[-7,-26],[-4,-28],[-1,-28],[3,-22],[6,-10],[-2,0],[159,-127],[21,-48],[-14,-38],[-31,-28],[-28,-82],[-19,-9],[-98,20],[-97,21],[-129,-45],[-92,-72],[-54,-66],[-85,-8],[-38,44],[-5,10],[-19,63],[-11,19],[-23,22],[-60,6],[-62,75],[-17,-4],[-14,-31],[144,-133],[34,-63],[12,-8],[0,-14],[-76,-54],[-104,10],[0,-15],[25,0],[-6,-20],[-3,-6],[-3,-3],[5,-16],[63,-13],[119,13],[47,25],[69,-13],[73,51],[115,65],[131,44],[15,-31],[6,-22],[10,-17],[9,-10],[9,-4],[3,-11],[3,-55],[3,-21],[-15,-40],[-39,-8],[-15,-53],[2,-15],[-12,-36],[-122,-52],[-122,-53],[-14,-23],[-13,-33],[-4,-37],[12,-23],[91,61],[97,-51],[-8,-27],[-21,-52],[-4,-31],[-6,-38],[-25,-16],[-1,-29],[-19,-27],[-88,-56],[-36,-54],[-167,-76],[-28,-37],[-40,-9],[-38,-38],[-58,51],[-86,-16],[-106,65],[-11,26],[1,43],[-6,23],[-13,19],[-6,14],[-5,23],[-3,23],[-3,18],[-7,8],[0,16],[44,-2],[14,16],[-9,16],[-95,-1],[-71,33],[-156,-35],[-19,32],[11,20],[11,8],[23,0],[-9,31],[-168,66],[-35,-45],[-95,-26],[-94,-26],[19,-13],[9,-14],[-1,-30],[27,-53],[9,-6],[116,29],[140,-52],[140,-51],[37,0],[36,31],[12,-16],[-10,-24],[-3,-5],[2,-16],[6,-26],[2,-16],[-1,-22],[8,-14],[18,-21],[-2,-16],[10,-22],[25,-26],[9,-26],[4,-29],[1,-40],[-3,-37],[-7,-25],[15,-24],[5,-12],[2,-12],[1,-17],[-1,-15],[-3,-7],[-5,-7],[-9,-30],[-5,-7],[-6,-3],[-41,-53],[-53,-20],[-48,17],[-51,-25],[-22,32],[-40,92],[-22,20],[-14,-45],[7,-24],[5,-26],[7,-67],[-3,-34],[-12,-28],[-14,-18],[-91,-22],[-40,26],[-111,-4],[-34,54],[-45,29],[-13,27],[3,2],[5,11],[-11,16],[-14,-4],[-14,-17],[-11,-24],[4,-18],[14,-22],[2,-9],[0,-11],[0,-9],[6,-7],[9,-25],[17,-24],[5,-13],[6,-19],[1,-10],[-7,-22],[-20,-53],[-24,-16],[-176,49],[-40,49],[-10,23],[-9,9],[-10,-31],[2,-15],[-22,3],[-11,13],[-7,27],[3,15],[-1,12],[-3,9],[-4,7],[-8,2],[-27,-49],[-17,-7],[-17,18],[-68,123],[-155,30],[-154,30],[-8,9],[-16,39],[-9,9],[-5,-4],[-6,-13],[-5,-20],[-5,-28],[2,-21],[7,-16],[15,-14],[66,0],[33,-25],[35,25],[66,-39],[47,15],[93,-27],[19,-50],[-18,-22],[-6,-14],[5,-18],[6,-18],[4,-21],[5,-17],[51,-51],[37,-11],[11,-20],[-12,-21],[-88,-21],[-30,24],[-109,8],[-109,8],[-9,-11],[-5,-1],[-5,6],[-9,20],[-13,9],[-51,84],[-6,22],[-1,18],[-1,25],[-1,43],[-4,26],[-9,-3],[-15,-27],[-19,-10],[-40,30],[-18,-24],[8,-35],[23,-80],[14,-23],[5,-17],[9,-42],[7,-22],[15,-17],[6,-25],[-8,0],[-15,-12],[-102,31],[-102,32],[-35,34],[-15,2],[-25,-7],[-25,-24],[0,-14],[83,-69],[73,7],[97,-85],[15,-29],[-15,-16],[-33,0],[-15,-26],[149,42],[111,25],[99,-39],[76,5],[35,30],[19,-5],[75,-81],[111,-4],[110,-5],[105,-4],[93,28],[120,-36],[-9,-32],[-37,-37],[-69,-3],[-15,-30],[7,-17],[-399,0],[-68,71],[-93,-2],[-93,-3],[-140,-25],[-81,20],[-178,-5],[-177,-5],[-16,-15],[-12,-35],[1,-1],[-180,0],[0,2968],[18,14],[108,-8],[107,-7],[21,12],[8,17],[-2,4],[-1,11],[3,0],[1,6],[1,5],[1,4],[2,1],[0,11],[-140,21],[-38,5],[-89,13],[0,286],[41,10],[38,57],[71,5],[38,21],[16,28],[167,24],[81,35],[136,-3],[103,15],[103,15],[20,21],[11,48],[-38,50],[-68,1],[-91,-34],[-133,38],[-110,1],[-111,2],[-43,-38],[-133,-32],[-98,-24],[0,384],[84,109]],[[353,0],[-119,0],[17,17],[102,-17]],[[4096,2213],[0,-12],[-2,7],[2,5]],[[4096,2361],[0,-36],[-7,7],[3,18],[4,11]]]}