{"objects":{"water":{"type":"GeometryCollection","geometries":[{"type":"MultiPolygon","properties":{"source":"naturalearthdata.com","kind":"ocean","area":989871000000000,"sort_rank":200,"min_zoom":0,"id":1},"arcs":[[[0],[1]],[[2]]]},{"type":"MultiLineString","properties":{"source":"naturalearthdata.com","kind":"ocean","sort_rank":205,"boundary":true,"min_zoom":0,"id":515},"arcs":[[3],[4]]},{"type":"MultiLineString","properties":{"source":"naturalearthdata.com","kind":"ocean","sort_rank":205,"boundary":true,"min_zoom":0,"id":1015},"arcs":[[5],[6]]},{"type":"LineString","properties":{"source":"naturalearthdata.com","kind":"ocean","sort_rank":205,"boundary":true,"min_zoom":0,"id":1507},"arcs":[7]}]},"buildings":{"type":"GeometryCollection","geometries":[]},"places":{"type":"GeometryCollection","geometries":[]},"transit":{"type":"GeometryCollection","geometries":[]},"pois":{"type":"GeometryCollection","geometries":[]},"boundaries":{"type":"GeometryCollection","geometries":[]},"roads":{"type":"GeometryCollection","geometries":[]},"earth":{"type":"GeometryCollection","geometries":[{"type":"MultiPolygon","properties":{"sort_rank":10,"source":"naturalearthdata.com","kind":"earth","min_zoom":4.0,"area":112145940633},"arcs":[[[8]]]},{"type":"MultiPolygon","properties":{"sort_rank":10,"source":"naturalearthdata.com","min_zoom":0,"kind":"earth","area":44884805284559},"arcs":[[[9]],[[10]],[[11]]]}]},"landuse":{"type":"GeometryCollection","geometries":[]}},"type":"Topology","transform":{"translate":[-78.75,74.0195433115],"scale":[0.002746582,0.0006887874]},"arcs":[[[4096,2899],[0,-2899],[-4096,0],[0,3713],[2,0],[22,-13],[43,0],[0,-10],[-18,-9],[2,-15],[3,-15],[3,-12],[3,-8],[-3,-11],[-3,-8],[-7,-11],[21,-43],[23,-16],[48,9],[-4,30],[9,18],[78,42],[-2,20],[-5,13],[-11,16],[8,20],[16,24],[7,21],[6,13],[20,27],[7,5],[46,-5],[22,11],[21,34],[-12,20],[-4,14],[0,25],[2,9],[3,9],[4,8],[3,3],[5,4],[0,9],[-4,19],[-2,19],[-2,12],[0,11],[1,16],[5,19],[7,13],[13,19],[-20,27],[2530,0],[59,-56],[7,-1],[15,16],[2,0],[4,-6],[4,-8],[3,-8],[3,-6],[6,-2],[7,-7],[41,16],[60,62],[68,0],[-11,-23],[-6,-34],[7,-8],[18,-33],[9,-7],[18,-7],[16,-19],[105,-40],[105,-40],[19,-19],[18,-8],[36,13],[84,-30],[104,6],[104,6],[86,48],[7,-2],[35,-30],[-6,-16],[-34,-23],[9,-19],[23,-10],[8,-22],[1,-30],[-1,-2],[-6,-15],[-10,-9],[-128,2],[-128,1],[-49,-23],[-11,-13],[23,-2],[7,-7],[-32,-47],[-64,-32],[-91,-46],[-90,-45],[-9,-9],[-8,-21],[1,-14],[0,-13],[-3,-12],[-3,-10],[7,-18],[25,-11],[60,-72],[33,-19],[32,-4],[19,-16],[20,-5],[64,-53],[2,-6],[-5,-25],[41,-44],[18,-5],[8,-11],[-17,-26],[100,2],[18,-7],[11,-28],[-37,-21],[-7,-9],[-3,-8],[1,-9],[7,-10],[27,-19],[14,-17],[9,-5],[8,0],[2,8],[72,-9],[25,-27],[124,-33],[100,-26]],[[3369,3735],[-10,24],[-12,8],[-154,-34],[-14,-12],[-6,-21],[8,-17],[122,-33],[31,12],[21,21],[15,8],[5,9],[5,16],[-2,6],[-4,4],[-5,9]],[[0,4079],[0,17],[19,0],[-8,-19],[-11,2]],[[2886,4096],[59,-56],[7,-1],[15,16],[2,0],[4,-6],[4,-8],[3,-8],[3,-6],[6,-2],[7,-7],[41,16],[60,62]],[[3165,4096],[-11,-23],[-6,-34],[7,-8],[18,-33],[9,-7],[18,-7],[16,-19],[105,-40],[105,-40],[19,-19],[18,-8],[36,13],[84,-30],[104,6],[104,6],[86,48],[7,-2],[35,-30],[-6,-16],[-34,-23],[9,-19],[23,-10],[8,-22],[1,-30],[-1,-2],[-6,-15],[-10,-9],[-128,2],[-128,1],[-49,-23],[-11,-13],[23,-2],[7,-7],[-32,-47],[-64,-32],[-91,-46],[-90,-45],[-9,-9],[-8,-21],[1,-14],[0,-13],[-3,-12],[-3,-10],[7,-18],[25,-11],[60,-72],[33,-19],[32,-4],[19,-16],[20,-5],[64,-53],[2,-6],[-5,-25],[41,-44],[18,-5],[8,-11],[-17,-26],[100,2],[18,-7],[11,-28],[-37,-21],[-7,-9],[-3,-8],[1,-9],[7,-10],[27,-19],[14,-17],[9,-5],[8,0],[2,8],[72,-9],[25,-27],[124,-33],[100,-26]],[[0,3713],[2,0],[22,-13],[43,0],[0,-10],[-18,-9],[2,-15],[3,-15],[3,-12],[3,-8],[-3,-11],[-3,-8],[-7,-11],[21,-43],[23,-16],[48,9],[-4,30],[9,18],[78,42],[-2,20],[-5,13],[-11,16],[8,20],[16,24],[7,21],[6,13],[20,27],[7,5],[46,-5],[22,11],[21,34],[-12,20],[-4,14],[0,25],[2,9],[3,9],[4,8],[3,3],[5,4],[0,9],[-4,19],[-2,19],[-2,12],[0,11],[1,16],[5,19],[7,13],[13,19],[-20,27]],[[19,4096],[-8,-19],[-11,2]],[[3369,3735],[-10,24],[-12,8],[-154,-34],[-14,-12],[-6,-21],[8,-17],[122,-33],[31,12],[21,21],[15,8],[5,9],[5,16],[-2,6],[-4,4],[-5,9]],[[3369,3735],[5,-9],[4,-4],[2,-6],[-5,-16],[-5,-9],[-15,-8],[-21,-21],[-31,-12],[-122,33],[-8,17],[6,21],[14,12],[154,34],[12,-8],[10,-24]],[[19,4096],[337,0],[20,-27],[-13,-19],[-7,-13],[-5,-19],[-1,-16],[0,-11],[2,-12],[2,-19],[4,-19],[0,-9],[-5,-4],[-3,-3],[-4,-8],[-3,-9],[-2,-9],[0,-25],[4,-14],[12,-20],[-21,-34],[-22,-11],[-46,5],[-7,-5],[-20,-27],[-6,-13],[-7,-21],[-16,-24],[-8,-20],[11,-16],[5,-13],[2,-20],[-78,-42],[-9,-18],[4,-30],[-48,-9],[-23,16],[-21,43],[7,11],[3,8],[3,11],[-3,8],[-3,12],[-3,15],[-2,15],[18,9],[0,10],[-43,0],[-22,13],[-2,0],[0,366],[11,-2],[8,19]],[[3165,4096],[931,0],[0,-1197],[-100,26],[-124,33],[-9,10],[-16,17],[-72,9],[-2,-8],[-8,0],[-9,5],[-14,17],[-27,19],[-7,10],[-1,9],[3,8],[7,9],[37,21],[-11,28],[-18,7],[-100,-2],[17,26],[-8,11],[-18,5],[-41,44],[5,25],[-2,6],[-64,53],[-20,5],[-19,16],[-32,4],[-33,19],[-60,72],[-25,11],[-7,18],[3,10],[3,12],[0,13],[-1,14],[8,21],[9,9],[90,45],[91,46],[64,32],[32,47],[-7,7],[-23,2],[11,13],[49,23],[128,-1],[128,-2],[10,9],[6,15],[1,2],[-1,30],[-8,22],[-23,10],[-9,19],[34,23],[6,16],[-35,30],[-7,2],[-86,-48],[-104,-6],[-104,-6],[-84,30],[-36,-13],[-18,8],[-19,19],[-105,40],[-105,40],[-16,19],[-18,7],[-9,7],[-18,33],[-7,8],[6,34],[11,23]],[[2886,4096],[211,0],[-60,-62],[-41,-16],[-7,7],[-6,2],[-3,6],[-3,8],[-4,8],[-4,6],[-2,0],[-15,-16],[-7,1],[-59,56]]]}