{"objects":{"water":{"type":"GeometryCollection","geometries":[{"type":"MultiPolygon","properties":{"sort_rank":204,"source":"naturalearthdata.com","min_zoom":5.0,"kind":"lake","area":3508961270},"arcs":[[[0]]]},{"type":"MultiPolygon","properties":{"source":"naturalearthdata.com","kind":"ocean","area":989871000000000,"sort_rank":200,"min_zoom":0,"id":1},"arcs":[[[1],[2],[3],[4]],[[5]],[[6]],[[7]]]},{"type":"MultiLineString","properties":{"source":"naturalearthdata.com","kind":"lake","area":2126420000,"sort_rank":367,"boundary":true,"min_zoom":5.0,"id":137},"arcs":[[8],[9]]},{"type":"MultiLineString","properties":{"source":"naturalearthdata.com","kind":"ocean","sort_rank":205,"boundary":true,"min_zoom":0,"id":496},"arcs":[[10],[11],[12],[13],[14],[15],[16],[17]]},{"type":"LineString","properties":{"source":"naturalearthdata.com","kind":"ocean","sort_rank":205,"boundary":true,"min_zoom":0,"id":962},"arcs":[18]},{"type":"LineString","properties":{"source":"naturalearthdata.com","kind":"ocean","sort_rank":205,"boundary":true,"min_zoom":0,"id":963},"arcs":[19]},{"type":"LineString","properties":{"source":"naturalearthdata.com","kind":"ocean","sort_rank":205,"boundary":true,"min_zoom":0,"id":964},"arcs":[20]},{"type":"LineString","properties":{"source":"naturalearthdata.com","kind":"ocean","sort_rank":205,"boundary":true,"min_zoom":0,"id":971},"arcs":[21]}]},"buildings":{"type":"GeometryCollection","geometries":[]},"places":{"type":"GeometryCollection","geometries":[]},"transit":{"type":"GeometryCollection","geometries":[]},"pois":{"type":"GeometryCollection","geometries":[]},"boundaries":{"type":"GeometryCollection","geometries":[]},"roads":{"type":"GeometryCollection","geometries":[]},"earth":{"type":"GeometryCollection","geometries":[{"type":"MultiPolygon","properties":{"sort_rank":10,"source":"naturalearthdata.com","min_zoom":0.5,"kind":"earth","area":54586915647},"arcs":[[[22]],[[23]]]},{"type":"MultiPolygon","properties":{"sort_rank":10,"source":"naturalearthdata.com","kind":"earth","min_zoom":4.0,"area":112145940633},"arcs":[[[24]]]},{"type":"MultiPolygon","properties":{"sort_rank":10,"source":"naturalearthdata.com","min_zoom":1.0,"kind":"earth","area":200763617127},"arcs":[[[25]]]},{"type":"MultiPolygon","properties":{"sort_rank":10,"source":"naturalearthdata.com","min_zoom":0,"kind":"earth","area":44884805284559},"arcs":[[[26]],[[27]],[[28]],[[29]],[[30]]]}]},"landuse":{"type":"GeometryCollection","geometries":[{"type":"MultiPolygon","properties":{"kind":"park","protect_class":"1","area":262356162448,"sort_rank":24,"source":"openstreetmap.org","min_zoom":4.0,"tier":2,"id":-6127119},"arcs":[[[31]],[[32]]]}]}},"type":"Topology","transform":{"translate":[-78.75,70.612614238],"scale":[0.002746582,0.0008317698]},"arcs":[[[0,584],[0,56],[64,-13],[-1,-1],[-1,0],[0,-2],[0,-6],[3,-1],[7,-7],[-60,-8],[4,-9],[3,-6],[3,-7],[2,-11],[-11,-7],[-6,0],[-5,7],[0,14],[-2,1]],[[0,3659],[0,437],[4096,0],[0,-4096],[-369,0],[-79,49],[-134,84],[-10,12],[-28,55],[-25,9],[-51,-11],[1,4],[2,13],[-26,0],[-42,-22],[-9,-11],[-8,-18],[-5,-23],[-3,-26],[-3,-19],[-5,-9],[-12,5],[-16,30],[-9,6],[-10,-20],[10,-13],[3,-3],[-10,-7],[-20,8],[-16,-27],[-20,-7],[-9,-9],[-14,-50],[-10,0],[-1,5],[-2,22],[-3,-4],[-5,-22],[-4,-1],[-9,0],[-29,9],[-50,-8],[-16,4],[-8,-3],[-1,-2],[-30,0],[0,1],[11,26],[15,9],[46,0],[28,17],[91,94],[32,50],[22,46],[4,17],[2,13],[5,10],[1,10],[-3,12],[-6,8],[-7,6],[-21,8],[-14,-6],[-117,-95],[-59,-19],[-18,-19],[-17,-26],[-7,-7],[-16,0],[-22,-14],[-1,-6],[-3,-8],[-6,-8],[-17,-9],[-55,-68],[-52,-17],[-8,-20],[0,-5],[-47,0],[2,12],[4,24],[6,22],[13,18],[95,58],[21,37],[1,53],[3,13],[5,25],[4,11],[62,69],[8,21],[2,27],[-5,27],[-16,41],[-1,10],[-2,28],[-2,11],[-12,42],[-6,11],[-28,31],[-27,12],[-27,-6],[-44,-46],[-61,-40],[-10,-15],[-9,-22],[-7,-29],[-2,-14],[-1,-11],[-2,-9],[-4,-10],[-10,-17],[-4,-11],[-2,-18],[7,-3],[6,-6],[27,-40],[2,-12],[-8,-5],[-7,3],[-30,36],[-9,2],[-97,-17],[-51,-42],[-33,-13],[-48,-43],[-94,-32],[-9,-19],[-15,-48],[-9,-23],[-10,-18],[-10,-14],[-13,-11],[-31,-9],[-8,-12],[-5,-14],[-7,-10],[-7,-5],[-7,1],[3,18],[2,6],[-7,0],[-6,-4],[-6,-3],[-6,7],[16,15],[33,7],[39,35],[7,10],[17,49],[-2,8],[-2,8],[-3,18],[7,2],[16,18],[28,44],[5,12],[2,5],[3,2],[2,4],[-1,11],[-2,6],[-5,5],[-17,9],[-16,18],[-10,2],[-63,-42],[-109,-24],[10,11],[143,62],[6,9],[7,13],[3,17],[-4,20],[9,23],[11,11],[31,12],[4,6],[15,43],[4,9],[5,4],[2,4],[-2,11],[-3,12],[-1,10],[2,12],[5,10],[10,14],[9,8],[19,5],[38,27],[10,2],[55,-20],[33,-30],[54,-7],[10,9],[8,23],[14,50],[15,41],[5,7],[13,12],[19,37],[31,35],[14,32],[-10,28],[-52,109],[-36,36],[-17,25],[2,6],[3,19],[-34,39],[-6,2],[-5,18],[-14,12],[-73,23],[-50,48],[-101,44],[-100,44],[-15,14],[-13,7],[-13,-11],[-2,-7],[-4,-16],[-3,-19],[-1,-13],[-1,-26],[-1,-18],[-8,-33],[-47,-33],[-20,-5],[-5,-4],[2,-14],[5,-14],[5,-9],[5,-4],[4,-6],[4,-14],[5,-30],[-21,-20],[-45,1],[-22,-14],[4,-23],[4,-17],[3,-19],[2,-27],[0,-20],[-1,-19],[-3,-20],[-4,-20],[-5,-20],[-6,-15],[-7,-11],[-8,-3],[-27,4],[-15,-7],[-7,-25],[2,-12],[4,-23],[1,-7],[-6,-19],[-6,-18],[-15,-27],[-7,-15],[-2,-20],[-7,-21],[-31,-18],[-10,-14],[-1,-23],[11,-29],[-2,-23],[-3,9],[-18,42],[-7,8],[10,28],[36,33],[14,21],[8,33],[10,32],[0,25],[-3,23],[-5,21],[-5,14],[18,28],[64,29],[-5,15],[-6,7],[-14,10],[-15,-7],[-2,5],[-1,10],[-3,5],[-28,27],[-22,12],[-46,8],[4,-17],[0,-13],[-3,-10],[-6,-10],[-5,-7],[-12,-8],[-11,-3],[-2,-6],[-2,-8],[-3,-10],[-21,-34],[-5,-11],[-2,-8],[-2,-17],[-1,-7],[-7,-21],[-2,-8],[-3,-34],[2,-29],[-1,-27],[-10,-26],[-12,-13],[-14,-8],[-26,-3],[-7,-4],[-4,-8],[-5,-3],[-7,7],[16,21],[39,16],[12,36],[1,18],[-2,32],[1,16],[3,13],[7,19],[3,10],[-3,7],[2,10],[1,10],[-1,8],[-2,6],[10,27],[10,23],[23,36],[18,19],[5,14],[1,7],[-1,6],[-1,8],[3,8],[3,5],[4,3],[5,1],[8,0],[9,3],[16,12],[-6,15],[-6,11],[-4,15],[-2,22],[-4,5],[-9,-2],[-9,-7],[-5,-9],[-3,-16],[-3,-35],[-3,-7],[-10,-4],[-20,-16],[-11,-4],[19,42],[-1,7],[-5,8],[-11,34],[-7,8],[11,32],[4,20],[-3,38],[6,17],[9,15],[5,17],[-21,30],[-11,9],[-13,3],[-14,-4],[-12,-12],[-21,-33],[-12,-12],[-6,-9],[-1,-8],[1,-11],[-3,-13],[-8,-18],[-2,-13],[0,-11],[1,-11],[0,-10],[-4,-14],[-5,-5],[-5,-3],[-6,-7],[-20,-74],[1,-13],[4,-19],[0,-13],[-3,-8],[-66,-128],[-21,-20],[0,8],[10,10],[21,32],[12,28],[5,8],[5,10],[2,15],[-4,11],[-9,4],[-20,-3],[0,9],[23,22],[17,7],[2,13],[-1,19],[2,20],[-2,21],[3,18],[5,16],[7,11],[0,9],[-56,-9],[-25,-24],[-15,-8],[-9,8],[20,19],[26,15],[1,6],[11,3],[20,18],[10,4],[19,-10],[10,1],[5,18],[-3,1],[-4,3],[-3,5],[-3,7],[6,14],[4,17],[2,18],[3,18],[7,14],[15,16],[6,10],[5,23],[0,14],[3,8],[22,9],[4,5],[3,8],[0,7],[-1,11],[-1,10],[4,4],[8,6],[45,51],[8,13],[6,17],[4,36],[-9,11],[-13,-17],[-8,-43],[-3,0],[0,8],[3,15],[-3,20],[-5,18],[-7,5],[-67,-3],[-33,-26],[-25,-61],[-9,-35],[-9,-26],[-12,-16],[-15,-5],[-11,-17],[7,-37],[19,-62],[-9,4],[-12,12],[-11,17],[-5,21],[0,31],[1,20],[5,14],[22,23],[11,16],[7,22],[3,30],[1,7],[3,6],[1,5],[-1,7],[-2,5],[-3,4],[-4,2],[-3,1],[-53,-11],[-5,-8],[-8,-22],[-37,-46],[-31,-4],[-7,-7],[-3,-9],[-2,-12],[-23,-89],[-7,-15],[-12,-6],[-15,0],[-13,-11],[-5,-36],[4,-43],[11,-25],[14,-20],[12,-27],[0,-34],[-15,-30],[-18,-25],[-12,-27],[-26,-36],[-12,-30],[-13,-24],[-55,-72],[-12,-4],[-8,14],[8,11],[17,12],[7,14],[2,9],[1,5],[1,4],[8,13],[11,12],[4,3],[6,7],[12,34],[5,8],[5,5],[9,13],[13,27],[2,9],[1,10],[2,7],[4,3],[5,1],[10,6],[5,5],[6,12],[0,10],[-2,10],[-2,18],[-11,27],[-24,13],[-42,5],[8,4],[22,23],[7,14],[1,28],[-8,12],[-66,-3],[-14,-12],[-8,-15],[-8,-18],[-7,-14],[-10,-3],[8,28],[20,25],[8,18],[13,17],[69,8],[8,6],[4,10],[3,11],[16,8],[5,6],[4,9],[11,14],[5,9],[6,18],[9,36],[0,6],[-2,10],[-3,13],[-5,13],[-6,12],[-5,4],[-8,-2],[-31,-21],[-15,-21],[-5,-10],[-7,-24],[-3,-8],[-6,-7],[-9,-7],[-44,-17],[-57,-62],[-40,-10],[-30,-32],[-7,7],[54,46],[35,45],[77,62],[6,11],[0,16],[-11,20],[-14,10],[-28,4],[-112,-34],[6,21],[9,9],[110,28],[45,-16],[8,3],[22,21],[12,5],[25,0],[12,6],[6,9],[9,23],[6,11],[9,11],[19,10],[9,8],[-2,11],[-6,11],[-2,11],[3,1],[7,6],[2,1],[4,-2],[3,-5],[1,-5],[2,-4],[9,-9],[9,-5],[20,-2],[35,16],[20,0],[4,4],[13,17],[8,23],[7,11],[1,13],[-2,13],[-2,9],[-5,14],[-4,6],[-1,6],[6,16],[26,32],[1,14],[-6,30],[-14,47],[-17,33],[-2,5],[-4,16],[-2,4],[-4,2],[-9,-2],[-13,11],[-105,13],[-105,13],[-31,24],[-16,4],[-16,-7],[-11,-21],[-4,-8],[-8,-17],[-3,-8],[-3,-11],[-5,-28],[-2,-11],[-12,-21],[-17,-15],[-18,-9],[-13,0],[-48,6],[-15,-8],[-18,-23],[-9,-18],[0,-19],[3,-21],[-3,-20],[-6,-16],[-15,-35],[-3,-10],[-1,-9],[-2,-22],[-2,-11],[-6,-19],[-15,-26],[-26,-68],[-8,-15],[-10,-14],[-12,-8],[-24,-6],[-23,7],[-23,-14],[-15,-1],[0,8],[27,17],[55,11],[25,38],[15,45],[5,13],[16,27],[5,18],[-3,21],[3,10],[3,19],[3,11],[5,7],[5,4],[4,8],[2,19],[1,31],[3,25],[5,21],[8,17],[17,18],[88,24],[19,15],[8,21],[-7,17],[-99,51],[-52,-2],[-127,-78],[-6,-8],[-4,-10],[-9,-40],[-10,-26],[-11,-17],[-26,-23],[-24,-31],[-10,-22],[-19,-50],[-9,-17],[-10,-6],[-11,12],[5,12],[15,20],[16,46],[12,23],[40,37],[8,16],[11,26],[9,28],[4,26],[6,24],[15,16],[142,67],[58,3],[72,-28],[13,5],[66,70],[12,20],[1,5],[-1,5],[0,5],[2,2],[3,2],[8,18],[20,28],[-10,25],[-27,54],[-6,17],[-4,26],[-31,69],[-1,6],[-3,18],[-9,24],[-2,1],[0,13],[2,17],[0,13],[-3,6],[-100,38],[-26,28],[-8,6],[-27,7],[-34,23],[-75,12],[-18,-6],[-6,-8],[-11,-21],[-12,-9],[-1,-11],[11,-56],[2,-10],[-17,-15],[-7,1],[-9,14],[-13,45],[-2,11],[1,10],[2,11],[2,13],[0,16],[-5,14],[-10,9],[-166,48],[-11,20],[7,3],[2,10],[-3,14],[-4,14],[-5,9],[-34,39],[-38,17],[-130,7],[-130,8],[-19,-22],[-25,-12],[-28,-28],[-65,-7],[-4,-6],[-9,-18],[-4,-4],[-60,-26],[-67,-72],[-7,-1],[-6,2],[-7,-1],[-5,-8],[-2,-10],[-1,-20],[-2,-8],[-29,-49],[-8,-5],[5,-29],[-3,-26],[-1,-24],[8,-23],[111,-106],[83,-33],[21,-22],[42,-17],[51,-50],[22,-10],[29,-35],[100,-3],[51,-28],[49,-46],[-66,31],[-29,29],[-15,6],[-106,-8],[-11,-9],[2,-14],[4,-11],[7,-16],[-5,-19],[-7,-16],[-8,-11],[-7,-3],[0,9],[3,6],[9,20],[2,10],[-2,12],[-4,8],[-6,7],[-5,10],[5,31],[-14,26],[-34,34],[-47,24],[-11,-1],[-29,-15],[6,22],[-4,12],[-142,60],[-22,-13],[5,-26],[0,-17],[-7,-46],[17,-16],[5,-10],[0,-6],[-1,-8],[-1,-7],[-1,-3],[3,-7],[6,-8],[3,-5],[-3,-12],[-11,4],[-10,17],[0,28],[-8,9],[-8,5],[-7,8],[-5,19],[0,20],[2,14],[0,13],[-4,19],[4,15],[2,6],[4,3],[-9,24],[-12,12],[-13,2],[-11,-4],[-30,-26],[-7,0],[-5,3],[0,589],[15,6],[24,27],[172,55],[19,-11],[28,7],[113,-7],[112,-8],[38,-32],[91,-14],[91,-13],[17,10],[14,0],[26,-18],[125,-12],[36,25],[35,11],[14,25],[-7,14],[2,12],[8,10],[7,5],[-21,48],[-55,3],[-24,32],[6,13],[19,20],[-5,13],[-13,15],[-4,14],[10,6],[4,5],[3,12],[-4,0],[-4,1],[-4,4],[-3,4],[5,16],[16,11],[7,14],[-11,10],[-42,9],[-20,11],[-17,4],[-12,9],[-33,45],[-8,3],[18,42],[1,18],[-13,22],[-27,28],[-13,20],[-8,26],[18,9],[-2,12],[-3,7],[-4,3],[-8,3],[-3,-1],[-1,-2],[1,-5],[-17,11],[-17,4],[-20,-10],[-49,41],[-10,27],[3,9],[3,6],[7,10],[-25,32],[-23,42],[2,6],[2,7],[1,4],[-4,8],[-13,16],[-2,5],[-2,6],[-3,4],[-39,5],[-9,9],[-22,37],[-8,8],[-158,60],[-50,41],[-24,10],[-17,17],[-9,3],[-114,-8],[-109,-7]],[[2637,487],[-105,50],[-8,0],[-4,2],[-3,6],[2,8],[-10,7],[-56,-32],[-3,-8],[0,-8],[1,-9],[1,-10],[-1,-10],[-4,-18],[-3,-46],[-3,-18],[-8,-17],[-10,-11],[-11,-2],[-10,8],[8,9],[-9,7],[-9,1],[-17,-8],[0,-6],[0,-3],[0,-7],[10,-35],[5,-13],[7,-11],[9,-6],[4,-5],[3,-9],[2,-12],[0,-12],[0,-9],[0,-4],[10,-16],[15,-4],[17,4],[13,7],[7,10],[10,22],[8,10],[99,58],[68,10],[12,8],[7,16],[-5,24],[14,26],[5,16],[2,28],[-9,10],[-51,2]],[[2110,1088],[-8,5],[-6,-3],[-10,-27],[-7,-11],[-25,-34],[-5,-3],[-3,-8],[0,-22],[-3,-13],[-6,2],[-6,15],[-3,21],[4,15],[17,18],[4,16],[1,14],[8,26],[3,14],[-8,18],[-13,16],[-13,8],[-66,-48],[-5,-6],[-4,-13],[0,-4],[3,-6],[1,-9],[-2,-14],[24,-33],[6,-17],[-2,-17],[3,-8],[12,-8],[-5,-68],[22,-24],[31,-7],[21,-16],[-6,-1],[-2,-8],[1,-11],[5,-13],[6,-2],[9,2],[9,6],[5,7],[4,16],[0,4],[-2,4],[-3,13],[-6,5],[-2,4],[0,4],[0,3],[2,5],[0,4],[-1,13],[-5,24],[-1,8],[2,17],[4,9],[26,17],[32,2],[13,16],[-7,13],[-16,11],[-7,10],[-5,14],[-4,14],[-4,12],[-7,9]],[[2189,1261],[-69,-7],[-22,-34],[-11,-22],[-9,-27],[17,-36],[84,-33],[14,22],[25,63],[-11,53],[-7,15],[-11,6]],[[0,1854],[0,38],[24,-25],[23,-9],[23,-23],[35,-13],[12,-10],[10,-14],[5,-13],[5,-17],[4,-18],[3,-19],[6,-58],[4,-16],[12,-17],[13,-1],[26,9],[23,-8],[9,-10],[-3,-15],[6,-15],[27,-30],[27,-61],[9,-15],[10,-14],[11,-9],[16,-6],[11,-11],[5,-3],[14,2],[7,-2],[7,-9],[-7,-6],[-6,-13],[-3,-16],[-3,-38],[-3,6],[-5,26],[-18,31],[-41,25],[-17,27],[-4,39],[-17,29],[-21,24],[-15,23],[-1,8],[0,8],[0,7],[0,6],[-6,7],[-8,0],[-38,-17],[-10,-10],[-2,-25],[5,-15],[19,-19],[7,-12],[21,-49],[38,-49],[22,-9],[23,-24],[12,-5],[0,-8],[-16,2],[-34,18],[-28,30],[-31,13],[-64,140],[-1,36],[-18,91],[-11,38],[-14,28],[-89,65]],[[0,1581],[0,37],[48,-13],[6,-6],[3,-12],[-1,-11],[0,-7],[0,-7],[2,-8],[8,-13],[16,-12],[7,-12],[-15,-15],[-16,10],[-47,64],[-11,5]],[[2651,0],[-40,0],[1,1],[18,8],[21,-9]],[[19,587],[3,-7],[2,-11],[-11,-7],[-6,0],[-5,7],[0,14],[-2,1]],[[0,640],[64,-13],[-1,-1],[-1,0],[0,-2],[0,-6],[3,-1],[7,-7],[-60,-8],[4,-9],[3,-6]],[[0,1581],[11,-5],[47,-64],[16,-10],[15,15],[-7,12],[-16,12],[-8,13],[-2,8],[0,7],[0,7],[1,11],[-3,12],[-6,6],[-48,13]],[[0,1854],[89,-65],[14,-28],[11,-38],[18,-91],[1,-36],[64,-140],[31,-13],[28,-30],[34,-18],[16,-2],[0,8],[-12,5],[-23,24],[-22,9],[-38,49],[-21,49],[-7,12],[-19,19],[-5,15],[2,25],[10,10],[38,17],[8,0],[6,-7],[0,-6],[0,-7],[0,-8],[1,-8],[15,-23],[21,-24],[17,-29],[4,-39],[17,-27],[41,-25],[18,-31],[5,-26],[3,-6],[3,38],[3,16],[6,13],[7,6],[-7,9],[-7,2],[-14,-2],[-5,3],[-11,11],[-16,6],[-11,9],[-10,14],[-9,15],[-27,61],[-27,30],[-6,15],[3,15],[-9,10],[-23,8],[-26,-9],[-13,1],[-12,17],[-4,16],[-6,58],[-3,19],[-4,18],[-5,17],[-5,13],[-10,14],[-12,10],[-35,13],[-23,23],[-23,9],[-24,25]],[[0,2071],[5,-3],[7,0],[30,26],[11,4],[13,-2],[12,-12],[9,-24],[-4,-3],[-2,-6],[-4,-15],[4,-19],[0,-13],[-2,-14],[0,-20],[5,-19],[7,-8],[8,-5],[8,-9],[0,-28],[10,-17],[11,-4],[3,12],[-3,5],[-6,8],[-3,7],[1,3],[1,7],[1,8],[0,6],[-5,10],[-17,16],[7,46],[0,17],[-5,26],[22,13],[142,-60],[4,-12],[-6,-22],[29,15],[11,1],[47,-24],[34,-34],[14,-26],[-5,-31],[5,-10],[6,-7],[4,-8],[2,-12],[-2,-10],[-9,-20],[-3,-6],[0,-9],[7,3],[8,11],[7,16],[5,19],[-7,16],[-4,11],[-2,14],[11,9],[106,8],[15,-6],[29,-29],[66,-31],[-49,46],[-51,28],[-100,3],[-29,35],[-22,10],[-51,50],[-42,17],[-21,22],[-83,33],[-111,106],[-8,23],[1,24],[3,26],[-5,29],[8,5],[29,49],[2,8],[1,20],[2,10],[5,8],[7,1],[6,-2],[7,1],[67,72],[60,26],[4,4],[9,18],[4,6],[65,7],[28,28],[25,12],[19,22],[130,-8],[130,-7],[38,-17],[34,-39],[5,-9],[4,-14],[3,-14],[-2,-10],[-7,-3],[11,-20],[166,-48],[10,-9],[5,-14],[0,-16],[-2,-13],[-2,-11],[-1,-10],[2,-11],[13,-45],[9,-14],[7,-1],[17,15],[-2,10],[-11,56],[1,11],[12,9],[11,21],[6,8],[18,6],[75,-12],[34,-23],[27,-7],[8,-6],[26,-28],[100,-38],[3,-6],[0,-13],[-2,-17],[0,-13],[2,-1],[9,-24],[3,-18],[1,-6],[31,-69],[4,-26],[6,-17],[27,-54],[10,-25],[-20,-28],[-8,-18],[-3,-2],[-2,-2],[0,-5],[1,-5],[-1,-5],[-12,-20],[-66,-70],[-13,-5],[-72,28],[-58,-3],[-142,-67],[-15,-16],[-6,-24],[-4,-26],[-9,-28],[-11,-26],[-8,-16],[-40,-37],[-12,-23],[-16,-46],[-15,-20],[-5,-12],[11,-12],[10,6],[9,17],[19,50],[10,22],[24,31],[26,23],[11,17],[10,26],[9,40],[4,10],[6,8],[127,78],[52,2],[99,-51],[7,-17],[-8,-21],[-19,-15],[-88,-24],[-17,-18],[-8,-17],[-5,-21],[-3,-25],[-1,-31],[-2,-19],[-4,-8],[-5,-4],[-5,-7],[-3,-11],[-3,-19],[-3,-10],[3,-21],[-5,-18],[-16,-27],[-5,-13],[-15,-45],[-25,-38],[-55,-11],[-27,-17],[0,-8],[15,1],[23,14],[23,-7],[24,6],[12,8],[10,14],[8,15],[26,68],[15,26],[6,19],[2,11],[2,22],[1,9],[3,10],[15,35],[6,16],[3,20],[-3,21],[0,19],[9,18],[18,23],[15,8],[48,-6],[13,0],[18,9],[17,15],[12,21],[2,11],[5,28],[3,11],[3,8],[8,17],[4,8],[11,21],[16,7],[16,-4],[31,-24],[105,-13],[105,-13],[13,-11],[9,2],[4,-2],[2,-4],[4,-16],[2,-5],[17,-33],[14,-47],[6,-30],[-1,-14],[-26,-32],[-6,-16],[1,-6],[4,-6],[5,-14],[2,-9],[2,-13],[-1,-13],[-7,-11],[-8,-23],[-13,-17],[-4,-4],[-20,0],[-35,-16],[-20,2],[-9,5],[-9,9],[-2,4],[-1,5],[-3,5],[-4,2],[-2,-1],[-7,-6],[-3,-1],[2,-11],[6,-11],[2,-11],[-9,-8],[-19,-10],[-9,-11],[-6,-11],[-9,-23],[-6,-9],[-12,-6],[-25,0],[-12,-5],[-22,-21],[-8,-3],[-45,16],[-110,-28],[-9,-9],[-6,-21],[112,34],[28,-4],[14,-10],[11,-20],[0,-16],[-6,-11],[-77,-62],[-35,-45],[-54,-46],[7,-7],[30,32],[40,10],[57,62],[44,17],[9,7],[6,7],[3,8],[7,24],[5,10],[15,21],[31,21],[8,2],[5,-4],[6,-12],[5,-13],[3,-13],[2,-10],[0,-6],[-9,-36],[-6,-18],[-5,-9],[-11,-14],[-4,-9],[-5,-6],[-16,-8],[-3,-11],[-4,-10],[-8,-6],[-69,-8],[-13,-17],[-8,-18],[-20,-25],[-8,-28],[10,3],[7,14],[8,18],[8,15],[14,12],[66,3],[8,-12],[-1,-28],[-7,-14],[-22,-23],[-8,-4],[42,-5],[24,-13],[11,-27],[2,-18],[2,-10],[0,-10],[-6,-12],[-5,-5],[-10,-6],[-5,-1],[-4,-3],[-2,-7],[-1,-10],[-2,-9],[-13,-27],[-9,-13],[-5,-5],[-5,-8],[-12,-34],[-6,-7],[-4,-3],[-11,-12],[-8,-13],[-1,-4],[-1,-5],[-2,-9],[-7,-14],[-17,-12],[-8,-11],[8,-14],[12,4],[55,72],[13,24],[12,30],[26,36],[12,27],[18,25],[15,30],[0,34],[-12,27],[-14,20],[-11,25],[-4,43],[5,36],[13,11],[15,0],[12,6],[7,15],[23,89],[2,12],[3,9],[7,7],[31,4],[37,46],[8,22],[5,8],[53,11],[3,-1],[4,-2],[3,-4],[2,-5],[1,-7],[-1,-5],[-3,-6],[-1,-7],[-3,-30],[-7,-22],[-11,-16],[-22,-23],[-5,-14],[-1,-20],[0,-31],[5,-21],[11,-17],[12,-12],[9,-4],[-19,62],[-7,37],[11,17],[15,5],[12,16],[9,26],[9,35],[25,61],[33,26],[67,3],[7,-5],[5,-18],[3,-20],[-3,-15],[0,-8],[3,0],[8,43],[13,17],[9,-11],[-4,-36],[-6,-17],[-8,-13],[-45,-51],[-8,-6],[-4,-4],[1,-10],[1,-11],[0,-7],[-3,-8],[-4,-5],[-22,-9],[-3,-8],[0,-14],[-5,-23],[-6,-10],[-15,-16],[-7,-14],[-3,-18],[-2,-18],[-4,-17],[-6,-14],[3,-7],[3,-5],[4,-3],[3,-1],[-5,-18],[-10,-1],[-19,10],[-10,-4],[-20,-18],[-11,-3],[-1,-6],[-26,-15],[-20,-19],[9,-8],[15,8],[25,24],[56,9],[0,-9],[-7,-11],[-5,-16],[-3,-18],[2,-21],[-2,-20],[1,-19],[-2,-13],[-17,-7],[-23,-22],[0,-9],[20,3],[9,-4],[4,-11],[-2,-15],[-5,-10],[-5,-8],[-12,-28],[-21,-32],[-10,-10],[0,-8],[21,20],[66,128],[3,8],[0,13],[-4,19],[-1,13],[20,74],[6,7],[5,3],[5,5],[4,14],[0,10],[-1,11],[0,11],[2,13],[8,18],[3,13],[-1,11],[1,8],[6,9],[12,12],[21,33],[12,12],[14,4],[13,-3],[11,-9],[21,-30],[-5,-17],[-9,-15],[-6,-17],[3,-38],[-4,-20],[-11,-32],[7,-8],[11,-34],[5,-8],[1,-7],[-19,-42],[11,4],[20,16],[10,4],[3,7],[3,35],[3,16],[5,9],[9,7],[9,2],[4,-5],[2,-22],[4,-15],[6,-11],[6,-15],[-16,-12],[-9,-3],[-8,0],[-5,-1],[-4,-3],[-3,-5],[-3,-8],[1,-8],[1,-6],[-1,-7],[-5,-14],[-18,-19],[-23,-36],[-10,-23],[-10,-27],[2,-6],[1,-8],[-1,-10],[-2,-10],[3,-7],[-3,-10],[-7,-19],[-3,-13],[-1,-16],[2,-32],[-1,-18],[-12,-36],[-39,-16],[-16,-21],[7,-7],[5,3],[4,8],[7,4],[26,3],[14,8],[12,13],[10,26],[1,27],[-2,29],[3,34],[2,8],[7,21],[1,7],[2,17],[2,8],[5,11],[21,34],[3,10],[2,8],[2,6],[11,3],[12,8],[5,7],[6,10],[3,10],[0,13],[-4,17],[46,-8],[22,-12],[28,-27],[3,-5],[1,-10],[2,-5],[15,7],[14,-10],[6,-7],[5,-15],[-64,-29],[-18,-28],[5,-14],[5,-21],[3,-23],[0,-25],[-10,-32],[-8,-33],[-14,-21],[-36,-33],[-10,-28],[7,-8],[18,-42],[3,-9],[2,23],[-11,29],[1,23],[10,14],[31,18],[7,21],[2,20],[7,15],[15,27],[6,18],[6,19],[-1,7],[-4,23],[-2,12],[7,25],[15,7],[27,-4],[8,3],[7,11],[6,15],[5,20],[4,20],[3,20],[1,19],[0,20],[-2,27],[-3,19],[-4,17],[-4,23],[22,14],[45,-1],[21,20],[-5,30],[-4,14],[-4,6],[-5,4],[-5,9],[-5,14],[-2,14],[5,4],[20,5],[47,33],[8,33],[1,18],[1,26],[1,13],[3,19],[4,16],[2,7],[13,11],[13,-7],[15,-14],[100,-44],[101,-44],[50,-48],[73,-23],[14,-12],[5,-18],[6,-2],[34,-39],[-3,-19],[-2,-6],[17,-25],[36,-36],[52,-109],[10,-28],[-14,-32],[-31,-35],[-19,-37],[-13,-12],[-5,-7],[-15,-41],[-14,-50],[-8,-23],[-10,-9],[-54,7],[-33,30],[-55,20],[-10,-2],[-38,-27],[-19,-5],[-9,-8],[-10,-14],[-5,-10],[-2,-12],[1,-10],[3,-12],[2,-11],[-2,-4],[-5,-4],[-4,-9],[-15,-43],[-4,-6],[-31,-12],[-11,-11],[-9,-23],[4,-20],[-3,-17],[-7,-13],[-6,-9],[-143,-62],[-10,-11],[109,24],[63,42],[10,-2],[16,-18],[17,-9],[5,-5],[2,-6],[1,-11],[-2,-4],[-3,-2],[-2,-5],[-5,-12],[-28,-44],[-16,-18],[-7,-2],[3,-18],[2,-8],[2,-8],[-17,-49],[-7,-10],[-39,-35],[-33,-7],[-16,-15],[6,-7],[6,3],[6,4],[7,0],[-2,-6],[-3,-18],[7,-1],[7,5],[7,10],[5,14],[8,12],[31,9],[13,11],[10,14],[10,18],[9,23],[15,48],[9,19],[94,32],[48,43],[33,13],[51,42],[97,17],[9,-2],[30,-36],[7,-3],[8,5],[-2,12],[-27,40],[-6,6],[-7,3],[2,18],[4,11],[10,17],[4,10],[2,9],[1,11],[2,14],[7,29],[9,22],[10,15],[61,40],[44,46],[27,6],[27,-12],[28,-31],[6,-11],[12,-42],[2,-11],[2,-28],[1,-10],[16,-41],[5,-27],[-2,-27],[-8,-21],[-62,-69],[-4,-11],[-5,-25],[-3,-13],[-1,-53],[-21,-37],[-95,-58],[-13,-18],[-6,-22],[-4,-24],[-2,-12]],[[2651,0],[-21,9],[-18,-8],[-1,-1]],[[2819,0],[0,5],[8,20],[52,17],[55,68],[17,9],[6,8],[3,8],[1,6],[22,14],[16,0],[7,7],[17,26],[18,19],[59,19],[117,95],[14,6],[21,-8],[7,-6],[6,-8],[3,-12],[-1,-10],[-5,-10],[-2,-13],[-4,-17],[-22,-46],[-32,-50],[-91,-94],[-28,-17],[-46,0],[-15,-9],[-11,-26],[0,-1]],[[3041,0],[1,2],[8,3],[16,-4],[50,8],[29,-9]],[[3154,0],[4,1],[5,22],[3,4],[2,-22],[1,-5]],[[3179,0],[14,50],[9,9],[20,7],[16,27],[20,-8],[10,7],[-3,3],[-10,13],[10,20],[9,-6],[16,-30],[12,-5],[5,9],[3,19],[3,26],[5,23],[8,18],[9,11],[42,22],[26,0],[-2,-13],[-1,-4],[51,11],[25,-9],[28,-55],[10,-12],[134,-84],[79,-49]],[[2637,487],[-105,50],[-8,0],[-4,2],[-3,6],[2,8],[-10,7],[-56,-32],[-3,-8],[0,-8],[1,-9],[1,-10],[-1,-10],[-4,-18],[-3,-46],[-3,-18],[-8,-17],[-10,-11],[-11,-2],[-10,8],[8,9],[-9,7],[-9,1],[-17,-8],[0,-6],[0,-3],[0,-7],[10,-35],[5,-13],[7,-11],[9,-6],[4,-5],[3,-9],[2,-12],[0,-12],[0,-9],[0,-4],[10,-16],[15,-4],[17,4],[13,7],[7,10],[10,22],[8,10],[99,58],[68,10],[12,8],[7,16],[-5,24],[14,26],[5,16],[2,28],[-9,10],[-51,2]],[[2110,1088],[-8,5],[-6,-3],[-10,-27],[-7,-11],[-25,-34],[-5,-3],[-3,-8],[0,-22],[-3,-13],[-6,2],[-6,15],[-3,21],[4,15],[17,18],[4,16],[1,14],[8,26],[3,14],[-8,18],[-13,16],[-13,8],[-66,-48],[-5,-6],[-4,-13],[0,-4],[3,-6],[1,-9],[-2,-14],[24,-33],[6,-17],[-2,-17],[3,-8],[12,-8],[-5,-68],[22,-24],[31,-7],[21,-16],[-6,-1],[-2,-8],[1,-11],[5,-13],[6,-2],[9,2],[9,6],[5,7],[4,16],[0,4],[-2,4],[-3,13],[-6,5],[-2,4],[0,4],[0,3],[2,5],[0,4],[-1,13],[-5,24],[-1,8],[2,17],[4,9],[26,17],[32,2],[13,16],[-7,13],[-16,11],[-7,10],[-5,14],[-4,14],[-4,12],[-7,9]],[[2189,1261],[-69,-7],[-22,-34],[-11,-22],[-9,-27],[17,-36],[84,-33],[14,22],[25,63],[-11,53],[-7,15],[-11,6]],[[0,2660],[15,6],[24,27],[172,55],[19,-11],[28,7],[113,-7],[112,-8],[38,-32],[91,-14],[91,-13],[17,10],[14,0],[26,-18],[125,-12],[36,25],[35,11],[14,25],[-7,14],[2,12],[8,10],[7,5],[-21,48],[-55,3],[-24,32],[6,13],[19,20],[-5,13],[-13,15],[-4,14],[10,6],[4,5],[3,12],[-4,0],[-4,1],[-4,4],[-3,4],[5,16],[16,11],[7,14],[-11,10],[-42,9],[-20,11],[-17,4],[-12,9],[-33,45],[-8,3],[18,42],[1,18],[-13,22],[-27,28],[-13,20],[-8,26],[18,9],[-2,12],[-3,7],[-4,3],[-8,3],[-3,-1],[-1,-2],[1,-5],[-17,11],[-17,4],[-20,-10],[-49,41],[-10,27],[3,9],[3,6],[7,10],[-25,32],[-23,42],[2,6],[2,7],[1,4],[-4,8],[-13,16],[-2,5],[-2,6],[-3,4],[-39,5],[-9,9],[-22,37],[-8,8],[-158,60],[-50,41],[-24,10],[-17,17],[-9,3],[-114,-8],[-109,-7]],[[2110,1088],[7,-9],[4,-12],[4,-14],[5,-14],[7,-10],[16,-11],[7,-13],[-13,-16],[-32,-2],[-26,-17],[-4,-9],[-2,-17],[1,-8],[5,-24],[1,-13],[0,-4],[-2,-5],[0,-3],[0,-4],[2,-4],[6,-5],[3,-13],[2,-4],[0,-4],[-4,-16],[-5,-7],[-9,-6],[-9,-2],[-6,2],[-5,13],[-1,11],[2,8],[6,1],[-21,16],[-31,7],[-22,24],[5,68],[-12,8],[-3,8],[2,17],[-6,17],[-24,33],[2,14],[-1,9],[-3,6],[0,4],[4,13],[5,6],[66,48],[13,-8],[13,-16],[8,-18],[-3,-14],[-8,-26],[-1,-14],[-4,-16],[-17,-18],[-4,-15],[3,-21],[6,-15],[6,-2],[3,13],[0,22],[3,8],[5,3],[25,34],[7,11],[10,27],[6,3],[8,-5]],[[2189,1261],[11,-6],[7,-15],[11,-53],[-25,-63],[-14,-22],[-84,33],[-17,36],[9,27],[11,22],[22,34],[69,7]],[[2637,487],[51,-2],[9,-10],[-2,-28],[-5,-16],[-14,-26],[5,-24],[-7,-16],[-12,-8],[-68,-10],[-99,-58],[-8,-10],[-10,-22],[-7,-10],[-13,-7],[-17,-4],[-15,4],[-10,16],[0,4],[0,9],[0,12],[-2,12],[-3,9],[-4,5],[-9,6],[-7,11],[-5,13],[-10,35],[0,7],[0,3],[0,6],[17,8],[9,-1],[9,-7],[-8,-9],[10,-8],[11,2],[10,11],[8,17],[3,18],[3,46],[4,18],[1,10],[-1,10],[-1,9],[0,8],[3,8],[56,32],[10,-7],[-2,-8],[3,-6],[4,-2],[8,0],[105,-50]],[[0,2660],[0,999],[109,7],[114,8],[9,-3],[17,-17],[24,-10],[50,-41],[158,-60],[8,-8],[22,-37],[9,-9],[39,-5],[3,-4],[2,-6],[2,-5],[13,-16],[4,-8],[-1,-4],[-2,-7],[-2,-6],[23,-42],[25,-32],[-7,-10],[-3,-6],[-3,-9],[10,-27],[49,-41],[20,10],[17,-4],[17,-11],[-1,5],[1,2],[3,1],[8,-3],[4,-3],[3,-7],[2,-12],[-18,-9],[8,-26],[13,-20],[27,-28],[13,-22],[-1,-18],[-18,-42],[8,-3],[33,-45],[12,-9],[17,-4],[20,-11],[42,-9],[11,-10],[-7,-14],[-16,-11],[-5,-16],[3,-4],[4,-4],[4,-1],[4,0],[-3,-12],[-4,-5],[-10,-6],[4,-14],[13,-15],[5,-13],[-19,-20],[-6,-13],[24,-32],[55,-3],[21,-48],[-7,-5],[-8,-10],[-2,-12],[7,-14],[-14,-25],[-35,-11],[-36,-25],[-125,12],[-26,18],[-14,0],[-17,-10],[-91,13],[-91,14],[-38,32],[-112,8],[-113,7],[-28,-7],[-19,11],[-172,-55],[-24,-27],[-15,-6]],[[0,1892],[0,179],[5,-3],[7,0],[30,26],[11,4],[13,-2],[12,-12],[9,-24],[-4,-3],[-2,-6],[-4,-15],[4,-19],[0,-13],[-2,-14],[0,-20],[5,-19],[7,-8],[8,-5],[8,-9],[0,-28],[10,-17],[11,-4],[3,12],[-3,5],[-6,8],[-3,7],[1,3],[1,7],[1,8],[0,6],[-5,10],[-17,16],[7,46],[0,17],[-5,26],[22,13],[142,-60],[4,-12],[-6,-22],[29,15],[11,1],[47,-24],[34,-34],[14,-26],[-5,-31],[5,-10],[6,-7],[4,-8],[2,-12],[-2,-10],[-9,-20],[-3,-6],[0,-9],[7,3],[8,11],[7,16],[5,19],[-7,16],[-4,11],[-2,14],[11,9],[106,8],[15,-6],[29,-29],[66,-31],[-49,46],[-51,28],[-100,3],[-29,35],[-22,10],[-51,50],[-42,17],[-21,22],[-83,33],[-111,106],[-8,23],[1,24],[3,26],[-5,29],[8,5],[29,49],[2,8],[1,20],[2,10],[5,8],[7,1],[6,-2],[7,1],[67,72],[60,26],[4,4],[9,18],[4,6],[65,7],[28,28],[25,12],[19,22],[130,-8],[130,-7],[38,-17],[34,-39],[5,-9],[4,-14],[3,-14],[-2,-10],[-7,-3],[11,-20],[166,-48],[10,-9],[5,-14],[0,-16],[-2,-13],[-2,-11],[-1,-10],[2,-11],[13,-45],[9,-14],[7,-1],[17,15],[-2,10],[-11,56],[1,11],[12,9],[11,21],[6,8],[18,6],[75,-12],[34,-23],[27,-7],[8,-6],[26,-28],[100,-38],[3,-6],[0,-13],[-2,-17],[0,-13],[2,-1],[9,-24],[3,-18],[1,-6],[31,-69],[4,-26],[6,-17],[27,-54],[10,-25],[-20,-28],[-8,-18],[-3,-2],[-2,-2],[0,-5],[1,-5],[-1,-5],[-12,-20],[-66,-70],[-13,-5],[-72,28],[-58,-3],[-142,-67],[-15,-16],[-6,-24],[-4,-26],[-9,-28],[-11,-26],[-8,-16],[-40,-37],[-12,-23],[-16,-46],[-15,-20],[-5,-12],[11,-12],[10,6],[9,17],[19,50],[10,22],[24,31],[26,23],[11,17],[10,26],[9,40],[4,10],[6,8],[127,78],[52,2],[99,-51],[7,-17],[-8,-21],[-19,-15],[-88,-24],[-17,-18],[-8,-17],[-5,-21],[-3,-25],[-1,-31],[-2,-19],[-4,-8],[-5,-4],[-5,-7],[-3,-11],[-3,-19],[-3,-10],[3,-21],[-5,-18],[-16,-27],[-5,-13],[-15,-45],[-25,-38],[-55,-11],[-27,-17],[0,-8],[15,1],[23,14],[23,-7],[24,6],[12,8],[10,14],[8,15],[26,68],[15,26],[6,19],[2,11],[2,22],[1,9],[3,10],[15,35],[6,16],[3,20],[-3,21],[0,19],[9,18],[18,23],[15,8],[48,-6],[13,0],[18,9],[17,15],[12,21],[2,11],[5,28],[3,11],[3,8],[8,17],[4,8],[11,21],[16,7],[16,-4],[31,-24],[105,-13],[105,-13],[13,-11],[9,2],[4,-2],[2,-4],[4,-16],[2,-5],[17,-33],[14,-47],[6,-30],[-1,-14],[-26,-32],[-6,-16],[1,-6],[4,-6],[5,-14],[2,-9],[2,-13],[-1,-13],[-7,-11],[-8,-23],[-13,-17],[-4,-4],[-20,0],[-35,-16],[-20,2],[-9,5],[-9,9],[-2,4],[-1,5],[-3,5],[-4,2],[-2,-1],[-7,-6],[-3,-1],[2,-11],[6,-11],[2,-11],[-9,-8],[-19,-10],[-9,-11],[-6,-11],[-9,-23],[-6,-9],[-12,-6],[-25,0],[-12,-5],[-22,-21],[-8,-3],[-45,16],[-110,-28],[-9,-9],[-6,-21],[112,34],[28,-4],[14,-10],[11,-20],[0,-16],[-6,-11],[-77,-62],[-35,-45],[-54,-46],[7,-7],[30,32],[40,10],[57,62],[44,17],[9,7],[6,7],[3,8],[7,24],[5,10],[15,21],[31,21],[8,2],[5,-4],[6,-12],[5,-13],[3,-13],[2,-10],[0,-6],[-9,-36],[-6,-18],[-5,-9],[-11,-14],[-4,-9],[-5,-6],[-16,-8],[-3,-11],[-4,-10],[-8,-6],[-69,-8],[-13,-17],[-8,-18],[-20,-25],[-8,-28],[10,3],[7,14],[8,18],[8,15],[14,12],[66,3],[8,-12],[-1,-28],[-7,-14],[-22,-23],[-8,-4],[42,-5],[24,-13],[11,-27],[2,-18],[2,-10],[0,-10],[-6,-12],[-5,-5],[-10,-6],[-5,-1],[-4,-3],[-2,-7],[-1,-10],[-2,-9],[-13,-27],[-9,-13],[-5,-5],[-5,-8],[-12,-34],[-6,-7],[-4,-3],[-11,-12],[-8,-13],[-1,-4],[-1,-5],[-2,-9],[-7,-14],[-17,-12],[-8,-11],[8,-14],[12,4],[55,72],[13,24],[12,30],[26,36],[12,27],[18,25],[15,30],[0,34],[-12,27],[-14,20],[-11,25],[-4,43],[5,36],[13,11],[15,0],[12,6],[7,15],[23,89],[2,12],[3,9],[7,7],[31,4],[37,46],[8,22],[5,8],[53,11],[3,-1],[4,-2],[3,-4],[2,-5],[1,-7],[-1,-5],[-3,-6],[-1,-7],[-3,-30],[-7,-22],[-11,-16],[-22,-23],[-5,-14],[-1,-20],[0,-31],[5,-21],[11,-17],[12,-12],[9,-4],[-19,62],[-7,37],[11,17],[15,5],[12,16],[9,26],[9,35],[25,61],[33,26],[67,3],[7,-5],[5,-18],[3,-20],[-3,-15],[0,-8],[3,0],[8,43],[13,17],[9,-11],[-4,-36],[-6,-17],[-8,-13],[-45,-51],[-8,-6],[-4,-4],[1,-10],[1,-11],[0,-7],[-3,-8],[-4,-5],[-22,-9],[-3,-8],[0,-14],[-5,-23],[-6,-10],[-15,-16],[-7,-14],[-3,-18],[-2,-18],[-4,-17],[-6,-14],[3,-7],[3,-5],[4,-3],[3,-1],[-5,-18],[-10,-1],[-19,10],[-10,-4],[-20,-18],[-11,-3],[-1,-6],[-26,-15],[-20,-19],[9,-8],[15,8],[25,24],[56,9],[0,-9],[-7,-11],[-5,-16],[-3,-18],[2,-21],[-2,-20],[1,-19],[-2,-13],[-17,-7],[-23,-22],[0,-9],[20,3],[9,-4],[4,-11],[-2,-15],[-5,-10],[-5,-8],[-12,-28],[-21,-32],[-10,-10],[0,-8],[21,20],[66,128],[3,8],[0,13],[-4,19],[-1,13],[20,74],[6,7],[5,3],[5,5],[4,14],[0,10],[-1,11],[0,11],[2,13],[8,18],[3,13],[-1,11],[1,8],[6,9],[12,12],[21,33],[12,12],[14,4],[13,-3],[11,-9],[21,-30],[-5,-17],[-9,-15],[-6,-17],[3,-38],[-4,-20],[-11,-32],[7,-8],[11,-34],[5,-8],[1,-7],[-19,-42],[11,4],[20,16],[10,4],[3,7],[3,35],[3,16],[5,9],[9,7],[9,2],[4,-5],[2,-22],[4,-15],[6,-11],[6,-15],[-16,-12],[-9,-3],[-8,0],[-5,-1],[-4,-3],[-3,-5],[-3,-8],[1,-8],[1,-6],[-1,-7],[-5,-14],[-18,-19],[-23,-36],[-10,-23],[-10,-27],[2,-6],[1,-8],[-1,-10],[-2,-10],[3,-7],[-3,-10],[-7,-19],[-3,-13],[-1,-16],[2,-32],[-1,-18],[-12,-36],[-39,-16],[-16,-21],[7,-7],[5,3],[4,8],[7,4],[26,3],[14,8],[12,13],[10,26],[1,27],[-2,29],[3,34],[2,8],[7,21],[1,7],[2,17],[2,8],[5,11],[21,34],[3,10],[2,8],[2,6],[11,3],[12,8],[5,7],[6,10],[3,10],[0,13],[-4,17],[46,-8],[22,-12],[28,-27],[3,-5],[1,-10],[2,-5],[15,7],[14,-10],[6,-7],[5,-15],[-64,-29],[-18,-28],[5,-14],[5,-21],[3,-23],[0,-25],[-10,-32],[-8,-33],[-14,-21],[-36,-33],[-10,-28],[7,-8],[18,-42],[3,-9],[2,23],[-11,29],[1,23],[10,14],[31,18],[7,21],[2,20],[7,15],[15,27],[6,18],[6,19],[-1,7],[-4,23],[-2,12],[7,25],[15,7],[27,-4],[8,3],[7,11],[6,15],[5,20],[4,20],[3,20],[1,19],[0,20],[-2,27],[-3,19],[-4,17],[-4,23],[22,14],[45,-1],[21,20],[-5,30],[-4,14],[-4,6],[-5,4],[-5,9],[-5,14],[-2,14],[5,4],[20,5],[47,33],[8,33],[1,18],[1,26],[1,13],[3,19],[4,16],[2,7],[13,11],[13,-7],[15,-14],[100,-44],[101,-44],[50,-48],[73,-23],[14,-12],[5,-18],[6,-2],[34,-39],[-3,-19],[-2,-6],[17,-25],[36,-36],[52,-109],[10,-28],[-14,-32],[-31,-35],[-19,-37],[-13,-12],[-5,-7],[-15,-41],[-14,-50],[-8,-23],[-10,-9],[-54,7],[-33,30],[-55,20],[-10,-2],[-38,-27],[-19,-5],[-9,-8],[-10,-14],[-5,-10],[-2,-12],[1,-10],[3,-12],[2,-11],[-2,-4],[-5,-4],[-4,-9],[-15,-43],[-4,-6],[-31,-12],[-11,-11],[-9,-23],[4,-20],[-3,-17],[-7,-13],[-6,-9],[-143,-62],[-10,-11],[109,24],[63,42],[10,-2],[16,-18],[17,-9],[5,-5],[2,-6],[1,-11],[-2,-4],[-3,-2],[-2,-5],[-5,-12],[-18,-28],[-10,-16],[-16,-18],[-7,-2],[3,-18],[2,-8],[2,-8],[-17,-49],[-7,-10],[-39,-35],[-33,-7],[-16,-15],[6,-7],[6,3],[6,4],[7,0],[-2,-6],[-3,-18],[7,-1],[7,5],[7,10],[5,14],[8,12],[31,9],[13,11],[10,14],[10,18],[9,23],[15,48],[9,19],[83,28],[11,4],[48,43],[33,13],[51,42],[97,17],[9,-2],[30,-36],[7,-3],[8,5],[-2,12],[-27,40],[-6,6],[-7,3],[2,18],[4,11],[10,17],[4,10],[2,9],[1,11],[2,14],[7,29],[9,22],[10,15],[61,40],[44,46],[27,6],[27,-12],[28,-31],[6,-11],[12,-42],[2,-11],[2,-28],[1,-10],[16,-41],[5,-27],[-2,-27],[-8,-21],[-62,-69],[-4,-11],[-5,-25],[-3,-13],[-1,-13],[0,-40],[-21,-37],[-95,-58],[-13,-18],[-6,-22],[-4,-24],[-2,-12],[-121,0],[-21,9],[-18,-8],[-1,-1],[-2611,0],[0,1581],[11,-5],[47,-64],[16,-10],[15,15],[-7,12],[-16,12],[-8,13],[-2,8],[0,7],[0,7],[1,11],[-3,12],[-6,6],[-48,13],[0,236],[89,-65],[14,-28],[11,-38],[18,-91],[1,-36],[64,-140],[31,-13],[28,-30],[34,-18],[16,-2],[0,8],[-12,5],[-23,24],[-22,9],[-38,49],[-21,49],[-7,12],[-19,19],[-5,15],[2,25],[10,10],[38,17],[8,0],[6,-7],[0,-6],[0,-7],[0,-8],[1,-8],[15,-23],[21,-24],[17,-29],[4,-39],[17,-27],[41,-25],[18,-31],[5,-26],[3,-6],[3,38],[3,16],[6,13],[7,6],[-7,9],[-7,2],[-14,-2],[-5,3],[-11,11],[-16,6],[-11,9],[-10,14],[-9,15],[-27,61],[-27,30],[-6,15],[3,15],[-9,10],[-23,8],[-26,-9],[-13,1],[-12,17],[-4,16],[-6,58],[-3,19],[-4,18],[-5,17],[-5,13],[-10,14],[-12,10],[-35,13],[-23,23],[-23,9],[-24,25]],[[3011,0],[-192,0],[0,5],[8,20],[52,17],[55,68],[17,9],[6,8],[3,8],[1,6],[22,14],[16,0],[7,7],[17,26],[18,19],[13,4],[46,15],[117,95],[14,6],[21,-8],[7,-6],[6,-8],[3,-12],[-1,-10],[-5,-10],[-2,-13],[-4,-17],[-15,-32],[-7,-14],[-32,-50],[-91,-94],[-28,-17],[-46,0],[-15,-9],[-11,-26],[0,-1]],[[3145,0],[-104,0],[1,2],[8,3],[16,-4],[50,8],[29,-9]],[[3169,0],[-15,0],[4,1],[5,22],[3,4],[2,-22],[1,-5]],[[3727,0],[-548,0],[14,50],[9,9],[20,7],[16,27],[20,-8],[10,7],[-3,3],[-10,13],[10,20],[9,-6],[16,-30],[12,-5],[5,9],[3,19],[3,26],[5,23],[8,18],[9,11],[35,18],[7,4],[26,0],[-1,-4],[-1,-9],[-1,-4],[51,11],[25,-9],[28,-55],[10,-12],[134,-84],[79,-49]],[[0,2731],[0,939],[226,5],[342,-190],[61,-136],[-9,-34],[55,-54],[-24,-29],[59,0],[0,36],[35,-4],[-10,-52],[63,-74],[-22,-63],[36,-51],[98,-42],[-27,-73],[29,-34],[-29,-30],[49,-41],[-47,-83],[-81,-31],[-15,-35],[-402,99],[-216,-14],[11,76],[-138,-21],[-44,-64]],[[0,1891],[0,170],[8,11],[99,80],[261,-133],[209,-41],[268,-93],[-159,-490],[-133,-12],[5,35],[-57,4],[-34,74],[63,22],[-30,33],[-126,-37],[15,-64],[-53,23],[-99,138],[5,39],[-73,2],[-49,159],[-110,69],[-10,11]]]}