{"objects":{"water":{"type":"GeometryCollection","geometries":[{"type":"MultiPolygon","properties":{"source":"naturalearthdata.com","kind":"ocean","area":990044000000000,"sort_rank":200,"min_zoom":0,"id":1},"arcs":[[[0],[1]]]},{"type":"MultiLineString","properties":{"source":"naturalearthdata.com","kind":"ocean","sort_rank":205,"boundary":true,"min_zoom":0,"id":1199},"arcs":[[2],[3]]},{"type":"LineString","properties":{"source":"naturalearthdata.com","kind":"ocean","sort_rank":205,"boundary":true,"min_zoom":0,"id":1209},"arcs":[4]},{"type":"LineString","properties":{"source":"naturalearthdata.com","kind":"ocean","sort_rank":205,"boundary":true,"min_zoom":0,"id":1221},"arcs":[5]},{"type":"MultiLineString","properties":{"source":"naturalearthdata.com","kind":"ocean","sort_rank":205,"boundary":true,"min_zoom":0,"id":1222},"arcs":[[6],[7]]}]},"buildings":{"type":"GeometryCollection","geometries":[]},"places":{"type":"GeometryCollection","geometries":[]},"transit":{"type":"GeometryCollection","geometries":[]},"pois":{"type":"GeometryCollection","geometries":[]},"boundaries":{"type":"GeometryCollection","geometries":[]},"roads":{"type":"GeometryCollection","geometries":[]},"earth":{"type":"GeometryCollection","geometries":[{"type":"MultiPolygon","properties":{"sort_rank":10,"source":"naturalearthdata.com","kind":"earth","min_zoom":2.0,"area":465164376090},"arcs":[[[8]]]},{"type":"MultiPolygon","properties":{"sort_rank":10,"source":"naturalearthdata.com","min_zoom":0.5,"kind":"earth","area":1116398715200},"arcs":[[[9]]]},{"type":"MultiPolygon","properties":{"sort_rank":10,"source":"naturalearthdata.com","min_zoom":0,"kind":"earth","area":119982075948881},"arcs":[[[10]],[[11]],[[12]]]}]},"landuse":{"type":"GeometryCollection","geometries":[]}},"type":"Topology","transform":{"translate":[-112.5,79.1713346408],"scale":[0.0054931641,0.0008557008]},"arcs":[[[4096,2644],[0,-1070],[-40,35],[-58,32],[-19,21],[2,56],[-1,16],[-8,38],[-68,105],[-40,85],[-87,233],[-24,97],[-21,62],[-39,68],[-36,40],[-113,80],[-55,21],[-49,-16],[-83,-2],[-22,-11],[-7,-10],[-3,-19],[1,-29],[2,-29],[4,-28],[16,-19],[39,-14],[89,-5],[22,-34],[9,-29],[0,-30],[-9,-34],[-11,-17],[-18,-3],[-69,27],[-72,-57],[-55,-30],[-84,21],[-52,-57],[-44,-161],[-1,-29],[58,-35],[74,-67],[35,-129],[72,-36],[32,-28],[18,-31],[-102,-1],[-45,16],[-29,-1],[-24,88],[-36,46],[-51,5],[-38,41],[-39,-5],[-37,-35],[-4,-161],[46,-96],[52,-88],[12,-34],[-36,-2],[-48,21],[-19,-3],[-40,-32],[-9,-24],[-2,-20],[5,-26],[11,-31],[17,-24],[34,-28],[22,-9],[47,19],[44,-112],[39,-1],[109,79],[60,-8],[-8,-15],[-50,-47],[-5,-19],[-1,-26],[3,-35],[-2,-21],[-7,-8],[-136,6],[-71,15],[-180,81],[24,-130],[6,-55],[3,-71],[23,-81],[85,-167],[26,-36],[21,-16],[34,-8],[47,0],[59,28],[71,57],[33,12],[-14,-58],[-8,-23],[-142,-115],[-48,-22],[-18,-26],[-13,-127],[14,-33],[62,-42],[39,-75],[11,4],[36,48],[80,65],[22,12],[32,1],[27,-7],[4,-11],[-19,-34],[-12,-49],[3,-14],[10,-9],[19,-5],[70,73],[31,17],[64,71],[37,25],[33,0],[29,-13],[43,-77],[101,-10],[71,9],[-8,-13],[-95,-51],[-124,-41],[-25,-113],[-14,-17],[-1827,0],[-21,70],[-50,75],[-43,24],[-51,42],[-47,-4],[-161,-44],[-98,15],[-9,-25],[-14,-70],[-10,-83],[-1262,0],[0,4096],[4096,0],[0,-914],[-30,0],[-59,-20],[-82,-58],[-51,-46],[-37,-51],[-41,-71],[-7,-56],[52,-67],[20,-8],[34,24],[49,57],[38,18],[27,-21],[27,-8],[60,3],[0,-64],[-101,-134],[-10,-41],[35,-28],[21,-5],[55,38]],[[2380,1116],[-56,21],[-13,-5],[-45,-54],[-5,-15],[-7,-59],[-1,-34],[6,-97],[6,-24],[11,-16],[26,-5],[62,9],[33,-56],[5,-43],[1,-22],[15,-26],[50,-44],[10,2],[9,13],[9,57],[4,76],[-4,152],[-6,66],[-13,52],[-22,34],[-25,16],[-50,2]],[[4096,3182],[-30,0],[-59,-20],[-82,-58],[-51,-46],[-37,-51],[-41,-71],[-7,-56],[52,-67],[20,-8],[34,24],[49,57],[38,18],[27,-21],[27,-8],[60,3]],[[4096,2814],[-101,-134],[-10,-41],[35,-28],[21,-5],[55,38]],[[2364,837],[33,-56],[5,-43],[1,-22],[15,-26],[50,-44],[10,2],[9,13],[9,57],[4,76],[-4,152],[-6,66],[-13,52],[-22,34],[-25,16],[-50,2],[-56,21],[-13,-5],[-45,-54],[-5,-15],[-7,-59],[-1,-34],[6,-97],[6,-24],[11,-16],[26,-5],[62,9]],[[1766,0],[-21,70],[-50,75],[-43,24],[-51,42],[-47,-4],[-161,-44],[-98,15],[-9,-25],[-14,-70],[-10,-83]],[[3777,2195],[-24,97],[-21,62],[-39,68],[-36,40],[-113,80],[-55,21],[-49,-16],[-83,-2],[-22,-11],[-7,-10],[-3,-19],[1,-29],[2,-29],[4,-28],[16,-19],[39,-14],[89,-5],[22,-34],[9,-29],[0,-30],[-9,-34],[-11,-17],[-18,-3],[-69,27],[-72,-57],[-55,-30],[-84,21],[-52,-57],[-44,-161],[-1,-29],[58,-35],[74,-67],[35,-129],[72,-36],[32,-28],[18,-31],[-102,-1],[-45,16],[-29,-1],[-24,88],[-36,46],[-51,5],[-38,41],[-39,-5],[-37,-35],[-4,-161],[46,-96],[52,-88],[12,-34],[-36,-2],[-48,21],[-19,-3],[-40,-32],[-9,-24],[-2,-20],[5,-26],[11,-31],[17,-24],[34,-28],[22,-9],[47,19],[44,-112],[39,-1],[109,79],[60,-8],[-8,-15],[-50,-47],[-5,-19],[-1,-26],[3,-35],[-2,-21],[-7,-8],[-136,6],[-71,15],[-180,81],[24,-130],[6,-55],[3,-71],[23,-81],[85,-167],[26,-36],[21,-16],[34,-8],[47,0],[59,28],[71,57],[33,12],[-14,-58],[-8,-23],[-142,-115],[-48,-22],[-18,-26],[-13,-127],[14,-33],[62,-42],[39,-75],[11,4],[36,48],[80,65],[22,12],[32,1],[27,-7],[4,-11],[-19,-34],[-12,-49],[3,-14],[10,-9],[19,-5],[70,73],[31,17],[64,71],[37,25],[33,0],[29,-13],[43,-77],[101,-10],[71,9],[-8,-13],[-95,-51],[-124,-41],[-25,-113],[-14,-17]],[[4096,1574],[-40,35],[-58,32],[-19,21],[2,56],[-1,16],[-8,38],[-68,105],[-40,85],[-87,233]],[[2496,946],[4,-152],[-4,-76],[-9,-57],[-9,-13],[-10,-2],[-50,44],[-15,26],[-1,22],[-5,43],[-33,56],[-62,-9],[-26,5],[-11,16],[-6,24],[-6,97],[1,34],[7,59],[5,15],[45,54],[13,5],[56,-21],[50,-2],[25,-16],[22,-34],[13,-52],[6,-66]],[[1766,0],[-504,0],[10,83],[14,70],[9,25],[98,-15],[161,44],[47,4],[51,-42],[43,-24],[50,-75],[21,-70]],[[4096,1574],[0,-1574],[-503,0],[14,17],[25,113],[124,41],[95,51],[8,13],[-71,-9],[-101,10],[-43,77],[-29,13],[-33,0],[-37,-25],[-64,-71],[-31,-17],[-70,-73],[-19,5],[-10,9],[-3,14],[12,49],[19,34],[-4,11],[-27,7],[-32,-1],[-22,-12],[-80,-65],[-36,-48],[-11,-4],[-39,75],[-62,42],[-14,33],[13,127],[18,26],[48,22],[142,115],[8,23],[14,58],[-33,-12],[-71,-57],[-59,-28],[-47,0],[-34,8],[-21,16],[-26,36],[-85,167],[-23,81],[-3,71],[-6,55],[-24,130],[180,-81],[71,-15],[136,-6],[7,8],[2,21],[-3,35],[1,26],[5,19],[50,47],[8,15],[-60,8],[-109,-79],[-39,1],[-44,112],[-47,-19],[-22,9],[-34,28],[-17,24],[-11,31],[-5,26],[2,20],[9,24],[40,32],[19,3],[48,-21],[36,2],[-12,34],[-52,88],[-46,96],[4,161],[37,35],[39,5],[38,-41],[51,-5],[36,-46],[24,-88],[29,1],[45,-16],[102,1],[-18,31],[-32,28],[-72,36],[-35,129],[-74,67],[-58,35],[1,29],[44,161],[52,57],[84,-21],[55,30],[72,57],[69,-27],[18,3],[11,17],[9,34],[0,30],[-9,29],[-22,34],[-89,5],[-39,14],[-16,19],[-4,28],[-2,29],[-1,29],[3,19],[7,10],[22,11],[83,2],[49,16],[55,-21],[113,-80],[36,-40],[39,-68],[21,-62],[24,-97],[87,-233],[40,-85],[68,-105],[8,-38],[1,-16],[-2,-56],[19,-21],[58,-32],[40,-35]],[[4096,2814],[0,-170],[-55,-38],[-21,5],[-35,28],[10,41],[101,134]],[[4096,3182],[0,-304],[-60,-3],[-27,8],[-27,21],[-38,-18],[-49,-57],[-34,-24],[-20,8],[-52,67],[7,56],[41,71],[37,51],[51,46],[82,58],[59,20],[30,0]]]}