{"objects":{"water":{"type":"GeometryCollection","geometries":[{"type":"Polygon","properties":{"source":"naturalearthdata.com","kind":"ocean","area":990044000000000,"sort_rank":200,"min_zoom":0,"id":1},"arcs":[[0],[1],[2],[3],[4],[5]]},{"type":"LineString","properties":{"source":"naturalearthdata.com","kind":"ocean","sort_rank":205,"boundary":true,"min_zoom":0,"id":58},"arcs":[6]},{"type":"LineString","properties":{"source":"naturalearthdata.com","kind":"ocean","sort_rank":205,"boundary":true,"min_zoom":0,"id":286},"arcs":[7]},{"type":"LineString","properties":{"source":"naturalearthdata.com","kind":"ocean","sort_rank":205,"boundary":true,"min_zoom":0,"id":287},"arcs":[8]},{"type":"LineString","properties":{"source":"naturalearthdata.com","kind":"ocean","sort_rank":205,"boundary":true,"min_zoom":0,"id":288},"arcs":[9]},{"type":"LineString","properties":{"source":"naturalearthdata.com","kind":"ocean","sort_rank":205,"boundary":true,"min_zoom":0,"id":289},"arcs":[10]},{"type":"LineString","properties":{"source":"naturalearthdata.com","kind":"ocean","sort_rank":205,"boundary":true,"min_zoom":0,"id":1386},"arcs":[11]}]},"buildings":{"type":"GeometryCollection","geometries":[]},"places":{"type":"GeometryCollection","geometries":[]},"transit":{"type":"GeometryCollection","geometries":[]},"pois":{"type":"GeometryCollection","geometries":[]},"boundaries":{"type":"GeometryCollection","geometries":[]},"roads":{"type":"GeometryCollection","geometries":[]},"earth":{"type":"GeometryCollection","geometries":[{"type":"MultiPolygon","properties":{"sort_rank":10,"source":"naturalearthdata.com","kind":"earth","min_zoom":2.0,"area":437295020042},"arcs":[[[12]]]},{"type":"MultiPolygon","properties":{"sort_rank":10,"source":"naturalearthdata.com","kind":"earth","min_zoom":4.0,"area":7877484944},"arcs":[[[13]]]},{"type":"MultiPolygon","properties":{"sort_rank":10,"source":"naturalearthdata.com","min_zoom":3.0,"kind":"earth","area":152379014469},"arcs":[[[14]],[[15]]]},{"type":"MultiPolygon","properties":{"sort_rank":10,"source":"naturalearthdata.com","min_zoom":1.0,"kind":"earth","area":1204687205844},"arcs":[[[16]]]},{"type":"MultiPolygon","properties":{"sort_rank":10,"source":"naturalearthdata.com","min_zoom":0,"kind":"earth","area":130720926000100},"arcs":[[[17]]]}]},"landuse":{"type":"GeometryCollection","geometries":[]}},"type":"Topology","transform":{"translate":[-112.5,-74.0195433115],"scale":[0.0054931641,0.0018325886]},"arcs":[[[4096,587],[-6,-9],[-22,9],[-26,-19],[4,-76],[-28,-68],[-90,-42],[-45,7],[-195,70],[-107,7],[-160,-27],[-50,-39],[-48,-14],[-62,34],[-81,6],[-37,10],[-54,-11],[-64,-29],[-49,-8],[-44,4],[-51,18],[-51,34],[-95,43],[-32,-9],[-30,23],[-36,37],[-35,6],[-292,12],[-82,-22],[-55,14],[-47,19],[-93,-8],[-63,-19],[-30,5],[-34,12],[-69,6],[-13,20],[21,22],[17,41],[-17,41],[-22,14],[-67,10],[-47,-3],[-19,-27],[-29,-26],[12,-69],[43,-130],[30,-55],[43,-20],[156,6],[44,-11],[70,7],[137,-19],[76,-27],[89,-51],[60,-41],[56,-22],[-49,-16],[-33,3],[-36,-6],[-21,-26],[-23,-15],[-170,-20],[-49,0],[-26,12],[-33,22],[-50,15],[-44,7],[-38,13],[-68,8],[-71,-16],[-12,-75],[18,-55],[59,-23],[61,-17],[67,-34],[-1959,0],[0,4096],[4096,0],[0,-3509]],[[3949,769],[-25,29],[-65,5],[-57,-25],[-10,-16],[22,-71],[30,-63],[5,-22],[-17,-32],[-11,-124],[30,-7],[34,14],[29,25],[19,29],[22,49],[4,42],[-4,34],[-22,17],[21,50],[3,27],[-8,39]],[[3404,621],[-37,34],[-8,-2],[-12,-20],[7,-13],[20,-20],[31,0],[7,7],[-8,14]],[[3289,781],[-15,53],[-4,8],[-5,5],[-34,-27],[-84,-45],[-11,-26],[10,-12],[35,2],[109,29],[-1,13]],[[2837,786],[20,12],[21,5],[116,-16],[4,13],[3,16],[-11,38],[45,8],[46,16],[8,88],[-14,41],[0,58],[-14,6],[-40,-36],[-105,-46],[-43,-26],[-15,-3],[-16,7],[-16,14],[48,49],[75,47],[32,82],[-47,32],[-89,-8],[-39,-50],[-12,-56],[-8,-25],[-8,-22],[-19,-31],[-21,0],[-12,22],[-10,29],[19,52],[-20,64],[-42,-20],[-19,-108],[-45,-3],[-1,57],[15,58],[-18,50],[-37,21],[-40,10],[-64,-49],[-21,-43],[-32,-22],[-56,15],[-31,-48],[-9,-6],[-9,-1],[-28,58],[-18,56],[-24,2],[-33,-18],[-315,-65],[-20,-13],[-9,-13],[-5,-26],[9,-30],[44,-27],[22,-3],[22,7],[33,1],[226,-56],[30,3],[17,-8],[16,-13],[62,-37],[44,-15],[52,-36],[48,0],[44,-9],[42,-32],[45,-4],[61,-1],[42,5],[42,14],[21,1],[41,-29],[20,-3]],[[1387,447],[40,-6],[22,25],[-79,123],[-20,-14],[-9,-14],[2,-19],[13,-54],[31,-41]],[[2324,1084],[-9,-6],[-9,-1],[-28,58],[-18,56],[-24,2],[-33,-18],[-315,-65],[-20,-13],[-9,-13],[-5,-26],[9,-30],[44,-27],[22,-3],[22,7],[33,1],[226,-56],[30,3],[17,-8],[16,-13],[62,-37],[44,-15],[52,-36],[48,0],[44,-9],[42,-32],[45,-4],[61,-1],[42,5],[42,14],[21,1],[41,-29],[20,-3],[20,12],[21,5],[116,-16],[4,13],[3,16],[-11,38],[45,8],[46,16],[8,88],[-14,41],[0,58],[-14,6],[-40,-36],[-105,-46],[-43,-26],[-15,-3],[-16,7],[-16,14],[48,49],[75,47],[32,82],[-47,32],[-89,-8],[-39,-50],[-12,-56],[-8,-25],[-8,-22],[-19,-31],[-21,0],[-12,22],[-10,29],[19,52],[-20,64],[-42,-20],[-19,-108],[-45,-3],[-1,57],[15,58],[-18,50],[-37,21],[-40,10],[-64,-49],[-21,-43],[-32,-22],[-56,15],[-31,-48]],[[3367,655],[-8,-2],[-12,-20],[7,-13],[20,-20],[31,0],[7,7],[-8,14],[-37,34]],[[3954,703],[3,27],[-8,39],[-25,29],[-65,5],[-57,-25],[-10,-16],[22,-71],[30,-63],[5,-22],[-17,-32],[-11,-124],[30,-7],[34,14],[29,25],[19,29],[22,49],[4,42],[-4,34],[-22,17],[21,50]],[[1370,589],[-20,-14],[-9,-14],[2,-19],[13,-54],[31,-41],[40,-6],[22,25],[-79,123]],[[3265,847],[-34,-27],[-84,-45],[-11,-26],[10,-12],[35,2],[109,29],[-1,13],[-15,53],[-4,8],[-5,5]],[[1959,0],[-67,34],[-61,17],[-59,23],[-18,55],[12,75],[71,16],[68,-8],[38,-13],[44,-7],[50,-15],[33,-22],[26,-12],[49,0],[170,20],[23,15],[21,26],[36,6],[33,-3],[49,16],[-56,22],[-60,41],[-89,51],[-76,27],[-137,19],[-70,-7],[-44,11],[-156,-6],[-43,20],[-30,55],[-43,130],[-12,69],[29,26],[19,27],[47,3],[67,-10],[22,-14],[17,-41],[-17,-41],[-21,-22],[13,-20],[69,-6],[34,-12],[30,-5],[63,19],[93,8],[47,-19],[55,-14],[82,22],[292,-12],[35,-6],[36,-37],[30,-23],[32,9],[95,-43],[51,-34],[51,-18],[44,-4],[49,8],[64,29],[54,11],[37,-10],[81,-6],[62,-34],[48,14],[50,39],[160,27],[107,-7],[195,-70],[45,-7],[90,42],[28,68],[-4,76],[26,19],[22,-9],[6,9]],[[3885,457],[-34,-14],[-30,7],[11,124],[17,32],[-5,22],[-30,63],[-22,71],[10,16],[57,25],[65,-5],[25,-29],[8,-39],[-3,-27],[-21,-50],[22,-17],[4,-34],[-4,-42],[-22,-49],[-19,-29],[-29,-25]],[[3405,600],[-31,0],[-20,20],[-7,13],[12,20],[8,2],[37,-34],[8,-14],[-7,-7]],[[1449,466],[-22,-25],[-40,6],[-31,41],[-13,54],[-2,19],[9,14],[20,14],[79,-123]],[[3181,739],[-35,-2],[-10,12],[11,26],[84,45],[34,27],[5,-5],[4,-8],[15,-53],[1,-13],[-109,-29]],[[2623,1150],[-15,-58],[1,-57],[45,3],[19,108],[42,20],[20,-64],[-19,-52],[10,-29],[12,-22],[21,0],[19,31],[8,22],[8,25],[12,56],[39,50],[89,8],[47,-32],[-32,-82],[-75,-47],[-48,-49],[16,-14],[16,-7],[15,3],[43,26],[105,46],[40,36],[14,-6],[0,-58],[14,-41],[-8,-88],[-46,-16],[-45,-8],[11,-38],[-3,-16],[-4,-13],[-116,16],[-21,-5],[-20,-12],[-20,3],[-41,29],[-21,-1],[-42,-14],[-42,-5],[-61,1],[-45,4],[-42,32],[-44,9],[-48,0],[-52,36],[-44,15],[-62,37],[-16,13],[-17,8],[-30,-3],[-226,56],[-33,-1],[-22,-7],[-22,3],[-44,27],[-9,30],[5,26],[9,13],[20,13],[315,65],[33,18],[24,-2],[18,-56],[28,-58],[9,1],[9,6],[31,48],[56,-15],[32,22],[21,43],[64,49],[40,-10],[37,-21],[18,-50]],[[4096,587],[0,-587],[-2137,0],[-67,34],[-61,17],[-59,23],[-18,55],[12,75],[71,16],[68,-8],[38,-13],[44,-7],[50,-15],[33,-22],[26,-12],[49,0],[170,20],[23,15],[21,26],[36,6],[33,-3],[49,16],[-56,22],[-60,41],[-89,51],[-76,27],[-137,19],[-70,-7],[-44,11],[-156,-6],[-43,20],[-30,55],[-43,130],[-12,69],[29,26],[19,27],[47,3],[67,-10],[22,-14],[17,-41],[-17,-41],[-21,-22],[13,-20],[69,-6],[34,-12],[30,-5],[63,19],[93,8],[47,-19],[55,-14],[82,22],[292,-12],[35,-6],[36,-37],[30,-23],[32,9],[95,-43],[51,-34],[51,-18],[44,-4],[49,8],[64,29],[54,11],[37,-10],[81,-6],[62,-34],[48,14],[50,39],[160,27],[107,-7],[195,-70],[45,-7],[90,42],[28,68],[-4,76],[26,19],[22,-9],[6,9]]]}