{"objects":{"water":{"type":"GeometryCollection","geometries":[{"type":"Polygon","properties":{"source":"naturalearthdata.com","kind":"ocean","area":990044000000000,"sort_rank":200,"min_zoom":0,"id":1},"arcs":[[0]]},{"type":"LineString","properties":{"source":"naturalearthdata.com","kind":"ocean","sort_rank":205,"boundary":true,"min_zoom":0,"id":1386},"arcs":[1]}]},"buildings":{"type":"GeometryCollection","geometries":[]},"places":{"type":"GeometryCollection","geometries":[]},"transit":{"type":"GeometryCollection","geometries":[]},"pois":{"type":"GeometryCollection","geometries":[]},"boundaries":{"type":"GeometryCollection","geometries":[]},"roads":{"type":"GeometryCollection","geometries":[]},"earth":{"type":"GeometryCollection","geometries":[{"type":"MultiPolygon","properties":{"sort_rank":10,"source":"naturalearthdata.com","min_zoom":0,"kind":"earth","area":130720926000100},"arcs":[[[2]]]}]},"landuse":{"type":"GeometryCollection","geometries":[]}},"type":"Topology","transform":{"translate":[-112.5,-79.1713346408],"scale":[0.0054931641,0.0012577616]},"arcs":[[[1959,4096],[4,-3],[24,-58],[44,-202],[17,-108],[41,-15],[26,-29],[64,42],[53,4],[22,-25],[19,-117],[-46,-128],[-38,-39],[30,-33],[27,-19],[57,13],[36,-22],[81,-103],[87,-49],[31,-39],[-16,-70],[-19,-32],[-42,-8],[-100,15],[-101,-49],[-69,13],[-44,-35],[-61,-19],[-48,45],[-59,114],[-14,75],[-194,8],[-64,18],[-55,-5],[-87,-41],[-47,26],[-83,-29],[-52,33],[-90,-66],[-222,-116],[-57,28],[-61,-20],[-98,10],[-82,55],[-103,36],[-82,17],[-131,-11],[-203,7],[-46,-23],[-19,68],[90,145],[79,92],[42,100],[13,138],[-14,135],[-41,62],[-43,16],[-46,30],[-29,34],[-52,-10],[-30,15],[-32,-70],[16,-93],[4,-93],[-17,-54],[10,-65],[28,-77],[-21,-33],[-31,-7],[-55,-25],[-60,-17],[0,663],[1959,0]],[[0,3433],[60,17],[55,25],[31,7],[21,33],[-28,77],[-10,65],[17,54],[-4,93],[-16,93],[32,70],[30,-15],[52,10],[29,-34],[46,-30],[43,-16],[41,-62],[14,-135],[-13,-138],[-42,-100],[-79,-92],[-90,-145],[19,-68],[46,23],[203,-7],[131,11],[82,-17],[103,-36],[82,-55],[98,-10],[61,20],[57,-28],[222,116],[90,66],[52,-33],[83,29],[47,-26],[87,41],[55,5],[64,-18],[194,-8],[14,-75],[59,-114],[48,-45],[61,19],[44,35],[69,-13],[101,49],[100,-15],[42,8],[19,32],[16,70],[-31,39],[-87,49],[-81,103],[-36,22],[-57,-13],[-27,19],[-30,33],[38,39],[46,128],[-19,117],[-22,25],[-53,-4],[-64,-42],[-26,29],[-41,15],[-17,108],[-44,202],[-24,58],[-4,3]],[[1959,4096],[2137,0],[0,-4096],[-4096,0],[0,3433],[60,17],[55,25],[31,7],[21,33],[-28,77],[-10,65],[17,54],[-4,93],[-16,93],[32,70],[30,-15],[52,10],[29,-34],[46,-30],[43,-16],[41,-62],[14,-135],[-13,-138],[-42,-100],[-79,-92],[-90,-145],[19,-68],[46,23],[203,-7],[131,11],[82,-17],[103,-36],[82,-55],[98,-10],[61,20],[57,-28],[222,116],[90,66],[52,-33],[83,29],[47,-26],[87,41],[55,5],[64,-18],[194,-8],[14,-75],[59,-114],[48,-45],[61,19],[44,35],[69,-13],[101,49],[100,-15],[42,8],[19,32],[16,70],[-31,39],[-87,49],[-81,103],[-36,22],[-57,-13],[-27,19],[-30,33],[38,39],[46,128],[-19,117],[-22,25],[-53,-4],[-64,-42],[-26,29],[-41,15],[-17,108],[-44,202],[-24,58],[-4,3]]]}