{"objects":{"water":{"type":"GeometryCollection","geometries":[{"type":"Polygon","properties":{"source":"naturalearthdata.com","kind":"ocean","area":990044000000000,"sort_rank":200,"min_zoom":0,"id":1},"arcs":[[0],[1],[2],[3],[4]]},{"type":"LineString","properties":{"source":"naturalearthdata.com","kind":"ocean","sort_rank":205,"boundary":true,"min_zoom":0,"id":1146},"arcs":[5]},{"type":"LineString","properties":{"source":"naturalearthdata.com","kind":"ocean","sort_rank":205,"boundary":true,"min_zoom":0,"id":1149},"arcs":[6]},{"type":"LineString","properties":{"source":"naturalearthdata.com","kind":"ocean","sort_rank":205,"boundary":true,"min_zoom":0,"id":1150},"arcs":[7]},{"type":"MultiLineString","properties":{"source":"naturalearthdata.com","kind":"ocean","sort_rank":205,"boundary":true,"min_zoom":0,"id":1151},"arcs":[[8],[9]]},{"type":"LineString","properties":{"source":"naturalearthdata.com","kind":"ocean","sort_rank":205,"boundary":true,"min_zoom":0,"id":1152},"arcs":[10]}]},"buildings":{"type":"GeometryCollection","geometries":[]},"places":{"type":"GeometryCollection","geometries":[]},"transit":{"type":"GeometryCollection","geometries":[]},"pois":{"type":"GeometryCollection","geometries":[]},"boundaries":{"type":"GeometryCollection","geometries":[]},"roads":{"type":"GeometryCollection","geometries":[]},"earth":{"type":"GeometryCollection","geometries":[{"type":"MultiPolygon","properties":{"sort_rank":10,"source":"naturalearthdata.com","kind":"earth","min_zoom":2.0,"area":437295020042},"arcs":[[[11]],[[12]]]},{"type":"MultiPolygon","properties":{"sort_rank":10,"source":"naturalearthdata.com","min_zoom":3.0,"kind":"earth","area":152379014469},"arcs":[[[13]],[[14]],[[15]]]}]},"landuse":{"type":"GeometryCollection","geometries":[{"type":"MultiPolygon","properties":{"source":"openstreetmap.org","kind":"nature_reserve","area":938747281435,"tier":2,"min_zoom":4.0,"id":-7714582,"sort_rank":23},"arcs":[[[16]]]}]}},"type":"Topology","transform":{"translate":[-112.5,-21.9430455334],"scale":[0.0054931641,0.0053571889]},"arcs":[[[0,4096],[3805,0],[2,-3],[7,-6],[15,7],[7,-2],[11,-50],[22,-16],[9,-23],[14,-11],[-4,-12],[-35,-16],[-22,-17],[-7,-12],[2,-12],[12,-13],[8,-4],[44,0],[41,14],[19,36],[-11,15],[-18,14],[-1,4],[3,9],[-5,20],[-36,36],[-6,35],[-7,7],[227,0],[0,-4096],[-4096,0],[0,4096]],[[4017,3865],[-8,3],[-8,-15],[10,-8],[8,1],[8,9],[-4,5],[-6,5]],[[3841,4036],[-11,12],[-34,-5],[-1,-5],[1,-15],[7,-10],[15,-6],[18,3],[5,7],[0,19]],[[3949,4035],[34,-7],[9,6],[3,10],[-21,17],[-20,5],[-7,-6],[-9,-15],[11,-10]],[[3997,3970],[29,-18],[9,0],[4,3],[9,2],[13,16],[1,21],[-15,12],[-37,-7],[-11,-12],[-2,-17]],[[4047,4006],[-37,-7],[-11,-12],[-2,-17],[29,-18],[9,0],[4,3],[9,2],[13,16],[1,21],[-15,12]],[[3841,4036],[-11,12],[-34,-5],[-1,-5],[1,-15],[7,-10],[15,-6],[18,3],[5,7],[0,19]],[[4009,3868],[-8,-15],[10,-8],[8,1],[8,9],[-4,5],[-6,5],[-8,3]],[[3921,3985],[-1,4],[3,9],[-5,20],[-36,36],[-6,35],[-7,7]],[[3805,4096],[2,-3],[7,-6],[15,7],[7,-2],[11,-50],[22,-16],[9,-23],[14,-11],[-4,-12],[-35,-16],[-22,-17],[-7,-12],[2,-12],[12,-13],[8,-4],[44,0],[41,14],[19,36],[-11,15],[-18,14]],[[3974,4061],[-20,5],[-7,-6],[-9,-15],[11,-10],[34,-7],[9,6],[3,10],[-21,17]],[[3869,4096],[7,-7],[6,-35],[36,-36],[5,-20],[-3,-9],[1,-4],[18,-14],[11,-15],[-19,-36],[-41,-14],[-44,0],[-8,4],[-12,13],[-2,12],[7,12],[22,17],[35,16],[4,12],[-14,11],[-9,23],[-22,16],[-11,50],[-7,2],[-15,-7],[-7,6],[-2,3],[64,0]],[[4035,3952],[-9,0],[-29,18],[2,17],[11,12],[37,7],[15,-12],[-1,-21],[-13,-16],[-9,-2],[-4,-3]],[[4019,3846],[-8,-1],[-10,8],[8,15],[8,-3],[6,-5],[4,-5],[-8,-9]],[[3836,4010],[-18,-3],[-15,6],[-7,10],[-1,15],[1,5],[34,5],[11,-12],[0,-19],[-5,-7]],[[3992,4034],[-9,-6],[-34,7],[-11,10],[9,15],[7,6],[20,-5],[21,-17],[-3,-10]],[[4096,4096],[0,-383],[-111,8],[-234,92],[-42,60],[-49,223],[436,0]]]}