{"objects":{"water":{"type":"GeometryCollection","geometries":[{"type":"MultiPolygon","properties":{"source":"naturalearthdata.com","kind":"ocean","area":989871000000000,"sort_rank":200,"min_zoom":0,"id":1},"arcs":[[[0]],[[1],[2],[3],[4]],[[5]],[[6]]]},{"type":"MultiLineString","properties":{"source":"naturalearthdata.com","kind":"ocean","sort_rank":205,"boundary":true,"min_zoom":0,"id":514},"arcs":[[7],[8],[9],[10],[11],[12]]},{"type":"MultiLineString","properties":{"source":"naturalearthdata.com","kind":"ocean","sort_rank":205,"boundary":true,"min_zoom":0,"id":515},"arcs":[[13],[14]]},{"type":"LineString","properties":{"source":"naturalearthdata.com","kind":"ocean","sort_rank":205,"boundary":true,"min_zoom":0,"id":1513},"arcs":[15]},{"type":"LineString","properties":{"source":"naturalearthdata.com","kind":"ocean","sort_rank":205,"boundary":true,"min_zoom":0,"id":1514},"arcs":[16]},{"type":"LineString","properties":{"source":"naturalearthdata.com","kind":"ocean","sort_rank":205,"boundary":true,"min_zoom":0,"id":1515},"arcs":[17]}]},"buildings":{"type":"GeometryCollection","geometries":[]},"places":{"type":"GeometryCollection","geometries":[]},"transit":{"type":"GeometryCollection","geometries":[]},"pois":{"type":"GeometryCollection","geometries":[]},"boundaries":{"type":"GeometryCollection","geometries":[]},"roads":{"type":"GeometryCollection","geometries":[]},"earth":{"type":"GeometryCollection","geometries":[{"type":"MultiPolygon","properties":{"sort_rank":10,"source":"naturalearthdata.com","min_zoom":0.5,"kind":"earth","area":54586915647},"arcs":[[[18]],[[19]],[[20]]]},{"type":"MultiPolygon","properties":{"sort_rank":10,"source":"naturalearthdata.com","min_zoom":0,"kind":"earth","area":44884805284559},"arcs":[[[21]],[[22]],[[23]],[[24]],[[25]]]}]},"landuse":{"type":"GeometryCollection","geometries":[{"type":"MultiPolygon","properties":{"kind":"national_park","protect_class":"2","area":19551643767465,"sort_rank":18,"source":"openstreetmap.org","min_zoom":3.0,"tier":1,"id":-8515283},"arcs":[[[26]]]}]}},"type":"Topology","transform":{"translate":[-45.0,82.6762849783],"scale":[0.002746582,0.000318109]},"arcs":[[[4096,954],[0,-522],[-49,-60],[-18,10],[41,78],[6,60],[-4,88],[-10,52],[-66,105],[-169,-23],[-168,-23],[-123,-159],[-9,-30],[4,-22],[14,-42],[-11,-38],[-37,-46],[-11,-45],[2,-33],[8,-32],[9,-42],[-36,-10],[-20,13],[-9,51],[8,66],[17,52],[30,45],[0,19],[-10,19],[-8,24],[6,28],[2,36],[3,30],[36,53],[8,25],[-27,27],[-61,-23],[-29,41],[19,41],[152,43],[153,43],[153,43],[153,43],[51,15]],[[4096,2562],[0,-17],[-12,-51],[-17,-24],[-34,0],[-5,13],[-1,30],[-2,29],[-96,136],[-16,58],[-15,26],[-3,31],[0,38],[-2,37],[-8,33],[-12,12],[-12,-4],[-10,-14],[-7,-26],[-2,-27],[-2,-32],[-3,-37],[-6,-29],[-7,-17],[-9,-5],[-8,8],[-7,21],[-5,30],[-5,33],[-6,34],[-8,29],[-18,38],[-9,8],[-98,-109],[-99,-108],[-181,1],[-182,1],[-181,1],[-18,-32],[-9,-57],[11,0],[6,-5],[5,-14],[-12,-29],[-42,5],[16,-49],[117,-92],[19,-52],[-60,-20],[-18,-44],[22,-9],[10,-20],[3,-36],[72,-66],[-17,-34],[-93,97],[-7,18],[-15,69],[-17,45],[-141,115],[-140,116],[-121,-29],[-17,-53],[5,-3],[5,-16],[4,-27],[3,-38],[-39,-38],[-13,-27],[28,-67],[62,-31],[27,-97],[-27,-41],[-160,103],[-160,104],[-24,41],[-15,4],[-15,-11],[-11,-28],[24,-65],[24,-41],[-18,-43],[-5,-23],[-7,-51],[-3,-11],[10,-52],[13,-36],[14,-19],[11,-3],[0,-19],[-6,1],[-11,-13],[-6,-12],[4,-12],[3,-18],[3,-24],[3,-31],[-26,-5],[-13,-18],[-11,-42],[47,-78],[8,-40],[10,-33],[60,-20],[104,0],[105,0],[-7,-23],[-23,-22],[11,-22],[32,22],[116,-30],[23,-33],[-8,-24],[-29,-21],[132,11],[132,10],[8,-21],[-19,-39],[-169,-57],[-168,-58],[-168,-58],[-169,-57],[-6,-31],[15,-36],[141,-5],[142,-6],[141,-5],[69,-72],[33,-3],[16,-25],[-167,-5],[-166,-4],[-166,-5],[-167,-5],[-10,-26],[-8,-41],[9,-34],[42,-73],[26,-9],[10,-34],[-2,0],[33,-57],[15,-55],[-1,-103],[3,-27],[0,-18],[4,-14],[9,-42],[37,-30],[60,22],[-1,-31],[-5,-19],[-27,-69],[-6,-25],[-6,-30],[20,-62],[-17,-28],[-8,-5],[-8,11],[-3,12],[-2,17],[-1,18],[4,17],[-14,72],[-69,63],[-33,73],[-16,62],[-11,95],[3,10],[5,26],[2,9],[-157,194],[-152,25],[-152,26],[-152,26],[-17,59],[-103,155],[-38,23],[-88,179],[-110,67],[-96,-151],[18,97],[64,161],[-12,65],[-35,10],[-32,62],[-36,22],[-34,56],[-116,-43],[-17,33],[-11,37],[-56,95],[-109,-28],[-108,-28],[0,-22],[2,-4],[3,-17],[-7,-15],[-20,-7],[0,-21],[125,0],[0,-24],[-38,-19],[16,-34],[54,13],[0,-24],[-135,-6],[-135,-7],[-134,-6],[136,-97],[136,-96],[136,-96],[11,-33],[-144,57],[-143,57],[-5,-20],[-5,-34],[-12,-4],[-13,12],[-8,15],[3,0],[-164,77],[-163,77],[-22,-10],[-15,-58],[13,-33],[7,-10],[7,1],[0,-22],[-7,-17],[-8,-5],[6,-24],[7,-18],[-17,-25],[-100,120],[0,2629],[4096,0],[0,-1206],[-95,-25],[-22,-51],[-3,-11],[-2,-9],[13,-72],[15,-40],[80,-92],[14,-28]],[[2025,1348],[-138,57],[-57,115],[-101,13],[-102,12],[-6,-17],[4,-37],[8,-38],[8,-17],[9,-11],[19,-48],[10,-5],[-2,-30],[-1,-11],[13,-46],[17,-20],[97,-22],[26,-34],[50,-140],[27,-21],[10,-27],[26,-17],[52,35],[64,138],[15,66],[6,41],[0,24],[-4,13],[-50,27]],[[1783,1194],[-10,15],[-20,-4],[-29,34],[-81,20],[-54,113],[-30,21],[-10,21],[-23,108],[-18,38],[-104,9],[-104,9],[-21,-33],[3,0],[-3,-23],[14,3],[106,-134],[35,-109],[12,-20],[46,-19],[72,-135],[153,-73],[154,-73],[-30,89],[-16,29],[-17,11],[-7,12],[-18,91]],[[2245,1565],[-117,71],[-116,72],[-37,73],[-35,108],[-37,76],[-82,-7],[-83,99],[-25,62],[-70,49],[-19,-22],[24,-34],[26,-9],[0,-21],[-60,27],[-18,-27],[-12,-50],[-7,-63],[2,-60],[12,-40],[106,-15],[105,-15],[53,-100],[13,-70],[9,-23],[164,-128],[164,-127],[-3,0],[13,-29],[100,29],[-7,29],[-54,133],[-9,12]],[[0,843],[0,266],[116,-62],[160,-86],[160,-86],[160,-87],[0,-19],[-34,-12],[-11,11],[0,-2],[0,-9],[0,-12],[-10,26],[-148,49],[-148,49],[-148,50],[-97,-76]],[[0,691],[0,34],[61,-55],[23,-73],[23,-33],[170,-32],[170,-32],[169,-32],[170,-32],[170,-32],[169,-32],[170,-32],[170,-32],[18,-46],[42,-16],[84,-118],[96,43],[133,-118],[11,-33],[3,-17],[1,-3],[-463,0],[2,14],[-12,63],[-17,34],[-92,65],[-25,47],[-88,18],[-17,-17],[-12,-58],[27,-58],[18,-18],[19,-90],[-77,0],[-86,101],[9,61],[36,90],[-177,6],[-177,7],[-177,6],[-176,7],[-177,6],[-177,7],[-14,38],[0,207],[12,-6],[37,67],[0,19],[-49,75]],[[4096,432],[-49,-60],[-18,10],[41,78],[6,60],[-4,88],[-10,52],[-66,105],[-169,-23],[-168,-23],[-123,-159],[-9,-30],[4,-22],[14,-42],[-11,-38],[-37,-46],[-11,-45],[2,-33],[8,-32],[9,-42],[-36,-10],[-20,13],[-9,51],[8,66],[17,52],[30,45],[0,19],[-10,19],[-8,24],[6,28],[2,36],[3,30],[36,53],[8,25],[-27,27],[-61,-23],[-29,41],[19,41],[152,43],[153,43],[153,43],[153,43],[51,15]],[[4096,2890],[-95,-25],[-22,-51],[-3,-11],[-2,-9],[13,-72],[15,-40],[80,-92],[14,-28]],[[4096,2545],[-12,-51],[-17,-24],[-34,0],[-5,13],[-1,30],[-2,29],[-96,136],[-16,58],[-15,26],[-3,31],[0,38],[-2,37],[-8,33],[-12,12],[-12,-4],[-10,-14],[-7,-26],[-2,-27],[-2,-32],[-3,-37],[-6,-29],[-7,-17],[-9,-5],[-8,8],[-7,21],[-5,30],[-5,33],[-6,34],[-8,29],[-18,38],[-9,8],[-98,-109],[-99,-108],[-181,1],[-182,1],[-181,1],[-18,-32],[-9,-57],[11,0],[6,-5],[5,-14],[-12,-29],[-42,5],[16,-49],[117,-92],[19,-52],[-60,-20],[-18,-44],[22,-9],[10,-20],[3,-36],[72,-66],[-17,-34],[-93,97],[-7,18],[-15,69],[-17,45],[-141,115],[-140,116],[-121,-29],[-17,-53],[5,-3],[5,-16],[4,-27],[3,-38],[-39,-38],[-13,-27],[28,-67],[62,-31],[27,-97],[-27,-41],[-160,103],[-160,104],[-24,41],[-15,4],[-15,-11],[-11,-28],[24,-65],[24,-41],[-18,-43],[-5,-23],[-7,-51],[-3,-11],[10,-52],[13,-36],[14,-19],[11,-3],[0,-19],[-6,1],[-11,-13],[-6,-12],[4,-12],[3,-18],[3,-24],[3,-31],[-26,-5],[-13,-18],[-11,-42],[47,-78],[8,-40],[10,-33],[60,-20],[104,0],[105,0],[-7,-23],[-23,-22],[11,-22],[32,22],[116,-30],[23,-33],[-8,-24],[-29,-21],[132,11],[132,10],[8,-21],[-19,-39],[-169,-57],[-168,-58],[-168,-58],[-169,-57],[-6,-31],[15,-36],[141,-5],[142,-6],[141,-5],[69,-72],[33,-3],[16,-25],[-167,-5],[-166,-4],[-166,-5],[-167,-5],[-10,-26],[-8,-41],[9,-34],[42,-73],[26,-9],[10,-34],[-2,0],[33,-57],[15,-55],[-1,-103],[3,-27],[0,-18],[4,-14],[9,-42],[37,-30],[60,22],[-1,-31],[-5,-19],[-27,-69],[-6,-25],[-6,-30],[20,-62],[-17,-28],[-8,-5],[-8,11],[-3,12],[-2,17],[-1,18],[4,17],[-14,72],[-69,63],[-33,73],[-16,62],[-11,95],[3,10],[5,26],[2,9],[-157,194],[-152,25],[-152,26],[-152,26],[-17,59],[-103,155],[-38,23],[-88,179],[-110,67],[-96,-151],[18,97],[64,161],[-12,65],[-35,10],[-32,62],[-36,22],[-34,56],[-116,-43],[-17,33],[-11,37],[-56,95],[-109,-28],[-108,-28],[0,-22],[2,-4],[3,-17],[-7,-15],[-20,-7],[0,-21],[125,0],[0,-24],[-38,-19],[16,-34],[54,13],[0,-24],[-135,-6],[-135,-7],[-134,-6],[136,-97],[136,-96],[136,-96],[11,-33],[-144,57],[-143,57],[-5,-20],[-5,-34],[-12,-4],[-13,12],[-8,15],[3,0],[-164,77],[-163,77],[-22,-10],[-15,-58],[13,-33],[7,-10],[7,1],[0,-22],[-7,-17],[-8,-5],[6,-24],[7,-18],[-17,-25],[-100,120]],[[0,1109],[116,-62],[160,-86],[160,-86],[160,-87],[0,-19],[-34,-12],[-11,11],[0,-2],[0,-9],[0,-12],[-10,26],[-148,49],[-148,49],[-148,50],[-97,-76]],[[0,536],[12,-6],[37,67],[0,19],[-49,75]],[[0,725],[61,-55],[23,-73],[23,-33],[170,-32],[170,-32],[169,-32],[170,-32],[170,-32],[169,-32],[170,-32],[170,-32],[18,-46],[42,-16],[84,-118],[96,43],[133,-118],[11,-33],[3,-17],[1,-3]],[[1390,0],[2,14],[-12,63],[-17,34],[-92,65],[-25,47],[-88,18],[-17,-17],[-12,-58],[27,-58],[18,-18],[19,-90]],[[1116,0],[-86,101],[9,61],[36,90],[-177,6],[-177,7],[-177,6],[-176,7],[-177,6],[-177,7],[-14,38]],[[2025,1348],[-138,57],[-57,115],[-101,13],[-102,12],[-6,-17],[4,-37],[8,-38],[8,-17],[9,-11],[19,-48],[10,-5],[-2,-30],[-1,-11],[13,-46],[17,-20],[97,-22],[26,-34],[50,-140],[27,-21],[10,-27],[26,-17],[52,35],[64,138],[15,66],[6,41],[0,24],[-4,13],[-50,27]],[[1783,1194],[-10,15],[-20,-4],[-29,34],[-81,20],[-54,113],[-30,21],[-10,21],[-23,108],[-18,38],[-104,9],[-104,9],[-21,-33],[3,0],[-3,-23],[14,3],[106,-134],[35,-109],[12,-20],[46,-19],[72,-135],[153,-73],[154,-73],[-30,89],[-16,29],[-17,11],[-7,12],[-18,91]],[[2245,1565],[-117,71],[-116,72],[-37,73],[-35,108],[-37,76],[-82,-7],[-83,99],[-25,62],[-70,49],[-19,-22],[24,-34],[26,-9],[0,-21],[-60,27],[-18,-27],[-12,-50],[-7,-63],[2,-60],[12,-40],[106,-15],[105,-15],[53,-100],[13,-70],[9,-23],[164,-128],[164,-127],[-3,0],[13,-29],[100,29],[-7,29],[-54,133],[-9,12]],[[1783,1194],[18,-91],[7,-12],[17,-11],[16,-29],[30,-89],[-154,73],[-153,73],[-72,135],[-46,19],[-12,20],[-35,109],[-106,134],[-14,-3],[3,23],[-3,0],[21,33],[104,-9],[104,-9],[18,-38],[23,-108],[10,-21],[30,-21],[54,-113],[81,-20],[29,-34],[20,4],[10,-15]],[[2025,1348],[50,-27],[4,-13],[0,-24],[-6,-41],[-15,-66],[-64,-138],[-52,-35],[-26,17],[-10,27],[-27,21],[-50,140],[-26,34],[-97,22],[-17,20],[-13,46],[1,11],[2,30],[-10,5],[-19,48],[-9,11],[-8,17],[-8,38],[-4,37],[6,17],[102,-12],[101,-13],[57,-115],[138,-57]],[[2245,1565],[9,-12],[54,-133],[7,-29],[-100,-29],[-13,29],[3,0],[-164,127],[-164,128],[-9,23],[-13,70],[-53,100],[-105,15],[-106,15],[-12,40],[-2,60],[7,63],[12,50],[18,27],[60,-27],[0,21],[-26,9],[-24,34],[19,22],[70,-49],[25,-62],[83,-99],[82,7],[37,-76],[35,-108],[37,-73],[116,-72],[117,-71]],[[4096,432],[0,-432],[-2243,0],[-1,3],[-3,17],[-11,33],[-133,118],[-96,-43],[-84,118],[-42,16],[-18,46],[-170,32],[-170,32],[-169,32],[-170,32],[-170,32],[-169,32],[-170,32],[-170,32],[-23,33],[-23,73],[-61,55],[0,118],[97,76],[148,-50],[148,-49],[148,-49],[10,-26],[0,12],[0,9],[0,2],[11,-11],[34,12],[0,19],[-160,87],[-160,86],[-160,86],[-116,62],[0,358],[100,-120],[17,25],[-7,18],[-6,24],[8,5],[7,17],[0,22],[-7,-1],[-7,10],[-13,33],[15,58],[22,10],[163,-77],[164,-77],[-3,0],[8,-15],[13,-12],[12,4],[5,34],[5,20],[143,-57],[144,-57],[-11,33],[-136,96],[-136,96],[-136,97],[134,6],[135,7],[135,6],[0,24],[-54,-13],[-16,34],[38,19],[0,24],[-125,0],[0,21],[20,7],[7,15],[-3,17],[-2,4],[0,22],[108,28],[109,28],[56,-95],[11,-37],[17,-33],[116,43],[34,-56],[36,-22],[32,-62],[35,-10],[12,-65],[-64,-161],[-18,-97],[96,151],[110,-67],[88,-179],[38,-23],[103,-155],[17,-59],[152,-26],[152,-26],[152,-25],[48,-59],[109,-135],[-2,-9],[-5,-26],[-3,-10],[11,-95],[16,-62],[33,-73],[69,-63],[14,-72],[-4,-17],[1,-18],[2,-17],[3,-12],[8,-11],[8,5],[17,28],[-20,62],[6,30],[6,25],[27,69],[5,19],[1,31],[-60,-22],[-37,30],[-9,42],[-4,14],[0,18],[-3,27],[1,103],[-15,55],[-33,57],[2,0],[-10,34],[-26,9],[-42,73],[-9,34],[8,41],[10,26],[167,5],[166,5],[166,4],[167,5],[-16,25],[-33,3],[-69,72],[-141,5],[-142,6],[-141,5],[-15,36],[6,31],[169,57],[168,58],[168,58],[169,57],[19,39],[-8,21],[-132,-10],[-132,-11],[29,21],[8,24],[-23,33],[-116,30],[-32,-22],[-11,22],[23,22],[7,23],[-105,0],[-104,0],[-60,20],[-10,33],[-8,40],[-47,78],[11,42],[13,18],[26,5],[-3,31],[-3,24],[-3,18],[-4,12],[6,12],[11,13],[6,-1],[0,19],[-11,3],[-14,19],[-13,36],[-10,52],[3,11],[7,51],[5,23],[18,43],[-24,41],[-24,65],[11,28],[15,11],[15,-4],[24,-41],[160,-104],[160,-103],[27,41],[-27,97],[-62,31],[-28,67],[13,27],[39,38],[-3,38],[-4,27],[-5,16],[-5,3],[17,53],[121,29],[140,-116],[141,-115],[17,-45],[15,-69],[7,-18],[93,-97],[17,34],[-72,66],[-3,36],[-10,20],[-22,9],[18,44],[60,20],[-19,52],[-117,92],[-16,49],[42,-5],[12,29],[-5,14],[-6,5],[-11,0],[9,57],[18,32],[181,-1],[182,-1],[181,-1],[99,108],[98,109],[9,-8],[18,-38],[8,-29],[6,-34],[5,-33],[5,-30],[7,-21],[8,-8],[9,5],[7,17],[6,29],[3,37],[2,32],[2,27],[7,26],[10,14],[12,4],[12,-12],[8,-33],[2,-37],[0,-38],[3,-31],[15,-26],[16,-58],[96,-136],[2,-29],[1,-30],[5,-13],[34,0],[17,24],[12,51],[0,-1591],[-51,-15],[-153,-43],[-153,-43],[-153,-43],[-152,-43],[-19,-41],[29,-41],[61,23],[27,-27],[-8,-25],[-36,-53],[-3,-30],[-2,-36],[-6,-28],[8,-24],[10,-19],[0,-19],[-30,-45],[-17,-52],[-8,-66],[9,-51],[20,-13],[36,10],[-9,42],[-8,32],[-2,33],[11,45],[37,46],[11,38],[-14,42],[-4,22],[9,30],[123,159],[168,23],[169,23],[66,-105],[10,-52],[4,-88],[-6,-60],[-41,-78],[18,-10],[49,60]],[[4096,2890],[0,-328],[-14,28],[-80,92],[-15,40],[-13,72],[2,9],[3,11],[22,51],[95,25]],[[0,536],[0,155],[49,-75],[0,-19],[-37,-67],[-12,6]],[[1116,0],[-1116,0],[0,329],[14,-38],[177,-7],[177,-6],[176,-7],[177,-6],[177,-7],[177,-6],[-36,-90],[-9,-61],[86,-101]],[[1390,0],[-197,0],[-19,90],[-18,18],[-27,58],[12,58],[17,17],[88,-18],[25,-47],[92,-65],[17,-34],[12,-63],[-2,-14]],[[4096,3715],[0,-3715],[-4096,0],[0,2257],[1552,688],[357,290],[197,93],[685,195],[1162,185],[143,7]]]}