{"objects":{"water":{"type":"GeometryCollection","geometries":[{"type":"MultiPolygon","properties":{"source":"naturalearthdata.com","kind":"ocean","area":989871000000000,"sort_rank":200,"min_zoom":0,"id":1},"arcs":[[[0]]]},{"type":"Point","properties":{"label_placement":true,"alt_name:eo":"Norda Atlantika Oceano","collision_rank":398,"name:ms":"Lautan Atlantik Utara","name:tr":"Kuzey Atlantik Okyanusu","name:ar":"\u0634\u0645\u0627\u0644 \u0627\u0644\u0645\u062d\u064a\u0637 \u0627\u0644\u0623\u0637\u0644\u0633\u064a","name:cs":"Severn\u00ed Atlantsk\u00fd oce\u00e1n","min_zoom":3.0,"name:vi":"B\u1eafc \u0110\u1ea1i T\u00e2y D\u01b0\u01a1ng","name:ru":"\u0421\u0435\u0432\u0435\u0440\u043d\u044b\u0439 \u0410\u0442\u043b\u0430\u043d\u0442\u0438\u0447\u0435\u0441\u043a\u0438\u0439 \u043e\u043a\u0435\u0430\u043d","name:pl":"P\u00f3\u0142nocny Atlantyk","id":305639726,"name:mk":"\u0421\u0435\u0432\u0435\u0440\u0435\u043d \u0410\u0442\u043b\u0430\u043d\u0442\u0441\u043a\u0438 \u041e\u043a\u0435\u0430\u043d","name:fa":"\u0627\u0642\u06cc\u0627\u0646\u0648\u0633 \u0627\u0637\u0644\u0633 \u0634\u0645\u0627\u0644\u06cc","sort_rank":200,"name:fi":"Pohjois-Atalannin valtameri","name:de":"Nordatlantischer Ozean","source":"openstreetmap.org","name:fr":"Oc\u00e9an Atlantique Nord","name:zh":"\u5317\u5927\u897f\u6d0b","name:sl":"Severni Atlantski ocean","name:sk":"Severn\u00fd Atlantick\u00fd oce\u00e1n","name:ja":"\u5317\u5927\u897f\u6d0b","name:lt":"\u0160iaur\u0117s Atlanto vandenynas","alt_name:de":"Nordatlantik","kind":"sea","name:be":"\u041f\u0430\u045e\u043d\u043e\u0447\u043d\u044b \u0410\u0442\u043b\u0430\u043d\u0442\u044b\u0447\u043d\u044b \u0430\u043a\u0456\u044f\u043d","name:hu":"\u00c9szak-Atlanti-\u00f3ce\u00e1n","name:hr":"Sjeverni Atlantski ocean","name:el":"\u0392\u03cc\u03c1\u03b5\u03b9\u03bf\u03c2 \u0391\u03c4\u03bb\u03b1\u03bd\u03c4\u03b9\u03ba\u03cc\u03c2 \u03a9\u03ba\u03b5\u03b1\u03bd\u03cc\u03c2","name:eo":"Norda Atlantiko","name:en":"North Atlantic Ocean","name":"Norda Atlantiko","name:is":"Nor\u00f0ur-Atlantshaf","name:ku":"Bakura Okyan\u00fbsa Atlant\u00eek","wikidata_id":"Q350134","alt_name:sl":"Severni Atlantik","name:nl":"Noord Atlantische Oceaan","name:es":"Oc\u00e9ano Atl\u00e1ntico Norte"},"coordinates":[1820,3651]}]},"buildings":{"type":"GeometryCollection","geometries":[]},"places":{"type":"GeometryCollection","geometries":[]},"transit":{"type":"GeometryCollection","geometries":[]},"pois":{"type":"GeometryCollection","geometries":[]},"boundaries":{"type":"GeometryCollection","geometries":[]},"roads":{"type":"GeometryCollection","geometries":[]},"earth":{"type":"GeometryCollection","geometries":[]},"landuse":{"type":"GeometryCollection","geometries":[{"type":"MultiPolygon","properties":{"kind":"nature_reserve","protect_class":"6","area":198729231850,"sort_rank":23,"source":"openstreetmap.org","min_zoom":4.0,"tier":2,"id":-7512405},"arcs":[[[1],[2]]]}]}},"type":"Topology","transform":{"translate":[-45.0,31.952162238],"scale":[0.002746582,0.0022040371]},"arcs":[[[4096,0],[-4096,0],[0,4096],[4096,0],[0,-4096]],[[4096,2109],[0,-210],[-73,-85],[-85,113],[158,182]],[[4029,1935],[25,0],[0,15],[-25,0],[0,-15]]]}