{"objects":{"water":{"type":"GeometryCollection","geometries":[{"type":"MultiPolygon","properties":{"source":"naturalearthdata.com","kind":"ocean","area":989871000000000,"sort_rank":200,"min_zoom":0,"id":1},"arcs":[[[0]]]},{"type":"Point","properties":{"name:ia":"Oceano Atlantic","label_placement":true,"name:pt":"Oceano Atl\u00e2ntico","collision_rank":301,"name:ms":"Lautan Atlantik","name:tr":"Atlas Okyanusu","name:ar":"\u0627\u0644\u0645\u062d\u064a\u0637 \u0627\u0644\u0623\u0637\u0644\u0633\u064a","name:cs":"Atlantsk\u00fd oce\u00e1n","alt_name:eo":"Atlantiko","name:io":"Oceano Atlantiko","min_zoom":1.0,"alt_name:cs":"Atlantick\u00fd oce\u00e1n","name:it":"Oceano Atlantico","name:tl":"Karagatang Atlantiko","name:ru":"\u0410\u0442\u043b\u0430\u043d\u0442\u0438\u0447\u0435\u0441\u043a\u0438\u0439 \u043e\u043a\u0435\u0430\u043d","name:vi":"\u0110\u1ea1i T\u00e2y D\u01b0\u01a1ng","name:pl":"Ocean Atlantycki","name:fo":"Atlantshavi\u00f0","id":305640306,"name:mk":"\u0410\u0442\u043b\u0430\u043d\u0442\u0441\u043a\u0438 \u041e\u043a\u0435\u0430\u043d","name:vo":"Latlantean","name:fa":"\u0627\u0642\u06cc\u0627\u0646\u0648\u0633 \u0627\u0637\u0644\u0633","sort_rank":200,"name:fi":"Atlantin valtameri","name:da":"Atlanterhavet","name:de":"Atlantischer Ozean","source":"openstreetmap.org","name:fr":"Oc\u00e9an Atlantique","alt_name:mk":"\u0410\u0442\u043b\u0430\u043d\u0442\u0438\u043a","name:be":"\u0410\u0442\u043b\u0430\u043d\u0442\u044b\u0447\u043d\u044b \u0430\u043a\u0456\u044f\u043d","name:zh":"\u5927\u897f\u6d0b","name:ku":"Okyan\u00fbsa Atlant\u00eek","name:sl":"Atlantski ocean","name:nl":"Atlantische Oceaan","name:ja":"\u5927\u897f\u6d0b","alt_name:de":"Atlantik","name:he":"\u05d4\u05d0\u05d5\u05e7\u05d9\u05d9\u05e0\u05d5\u05e1 \u05d4\u05d0\u05d8\u05dc\u05e0\u05d8\u05d9","kind":"ocean","name:br":"Meurvor Atlantel","name:sk":"Atlantick\u00fd oce\u00e1n","name:uk":"\u0410\u0442\u043b\u0430\u043d\u0442\u0438\u0447\u043d\u0438\u0439 \u043e\u043a\u0435\u0430\u043d","name:sv":"Atlanten","name:hu":"Atlanti-\u00f3ce\u00e1n","name:hr":"Atlantski ocean","name:el":"\u0391\u03c4\u03bb\u03b1\u03bd\u03c4\u03b9\u03ba\u03cc\u03c2 \u03a9\u03ba\u03b5\u03b1\u03bd\u03cc\u03c2","name:eo":"Atlantika Oceano","name:en":"Atlantic Ocean","name":"Atlantic Ocean","name:is":"Atlantshaf","alt_name:pl":"Atlantyk","name:mg":"Ranomasimbe Atlantika","wikidata_id":"Q97","name:eu":"Ozeano Atlantikoa","name:no":"Atlanterhavet","name:es":"Oc\u00e9ano Atl\u00e1ntico"},"coordinates":[2432,915]}]},"buildings":{"type":"GeometryCollection","geometries":[]},"places":{"type":"GeometryCollection","geometries":[]},"transit":{"type":"GeometryCollection","geometries":[]},"pois":{"type":"GeometryCollection","geometries":[]},"boundaries":{"type":"GeometryCollection","geometries":[]},"roads":{"type":"GeometryCollection","geometries":[]},"earth":{"type":"GeometryCollection","geometries":[]},"landuse":{"type":"GeometryCollection","geometries":[]}},"type":"Topology","transform":{"translate":[-45.0,11.1784018737],"scale":[0.002746582,0.0026280868]},"arcs":[[[4096,0],[-4096,0],[0,4096],[4096,0],[0,-4096]]]}