{"objects":{"water":{"type":"GeometryCollection","geometries":[{"type":"MultiPolygon","properties":{"source":"naturalearthdata.com","kind":"ocean","area":989871000000000,"sort_rank":200,"min_zoom":0,"id":1},"arcs":[[[0]],[[1]],[[2]]]},{"type":"LineString","properties":{"source":"naturalearthdata.com","kind":"ocean","sort_rank":205,"boundary":true,"min_zoom":0,"id":514},"arcs":[3]},{"type":"MultiLineString","properties":{"source":"naturalearthdata.com","kind":"ocean","sort_rank":205,"boundary":true,"min_zoom":0,"id":515},"arcs":[[4],[5],[6]]},{"type":"MultiLineString","properties":{"source":"naturalearthdata.com","kind":"ocean","sort_rank":205,"boundary":true,"min_zoom":0,"id":1511},"arcs":[[7],[8],[9]]}]},"buildings":{"type":"GeometryCollection","geometries":[]},"places":{"type":"GeometryCollection","geometries":[]},"transit":{"type":"GeometryCollection","geometries":[]},"pois":{"type":"GeometryCollection","geometries":[]},"boundaries":{"type":"GeometryCollection","geometries":[]},"roads":{"type":"GeometryCollection","geometries":[]},"earth":{"type":"GeometryCollection","geometries":[{"type":"MultiPolygon","properties":{"sort_rank":10,"source":"naturalearthdata.com","min_zoom":0,"kind":"earth","area":44884805284559},"arcs":[[[10]],[[11]],[[12]]]}]},"landuse":{"type":"GeometryCollection","geometries":[{"type":"MultiPolygon","properties":{"kind":"national_park","protect_class":"2","area":19551643767465,"sort_rank":18,"source":"openstreetmap.org","min_zoom":3.0,"tier":1,"id":-8515283},"arcs":[[[13]]]}]}},"type":"Topology","transform":{"translate":[-45.0,81.0932138526],"scale":[0.002746582,0.000386492]},"arcs":[[[1390,4096],[463,0],[1,-12],[0,-15],[1,-15],[9,-45],[4,-29],[0,-32],[-4,-21],[-8,-17],[-20,-20],[-7,-14],[-7,-20],[-5,-23],[0,-29],[5,-28],[12,-36],[37,-57],[30,-11],[7,-26],[-35,-51],[-7,-37],[-1,-58],[7,-27],[19,-21],[9,-19],[7,-25],[2,-37],[-5,-52],[-12,-37],[-46,29],[1,25],[1,10],[-48,66],[-9,40],[-1,62],[8,37],[12,27],[8,33],[-42,55],[-30,72],[-5,32],[4,29],[-7,16],[-108,14],[-39,5],[-44,108],[-158,149],[1,5]],[[1116,4096],[77,0],[1,-5],[32,-55],[6,-43],[-13,-80],[5,-18],[-13,-34],[12,-39],[20,-44],[11,-51],[-12,-116],[-9,-24],[-35,6],[-5,6],[-5,14],[-21,87],[-7,19],[-8,17],[-14,46],[3,50],[24,97],[-11,77],[-11,50],[-14,27],[-13,13]],[[0,3682],[0,262],[29,-29],[16,-2],[8,-9],[16,-37],[8,-9],[30,-8],[41,-48],[6,-22],[8,-55],[5,-20],[17,-26],[16,-13],[1,-6],[1,-12],[2,-13],[2,-8],[15,-17],[5,1],[26,-3],[14,-14],[27,-48],[64,-32],[31,-46],[62,-38],[13,-31],[-14,-24],[-30,-20],[-13,-44],[7,-51],[11,-29],[109,-83],[109,-82],[22,-1],[37,50],[135,-85],[136,-84],[10,-43],[-144,0],[2,16],[1,12],[1,12],[3,13],[-10,21],[-3,14],[0,-19],[-12,33],[-157,17],[-157,17],[-18,30],[-105,52],[-104,53],[-120,-69],[-51,-92],[-31,-141],[-2,-29],[5,-26],[47,-76],[31,-88],[21,-27],[40,-8],[-120,-150],[-77,-9],[3,-26],[7,-47],[2,-32],[-7,-20],[15,-41],[135,9],[19,-38],[-5,-16],[-6,-41],[-3,-16],[-7,-8],[-63,26],[-13,-18],[15,-32],[32,-10],[15,-27],[-4,-13],[-10,-11],[-5,-11],[20,-32],[42,19],[20,-24],[-3,-1],[-10,-15],[7,-19],[16,-7],[7,-11],[-14,4],[-7,-4],[-6,-16],[21,-32],[45,-3],[21,-20],[-20,5],[-11,-7],[-16,-59],[-127,-73],[-10,-23],[17,-37],[-11,-21],[-15,11],[-29,47],[-79,19],[0,716],[64,25],[19,24],[14,48],[-63,168],[-34,64],[0,137],[105,194],[67,45],[32,50],[5,15],[1,67],[-11,43],[-28,33],[-109,160],[-24,62],[-38,43]],[[1853,4096],[1,-12],[0,-15],[1,-15],[9,-45],[4,-29],[0,-32],[-4,-21],[-8,-17],[-20,-20],[-7,-14],[-7,-20],[-5,-23],[0,-29],[5,-28],[12,-36],[37,-57],[30,-11],[7,-26],[-35,-51],[-7,-37],[-1,-58],[7,-27],[19,-21],[9,-19],[7,-25],[2,-37],[-5,-52],[-12,-37],[-46,29],[1,25],[1,10],[-48,66],[-9,40],[-1,62],[8,37],[12,27],[8,33],[-42,55],[-30,72],[-5,32],[4,29],[-7,16],[-108,14]],[[1630,3829],[-39,5],[-44,108],[-158,149],[1,5]],[[1193,4096],[1,-5],[32,-55],[6,-43],[-13,-80],[5,-18],[-13,-34],[12,-39],[20,-44],[11,-51],[-12,-116],[-9,-24],[-35,6],[-5,6],[-5,14],[-21,87],[-7,19],[-8,17],[-14,46],[3,50],[24,97],[-11,77],[-11,50],[-14,27],[-13,13]],[[0,3944],[29,-29],[16,-2],[8,-9],[16,-37],[8,-9],[30,-8],[41,-48],[6,-22],[8,-55],[5,-20],[17,-26],[16,-13],[1,-6],[1,-12],[2,-13],[2,-8],[15,-17],[5,1],[26,-3],[14,-14],[27,-48],[64,-32],[31,-46],[62,-38],[13,-31],[-14,-24],[-30,-20],[-13,-44],[7,-51],[11,-29],[109,-83],[109,-82],[22,-1],[37,50],[135,-85],[136,-84],[10,-43],[-144,0],[2,16],[1,12],[1,12],[3,13],[-10,21],[-3,14],[0,-19],[-12,33],[-157,17],[-157,17],[-18,30],[-105,52],[-104,53],[-120,-69],[-51,-92],[-31,-141],[-2,-29],[5,-26],[47,-76],[31,-88],[21,-27],[40,-8],[-120,-150],[-77,-9],[3,-26],[7,-47],[2,-32],[-7,-20],[15,-41],[135,9],[19,-38],[-5,-16],[-6,-41],[-3,-16],[-7,-8],[-63,26],[-13,-18],[15,-32],[32,-10],[15,-27],[-4,-13],[-10,-11],[-5,-11],[20,-32],[42,19],[20,-24],[-3,-1],[-10,-15],[7,-19],[16,-7],[7,-11],[-14,4],[-7,-4],[-6,-16],[21,-32],[45,-3],[21,-20],[-20,5],[-11,-7],[-16,-59],[-127,-73],[-10,-23],[17,-37],[-11,-21],[-15,11],[-29,47],[-79,19]],[[171,3417],[-109,160],[-24,62],[-38,43]],[[0,2504],[64,25],[19,24],[14,48],[-63,168],[-34,64]],[[0,2970],[105,194],[67,45],[32,50],[5,15],[1,67],[-11,43],[-28,33]],[[0,2970],[0,712],[38,-43],[24,-62],[109,-160],[28,-33],[11,-43],[-1,-67],[-5,-15],[-32,-50],[-67,-45],[-105,-194]],[[0,2504],[0,329],[34,-64],[63,-168],[-14,-48],[-19,-24],[-64,-25]],[[1853,4096],[2243,0],[0,-4096],[-4096,0],[0,1788],[79,-19],[29,-47],[15,-11],[11,21],[-17,37],[10,23],[127,73],[16,59],[11,7],[20,-5],[-21,20],[-45,3],[-21,32],[6,16],[7,4],[14,-4],[-7,11],[-16,7],[-7,19],[10,15],[3,1],[-20,24],[-42,-19],[-20,32],[5,11],[10,11],[4,13],[-15,27],[-32,10],[-15,32],[13,18],[63,-26],[7,8],[3,16],[6,41],[5,16],[-19,38],[-135,-9],[-15,41],[7,20],[-2,32],[-7,47],[-3,26],[77,9],[120,150],[-40,8],[-21,27],[-31,88],[-47,76],[-5,26],[2,29],[22,98],[9,43],[51,92],[120,69],[104,-53],[105,-52],[18,-30],[157,-17],[157,-17],[12,-33],[0,19],[3,-14],[3,-7],[7,-14],[-3,-13],[-1,-12],[-1,-12],[-2,-16],[144,0],[-10,43],[-38,24],[-98,60],[-135,85],[-37,-50],[-22,1],[-109,82],[-109,83],[-11,29],[-7,51],[13,44],[30,20],[14,24],[-13,31],[-62,38],[-31,46],[-64,32],[-27,48],[-14,14],[-26,3],[-5,-1],[-15,17],[-2,8],[-2,13],[-1,12],[-1,6],[-16,13],[-17,26],[-5,20],[-8,55],[-6,22],[-41,48],[-30,8],[-8,9],[-16,37],[-8,9],[-16,2],[-29,29],[0,152],[1116,0],[13,-13],[14,-27],[11,-50],[11,-77],[-24,-97],[-3,-50],[14,-46],[8,-17],[7,-19],[21,-87],[5,-14],[5,-6],[35,-6],[9,24],[12,116],[-11,51],[-20,44],[-12,39],[13,34],[-5,18],[13,80],[-6,43],[-32,55],[-1,5],[197,0],[-1,-5],[158,-149],[44,-108],[39,-5],[108,-14],[7,-16],[-4,-29],[5,-32],[30,-72],[42,-55],[-8,-33],[-12,-27],[-8,-37],[1,-62],[9,-40],[48,-66],[-1,-10],[-1,-25],[46,-29],[12,37],[5,52],[-2,37],[-7,25],[-9,19],[-19,21],[-7,27],[1,58],[7,37],[35,51],[-7,26],[-30,11],[-37,57],[-12,36],[-5,28],[0,29],[5,23],[7,20],[7,14],[20,20],[8,17],[4,21],[0,32],[-4,29],[-9,45],[-1,15],[0,15],[-1,12]],[[4096,0],[-4096,0],[0,4096],[4096,0],[0,-4096]]]}