{"objects":{"water":{"type":"GeometryCollection","geometries":[{"type":"MultiPolygon","properties":{"source":"naturalearthdata.com","kind":"ocean","area":989871000000000,"sort_rank":200,"min_zoom":0,"id":1},"arcs":[[[0],[1]],[[2]]]},{"type":"MultiLineString","properties":{"source":"naturalearthdata.com","kind":"ocean","sort_rank":205,"boundary":true,"min_zoom":0,"id":514},"arcs":[[3],[4]]},{"type":"LineString","properties":{"source":"naturalearthdata.com","kind":"ocean","sort_rank":205,"boundary":true,"min_zoom":0,"id":1457},"arcs":[5]}]},"buildings":{"type":"GeometryCollection","geometries":[]},"places":{"type":"GeometryCollection","geometries":[]},"transit":{"type":"GeometryCollection","geometries":[]},"pois":{"type":"GeometryCollection","geometries":[]},"boundaries":{"type":"GeometryCollection","geometries":[]},"roads":{"type":"GeometryCollection","geometries":[]},"earth":{"type":"GeometryCollection","geometries":[{"type":"MultiPolygon","properties":{"sort_rank":10,"source":"naturalearthdata.com","min_zoom":0,"kind":"earth","area":44884805284559},"arcs":[[[6]]]}]},"landuse":{"type":"GeometryCollection","geometries":[]}},"type":"Topology","transform":{"translate":[-45.0,66.5132604431],"scale":[0.002746582,0.0010008188]},"arcs":[[[4096,475],[0,-475],[-261,0],[2,2],[4,8],[16,19],[-10,21],[-24,15],[-9,20],[6,5],[12,6],[5,9],[-5,14],[-6,6],[-14,0],[5,7],[9,5],[6,5],[15,33],[1,5],[-4,16],[3,27],[6,13],[4,-29],[3,-13],[3,-16],[0,-15],[-5,-31],[2,-16],[5,-13],[4,-19],[6,7],[18,39],[3,13],[-2,16],[6,12],[6,-2],[4,-9],[0,-11],[-2,-12],[-4,-29],[-8,-29],[-1,-13],[4,-6],[8,4],[5,7],[14,34],[-1,8],[3,12],[6,12],[5,8],[11,13],[1,9],[-7,13],[2,2],[1,3],[2,2],[-5,14],[18,-5],[11,12],[-4,40],[3,-2],[3,-4],[5,-10],[4,-4],[3,4],[1,6],[0,3],[-4,7],[-8,36],[-2,12],[6,-1],[4,-7],[3,-10],[5,-9],[4,-5],[15,-9],[-2,-22],[6,-4],[9,10],[5,16],[-1,12],[-4,3],[-5,-2],[-5,1],[-5,5],[-2,6],[-3,16],[-5,17],[-1,13],[1,14],[9,38],[3,8],[10,18],[3,9],[-9,7],[-8,11],[-2,10],[9,6],[11,-3],[10,-8],[11,-4],[10,8],[-2,6],[-8,12],[-2,-4],[-24,18],[-6,9],[82,-6]],[[4054,310],[-2,-5],[-5,1],[-4,5],[-4,6],[6,5],[6,10],[3,13],[-3,13],[-11,9],[-3,-15],[0,-23],[-2,-12],[-6,8],[-6,14],[-6,2],[-3,-24],[2,-26],[6,-9],[33,2],[6,4],[3,12],[-1,11],[-3,6],[-3,-1],[-3,-6]],[[4096,534],[0,-31],[-4,9],[-14,-5],[-14,-11],[-15,5],[9,15],[14,11],[24,7]],[[3835,0],[2,2],[4,8],[16,19],[-10,21],[-24,15],[-9,20],[6,5],[12,6],[5,9],[-5,14],[-6,6],[-14,0],[5,7],[9,5],[6,5],[15,33],[1,5],[-4,16],[3,27],[6,13],[4,-29],[3,-13],[3,-16],[0,-15],[-5,-31],[2,-16],[5,-13],[4,-19],[6,7],[18,39],[3,13],[-2,16],[6,12],[6,-2],[4,-9],[0,-11],[-2,-12],[-4,-29],[-8,-29],[-1,-13],[4,-6],[8,4],[5,7],[14,34],[-1,8],[3,12],[6,12],[5,8],[11,13],[1,9],[-7,13],[2,2],[1,3],[2,2],[-5,14],[18,-5],[11,12],[-4,40],[3,-2],[3,-4],[5,-10],[4,-4],[3,4],[1,6],[0,3],[-4,7],[-8,36],[-2,12],[6,-1],[4,-7],[3,-10],[5,-9],[4,-5],[15,-9],[-2,-22],[6,-4],[9,10],[5,16],[-1,12],[-4,3],[-5,-2],[-5,1],[-5,5],[-2,6],[-3,16],[-5,17],[-1,13],[1,14],[9,38],[3,8],[10,18],[3,9],[-9,7],[-8,11],[-2,10],[9,6],[11,-3],[10,-8],[11,-4],[10,8],[-2,6],[-8,12],[-2,-4],[-24,18],[-6,9],[82,-6]],[[4096,503],[-4,9],[-14,-5],[-14,-11],[-15,5],[9,15],[14,11],[24,7]],[[4054,310],[-2,-5],[-5,1],[-4,5],[-4,6],[6,5],[6,10],[3,13],[-3,13],[-11,9],[-3,-15],[0,-23],[-2,-12],[-6,8],[-6,14],[-6,2],[-3,-24],[2,-26],[6,-9],[33,2],[6,4],[3,12],[-1,11],[-3,6],[-3,-1],[-3,-6]],[[4096,503],[0,-28],[-82,6],[6,-9],[24,-18],[2,4],[8,-12],[2,-6],[-10,-8],[-11,4],[-10,8],[-11,3],[-9,-6],[2,-10],[8,-11],[9,-7],[-3,-9],[-10,-18],[-3,-8],[-9,-38],[-1,-14],[1,-13],[5,-17],[3,-16],[2,-6],[5,-5],[5,-1],[5,2],[4,-3],[1,-12],[-5,-16],[-9,-10],[-6,4],[2,22],[-15,9],[-4,5],[-5,9],[-3,10],[-4,7],[-6,1],[2,-12],[8,-36],[4,-7],[0,-3],[-1,-6],[-3,-4],[-4,4],[-5,10],[-3,4],[-3,2],[4,-40],[-11,-12],[-18,5],[5,-14],[-2,-2],[-1,-3],[-2,-2],[7,-13],[-1,-9],[-11,-13],[-5,-8],[-6,-12],[-3,-12],[1,-8],[-14,-34],[-5,-7],[-8,-4],[-4,6],[1,13],[8,29],[4,29],[2,12],[0,11],[-4,9],[-6,2],[-6,-12],[2,-16],[-3,-13],[-18,-39],[-6,-7],[-4,19],[-5,13],[-2,16],[5,31],[0,15],[-3,16],[-3,13],[-4,29],[-6,-13],[-3,-27],[4,-16],[-1,-5],[-15,-33],[-6,-5],[-9,-5],[-5,-7],[14,0],[6,-6],[5,-14],[-5,-9],[-12,-6],[-6,-5],[9,-20],[24,-15],[10,-21],[-16,-19],[-4,-8],[-2,-2],[-1762,0],[-2073,0],[0,4096],[4096,0],[0,-3562],[-24,-7],[-14,-11],[-9,-15],[15,-5],[14,11],[14,5],[4,-9]]]}