{"objects":{"water":{"type":"GeometryCollection","geometries":[{"type":"MultiPolygon","properties":{"source":"naturalearthdata.com","kind":"ocean","area":989871000000000,"sort_rank":200,"min_zoom":0,"id":1},"arcs":[[[0],[1],[2]]]},{"type":"LineString","properties":{"source":"naturalearthdata.com","kind":"ocean","sort_rank":205,"boundary":true,"min_zoom":0,"id":1823},"arcs":[3]},{"type":"LineString","properties":{"source":"naturalearthdata.com","kind":"ocean","sort_rank":205,"boundary":true,"min_zoom":0,"id":1829},"arcs":[4]},{"type":"LineString","properties":{"source":"naturalearthdata.com","kind":"ocean","sort_rank":205,"boundary":true,"min_zoom":0,"id":4015},"arcs":[5]}]},"buildings":{"type":"GeometryCollection","geometries":[]},"places":{"type":"GeometryCollection","geometries":[{"type":"Point","properties":{"name:pt":"Petropavlovsk-Kamchatski","collision_rank":349,"name:nl":"Petropavlovsk-Kamtsjatski","name:id":"Petropavlovsk Kamchatsky","name":"Petropavlovsk Kamchatskiy","name:hi":"\u092a\u0947\u091f\u094d\u0930\u094b\u092a\u093e\u0935\u0932\u094b\u0935\u094d\u0938\u094d\u0915 \u0915\u0948\u092e\u091a\u0948\u091f\u094d\u0938\u094d\u0915\u0940","name:tr":"Petropavlovsk-Kam\u00e7atski","name:sv":"Petropavlovsk-Kamtjatskij","name:ar":"\u0628\u064a\u062a\u0631\u0648\u0628\u0627\u0641\u0644\u0648\u0641\u0633\u0643-\u0643\u0627\u0645\u062a\u0634\u0627\u062a\u0633\u0643\u064a","min_zoom":5.0,"name:it":"Petropavlovsk-Kam\u010datskij","name:vi":"Petropavlovsk-Kamchatsky","name:ru":"\u041f\u0435\u0442\u0440\u043e\u043f\u0430\u0432\u043b\u043e\u0432\u0441\u043a-\u041a\u0430\u043c\u0447\u0430\u0442\u0441\u043a\u0438\u0439","name:pl":"Pietropaw\u0142owsk Kamczacki","name:hu":"Petropavlovszk-Kamcsatszkij","id":6918,"name:ja":"\u30da\u30c8\u30ed\u30d1\u30d6\u30ed\u30d5\u30b9\u30af\u30fb\u30ab\u30e0\u30c1\u30e3\u30c4\u30ad\u30fc","name:el":"\u03a0\u03b5\u03c4\u03c1\u03bf\u03c0\u03b1\u03b2\u03bb\u03cc\u03b2\u03c3\u03ba \u039a\u03b1\u03bc\u03c4\u03c3\u03ac\u03c4\u03c3\u03ba\u03b9","kind":"locality","name:en":"Petropavlovsk-Kamchatsky","population_rank":9,"source":"naturalearthdata.com","region_capital":true,"name:bn":"\u09aa\u09cd\u09b0\u09c7\u099f\u09cd\u09b0\u09cb\u09aa\u09be\u09ad\u09b2\u09cb\u09ad\u09b8\u09cd\u0995-\u0995\u09be\u09ae\u099a\u09be\u099f\u09b8\u09cd\u0995\u09bf","name:de":"Petropawlowsk-Kamtschatski","name:ko":"\ud398\ud2b8\ub85c\ud30c\ube14\ub86d\uc2a4\ud06c\uce84\ucc28\uce20\ud0a4","name:fr":"Petropavlovsk-Kamtchatski","wikidata_id":"Q7951","population":187282,"name:zh":"\u582a\u5bdf\u52a0\u5f7c\u5f97\u5df4\u752b\u6d1b\u592b\u65af\u514b","name:es":"Petrop\u00e1vlovsk-Kamchatski"},"coordinates":[409,2474]}]},"transit":{"type":"GeometryCollection","geometries":[]},"pois":{"type":"GeometryCollection","geometries":[]},"boundaries":{"type":"GeometryCollection","geometries":[]},"roads":{"type":"GeometryCollection","geometries":[{"type":"LineString","properties":{"source":"naturalearthdata.com","kind":"minor_road","sort_rank":355,"kind_detail":"tertiary","min_zoom":5.2,"id":13256},"arcs":[6]},{"type":"LineString","properties":{"source":"naturalearthdata.com","kind":"minor_road","sort_rank":355,"kind_detail":"tertiary","min_zoom":5.2,"id":14019},"arcs":[7]},{"type":"MultiLineString","properties":{"source":"naturalearthdata.com","kind":"minor_road","sort_rank":355,"kind_detail":"tertiary","min_zoom":5.2,"id":14020},"arcs":[[8],[9]]},{"type":"LineString","properties":{"source":"naturalearthdata.com","kind":"minor_road","sort_rank":355,"kind_detail":"tertiary","min_zoom":5.2,"id":14093},"arcs":[10]}]},"earth":{"type":"GeometryCollection","geometries":[{"type":"MultiPolygon","properties":{"sort_rank":10,"source":"naturalearthdata.com","kind":"earth","min_zoom":2.0,"area":81316714394},"arcs":[[[11]]]},{"type":"MultiPolygon","properties":{"sort_rank":10,"source":"naturalearthdata.com","min_zoom":3.0,"kind":"earth","area":43052408803},"arcs":[[[12]]]},{"type":"MultiPolygon","properties":{"sort_rank":10,"source":"naturalearthdata.com","min_zoom":0,"kind":"earth","area":46840771247929},"arcs":[[[13]]]}]},"landuse":{"type":"GeometryCollection","geometries":[{"type":"MultiPolygon","properties":{"kind":"nature_reserve","protect_class":"1","area":353838078782,"sort_rank":23,"source":"openstreetmap.org","min_zoom":4.0,"tier":2,"id":-5576397},"arcs":[[[14],[15]],[[16]]]},{"type":"MultiPolygon","properties":{"kind":"nature_reserve","protect_class":"4","area":282381055847,"sort_rank":23,"source":"openstreetmap.org","min_zoom":4.0,"tier":2,"id":-9173183},"arcs":[[[17]]]},{"type":"MultiPolygon","properties":{"source":"openstreetmap.org","kind":"park","area":170607228955,"tier":2,"min_zoom":4.0,"id":-530806,"sort_rank":24},"arcs":[[[18]]]}]}},"type":"Topology","transform":{"translate":[157.5,48.9224992638],"scale":[0.002746582,0.0016733579]},"arcs":[[[1606,4096],[2490,0],[0,-4096],[-4096,0],[0,1509],[13,23],[26,24],[26,7],[12,7],[17,-3],[16,27],[8,4],[11,15],[11,9],[10,-3],[3,3],[-3,9],[2,5],[9,7],[6,15],[3,7],[8,6],[4,6],[2,7],[3,15],[5,6],[29,20],[4,4],[1,10],[4,11],[22,28],[5,3],[4,13],[12,11],[7,4],[6,11],[-1,26],[0,8],[1,6],[2,5],[4,6],[9,8],[2,4],[-1,4],[-4,6],[0,4],[-1,14],[1,6],[2,5],[5,0],[13,-5],[2,3],[2,6],[4,6],[8,8],[4,9],[-4,5],[-7,4],[-4,5],[1,11],[10,5],[8,6],[-4,14],[22,0],[6,4],[11,11],[4,2],[2,3],[2,7],[0,7],[-2,3],[-5,2],[-6,3],[-4,6],[-3,6],[7,3],[11,14],[7,3],[-10,18],[-6,5],[-9,2],[-7,-4],[-8,-7],[-8,-4],[-7,2],[4,4],[8,5],[3,4],[1,3],[-1,10],[0,3],[6,5],[15,5],[4,7],[-2,1],[-8,7],[5,5],[1,4],[-1,5],[0,7],[3,9],[0,6],[0,5],[-11,1],[-12,2],[-12,11],[0,5],[7,9],[-3,6],[-3,6],[-2,6],[-2,7],[3,-4],[14,-10],[12,-9],[9,3],[7,4],[8,9],[4,12],[-2,12],[6,0],[4,3],[1,5],[-1,8],[-3,5],[-7,7],[0,4],[-9,0],[-11,3],[-8,8],[2,12],[5,3],[14,2],[5,5],[-1,4],[-7,20],[7,-2],[5,-5],[6,-1],[7,8],[5,7],[1,5],[-2,5],[-6,8],[4,2],[4,2],[3,4],[4,5],[-5,10],[-4,6],[-6,3],[-9,1],[-9,2],[-9,4],[-10,2],[-8,-4],[10,-9],[5,-5],[2,-7],[-11,-1],[-13,2],[-10,8],[-3,16],[3,8],[5,8],[1,6],[-8,2],[-6,3],[1,8],[4,7],[3,5],[6,5],[15,6],[6,4],[5,5],[2,4],[4,2],[6,1],[7,-2],[5,-3],[11,-12],[14,-24],[5,-4],[-5,-13],[3,-12],[7,-12],[3,-15],[5,-10],[11,7],[48,56],[48,48],[59,34],[15,6],[6,1],[7,2],[12,11],[6,4],[12,-1],[11,-5],[10,-2],[11,9],[12,21],[6,7],[6,4],[42,15],[14,1],[16,-5],[7,-4],[7,-3],[6,2],[12,15],[7,6],[16,5],[-6,-8],[-9,-7],[-8,-9],[-2,-13],[5,-11],[10,-8],[48,-26],[9,-8],[2,-4],[0,-4],[1,-4],[2,-1],[6,0],[4,1],[3,1],[4,1],[16,-11],[-3,13],[1,12],[-1,11],[-7,13],[2,8],[-1,5],[-2,5],[-2,7],[-2,12],[0,14],[-5,6],[-9,-6],[-7,-12],[3,-18],[-18,23],[-2,9],[3,9],[6,6],[7,5],[4,5],[2,13],[-4,2],[-7,-1],[-6,2],[-3,8],[1,9],[5,16],[-6,3],[-7,-4],[-5,1],[-4,5],[-3,6],[-2,7],[-1,7],[0,6],[0,14],[0,4],[-5,6],[-5,0],[-6,-1],[-7,-1],[6,6],[1,6],[-3,6],[-6,3],[3,4],[3,3],[3,3],[4,2],[6,-11],[14,-14],[14,-11],[11,-1],[4,14],[-1,34],[4,10],[-14,44],[-10,17],[-11,-4],[5,-11],[7,-11],[5,-11],[-2,-12],[-6,13],[-9,13],[-11,10],[-9,5],[8,12],[5,5],[5,4],[-9,27],[0,34],[21,110],[6,15],[15,25],[12,30],[3,20],[20,26],[23,24],[16,12],[21,4],[7,4],[5,6],[7,12],[24,23],[30,36],[25,18],[14,18],[72,51],[4,5],[2,2],[55,21],[63,16],[31,0],[22,-16],[2,-5],[1,-13],[2,-6],[5,-7],[11,-6],[5,-6],[11,-5],[17,2],[41,13],[39,1],[21,5],[6,-3],[5,-4],[7,-3],[8,0],[6,1],[11,6],[6,10],[12,27],[5,5],[12,6],[5,5],[5,7],[16,9],[10,7],[5,6],[5,3],[5,7],[3,8],[2,5],[2,4],[10,10],[3,4],[7,2],[7,3],[9,5],[7,11],[1,7],[-4,11],[-4,13],[0,7],[4,5],[7,5],[5,5],[0,8],[-9,11],[-20,14],[-9,12],[-1,19],[-21,34],[-10,13],[-22,15],[-9,11],[-12,31],[-11,29],[-7,34],[-6,32],[-2,22],[-5,15],[-3,15],[0,53],[5,28],[1,25],[4,32],[7,12],[5,16],[11,29],[19,29],[7,15]],[[3845,3361],[-9,12],[-21,19],[-9,12],[-6,9],[-5,6],[-5,4],[-7,1],[-6,4],[-10,17],[-9,4],[-7,1],[-7,4],[-5,6],[-6,10],[-4,16],[-3,4],[-15,4],[-13,9],[-6,3],[-15,2],[-8,3],[-5,6],[1,8],[-3,11],[-14,10],[-17,6],[-12,0],[3,-27],[19,-22],[72,-57],[9,-11],[4,-4],[7,-4],[6,-2],[13,-1],[5,-3],[43,-32],[18,-23],[20,-20],[15,-10],[6,-2],[4,1],[0,8],[-3,5],[-11,9],[-4,4]],[[3337,3486],[-3,9],[-6,15],[-1,9],[1,7],[3,7],[0,6],[-22,27],[-1,9],[-5,5],[-11,4],[-23,14],[-11,11],[-11,19],[-4,3],[-4,5],[-3,15],[-4,4],[-4,4],[-5,5],[-12,25],[-5,6],[-9,10],[-5,7],[-6,11],[-2,6],[-2,7],[0,24],[-5,21],[6,12],[17,21],[-5,2],[-3,3],[-3,5],[-2,6],[-5,0],[-22,-7],[-81,27],[-6,0],[-6,-4],[-3,-4],[-5,-13],[-4,-5],[-12,-8],[-14,-4],[-27,-3],[7,-8],[13,-7],[36,-8],[23,-16],[11,-5],[-8,-10],[4,-7],[15,-10],[21,-34],[3,-11],[-1,-13],[-2,-7],[1,-5],[29,-36],[6,-11],[1,-6],[3,-11],[2,-5],[4,-5],[9,-3],[8,-8],[10,-6],[3,-3],[1,-7],[2,-4],[22,-27],[6,-4],[9,-1],[17,2],[11,-1],[9,-5],[-5,-14],[6,-12],[19,-19],[9,-14],[4,-5],[8,-1],[4,-3],[10,-14],[5,-4],[-4,13],[1,9],[3,10],[0,13]],[[3845,3361],[-9,12],[-21,19],[-9,12],[-6,9],[-5,6],[-5,4],[-7,1],[-6,4],[-10,17],[-9,4],[-7,1],[-7,4],[-5,6],[-6,10],[-4,16],[-3,4],[-15,4],[-13,9],[-6,3],[-15,2],[-8,3],[-5,6],[1,8],[-3,11],[-14,10],[-17,6],[-12,0],[3,-27],[19,-22],[72,-57],[9,-11],[4,-4],[7,-4],[6,-2],[13,-1],[5,-3],[43,-32],[18,-23],[20,-20],[15,-10],[6,-2],[4,1],[0,8],[-3,5],[-11,9],[-4,4]],[[3337,3486],[-3,9],[-6,15],[-1,9],[1,7],[3,7],[0,6],[-22,27],[-1,9],[-5,5],[-11,4],[-23,14],[-11,11],[-11,19],[-4,3],[-4,5],[-3,15],[-4,4],[-4,4],[-5,5],[-12,25],[-5,6],[-9,10],[-5,7],[-6,11],[-2,6],[-2,7],[0,24],[-5,21],[6,12],[17,21],[-5,2],[-3,3],[-3,5],[-2,6],[-5,0],[-22,-7],[-81,27],[-6,0],[-6,-4],[-3,-4],[-5,-13],[-4,-5],[-12,-8],[-14,-4],[-27,-3],[7,-8],[13,-7],[36,-8],[23,-16],[11,-5],[-8,-10],[4,-7],[15,-10],[21,-34],[3,-11],[-1,-13],[-2,-7],[1,-5],[29,-36],[6,-11],[1,-6],[3,-11],[2,-5],[4,-5],[9,-3],[8,-8],[10,-6],[3,-3],[1,-7],[2,-4],[22,-27],[6,-4],[9,-1],[17,2],[11,-1],[9,-5],[-5,-14],[6,-12],[19,-19],[9,-14],[4,-5],[8,-1],[4,-3],[10,-14],[5,-4],[-4,13],[1,9],[3,10],[0,13]],[[0,1509],[13,23],[26,24],[26,7],[12,7],[17,-3],[16,27],[8,4],[11,15],[11,9],[10,-3],[3,3],[-3,9],[2,5],[9,7],[6,15],[3,7],[8,6],[4,6],[2,7],[3,15],[5,6],[29,20],[4,4],[1,10],[4,11],[22,28],[5,3],[4,13],[12,11],[7,4],[6,11],[-1,26],[0,8],[1,6],[2,5],[4,6],[9,8],[2,4],[-1,4],[-4,6],[0,4],[-1,14],[1,6],[2,5],[5,0],[13,-5],[2,3],[2,6],[4,6],[8,8],[4,9],[-4,5],[-7,4],[-4,5],[1,11],[10,5],[8,6],[-4,14],[22,0],[6,4],[11,11],[4,2],[2,3],[2,7],[0,7],[-2,3],[-5,2],[-6,3],[-4,6],[-3,6],[7,3],[11,14],[7,3],[-10,18],[-6,5],[-9,2],[-7,-4],[-8,-7],[-8,-4],[-7,2],[4,4],[8,5],[3,4],[1,3],[-1,10],[0,3],[6,5],[15,5],[4,7],[-2,1],[-8,7],[5,5],[1,4],[-1,5],[0,7],[3,9],[0,6],[0,5],[-11,1],[-12,2],[-12,11],[0,5],[7,9],[-3,6],[-3,6],[-2,6],[-2,7],[3,-4],[14,-10],[12,-9],[9,3],[7,4],[8,9],[4,12],[-2,12],[6,0],[4,3],[1,5],[-1,8],[-3,5],[-7,7],[0,4],[-9,0],[-11,3],[-8,8],[2,12],[5,3],[14,2],[5,5],[-1,4],[-7,20],[7,-2],[5,-5],[6,-1],[7,8],[5,7],[1,5],[-2,5],[-6,8],[4,2],[4,2],[3,4],[4,5],[-5,10],[-4,6],[-6,3],[-9,1],[-9,2],[-9,4],[-10,2],[-8,-4],[10,-9],[5,-5],[2,-7],[-11,-1],[-13,2],[-10,8],[-3,16],[3,8],[5,8],[1,6],[-8,2],[-6,3],[1,8],[4,7],[3,5],[6,5],[15,6],[6,4],[5,5],[2,4],[4,2],[6,1],[7,-2],[5,-3],[11,-12],[14,-24],[5,-4],[-5,-13],[3,-12],[7,-12],[3,-15],[5,-10],[11,7],[48,56],[48,48],[59,34],[15,6],[6,1],[7,2],[12,11],[6,4],[12,-1],[11,-5],[10,-2],[11,9],[12,21],[6,7],[6,4],[42,15],[14,1],[16,-5],[7,-4],[7,-3],[6,2],[12,15],[7,6],[16,5],[-6,-8],[-9,-7],[-8,-9],[-2,-13],[5,-11],[10,-8],[48,-26],[9,-8],[2,-4],[0,-4],[1,-4],[2,-1],[6,0],[4,1],[3,1],[4,1],[16,-11],[-3,13],[1,12],[-1,11],[-7,13],[2,8],[-1,5],[-2,5],[-2,7],[-2,12],[0,14],[-5,6],[-9,-6],[-7,-12],[3,-18],[-18,23],[-2,9],[3,9],[6,6],[7,5],[4,5],[2,13],[-4,2],[-7,-1],[-6,2],[-3,8],[1,9],[5,16],[-6,3],[-7,-4],[-5,1],[-4,5],[-3,6],[-2,7],[-1,7],[0,6],[0,14],[0,4],[-5,6],[-5,0],[-6,-1],[-7,-1],[6,6],[1,6],[-3,6],[-6,3],[3,4],[3,3],[3,3],[4,2],[6,-11],[14,-14],[14,-11],[11,-1],[4,14],[-1,34],[4,10],[-14,44],[-10,17],[-11,-4],[5,-11],[7,-11],[5,-11],[-2,-12],[-6,13],[-9,13],[-11,10],[-9,5],[8,12],[5,5],[5,4],[-9,27],[0,34],[21,110],[6,15],[15,25],[12,30],[3,20],[20,26],[23,24],[16,12],[21,4],[7,4],[5,6],[7,12],[24,23],[30,36],[25,18],[14,18],[72,51],[4,5],[2,2],[55,21],[63,16],[31,0],[22,-16],[2,-5],[1,-13],[2,-6],[5,-7],[11,-6],[5,-6],[11,-5],[17,2],[41,13],[39,1],[21,5],[6,-3],[5,-4],[7,-3],[8,0],[6,1],[11,6],[6,10],[12,27],[5,5],[12,6],[5,5],[5,7],[16,9],[10,7],[5,6],[5,3],[5,7],[3,8],[2,5],[2,4],[10,10],[3,4],[7,2],[7,3],[9,5],[7,11],[1,7],[-4,11],[-4,13],[0,7],[4,5],[7,5],[5,5],[0,8],[-9,11],[-20,14],[-9,12],[-1,19],[-21,34],[-10,13],[-22,15],[-9,11],[-12,31],[-11,29],[-7,34],[-6,32],[-2,22],[-5,15],[-3,15],[0,53],[5,28],[1,25],[4,32],[7,12],[5,16],[11,29],[19,29],[7,15]],[[835,4096],[-2,-7],[-9,-15],[-2,-10],[5,-5],[1,-19],[-1,-23],[-2,-37],[-9,3],[-13,0],[-23,-7],[-19,-5],[-26,0],[-18,-28],[-22,-14],[-5,-15],[-3,-7],[-10,-10],[-12,-5],[-9,-13],[-5,-12],[-15,-29],[-6,-5],[-13,-18],[-6,-12],[-8,-20],[-4,-7],[-11,-27],[-4,-20],[-9,-10],[-9,-12],[-17,-12],[-13,-20],[-23,-12],[-9,-13],[-8,-12],[-6,-25],[-9,-20],[-9,-12],[-10,-10],[-5,-7],[-4,-12],[-5,-13],[-6,-32],[-4,-15],[-18,-19],[-24,-15],[-11,-10]],[[313,2534],[-3,7],[0,12],[-3,5],[-12,10],[-15,17],[-16,20],[-5,3]],[[32,2534],[-7,10],[-14,2],[-11,-2]],[[0,2668],[11,26],[12,27],[8,12],[3,15],[4,25],[2,37],[-2,29],[3,20],[8,12],[0,8],[-3,17],[0,10],[3,20],[7,19],[15,30],[10,12],[15,17],[13,18],[11,7],[15,15],[12,27],[3,12],[3,25],[4,5],[38,22],[19,22],[3,8],[15,19],[30,27],[9,10],[6,13],[3,14],[3,5],[11,10],[9,13],[7,19],[6,32],[5,20],[9,20],[4,7],[11,8],[12,32],[10,19],[18,15]],[[408,2462],[-5,8],[-16,9],[-12,15],[-5,10],[-12,10],[-15,15],[-7,2],[-18,0],[-5,3]],[[3337,3486],[0,-13],[-3,-10],[-1,-9],[4,-13],[-5,4],[-10,14],[-4,3],[-8,1],[-4,5],[-9,14],[-19,19],[-6,12],[5,14],[-9,5],[-11,1],[-17,-2],[-9,1],[-6,4],[-22,27],[-2,4],[-1,7],[-3,3],[-10,6],[-8,8],[-9,3],[-4,5],[-2,5],[-3,11],[-1,6],[-6,11],[-29,36],[-1,5],[2,7],[1,13],[-3,11],[-21,34],[-15,10],[-4,7],[8,10],[-11,5],[-23,16],[-36,8],[-13,7],[-7,8],[27,3],[14,4],[12,8],[4,5],[5,13],[3,4],[6,4],[6,0],[81,-27],[22,7],[5,0],[2,-6],[3,-5],[3,-3],[5,-2],[-17,-21],[-6,-12],[5,-21],[0,-24],[2,-7],[2,-6],[6,-11],[5,-7],[9,-10],[5,-6],[12,-25],[5,-5],[4,-4],[4,-4],[3,-15],[4,-5],[4,-3],[11,-19],[11,-11],[23,-14],[11,-4],[5,-5],[1,-9],[22,-27],[0,-6],[-3,-7],[-1,-7],[1,-9],[6,-15],[3,-9]],[[3845,3361],[4,-4],[11,-9],[3,-5],[0,-8],[-4,-1],[-6,2],[-15,10],[-20,20],[-18,23],[-43,32],[-5,3],[-13,1],[-6,2],[-7,4],[-4,4],[-9,11],[-72,57],[-19,22],[-3,27],[12,0],[17,-6],[14,-10],[3,-11],[-1,-8],[5,-6],[8,-3],[15,-2],[6,-3],[13,-9],[15,-4],[3,-4],[4,-16],[6,-10],[5,-6],[7,-4],[7,-1],[9,-4],[10,-17],[6,-4],[7,-1],[5,-4],[5,-6],[6,-9],[9,-12],[21,-19],[9,-12]],[[0,1509],[0,2587],[1606,0],[-7,-15],[-19,-29],[-11,-29],[-5,-16],[-7,-12],[-4,-32],[-1,-25],[-5,-28],[0,-53],[3,-15],[5,-15],[2,-22],[6,-32],[7,-34],[11,-29],[12,-31],[9,-11],[22,-15],[10,-13],[21,-34],[1,-19],[9,-12],[20,-14],[9,-11],[0,-8],[-5,-5],[-7,-5],[-4,-5],[0,-7],[4,-13],[4,-11],[-1,-7],[-7,-11],[-9,-5],[-7,-3],[-7,-2],[-3,-4],[-10,-10],[-2,-4],[-2,-5],[-3,-8],[-5,-7],[-5,-3],[-5,-6],[-10,-7],[-16,-9],[-5,-7],[-5,-5],[-12,-6],[-5,-5],[-12,-27],[-6,-10],[-11,-6],[-6,-1],[-8,0],[-7,3],[-5,4],[-6,3],[-21,-5],[-39,-1],[-41,-13],[-17,-2],[-11,5],[-5,6],[-11,6],[-5,7],[-2,6],[-1,13],[-2,5],[-22,16],[-31,0],[-63,-16],[-55,-21],[-2,-2],[-4,-5],[-72,-51],[-14,-18],[-25,-18],[-30,-36],[-24,-23],[-7,-12],[-5,-6],[-7,-4],[-21,-4],[-16,-12],[-23,-24],[-20,-26],[-3,-20],[-12,-30],[-15,-25],[-6,-15],[-21,-110],[0,-1],[0,-33],[9,-27],[-5,-4],[-5,-5],[-8,-12],[9,-5],[11,-10],[9,-13],[6,-13],[2,12],[-5,11],[-7,11],[-5,11],[11,4],[10,-17],[14,-44],[-4,-10],[1,-34],[-4,-14],[-11,1],[-14,11],[-14,14],[-6,11],[-4,-2],[-3,-3],[-3,-3],[-3,-4],[6,-3],[3,-6],[-1,-6],[-6,-6],[7,1],[6,1],[5,0],[5,-6],[0,-4],[0,-14],[0,-6],[1,-7],[2,-7],[3,-6],[4,-5],[5,-1],[7,4],[6,-3],[-5,-16],[-1,-9],[3,-8],[6,-2],[7,1],[4,-2],[-2,-13],[-4,-5],[-7,-5],[-6,-6],[-3,-9],[2,-9],[18,-23],[-3,18],[7,12],[9,6],[5,-6],[0,-14],[2,-12],[2,-7],[2,-5],[1,-5],[-2,-8],[7,-13],[1,-11],[-1,-12],[3,-13],[-16,11],[-4,-1],[-3,-1],[-4,-1],[-6,0],[-2,1],[-1,4],[0,4],[-2,4],[-9,8],[-48,26],[-10,8],[-5,11],[2,13],[8,9],[9,7],[6,8],[-16,-5],[-7,-6],[-12,-15],[-6,-2],[-7,3],[-7,4],[-16,5],[-14,-1],[-42,-15],[-6,-4],[-6,-7],[-12,-21],[-11,-9],[-10,2],[-11,5],[-12,1],[-6,-4],[-12,-11],[-7,-2],[-6,-1],[-15,-6],[-59,-34],[-48,-48],[-48,-56],[-11,-7],[-5,10],[-3,15],[-7,12],[-3,12],[5,13],[-5,4],[-14,24],[-11,12],[-5,3],[-7,2],[-6,-1],[-4,-2],[-2,-4],[-5,-5],[-6,-4],[-15,-6],[-6,-5],[-3,-5],[-4,-7],[-1,-8],[6,-3],[8,-2],[-1,-6],[-5,-8],[-3,-8],[3,-16],[10,-8],[13,-2],[11,1],[-2,7],[-5,5],[-10,9],[8,4],[10,-2],[9,-4],[9,-2],[9,-1],[6,-3],[4,-6],[5,-10],[-4,-5],[-3,-4],[-4,-2],[-4,-2],[6,-8],[2,-5],[-1,-5],[-5,-7],[-7,-8],[-6,1],[-5,5],[-7,2],[7,-20],[1,-4],[-5,-5],[-14,-2],[-5,-3],[-2,-12],[8,-8],[11,-3],[9,0],[0,-4],[7,-7],[3,-5],[1,-8],[-1,-5],[-4,-3],[-6,0],[2,-12],[-4,-12],[-8,-9],[-7,-4],[-9,-3],[-12,9],[-14,10],[-3,4],[2,-7],[2,-6],[3,-6],[3,-6],[-7,-9],[0,-5],[12,-11],[12,-2],[11,-1],[0,-5],[0,-6],[-3,-9],[0,-7],[1,-5],[-1,-4],[-5,-5],[8,-7],[2,-1],[-4,-7],[-15,-5],[-6,-5],[0,-3],[1,-10],[-1,-3],[-3,-4],[-8,-5],[-4,-4],[7,-2],[8,4],[8,7],[7,4],[9,-2],[6,-5],[10,-18],[-7,-3],[-11,-14],[-7,-3],[3,-6],[4,-6],[6,-3],[5,-2],[2,-3],[0,-7],[-2,-7],[-2,-3],[-4,-2],[-11,-11],[-6,-4],[-22,0],[4,-14],[-8,-6],[-10,-5],[-1,-11],[4,-5],[7,-4],[4,-5],[-4,-9],[-8,-8],[-4,-6],[-2,-6],[-2,-3],[-13,5],[-5,0],[-2,-5],[-1,-6],[1,-14],[0,-4],[4,-6],[1,-4],[-2,-4],[-9,-8],[-4,-6],[-2,-5],[-1,-6],[0,-8],[1,-26],[-6,-11],[-7,-4],[-12,-11],[-4,-13],[-5,-3],[-22,-28],[-4,-11],[-1,-10],[-4,-4],[-29,-20],[-5,-6],[-3,-15],[-2,-7],[-4,-6],[-8,-6],[-3,-7],[-6,-15],[-9,-7],[-2,-5],[3,-9],[-3,-3],[-10,3],[-11,-9],[-11,-15],[-8,-4],[-16,-27],[-17,3],[-12,-7],[-26,-7],[-26,-24],[-13,-23]],[[4096,3530],[0,-381],[-28,-36],[-83,-52],[-141,-26],[-119,28],[-200,141],[-74,-44],[-120,-20],[-159,47],[-166,130],[-282,330],[-37,158],[19,93],[-100,122],[15,26],[73,23],[137,-18],[80,45],[414,0],[12,-3],[131,-114],[48,-137],[110,17],[121,-27],[286,-205],[63,-97]],[[2949,3795],[84,-61],[75,-115],[76,29],[-13,32],[71,52],[12,76],[-56,64],[-47,-7],[-71,27],[-111,-53],[-20,-44]],[[775,3453],[122,60],[-33,32],[125,87],[3,33],[50,6],[-15,40],[12,4],[0,1],[-27,1],[-15,-48],[-72,-2],[-35,54],[38,94],[68,0],[60,-43],[-21,-10],[8,-45],[39,14],[45,-65],[41,4],[6,-19],[71,52],[40,-17],[55,17],[110,-84],[41,70],[118,27],[117,-172],[-9,-71],[-171,-161],[-172,-17],[-44,27],[-12,39],[-62,-9],[-135,-77],[-187,-191],[-48,35],[-48,93],[21,40],[-29,40],[12,62],[-67,99]],[[0,1434],[0,91],[28,-29],[-10,-54],[-18,-8]],[[301,2670],[57,48],[-35,20],[6,34],[39,2],[64,102],[86,18],[37,-15],[-18,-22],[62,0],[-35,-49],[0,-1],[69,1],[25,-152],[58,-66],[33,-5],[-60,-58],[-63,5],[11,52],[-62,26],[-101,-60],[-94,88],[-79,32]]]}