{"objects":{"water":{"type":"GeometryCollection","geometries":[{"type":"MultiPolygon","properties":{"source":"naturalearthdata.com","kind":"ocean","area":989871000000000,"sort_rank":200,"min_zoom":0,"id":1},"arcs":[[[0],[1],[2],[3],[4]]]},{"type":"LineString","properties":{"source":"naturalearthdata.com","kind":"ocean","sort_rank":205,"boundary":true,"min_zoom":0,"id":571},"arcs":[5]},{"type":"MultiLineString","properties":{"source":"naturalearthdata.com","kind":"ocean","sort_rank":205,"boundary":true,"min_zoom":0,"id":2379},"arcs":[[6],[7]]},{"type":"LineString","properties":{"source":"naturalearthdata.com","kind":"ocean","sort_rank":205,"boundary":true,"min_zoom":0,"id":2403},"arcs":[8]},{"type":"LineString","properties":{"source":"naturalearthdata.com","kind":"ocean","sort_rank":205,"boundary":true,"min_zoom":0,"id":2417},"arcs":[9]},{"type":"LineString","properties":{"source":"naturalearthdata.com","kind":"ocean","sort_rank":205,"boundary":true,"min_zoom":0,"id":2421},"arcs":[10]},{"type":"LineString","properties":{"source":"naturalearthdata.com","kind":"ocean","sort_rank":205,"boundary":true,"min_zoom":0,"id":2423},"arcs":[11]},{"type":"LineString","properties":{"source":"naturalearthdata.com","kind":"ocean","sort_rank":205,"boundary":true,"min_zoom":0,"id":2438},"arcs":[12]},{"type":"LineString","properties":{"source":"naturalearthdata.com","kind":"ocean","sort_rank":205,"boundary":true,"min_zoom":0,"id":3277},"arcs":[13]},{"type":"LineString","properties":{"source":"naturalearthdata.com","kind":"ocean","sort_rank":205,"boundary":true,"min_zoom":0,"id":3301},"arcs":[14]},{"type":"LineString","properties":{"source":"naturalearthdata.com","kind":"ocean","sort_rank":205,"boundary":true,"min_zoom":0,"id":3304},"arcs":[15]}]},"buildings":{"type":"GeometryCollection","geometries":[]},"places":{"type":"GeometryCollection","geometries":[]},"transit":{"type":"GeometryCollection","geometries":[]},"pois":{"type":"GeometryCollection","geometries":[]},"boundaries":{"type":"GeometryCollection","geometries":[]},"roads":{"type":"GeometryCollection","geometries":[]},"earth":{"type":"GeometryCollection","geometries":[{"type":"MultiPolygon","properties":{"sort_rank":10,"source":"naturalearthdata.com","kind":"earth","min_zoom":4.0,"area":7777054921},"arcs":[[[16]]]},{"type":"MultiPolygon","properties":{"sort_rank":10,"source":"naturalearthdata.com","min_zoom":3.0,"kind":"earth","area":43052408803},"arcs":[[[17]]]}]},"landuse":{"type":"GeometryCollection","geometries":[]}},"type":"Topology","transform":{"translate":[157.5,-0.0],"scale":[0.002746582,0.002729102]},"arcs":[[[4096,1684],[0,-1684],[-4096,0],[0,4096],[4096,0],[0,-1418],[-4,0],[-8,3],[-8,2],[-6,5],[-1,-5],[7,-3],[19,-4],[1,0],[0,-988],[-2,-3],[-3,-3],[-19,-6],[12,0],[9,4],[3,4]],[[2012,1957],[0,2],[0,6],[0,2],[-6,4],[-7,-2],[-7,-4],[-17,-15],[-5,-6],[2,-7],[5,-2],[6,0],[8,0],[5,-1],[4,-2],[5,-1],[4,1],[3,3],[6,11],[1,5],[-1,2],[-2,1],[-2,1],[-2,2]],[[288,2542],[4,1],[1,1],[-3,3],[-1,0],[-6,4],[0,1],[-4,1],[-9,-1],[-3,1],[-3,1],[-3,0],[-3,-2],[-3,2],[-7,3],[-1,-8],[-6,-2],[-7,0],[-4,-4],[-2,-12],[2,-6],[10,0],[-1,-4],[-1,-2],[3,-3],[1,-5],[0,-4],[-2,-5],[4,-4],[4,-5],[5,-4],[7,3],[4,-4],[7,-1],[18,3],[4,1],[3,4],[2,6],[-1,4],[-3,7],[-1,4],[1,1],[8,-1],[3,1],[0,4],[-5,19],[-3,-2],[-4,-1],[-3,2],[-2,3]],[[4033,2713],[-2,5],[-2,12],[-1,5],[-3,-5],[0,-7],[3,-7],[5,-3]],[[3424,4094],[-12,-4],[-13,-1],[6,-5],[8,0],[7,3],[4,7]],[[3860,2052],[5,-3],[5,4],[1,6],[-3,4],[1,-3],[0,-3],[0,-3],[-2,-3],[-2,-1],[-3,1],[-2,1]],[[4072,1676],[12,0],[9,4],[3,4]],[[4096,1688],[-2,-3],[-3,-3],[-19,-6]],[[2012,1957],[0,2],[0,6],[0,2],[-6,4],[-7,-2],[-7,-4],[-17,-15],[-5,-6],[2,-7],[5,-2],[6,0],[8,0],[5,-1],[4,-2],[5,-1],[4,1],[3,3],[6,11],[1,5],[-1,2],[-2,1],[-2,1],[-2,2]],[[288,2542],[4,1],[1,1],[-3,3],[-1,0],[-6,4],[0,1],[-4,1],[-9,-1],[-3,1],[-3,1],[-3,0],[-3,-2],[-3,2],[-7,3],[-1,-8],[-6,-2],[-7,0],[-4,-4],[-2,-12],[2,-6],[10,0],[-1,-4],[-1,-2],[3,-3],[1,-5],[0,-4],[-2,-5],[4,-4],[4,-5],[5,-4],[7,3],[4,-4],[7,-1],[18,3],[4,1],[3,4],[2,6],[-1,4],[-3,7],[-1,4],[1,1],[8,-1],[3,1],[0,4],[-5,19],[-3,-2],[-4,-1],[-3,2],[-2,3]],[[4096,2678],[-4,0],[-8,3],[-8,2],[-6,5],[-1,-5],[7,-3],[19,-4],[1,0]],[[4033,2713],[-2,5],[-2,12],[-1,5],[-3,-5],[0,-7],[3,-7],[5,-3]],[[3424,4094],[-12,-4],[-13,-1],[6,-5],[8,0],[7,3],[4,7]],[[159,2461],[1,4],[1,1],[2,1],[0,-3],[-1,-1],[-3,-2]],[[3605,3048],[-1,-3],[3,-1],[-2,4]],[[3725,3197],[3,3],[1,2],[-1,2],[-2,-2],[-1,-1],[0,-2],[0,-2]],[[2012,1957],[2,-2],[2,-1],[2,-1],[1,-2],[-1,-5],[-6,-11],[-3,-3],[-4,-1],[-5,1],[-4,2],[-5,1],[-8,0],[-6,0],[-5,2],[-2,7],[5,6],[17,15],[7,4],[7,2],[6,-4],[0,-2],[0,-6],[0,-2]],[[288,2542],[2,-3],[3,-2],[4,1],[3,2],[5,-19],[0,-4],[-3,-1],[-8,1],[-1,-1],[1,-4],[3,-7],[1,-4],[-2,-6],[-3,-4],[-4,-1],[-18,-3],[-7,1],[-4,4],[-7,-3],[-5,4],[-4,5],[-4,4],[2,5],[0,4],[-1,5],[-3,3],[1,2],[1,4],[-10,0],[-2,6],[2,12],[4,4],[7,0],[6,2],[1,8],[7,-3],[3,-2],[3,2],[3,0],[3,-1],[3,-1],[9,1],[4,-1],[0,-1],[6,-4],[1,0],[3,-3],[-1,-1],[-4,-1]]]}