{"objects":{"water":{"type":"GeometryCollection","geometries":[{"type":"MultiPolygon","properties":{"source":"naturalearthdata.com","kind":"ocean","area":989871000000000,"sort_rank":200,"min_zoom":0,"id":1},"arcs":[[[0]]]},{"type":"MultiLineString","properties":{"source":"naturalearthdata.com","kind":"ocean","sort_rank":205,"boundary":true,"min_zoom":0,"id":3081},"arcs":[[1],[2]]}]},"buildings":{"type":"GeometryCollection","geometries":[]},"places":{"type":"GeometryCollection","geometries":[]},"transit":{"type":"GeometryCollection","geometries":[]},"pois":{"type":"GeometryCollection","geometries":[]},"boundaries":{"type":"GeometryCollection","geometries":[]},"roads":{"type":"GeometryCollection","geometries":[]},"earth":{"type":"GeometryCollection","geometries":[{"type":"MultiPolygon","properties":{"sort_rank":10,"source":"naturalearthdata.com","min_zoom":3.0,"kind":"earth","area":41209153408},"arcs":[[[3]]]}]},"landuse":{"type":"GeometryCollection","geometries":[]}},"type":"Topology","transform":{"translate":[157.5,-66.5132604431],"scale":[0.002746582,0.0011979649]},"arcs":[[[0,0],[0,4096],[4096,0],[0,-4096],[-2247,0],[14,37],[3,5],[-19,14],[-6,8],[-88,155],[-6,-3],[-4,-33],[8,-5],[4,-4],[3,-7],[0,-7],[-2,-14],[1,-7],[2,-4],[5,-2],[2,-5],[-3,-10],[-6,-10],[-13,-11],[14,-7],[4,-4],[48,-80],[3,-4],[2,-2],[-1815,0]],[[1866,42],[-19,14],[-6,8],[-88,155],[-6,-3],[-4,-33],[8,-5],[4,-4],[3,-7],[0,-7],[-2,-14],[1,-7],[2,-4],[5,-2],[2,-5],[-3,-10],[-6,-10],[-13,-11],[14,-7],[4,-4],[48,-80],[3,-4],[2,-2]],[[1849,0],[14,37],[3,5]],[[1866,42],[-3,-5],[-14,-37],[-34,0],[-2,2],[-3,4],[-48,80],[-4,4],[-14,7],[13,11],[6,10],[3,10],[-2,5],[-5,2],[-2,4],[-1,7],[2,14],[0,7],[-3,7],[-4,4],[-8,5],[4,33],[6,3],[88,-155],[6,-8],[19,-14]]]}