{"objects":{"water":{"type":"GeometryCollection","geometries":[{"type":"MultiPolygon","properties":{"source":"naturalearthdata.com","kind":"ocean","area":989871000000000,"sort_rank":200,"min_zoom":0,"id":1},"arcs":[[[0],[1],[2],[3],[4],[5]],[[6]],[[7]]]},{"type":"LineString","properties":{"source":"naturalearthdata.com","kind":"ocean","sort_rank":205,"boundary":true,"min_zoom":0,"id":517},"arcs":[8]},{"type":"LineString","properties":{"source":"naturalearthdata.com","kind":"ocean","sort_rank":205,"boundary":true,"min_zoom":0,"id":518},"arcs":[9]},{"type":"LineString","properties":{"source":"naturalearthdata.com","kind":"ocean","sort_rank":205,"boundary":true,"min_zoom":0,"id":3042},"arcs":[10]},{"type":"LineString","properties":{"source":"naturalearthdata.com","kind":"ocean","sort_rank":205,"boundary":true,"min_zoom":0,"id":3044},"arcs":[11]},{"type":"MultiLineString","properties":{"source":"naturalearthdata.com","kind":"ocean","sort_rank":205,"boundary":true,"min_zoom":0,"id":3517},"arcs":[[12],[13],[14],[15]]}]},"buildings":{"type":"GeometryCollection","geometries":[]},"places":{"type":"GeometryCollection","geometries":[]},"transit":{"type":"GeometryCollection","geometries":[]},"pois":{"type":"GeometryCollection","geometries":[]},"boundaries":{"type":"GeometryCollection","geometries":[]},"roads":{"type":"GeometryCollection","geometries":[]},"earth":{"type":"GeometryCollection","geometries":[{"type":"MultiPolygon","properties":{"sort_rank":10,"source":"naturalearthdata.com","min_zoom":0,"kind":"earth","area":83319317895524},"arcs":[[[16]],[[17]]]},{"type":"MultiPolygon","properties":{"sort_rank":10,"source":"naturalearthdata.com","min_zoom":3.0,"kind":"earth","area":23048990680},"arcs":[[[18]]]},{"type":"MultiPolygon","properties":{"sort_rank":10,"source":"naturalearthdata.com","kind":"earth","min_zoom":5.0,"area":1924832617},"arcs":[[[19]],[[20]]]},{"type":"Polygon","properties":{"sort_rank":10,"source":"naturalearthdata.com","kind":"earth","min_zoom":4.0,"id":4114},"arcs":[[21]]}]},"landuse":{"type":"GeometryCollection","geometries":[]}},"type":"Topology","transform":{"translate":[157.5,-76.8408164144],"scale":[0.002746582,0.0006887874]},"arcs":[[[2830,4096],[1266,0],[0,-4096],[-2130,0],[5,20],[4,23],[5,18],[6,11],[7,2],[-4,24],[-3,23],[-5,53],[-3,20],[-21,45],[-12,17],[-31,22],[-96,-11],[-14,10],[-12,16],[12,53],[2,5],[3,0],[2,2],[1,9],[3,28],[6,7],[14,4],[7,6],[-2,4],[-5,11],[-2,5],[11,18],[44,-23],[14,11],[40,71],[18,79],[-22,62],[-31,55],[-6,60],[-6,12],[-2,2],[18,-1],[9,9],[5,25],[0,37],[-5,23],[-8,12],[-8,6],[-39,-4],[-4,2],[-3,7],[-3,9],[-4,7],[-5,3],[-32,-9],[-17,-19],[-33,-60],[-6,-1],[-24,28],[-35,9],[-2,46],[-4,20],[-9,4],[-12,0],[8,47],[19,22],[36,11],[36,-6],[18,5],[12,29],[-41,20],[-12,20],[20,25],[2,7],[14,-23],[15,-17],[15,-5],[14,16],[-35,35],[-11,21],[93,-46],[31,25],[-4,49],[-4,19],[-6,11],[5,38],[-1,18],[-29,52],[-8,4],[-9,-1],[-8,5],[-6,11],[-1,15],[7,14],[7,4],[66,-8],[12,12],[4,8],[2,6],[0,9],[-1,16],[0,9],[1,5],[3,3],[9,22],[15,23],[6,21],[-21,43],[-79,46],[-11,20],[-4,1],[-9,-5],[-10,0],[-7,2],[-3,6],[-2,14],[-2,27],[-2,8],[-3,1],[-4,-3],[-3,-1],[-53,27],[-2,8],[-4,24],[-3,6],[-10,-1],[-4,3],[-4,10],[-2,15],[-4,10],[-3,7],[-6,0],[5,14],[4,23],[1,21],[-4,9],[-38,-4],[-10,4],[-10,10],[-10,16],[16,46],[26,9],[50,-9],[9,19],[-2,35],[-6,39],[-4,31],[-4,22],[-20,64],[-6,15],[-134,1],[-134,2],[-134,2],[-40,-55],[-19,-9],[-104,44],[-21,28],[46,19],[33,36],[18,44],[11,9],[12,4],[24,21],[181,2],[20,14],[9,17],[13,51],[9,21],[19,21],[40,16],[10,-1],[10,-7],[8,-12],[16,-35],[8,-13],[40,-35],[85,-16],[102,45],[19,24],[9,19],[10,31],[3,31],[-10,21],[-9,8],[-9,15],[-7,23],[-5,30],[29,11],[12,18],[10,44],[-13,5],[-7,7],[-5,17],[34,4],[17,17],[11,38],[-16,28],[-20,16],[-53,9],[-19,14],[-14,33],[1,56],[-26,40],[-7,20],[15,5],[25,-39],[14,-9],[15,9],[11,21],[8,35],[8,51],[-6,5],[-4,12],[-2,19],[-1,23],[50,28],[15,26],[2,10],[4,26],[3,11],[3,7],[7,9],[3,7],[3,20],[-2,22],[-8,47],[7,-2],[12,-8],[6,3],[7,6],[7,3],[7,-4],[6,-15],[12,-87],[9,-38],[12,-9],[6,11],[3,20],[3,22],[4,19],[28,74],[13,18],[5,12],[20,65],[-16,57],[-7,32],[-4,36],[-5,12],[-31,3],[-4,10],[1,15],[3,13],[4,9],[5,5],[23,0],[17,-7],[9,2],[18,18],[32,54],[28,31],[12,7],[11,-5],[8,-29],[0,-34],[-9,-70],[1,-35],[13,12],[12,-9],[25,-29],[-9,-24],[-1,-36],[2,-42],[4,-37],[1,-21],[0,-18],[2,-15],[6,-12],[4,-2],[9,6],[24,-17],[22,10],[42,47],[-14,40],[69,13],[74,67],[9,0],[8,-8],[37,-75],[8,-11],[6,-2],[17,4],[13,-13],[65,7],[10,-5],[10,-12],[10,-5],[18,26],[9,4],[10,-2],[20,13],[20,-2],[9,6],[8,13],[9,22],[17,5],[23,-29],[37,-80],[17,-47],[8,-9],[9,16],[5,32],[3,78],[2,34],[-2,52],[-19,24],[-42,18],[-6,9],[-5,13],[-5,16],[-4,21],[-4,13],[-6,8],[-11,11],[-8,18],[-12,51],[-8,18],[3,0],[7,2],[-2,20],[-3,11],[-9,10],[-1,8],[-2,35],[-1,15],[-5,24],[-7,11],[-53,31],[-14,27],[8,55],[-26,37],[16,9],[7,10],[7,18],[-15,4],[-7,7],[-6,15],[17,20],[-7,34],[-10,36],[-11,27],[-4,3],[103,0],[2,-6],[1,-35],[3,-10],[13,-5],[33,16],[20,1],[10,5],[9,18],[-13,16]],[[2226,2900],[1,-14],[-1,-7],[-4,-7],[-3,-15],[3,-35],[9,-24],[11,-2],[14,33],[-3,25],[-5,24],[-9,17],[-13,5]],[[2295,3123],[4,-16],[-35,-23],[-11,-13],[2,-4],[7,-32],[2,-12],[2,-25],[1,-10],[4,-10],[5,-6],[10,-5],[-1,-7],[-2,-5],[-2,-4],[-2,-2],[4,-5],[13,-22],[11,-8],[12,0],[-3,11],[0,2],[3,8],[8,-1],[14,-10],[3,-6],[1,-4],[1,-16],[0,-9],[0,-9],[0,-7],[3,-6],[4,0],[6,7],[9,21],[-2,5],[-2,3],[-2,1],[-2,0],[20,50],[-18,27],[-22,22],[41,11],[14,11],[11,31],[-4,24],[-11,20],[-13,17],[5,8],[5,28],[0,30],[-8,18],[18,15],[58,-8],[-2,8],[-1,10],[-2,9],[2,16],[3,17],[3,15],[3,12],[11,18],[4,9],[-11,3],[-93,-76],[-78,-126]],[[1972,1862],[-54,-26],[-12,-15],[-6,-25],[-52,-86],[10,-24],[12,-15],[39,-17],[22,8],[4,4],[3,5],[2,8],[4,17],[3,8],[3,5],[6,7],[2,6],[1,8],[1,19],[1,9],[5,15],[26,67],[2,12],[-2,15],[-5,2],[-15,-7]],[[1816,2009],[6,-25],[11,-14],[14,4],[16,32],[-6,32],[-11,21],[-14,-6],[-16,-44]],[[3897,1129],[-15,5],[-2,-10],[16,-57],[11,-23],[12,5],[7,16],[3,19],[-3,17],[-29,28]],[[2610,4096],[29,0],[-3,-4],[-9,-27],[-7,-10],[-6,5],[-4,16],[0,20]],[[1937,0],[-86,0],[15,23],[27,-2],[15,-9],[15,0],[6,-2],[8,-10]],[[2226,2900],[1,-14],[-1,-7],[-4,-7],[-3,-15],[3,-35],[9,-24],[11,-2],[14,33],[-3,25],[-5,24],[-9,17],[-13,5]],[[2295,3123],[4,-16],[-35,-23],[-11,-13],[2,-4],[7,-32],[2,-12],[2,-25],[1,-10],[4,-10],[5,-6],[10,-5],[-1,-7],[-2,-5],[-2,-4],[-2,-2],[4,-5],[13,-22],[11,-8],[12,0],[-3,11],[0,2],[3,8],[8,-1],[14,-10],[3,-6],[1,-4],[1,-16],[0,-9],[0,-9],[0,-7],[3,-6],[4,0],[6,7],[9,21],[-2,5],[-2,3],[-2,1],[-2,0],[20,50],[-18,27],[-22,22],[41,11],[14,11],[11,31],[-4,24],[-11,20],[-13,17],[5,8],[5,28],[0,30],[-8,18],[18,15],[58,-8],[-2,8],[-1,10],[-2,9],[2,16],[3,17],[3,15],[3,12],[11,18],[4,9],[-11,3],[-93,-76],[-78,-126]],[[1972,1862],[-54,-26],[-12,-15],[-6,-25],[-52,-86],[10,-24],[12,-15],[39,-17],[22,8],[4,4],[3,5],[2,8],[4,17],[3,8],[3,5],[6,7],[2,6],[1,8],[1,19],[1,9],[5,15],[26,67],[2,12],[-2,15],[-5,2],[-15,-7]],[[1816,2009],[6,-25],[11,-14],[14,4],[16,32],[-6,32],[-11,21],[-14,-6],[-16,-44]],[[1851,0],[15,23],[27,-2],[15,-9],[15,0],[6,-2],[8,-10]],[[1966,0],[5,20],[4,23],[5,18],[6,11],[7,2],[-4,24],[-3,23],[-5,53],[-3,20],[-21,45],[-12,17],[-31,22],[-96,-11],[-14,10],[-12,16],[12,53],[2,5],[3,0],[2,2],[1,9],[3,28],[6,7],[14,4],[7,6],[-2,4],[-5,11],[-2,5],[11,18],[44,-23],[14,11],[40,71],[18,79],[-22,62],[-31,55],[-6,60],[-6,12],[-2,2],[18,-1],[9,9],[5,25],[0,37],[-5,23],[-8,12],[-8,6],[-39,-4],[-4,2],[-3,7],[-3,9],[-4,7],[-5,3],[-32,-9],[-17,-19],[-33,-60],[-6,-1],[-24,28],[-35,9],[-2,46],[-4,20],[-9,4],[-12,0],[8,47],[19,22],[36,11],[36,-6],[18,5],[12,29],[-41,20],[-12,20],[20,25],[2,7],[14,-23],[15,-17],[15,-5],[14,16],[-35,35],[-11,21],[93,-46],[31,25],[-4,49],[-4,19],[-6,11],[5,38],[-1,18],[-29,52],[-8,4],[-9,-1],[-8,5],[-6,11],[-1,15],[7,14],[7,4],[66,-8],[12,12],[4,8],[2,6],[0,9],[-1,16],[0,9],[1,5],[3,3],[9,22],[15,23],[6,21],[-21,43],[-79,46],[-11,20],[-4,1],[-9,-5],[-10,0],[-7,2],[-3,6],[-2,14],[-2,27],[-2,8],[-3,1],[-4,-3],[-3,-1],[-53,27],[-2,8],[-4,24],[-3,6],[-10,-1],[-4,3],[-4,10],[-2,15],[-4,10],[-3,7],[-6,0],[5,14],[4,23],[1,21],[-4,9],[-38,-4],[-10,4],[-10,10],[-10,16],[16,46],[26,9],[50,-9],[9,19],[-2,35],[-6,39],[-4,31],[-4,22],[-20,64],[-6,15],[-134,1],[-134,2],[-134,2],[-40,-55],[-19,-9],[-104,44],[-21,28],[46,19],[33,36],[18,44],[11,9],[12,4],[24,21],[181,2],[20,14],[9,17],[13,51],[9,21],[19,21],[40,16],[10,-1],[10,-7],[8,-12],[16,-35],[8,-13],[40,-35],[85,-16],[102,45],[19,24],[9,19],[10,31],[3,31],[-10,21],[-9,8],[-9,15],[-7,23],[-5,30],[29,11],[12,18],[10,44],[-13,5],[-7,7],[-5,17],[34,4],[17,17],[11,38],[-16,28],[-20,16],[-53,9],[-19,14],[-14,33],[1,56],[-26,40],[-7,20],[15,5],[25,-39],[14,-9],[15,9],[11,21],[8,35],[8,51],[-6,5],[-4,12],[-2,19],[-1,23],[50,28],[15,26],[2,10],[4,26],[3,11],[3,7],[7,9],[3,7],[3,20],[-2,22],[-8,47],[7,-2],[12,-8],[6,3],[7,6],[7,3],[7,-4],[6,-15],[12,-87],[9,-38],[12,-9],[6,11],[3,20],[3,22],[4,19],[28,74],[13,18],[5,12],[20,65],[-16,57],[-7,32],[-4,36],[-5,12],[-31,3],[-4,10],[1,15],[3,13],[4,9],[5,5],[23,0],[17,-7],[9,2],[18,18],[32,54],[28,31],[12,7],[11,-5],[8,-29],[0,-34],[-9,-70],[1,-35],[13,12],[12,-9],[25,-29],[-9,-24],[-1,-36],[2,-42],[4,-37],[1,-21],[0,-18],[2,-15],[6,-12],[4,-2],[9,6],[24,-17],[22,10],[42,47],[-14,40],[69,13],[74,67],[9,0],[8,-8],[37,-75],[8,-11],[6,-2],[17,4],[13,-13],[65,7],[10,-5],[10,-12],[10,-5],[18,26],[9,4],[10,-2],[20,13],[20,-2],[9,6],[8,13],[9,22],[17,5],[23,-29],[37,-80],[17,-47],[8,-9],[9,16],[5,32],[3,78],[2,34],[-2,52],[-19,24],[-42,18],[-6,9],[-5,13],[-5,16],[-4,21],[-4,13],[-6,8],[-11,11],[-8,18],[-12,51],[-8,18],[3,0],[7,2],[-2,20],[-3,11],[-9,10],[-1,8],[-2,35],[-1,15],[-5,24],[-7,11],[-53,31],[-14,27],[8,55],[-26,37],[16,9],[7,10],[7,18],[-15,4],[-7,7],[-6,15],[17,20],[-7,34],[-10,36],[-11,27],[-4,3]],[[2639,4096],[-3,-4],[-9,-27],[-7,-10],[-6,5],[-4,16],[0,20]],[[2752,4096],[2,-6],[1,-35],[3,-10],[13,-5],[33,16],[20,1],[10,5],[9,18],[-13,16]],[[2830,4096],[13,-16],[-9,-18],[-10,-5],[-20,-1],[-33,-16],[-13,5],[-3,10],[-1,35],[-2,6],[78,0]],[[2610,4096],[0,-20],[4,-16],[6,-5],[7,10],[9,27],[3,4],[10,0],[4,-3],[11,-27],[10,-36],[7,-34],[-17,-20],[6,-15],[7,-7],[15,-4],[-7,-18],[-7,-10],[-16,-9],[26,-37],[-8,-55],[14,-27],[53,-31],[7,-11],[5,-24],[1,-15],[2,-35],[1,-8],[9,-10],[3,-11],[2,-20],[-7,-2],[-3,0],[8,-18],[12,-51],[8,-18],[11,-11],[6,-8],[4,-13],[4,-21],[5,-16],[5,-13],[6,-9],[42,-18],[19,-24],[2,-52],[-2,-34],[-3,-78],[-5,-32],[-9,-16],[-8,9],[-17,47],[-37,80],[-23,29],[-17,-5],[-9,-22],[-8,-13],[-9,-6],[-20,2],[-20,-13],[-10,2],[-9,-4],[-18,-26],[-10,5],[-10,12],[-10,5],[-65,-7],[-13,13],[-17,-4],[-6,2],[-8,11],[-37,75],[-8,8],[-9,0],[-74,-67],[-69,-13],[14,-40],[-42,-47],[-22,-10],[-24,17],[-9,-6],[-4,2],[-6,12],[-2,15],[0,18],[-1,21],[-4,37],[-2,42],[1,36],[9,24],[-25,29],[-12,9],[-13,-12],[-1,35],[9,70],[0,34],[-8,29],[-11,5],[-12,-7],[-28,-31],[-32,-54],[-18,-18],[-9,-2],[-17,7],[-20,0],[-3,0],[-5,-5],[-4,-9],[-3,-13],[-1,-15],[4,-10],[12,-1],[19,-2],[5,-12],[4,-36],[7,-32],[16,-57],[-20,-65],[-5,-12],[-13,-18],[-13,-35],[-15,-39],[-4,-19],[-3,-22],[-3,-20],[-6,-11],[-12,9],[-9,38],[-12,87],[-6,15],[-7,4],[-7,-3],[-7,-6],[-6,-3],[-12,8],[-7,2],[8,-47],[2,-22],[-3,-20],[-3,-7],[-7,-9],[-3,-7],[-3,-11],[-4,-26],[-2,-10],[-15,-26],[-50,-28],[1,-23],[2,-19],[4,-12],[6,-5],[-8,-51],[-8,-35],[-11,-21],[-15,-9],[-14,9],[-25,39],[-15,-5],[7,-20],[26,-40],[-1,-56],[14,-33],[19,-14],[53,-9],[20,-16],[16,-28],[-11,-38],[-17,-17],[-34,-4],[5,-17],[7,-7],[13,-5],[-10,-44],[-12,-18],[-29,-11],[5,-30],[7,-23],[9,-15],[9,-8],[10,-21],[-3,-31],[-10,-31],[-9,-19],[-19,-24],[-102,-45],[-85,16],[-40,35],[-8,13],[-16,35],[-8,12],[-10,7],[-10,1],[-40,-16],[-19,-21],[-9,-21],[-13,-51],[-9,-17],[-20,-14],[-181,-2],[-24,-21],[-12,-4],[-11,-9],[-18,-44],[-33,-36],[-46,-19],[21,-28],[104,-44],[19,9],[40,55],[134,-2],[134,-2],[134,-1],[6,-15],[20,-64],[4,-22],[4,-31],[6,-39],[2,-35],[-9,-19],[-50,9],[-26,-9],[-16,-46],[10,-16],[10,-10],[10,-4],[38,4],[4,-9],[-1,-21],[-4,-23],[-5,-14],[6,0],[3,-7],[4,-10],[2,-15],[4,-10],[4,-3],[10,1],[3,-6],[4,-24],[2,-8],[53,-27],[3,1],[4,3],[3,-1],[2,-8],[2,-27],[2,-14],[3,-6],[7,-2],[10,0],[9,5],[4,-1],[11,-20],[79,-46],[21,-43],[-6,-21],[-15,-23],[-9,-22],[-3,-3],[-1,-5],[0,-9],[1,-16],[0,-9],[-2,-6],[-4,-8],[-12,-12],[-66,8],[-7,-4],[-7,-14],[1,-15],[6,-11],[8,-5],[9,1],[8,-4],[29,-52],[1,-18],[-5,-38],[6,-11],[4,-19],[4,-49],[-31,-25],[-93,46],[11,-21],[35,-35],[-14,-16],[-15,5],[-15,17],[-14,23],[-2,-7],[-20,-25],[12,-20],[41,-20],[-12,-29],[-18,-5],[-36,6],[-36,-11],[-19,-22],[-8,-47],[12,0],[9,-4],[4,-20],[2,-46],[35,-9],[24,-28],[6,1],[33,60],[17,19],[32,9],[5,-3],[4,-7],[3,-9],[3,-7],[4,-2],[39,4],[8,-6],[8,-12],[5,-23],[0,-37],[-5,-25],[-9,-9],[-18,1],[2,-2],[6,-12],[6,-60],[31,-55],[22,-62],[-18,-79],[-40,-71],[-14,-11],[-44,23],[-11,-18],[2,-5],[5,-11],[2,-4],[-7,-6],[-14,-4],[-6,-7],[-3,-28],[-1,-9],[-2,-2],[-3,0],[-2,-5],[-12,-53],[12,-16],[14,-10],[96,11],[31,-22],[12,-17],[21,-45],[3,-20],[5,-53],[3,-23],[4,-24],[-7,-2],[-6,-11],[-5,-18],[-4,-23],[-5,-20],[-29,0],[-8,10],[-6,2],[-15,0],[-15,9],[-27,2],[-15,-23],[-1851,0],[0,4096],[2610,0]],[[2295,3123],[78,126],[93,76],[11,-3],[-4,-9],[-11,-18],[-3,-12],[-3,-15],[-3,-17],[-2,-16],[2,-9],[1,-10],[2,-8],[-58,8],[-18,-15],[8,-18],[0,-30],[-5,-28],[-5,-8],[13,-17],[11,-20],[4,-24],[-11,-31],[-14,-11],[-41,-11],[22,-22],[18,-27],[-20,-50],[2,0],[2,-1],[2,-3],[2,-5],[-9,-21],[-6,-7],[-4,0],[-3,6],[0,7],[0,9],[0,9],[-1,16],[-1,4],[-3,6],[-14,10],[-8,1],[-3,-8],[0,-2],[3,-11],[-12,0],[-11,8],[-13,22],[-4,5],[2,2],[2,4],[2,5],[1,7],[-10,5],[-5,6],[-4,10],[-1,10],[-2,25],[-2,12],[-7,32],[-2,4],[11,13],[35,23],[-4,16]],[[1816,2009],[16,44],[14,6],[11,-21],[6,-32],[-16,-32],[-14,-4],[-11,14],[-6,25]],[[2226,2900],[13,-5],[9,-17],[5,-24],[3,-25],[-14,-33],[-11,2],[-9,24],[-3,35],[3,15],[4,7],[1,7],[-1,14]],[[1972,1862],[15,7],[5,-2],[2,-15],[-2,-12],[-26,-67],[-5,-15],[-1,-9],[-1,-19],[-1,-8],[-2,-6],[-6,-7],[-3,-5],[-3,-8],[-4,-17],[-2,-8],[-3,-5],[-4,-4],[-22,-8],[-39,17],[-12,15],[-10,24],[52,86],[6,25],[12,15],[54,26]]]}