{"objects":{"water":{"type":"GeometryCollection","geometries":[{"type":"MultiPolygon","properties":{"source":"naturalearthdata.com","kind":"ocean","area":989871000000000,"sort_rank":200,"min_zoom":0,"id":1},"arcs":[[[0],[1],[2],[3]]]},{"type":"LineString","properties":{"source":"naturalearthdata.com","kind":"ocean","sort_rank":205,"boundary":true,"min_zoom":0,"id":1916},"arcs":[4]},{"type":"LineString","properties":{"source":"naturalearthdata.com","kind":"ocean","sort_rank":205,"boundary":true,"min_zoom":0,"id":1917},"arcs":[5]},{"type":"LineString","properties":{"source":"naturalearthdata.com","kind":"ocean","sort_rank":205,"boundary":true,"min_zoom":0,"id":1918},"arcs":[6]},{"type":"LineString","properties":{"source":"naturalearthdata.com","kind":"ocean","sort_rank":205,"boundary":true,"min_zoom":0,"id":4014},"arcs":[7]},{"type":"Point","properties":{"label_placement":true,"collision_rank":398,"name:sk":"V\u00fdchodosib\u00edrske more","name:lt":"Ryt\u0173 Sibiro j\u016bra","name:sv":"\u00d6stsibiriska havet","name:ar":"\u0628\u062d\u0631 \u0633\u064a\u0628\u064a\u0631\u064a\u0627 \u0627\u0644\u0634\u0631\u0642\u064a","name:cs":"V\u00fdchodosibi\u0159sk\u00e9 mo\u0159e","kind":"sea","min_zoom":3.0,"name:sl":"Vzhodnosibirsko morje","name:it":"Mare della Siberia orientale","name:uk":"\u0421\u0445\u0456\u0434\u043d\u043e-\u0421\u0438\u0431\u0456\u0440\u0441\u044c\u043a\u0435 \u043c\u043e\u0440\u0435","name:ru":"\u0412\u043e\u0441\u0442\u043e\u0447\u043d\u043e-\u0421\u0438\u0431\u0438\u0440\u0441\u043a\u043e\u0435 \u043c\u043e\u0440\u0435","name:vi":"Bi\u1ec3n \u0110\u00f4ng Siberi","name:pl":"Morze Wschodniosyberyjskie","name:hu":"Kelet-szib\u00e9riai-tenger","name:hr":"Isto\u010dnosibirsko more","id":305639695,"name:fa":"\u062f\u0631\u06cc\u0627\u06cc \u0633\u06cc\u0628\u0631\u06cc \u0634\u0631\u0642\u06cc","name:eo":"Orientsiberia Maro","name:en":"East Siberian Sea","name":"\u0412\u043e\u0441\u0442\u043e\u0447\u043d\u043e-\u0421\u0438\u0431\u0438\u0440\u0441\u043a\u043e\u0435 \u043c\u043e\u0440\u0435","sort_rank":200,"name:fi":"It\u00e4-Siperian meri","name:de":"Ostsibirische See","source":"openstreetmap.org","name:fr":"Mer de Sib\u00e9rie orientale","wikidata_id":"Q163434","name:be":"\u0423\u0441\u0445\u043e\u0434\u043d\u0435-\u0421\u0456\u0431\u0456\u0440\u0441\u043a\u0430\u0435 \u043c\u043e\u0440\u0430","name:zh":"\u4e1c\u897f\u4f2f\u5229\u4e9a\u6d77"},"coordinates":[3095,4073]}]},"buildings":{"type":"GeometryCollection","geometries":[]},"places":{"type":"GeometryCollection","geometries":[]},"transit":{"type":"GeometryCollection","geometries":[]},"pois":{"type":"GeometryCollection","geometries":[]},"boundaries":{"type":"GeometryCollection","geometries":[]},"roads":{"type":"GeometryCollection","geometries":[]},"earth":{"type":"GeometryCollection","geometries":[{"type":"MultiPolygon","properties":{"sort_rank":10,"source":"naturalearthdata.com","kind":"earth","min_zoom":4.0,"area":15774806584},"arcs":[[[8]]]},{"type":"MultiPolygon","properties":{"sort_rank":10,"source":"naturalearthdata.com","min_zoom":0,"kind":"earth","area":21804330306050},"arcs":[[[9]]]}]},"landuse":{"type":"GeometryCollection","geometries":[]}},"type":"Topology","transform":{"translate":[157.5,70.612614238],"scale":[0.002746582,0.0008317698]},"arcs":[[[0,556],[0,3540],[4096,0],[0,-4096],[-3262,0],[-37,70],[-164,191],[-130,83],[-130,84],[-56,14],[-33,30],[-36,6],[-70,45],[-78,8],[-29,16],[-20,-3],[-20,12],[-31,0]],[[1777,83],[-2,-3],[-2,-11],[-3,-5],[-6,-5],[-14,-1],[-3,6],[-2,0],[-5,-6],[-3,0],[-3,1],[-9,-1],[0,-8],[41,-16],[37,15],[12,1],[-18,22],[-11,9],[-9,2]],[[1515,215],[5,9],[-7,17],[-8,4],[-8,-1],[-9,3],[-4,5],[-7,16],[-4,5],[-6,2],[-17,-2],[3,-15],[-1,-12],[-4,-9],[-5,-6],[6,-2],[10,-11],[5,-3],[12,-1],[6,-4],[25,-35],[10,-7],[10,-2],[-2,12],[-7,23],[-3,14]],[[1174,272],[-7,46],[-3,12],[-1,11],[-7,22],[-48,19],[-9,6],[-23,-1],[-11,-8],[-6,-16],[15,-51],[11,6],[9,16],[17,-7],[-2,-40],[-13,-21],[-2,-35],[34,-14],[31,11],[29,2],[-7,26],[-7,16]],[[1777,83],[-2,-3],[-2,-11],[-3,-5],[-6,-5],[-14,-1],[-3,6],[-2,0],[-5,-6],[-3,0],[-3,1],[-9,-1],[0,-8],[41,-16],[37,15],[12,1],[-18,22],[-11,9],[-9,2]],[[1515,215],[5,9],[-7,17],[-8,4],[-8,-1],[-9,3],[-4,5],[-7,16],[-4,5],[-6,2],[-17,-2],[3,-15],[-1,-12],[-4,-9],[-5,-6],[6,-2],[10,-11],[5,-3],[12,-1],[6,-4],[25,-35],[10,-7],[10,-2],[-2,12],[-7,23],[-3,14]],[[1174,272],[-7,46],[-3,12],[-1,11],[-7,22],[-48,19],[-9,6],[-23,-1],[-11,-8],[-6,-16],[15,-51],[11,6],[9,16],[17,-7],[-2,-40],[-13,-21],[-2,-35],[34,-14],[31,11],[29,2],[-7,26],[-7,16]],[[834,0],[-37,70],[-164,191],[-130,83],[-130,84],[-56,14],[-33,30],[-36,6],[-70,45],[-78,8],[-29,16],[-20,-3],[-20,12],[-31,0]],[[1174,272],[7,-16],[7,-26],[-29,-2],[-31,-11],[-34,14],[2,35],[13,21],[2,40],[-17,7],[-9,-16],[-11,-6],[-15,51],[6,16],[11,8],[23,1],[9,-6],[48,-19],[7,-22],[1,-11],[3,-12],[7,-46]],[[834,0],[-834,0],[0,556],[31,0],[20,-12],[20,3],[29,-16],[78,-8],[70,-45],[36,-6],[33,-30],[56,-14],[130,-84],[130,-83],[164,-191],[37,-70]]]}