{"objects":{"water":{"type":"GeometryCollection","geometries":[{"type":"MultiPolygon","properties":{"source":"naturalearthdata.com","kind":"ocean","area":989871000000000,"sort_rank":200,"min_zoom":0,"id":1},"arcs":[[[85]],[[86]],[[87]],[[88]],[[89]]]},{"type":"MultiLineString","properties":{"source":"naturalearthdata.com","kind":"ocean","sort_rank":205,"boundary":true,"min_zoom":0,"id":4015},"arcs":[[90],[91],[92],[93],[94]]}]},"buildings":{"type":"GeometryCollection","geometries":[]},"places":{"type":"GeometryCollection","geometries":[]},"transit":{"type":"GeometryCollection","geometries":[]},"pois":{"type":"GeometryCollection","geometries":[]},"boundaries":{"type":"GeometryCollection","geometries":[{"type":"MultiLineString","properties":{"sort_rank":256,"kind_detail":"4","kind":"region","min_zoom":2.0,"source":"naturalearthdata.com"},"arcs":[[0],[1],[2]]},{"type":"MultiLineString","properties":{"sort_rank":256,"kind_detail":"4","kind":"region","min_zoom":2.0,"source":"naturalearthdata.com"},"arcs":[[3],[4],[5],[6],[7],[8],[9],[10],[11],[12],[13],[14],[15],[16],[17],[18],[19],[20],[21],[22],[23],[24],[25],[26],[27],[28],[29],[30],[31],[32],[33],[34],[35],[36],[37],[38],[39],[40],[41],[42],[43],[44],[45],[46]]},{"type":"MultiLineString","properties":{"sort_rank":256,"kind_detail":"4","kind":"region","min_zoom":2.0,"source":"naturalearthdata.com"},"arcs":[[47],[48],[49],[50],[51],[52],[53],[54],[55],[56]]},{"type":"MultiLineString","properties":{"sort_rank":256,"kind_detail":"4","kind":"region","min_zoom":2.0,"source":"naturalearthdata.com"},"arcs":[[57],[58],[59],[60],[61],[62],[63],[64],[65],[66],[67],[68],[69],[70],[71],[72],[73],[74],[75],[76],[77],[78],[79],[80],[81],[82],[83]]},{"type":"LineString","properties":{"sort_rank":256,"kind_detail":"4","kind":"region","min_zoom":2.0,"source":"naturalearthdata.com"},"arcs":[84]}]},"roads":{"type":"GeometryCollection","geometries":[]},"earth":{"type":"GeometryCollection","geometries":[{"type":"MultiPolygon","properties":{"sort_rank":10,"source":"naturalearthdata.com","min_zoom":0,"kind":"earth","area":46840771247929},"arcs":[[[95]]]}]},"landuse":{"type":"GeometryCollection","geometries":[{"type":"MultiPolygon","properties":{"kind":"nature_reserve","protect_class":"1","area":353838078782,"sort_rank":23,"source":"openstreetmap.org","min_zoom":4.0,"tier":2,"id":-5576397},"arcs":[[[96]]]}]}},"type":"Topology","transform":{"translate":[157.5,61.6063963714],"scale":[0.002746582,0.0011979649]},"arcs":[[[375,3968],[-7,-9],[-5,-9],[-7,-21],[-2,-4],[-3,-4],[-13,-14],[-6,-7],[-2,-5],[-2,-5],[-2,-5],[-1,-5],[-1,-5],[0,-9],[1,-8],[1,-4],[2,-8],[7,-15],[5,-20],[14,-35],[2,-4],[2,-3],[1,-3],[-3,-3],[-8,-1]],[[348,3762],[-63,6],[-10,4],[-32,21],[-9,4],[-7,1]],[[227,3798],[-66,-29],[-82,-8],[-17,-9],[-8,-6],[-6,-8],[-22,-33],[-7,-6],[-19,-10]],[[2430,2778],[5,0],[4,-2],[6,-6],[89,-40],[4,-3],[2,-3],[4,-8],[4,-11],[2,-3],[3,-4],[9,-5],[13,-5],[8,-6],[5,-3],[16,-3],[5,-3],[2,-3],[3,-7],[3,-4],[3,-3],[4,-3],[33,-11],[3,-3],[1,-4],[0,-4],[1,-5],[3,-3],[11,-9],[2,-4],[0,-4],[-1,-5],[-2,-4],[-1,-5],[0,-5],[0,-4],[2,-4],[4,-4],[8,-4],[18,-1]],[[2414,2749],[2,1],[1,3],[1,9],[2,5],[3,5],[7,6]],[[2209,2777],[6,-1],[6,-2],[3,-3],[3,-3],[2,-4],[3,-7],[2,-4],[3,-3],[3,-3],[4,-3],[9,-2]],[[2094,2675],[34,6],[4,3],[18,25],[9,16],[4,5],[8,5],[4,5],[2,4],[0,9],[1,6],[2,6],[6,8],[6,3],[17,1]],[[2401,2753],[9,-2],[4,-2]],[[2369,2727],[6,2],[4,3],[2,8],[2,5],[5,4],[4,2],[9,2]],[[2286,2745],[5,-1],[3,-3],[2,-3],[7,-11],[3,-3],[5,-3],[9,-1]],[[2253,2742],[33,3]],[[2344,2728],[25,-1]],[[2320,2720],[24,8]],[[2776,2713],[50,-5],[8,-4],[21,-32],[1,-5],[0,-6],[-3,-3],[-3,-3],[-1,-4],[2,-6],[2,-4],[4,-5],[4,-2],[5,-1]],[[2706,2570],[26,4],[6,3],[1,4],[0,5],[0,4],[1,9],[0,4],[1,9],[1,4],[-1,4],[-1,4],[-6,11],[-1,4],[-1,4],[0,5],[0,4],[3,18],[1,9],[1,4],[0,5],[1,4],[0,4],[3,5],[6,5],[29,7]],[[2076,2686],[5,-1],[4,-2],[5,-6],[4,-2]],[[2052,2641],[-10,5],[-1,3],[-1,4],[1,5],[1,4],[3,4],[6,7],[15,9],[10,4]],[[2919,2643],[4,-2],[11,-11],[5,-3],[4,-1]],[[2902,2618],[4,1],[3,3],[2,4],[6,14],[2,3]],[[2878,2634],[4,-1],[3,-4],[4,-6],[4,-3],[5,-2],[4,0]],[[2866,2633],[12,1]],[[2972,2633],[4,-3],[4,-3],[19,-22],[3,-5],[0,-4],[0,-5],[-2,-9],[-1,-9],[1,-4],[1,-4],[32,-36],[22,-16],[0,-3],[-2,-3],[-24,-16],[0,-6],[3,-7],[10,-13],[6,-4],[5,-1]],[[2943,2626],[22,7],[7,0]],[[3545,2519],[3,-3],[2,-3],[1,-4],[2,-4],[6,-11],[2,-4],[1,-4],[0,-8],[1,-3],[3,-4],[8,-5],[3,-4],[2,-3],[4,-7],[4,-12],[1,-4],[3,-16],[1,-5],[2,-5],[6,-6],[5,-3],[4,-1],[31,0],[4,-3],[2,-4],[-1,-4],[1,-4],[1,-4],[3,-4],[24,-22],[3,-4],[1,-4],[1,-4],[1,-3],[0,-5],[1,-4],[1,-4],[2,-3],[6,-7],[5,-7],[1,-4],[3,-4],[5,-7],[8,-8],[7,-5],[5,0]],[[3384,2443],[5,0],[14,9],[5,2],[51,3],[3,1],[16,13],[4,4],[5,9],[5,10],[3,4],[3,3],[7,4],[11,9],[29,5]],[[3159,2507],[8,-1],[34,-11]],[[3107,2465],[8,2],[4,2],[4,2],[2,4],[2,3],[2,4],[3,2],[8,2],[3,2],[3,3],[3,4],[2,5],[2,5],[6,2]],[[3222,2503],[21,-4],[74,-40]],[[3201,2495],[4,1],[3,2],[4,2],[4,2],[6,1]],[[3077,2466],[30,-1]],[[3053,2460],[24,6]],[[3357,2460],[6,-2],[5,-3],[12,-11],[4,-1]],[[3317,2459],[40,1]],[[3756,2291],[3,-2],[2,-4],[-1,-4],[6,-7],[11,-9],[55,-28]],[[3724,2282],[4,0],[16,7],[12,2]],[[3912,2288],[6,-2],[4,-2],[21,-16],[6,-2],[4,0]],[[3866,2238],[7,1],[5,2],[3,4],[3,5],[2,4],[1,5],[2,9],[1,4],[2,5],[3,4],[4,3],[5,3],[8,1]],[[3971,2270],[20,-2],[13,-5],[4,-3],[6,-7],[7,-15],[19,-45],[5,-10],[5,-6],[5,-3],[39,-11],[2,-1]],[[3953,2266],[18,4]],[[3853,2240],[13,-2]],[[3832,2237],[21,3]],[[4096,1365],[-9,5],[-4,0]],[[4083,1370],[-4,0],[-3,-3],[-3,-3],[-2,-5],[0,-5],[4,-7],[6,-7],[5,-7],[1,-5],[-1,-4],[-3,-4],[-3,-2],[-4,-1]],[[4076,1317],[-29,5]],[[4047,1322],[-4,-1],[-3,-3],[-1,-4],[-1,-5],[-2,-13],[-4,-9],[-5,-10],[-6,-8],[-29,-28],[-1,-4],[1,-8],[17,-21],[38,-24],[8,-1]],[[4059,1184],[6,-2],[7,-5],[24,-20]],[[4055,1183],[4,1]],[[380,3966],[-5,2]],[[875,3269],[-25,5],[-16,9],[-19,20],[-132,79],[-46,9],[-119,62],[-5,6],[-2,11],[-2,6],[-2,6],[-1,6],[2,5],[13,13],[3,6],[0,7],[-4,10],[-1,7],[1,12],[0,12],[0,6],[0,8],[0,7],[2,5],[3,5],[13,13],[3,5],[2,5],[1,5],[2,21],[2,12],[2,5],[4,10],[1,2],[2,8],[1,5],[4,16],[3,10],[9,16],[5,8],[10,9],[3,4],[5,10],[9,19],[9,15],[2,5],[2,5],[1,5],[1,7],[0,7],[0,11],[-1,7],[-2,8],[-2,7],[-4,8],[-5,4],[-64,22],[-38,3],[-40,16],[-8,6],[-41,50],[-9,5],[-5,1]],[[402,3966],[-22,0]],[[1161,2957],[-55,11],[-7,3],[-2,3],[-2,4],[-1,4],[-2,8],[-2,4],[-4,5],[-13,12],[-4,6],[-2,5],[-1,5],[0,6],[-1,5],[-2,5],[-27,27],[-16,24],[-6,7],[-28,22],[-12,24],[-2,5],[-1,3],[1,4],[0,3],[1,8],[5,15],[1,5],[-1,5],[-2,4],[-4,10],[-4,6],[-7,8],[-21,16],[-20,24],[-11,7],[-10,1]],[[899,3271],[-24,-2]],[[1758,2617],[-13,1],[-15,10],[-9,10],[-5,3],[-126,35],[-21,12],[-4,3],[-5,7],[-2,4],[-1,4],[0,8],[0,8],[-1,4],[-1,4],[-2,4],[-9,14],[-6,11],[-1,4],[-1,4],[-1,4],[0,4],[1,14],[0,4],[0,8],[-3,12],[-1,4],[-2,4],[-5,7],[-16,16],[-83,46],[-3,3],[-2,4],[-2,3],[-3,8],[-1,4],[-1,4],[-1,3],[-1,4],[-4,6],[-7,6],[-24,15],[-99,25]],[[1278,2975],[-117,-18]],[[2052,2641],[-4,-46],[-3,-18],[-3,-7],[-3,-5],[-6,-8],[-15,-13],[-3,-2],[-14,-2]],[[2001,2540],[-95,10],[-9,5],[-13,13],[-3,3],[-2,3],[-2,4],[-1,4],[-1,4],[-2,8],[-4,7],[-3,4],[-6,6],[-20,10],[-16,5]],[[1824,2626],[-66,-9]],[[2052,2641],[7,-2],[3,-2],[3,-4],[1,-5],[1,-8],[3,-5],[3,-4],[19,-6],[3,-3],[2,-5],[0,-7],[-3,-13],[-2,-8],[-3,-7],[-3,-5],[-5,-9],[-3,-4],[-14,-10],[-2,-4],[-2,-5],[1,-6],[1,-5],[10,-18],[1,-4],[-1,-5],[-3,-6],[-2,-6],[-3,-5],[-1,-5],[1,-6],[2,-4],[17,-29],[5,-7],[3,-3],[15,-6],[18,-4],[4,-2],[3,-3],[2,-3],[3,-8],[2,-4],[1,-3],[2,-8],[4,-8],[1,-3],[2,-24],[4,-5],[4,-3],[9,-2],[3,-2],[2,-4],[0,-4],[-2,-6],[-3,-3],[-4,-1],[-17,-3],[-7,-4],[-4,-2],[-3,-4],[-3,-4],[-4,-9],[-2,-9],[-2,-4],[-3,-3]],[[2116,2268],[-13,1]],[[2103,2269],[-4,-1],[-3,-2],[-3,-4],[-2,-5],[-1,-5],[-17,-45],[-1,-5],[-1,-6],[1,-9],[-1,-6],[-1,-6],[-2,-7],[-2,-6],[-3,-5],[-3,-4],[-3,-3],[-4,-1]],[[2053,2149],[-3,1],[-6,6],[-4,2],[-28,6],[-31,1]],[[1981,2165],[-15,-5],[-7,-4],[-31,-34],[-3,-4],[-1,-5],[0,-6],[1,-4],[15,-34],[1,-4],[1,-6],[-1,-9],[-1,-15],[-1,-9],[1,-8],[2,-4],[3,-2]],[[1959,2015],[3,0],[2,-2],[1,-3],[1,-2],[1,-3],[2,-6],[2,-14],[1,-4],[2,-12],[1,-4],[2,-8],[0,-4],[-1,-4],[-2,-4],[-16,-15],[-2,-4],[-1,-5],[0,-6],[2,-4],[6,-11],[1,-3],[-2,-2]],[[1945,2012],[3,0],[11,3]],[[1962,1895],[-19,5],[-4,1]],[[1939,1901],[-4,-2],[-2,-3],[-1,-4],[3,-7],[0,-2],[-2,-2],[-15,-3],[-7,-5],[-6,-7],[-2,-4],[-2,-6],[-1,-8],[0,-12],[1,-7],[1,-6],[1,-3],[5,-25],[2,-8],[1,-4],[2,-3],[4,-3],[23,-10],[4,-3],[3,-3],[2,-7],[1,-9],[0,-18],[2,-9],[2,-6],[4,-3],[28,-13],[4,-3],[2,-3],[2,-4],[1,-4],[-1,-6],[-4,-12],[-1,-7],[-1,-8],[-1,-45],[1,-9],[1,-6],[1,-4],[0,-5],[-3,-7],[-27,-45],[-2,-3],[-4,-2],[-4,-1]],[[1950,1522],[-13,3]],[[1937,1525],[-4,-1],[-3,-2],[-3,-4],[-4,-10],[-2,-4],[-3,-4],[-3,-3],[-8,-3],[-16,-3],[-3,-1],[-3,-4],[-1,-5],[0,-7],[1,-5],[4,-4],[9,-5],[3,-3],[1,-4],[3,-16],[4,-12],[1,-3],[0,-4],[-4,-8],[0,-5],[2,-6],[2,-4],[18,-19],[3,-4],[1,-3],[-2,-4],[-5,-8],[-2,-7],[-6,-27],[-3,-6],[-5,-2]],[[1909,1315],[-30,3]],[[1879,1318],[-16,-2],[-7,-3],[-3,-3],[-3,-5],[-1,-5],[2,-8],[1,-5],[3,-8],[0,-3],[-1,-3],[-3,-2],[-4,-1],[-21,-1],[-8,-1],[-3,-2],[-3,-3],[-6,-7],[-2,-2],[-3,0]],[[1801,1254],[-13,9],[-4,2]],[[1784,1265],[-4,-1],[-3,-1],[-3,-4],[-4,-9],[-2,-4],[-3,-4],[-16,-13],[-3,-4],[-1,-6],[2,-7],[2,-5],[2,-5],[2,-3],[2,-4],[1,-5],[-1,-6],[-2,-6],[-8,-14],[0,-1],[-5,-22],[-2,-9],[-2,-23],[0,-5],[1,-5],[2,-5],[4,-4],[3,-3],[57,-29],[20,-18],[12,-4],[3,-2],[6,-10],[12,-17],[2,-4],[1,-5],[0,-6],[-2,-15],[0,-7],[1,-8],[3,-5],[22,-35],[3,-3],[3,-2],[4,-1]],[[1926,928],[4,0],[4,-2],[2,-6],[0,-10],[-3,-19],[-3,-10],[-3,-8],[-3,-4],[-28,-38],[-2,-5],[-2,-5],[-1,-5],[0,-6],[0,-6],[1,-4],[2,-5],[1,-3],[10,-14],[13,-29],[1,-6],[0,-6],[-7,-30],[-1,-5],[0,-6],[0,-9],[2,-10],[5,-15],[0,-5],[-1,-6],[-4,-17],[-2,-6],[1,-6],[1,-9],[1,-4],[-1,-6],[-1,-7],[-3,-12],[-3,-7],[-2,-6],[-3,-4],[-5,-8],[-9,-8],[-7,-4],[-3,-1]],[[1893,916],[4,0],[22,11],[7,1]],[[1877,546],[-4,0],[-3,2],[-7,10],[-3,3],[-3,3],[-4,0]],[[1853,564],[-4,0],[-2,-3],[-1,-4],[1,-6],[0,-4],[-2,-4],[-3,-2],[-4,0]],[[1838,541],[-19,6],[-8,1]],[[1811,548],[-26,-8],[-3,-3],[-6,-6],[-17,-29],[-3,-3],[-4,-2],[-3,-1]],[[1749,496],[-4,2],[-9,8],[-4,1]],[[1732,507],[-3,-1],[-27,-14],[-3,-3],[-1,-5],[0,-6],[4,-9],[3,-5],[19,-15],[11,-13],[3,-3],[4,-1],[5,-1]],[[1770,432],[4,-2],[10,-8],[8,-4],[33,-3],[4,-2],[3,-7],[2,-11],[1,-36],[0,-9],[-1,-4],[-1,-5],[-2,-4],[-2,-4],[-1,-3],[0,-1],[-2,-13],[-1,-6],[-2,-5],[-3,-3],[-3,-3],[-4,-1]],[[1747,431],[23,1]],[[1813,298],[-45,2]],[[1768,300],[-3,-2],[-3,-2],[-3,-3],[-6,-8],[-1,-6],[0,-5],[3,-7],[15,-18],[2,-5],[2,-6],[1,-10],[0,-6],[1,-6],[1,-5],[4,-4],[24,-18],[2,-4],[2,-6],[-1,-11],[-1,-6],[-3,-5],[-10,-16],[-2,-3],[1,-4],[2,-2],[12,-4],[4,-3],[1,-4],[0,-7],[-1,-5],[-3,-15],[1,-7],[1,-6],[14,-38]],[[355,4096],[0,-11],[-2,-10],[-3,-5],[-3,-3],[-25,-10],[-6,-6],[-3,-5],[0,-5],[2,-6],[12,-7],[5,-4],[6,-7],[18,-30],[19,-19]],[[1014,0],[-1014,0],[0,151],[14,4],[54,-10],[39,1],[31,-13],[23,-5],[3,-12],[14,-5],[11,-4],[8,1],[3,8],[5,-3],[6,-6],[15,18],[7,13],[11,-4],[21,27],[1,11],[11,11],[23,2],[29,-5],[12,-7],[10,-8],[8,-12],[13,7],[8,20],[2,7],[20,1],[26,2],[22,-1],[7,-10],[16,0],[14,0],[6,5],[-3,27],[7,16],[11,13],[9,8],[24,-2],[5,4],[7,8],[17,0],[19,1],[34,-4],[28,-9],[26,-7],[13,-14],[3,-19],[-4,-16],[-10,-5],[-5,-1],[2,-9],[9,-1],[6,-16],[11,-9],[9,-6],[9,-12],[3,16],[0,8],[15,3],[-1,12],[2,8],[7,0],[6,-2],[-7,-10],[-4,-17],[-2,-14],[2,-11],[2,-17],[-4,-12],[-6,-6],[-1,-11],[4,-13],[-1,-8],[8,-8],[13,-10],[7,9],[11,8],[10,8],[11,4],[9,-2],[-2,15],[2,15],[6,-9],[1,-7],[4,2],[18,-4],[2,10],[4,9],[2,-6],[12,-6],[14,-3],[6,11],[3,9],[8,3],[7,13],[1,8],[6,1],[5,14],[2,11],[8,21],[11,27],[13,9],[14,8],[7,9],[18,3],[14,14],[2,4],[0,6],[6,8],[10,5],[10,12],[12,1],[6,3],[-1,-6],[1,-17],[4,-2],[2,-2],[2,-5],[2,-6],[4,-9],[3,-5],[-4,-6],[-4,-2],[1,-6],[1,-8],[7,-3],[0,-8],[2,-9],[-4,-7],[-10,-8],[2,-11],[7,0],[5,-6],[-1,-13],[6,-11],[-13,-15],[-19,-27],[-24,-20],[4,-3],[13,-3],[4,-14],[-2,-18],[-9,-12],[-10,-4],[3,-5],[6,-11]],[[1881,0],[-133,0],[-3,9],[8,1],[13,-3],[9,12],[4,25],[8,11],[3,3],[12,-5],[19,-8],[14,-7],[22,-24],[24,-14]],[[1951,0],[-33,0],[-1,6],[-7,9],[-24,-2],[-18,13],[-3,18],[28,23],[24,15],[14,5],[13,-3],[14,-11],[19,-15],[0,-6],[5,-16],[-1,-9],[-16,-4],[-8,-8],[-5,-6],[-1,-9]],[[1970,0],[-16,0],[3,3],[7,1],[5,-2],[1,-2]],[[2311,0],[-273,0],[5,8],[9,8],[11,4],[11,-4],[3,-9],[9,-3],[-2,11],[-6,3],[0,7],[5,5],[8,2],[18,3],[12,8],[-1,15],[0,15],[8,10],[-7,4],[-9,9],[-23,12],[-34,7],[-6,10],[-8,1],[-29,15],[-13,11],[-5,9],[1,9],[8,16],[5,12],[4,11],[2,14],[10,21],[2,16],[-7,3],[-7,0],[6,8],[9,4],[5,16],[-5,10],[10,5],[9,13],[2,8],[5,8],[1,10],[2,15],[7,6],[7,6],[3,12],[-6,1],[-20,0],[-6,10],[-2,10],[7,5],[10,5],[1,8],[-3,8],[-1,8],[-9,11],[-2,7],[-1,13],[-6,28],[-1,10],[2,10],[16,20],[16,19],[9,3],[6,-3],[7,10],[-6,7],[0,9],[3,6],[10,6],[10,5],[19,-1],[11,3],[0,10],[-6,9],[-11,11],[-8,10],[-8,-1],[-18,9],[0,16],[2,11],[-8,3],[-13,-2],[-3,11],[6,9],[10,-1],[11,5],[9,15],[-1,16],[-6,19],[7,12],[27,16],[17,6],[4,23],[11,-7],[17,-18],[17,10],[22,15],[15,11],[16,-1],[18,4],[17,8],[34,2],[18,-17],[15,10],[5,20],[16,12],[18,18],[18,-4],[45,8],[29,0],[24,25],[26,-1],[29,-11],[26,-3],[7,-13],[6,-8],[7,-6],[6,-7],[14,-35],[21,-26],[24,-6],[36,-13],[19,-15],[47,-27],[88,1],[42,-13],[64,-10],[3,0],[-9,-12],[-12,-1],[-53,7],[-22,11],[-44,-3],[-35,-2],[-17,-7],[-5,-18],[26,-20],[18,-8],[20,-25],[5,-11],[3,-13],[3,-11],[-7,-1],[-6,3],[-5,7],[-11,35],[-4,5],[-17,-3],[-27,20],[-19,0],[-24,0],[-14,5],[-17,7],[-14,14],[-45,22],[-36,2],[-17,-11],[-20,1],[-10,-15],[-3,-17],[-18,-7],[-4,-17],[-9,-25],[-30,-9],[-18,-9],[-16,-4],[-12,-13],[-6,-14],[-12,-11],[-4,-13],[-8,-3],[-2,-11],[-1,-8],[0,-11],[0,-17],[2,-10],[-7,-22],[1,-11],[3,-9],[4,-13],[-10,-17],[-6,-5],[-1,-10],[4,-12],[1,-11],[2,-9],[1,-11],[1,-13],[-1,-12],[-7,-9],[-4,-2],[0,-12],[6,-12],[-2,-20],[4,-16],[-2,-24],[-4,-20],[-6,-13],[-3,-5],[-4,-6],[3,-9],[4,-11],[2,-9],[0,-18],[-1,-34],[-3,-19],[-4,-33],[-11,-13],[-10,-7],[-20,7],[-11,-6],[-13,-12],[-4,-17],[-3,-16]],[[0,151],[14,4],[54,-10],[39,1],[31,-13],[23,-5],[3,-12],[14,-5],[11,-4],[8,1],[3,8],[5,-3],[6,-6],[15,18],[7,13],[11,-4],[21,27],[1,11],[11,11],[23,2],[29,-5],[12,-7],[10,-8],[8,-12],[13,7],[8,20],[2,7],[20,1],[26,2],[22,-1],[7,-10],[16,0],[14,0],[6,5],[-3,27],[7,16],[11,13],[9,8],[24,-2],[5,4],[7,8],[17,0],[19,1],[34,-4],[28,-9],[26,-7],[13,-14],[3,-19],[-4,-16],[-10,-5],[-5,-1],[2,-9],[9,-1],[6,-16],[11,-9],[9,-6],[9,-12],[3,16],[0,8],[15,3],[-1,12],[2,8],[7,0],[6,-2],[-7,-10],[-4,-17],[-2,-14],[2,-11],[2,-17],[-4,-12],[-6,-6],[-1,-11],[4,-13],[-1,-8],[8,-8],[13,-10],[7,9],[11,8],[10,8],[11,4],[9,-2],[-2,15],[2,15],[6,-9],[1,-7],[4,2],[18,-4],[2,10],[4,9],[2,-6],[12,-6],[14,-3],[6,11],[3,9],[8,3],[7,13],[1,8],[6,1],[5,14],[2,11],[8,21],[11,27],[13,9],[14,8],[7,9],[18,3],[14,14],[2,4],[0,6],[6,8],[10,5],[10,12],[12,1],[6,3],[-1,-6],[1,-17],[4,-2],[2,-2],[2,-5],[2,-6],[4,-9],[3,-5],[-4,-6],[-4,-2],[1,-6],[1,-8],[7,-3],[0,-8],[2,-9],[-4,-7],[-10,-8],[2,-11],[7,0],[5,-6],[-1,-13],[6,-11],[-13,-15],[-19,-27],[-24,-20],[4,-3],[13,-3],[4,-14],[-2,-18],[-9,-12],[-10,-4],[3,-5],[6,-11]],[[1748,0],[-3,9],[8,1],[13,-3],[9,12],[4,25],[8,11],[3,3],[12,-5],[19,-8],[14,-7],[22,-24],[24,-14]],[[1918,0],[-1,6],[-7,9],[-24,-2],[-18,13],[-3,18],[28,23],[24,15],[14,5],[13,-3],[14,-11],[19,-15],[0,-6],[5,-16],[-1,-9],[-16,-4],[-8,-8],[-5,-6],[-1,-9]],[[1954,0],[3,3],[7,1],[5,-2],[1,-2]],[[2038,0],[5,8],[9,8],[11,4],[11,-4],[3,-9],[9,-3],[-2,11],[-6,3],[0,7],[5,5],[8,2],[18,3],[12,8],[-1,15],[0,15],[8,10],[-7,4],[-9,9],[-23,12],[-34,7],[-6,10],[-8,1],[-29,15],[-13,11],[-5,9],[1,9],[8,16],[5,12],[4,11],[2,14],[10,21],[2,16],[-7,3],[-7,0],[6,8],[9,4],[5,16],[-5,10],[10,5],[9,13],[2,8],[5,8],[1,10],[2,15],[7,6],[7,6],[3,12],[-6,1],[-20,0],[-6,10],[-2,10],[7,5],[10,5],[1,8],[-3,8],[-1,8],[-9,11],[-2,7],[-1,13],[-6,28],[-1,10],[2,10],[16,20],[16,19],[9,3],[6,-3],[7,10],[-6,7],[0,9],[3,6],[10,6],[10,5],[19,-1],[11,3],[0,10],[-6,9],[-11,11],[-8,10],[-8,-1],[-18,9],[0,16],[2,11],[-8,3],[-13,-2],[-3,11],[6,9],[10,-1],[11,5],[9,15],[-1,16],[-6,19],[7,12],[27,16],[17,6],[4,23],[11,-7],[17,-18],[17,10],[22,15],[15,11],[16,-1],[18,4],[17,8],[34,2],[18,-17],[15,10],[5,20],[16,12],[18,18],[18,-4],[45,8],[29,0],[24,25],[26,-1],[29,-11],[26,-3],[7,-13],[6,-8],[7,-6],[6,-7],[14,-35],[21,-26],[24,-6],[36,-13],[19,-15],[47,-27],[88,1],[42,-13],[64,-10],[3,0],[-9,-12],[-12,-1],[-53,7],[-22,11],[-44,-3],[-35,-2],[-17,-7],[-5,-18],[26,-20],[18,-8],[20,-25],[5,-11],[3,-13],[3,-11],[-7,-1],[-6,3],[-5,7],[-11,35],[-4,5],[-17,-3],[-27,20],[-19,0],[-24,0],[-14,5],[-17,7],[-14,14],[-45,22],[-36,2],[-17,-11],[-20,1],[-10,-15],[-3,-17],[-18,-7],[-4,-17],[-9,-25],[-30,-9],[-18,-9],[-16,-4],[-12,-13],[-6,-14],[-12,-11],[-4,-13],[-8,-3],[-2,-11],[-1,-8],[0,-11],[0,-17],[2,-10],[-7,-22],[1,-11],[3,-9],[4,-13],[-10,-17],[-6,-5],[-1,-10],[4,-12],[1,-11],[2,-9],[1,-11],[1,-13],[-1,-12],[-7,-9],[-4,-2],[0,-12],[6,-12],[-2,-20],[4,-16],[-2,-24],[-4,-20],[-6,-13],[-3,-5],[-4,-6],[3,-9],[4,-11],[2,-9],[0,-18],[-1,-34],[-3,-19],[-4,-33],[-11,-13],[-10,-7],[-20,7],[-11,-6],[-13,-12],[-4,-17],[-3,-16]],[[4096,4096],[0,-4096],[-1785,0],[3,16],[4,17],[13,12],[11,6],[20,-7],[10,7],[11,13],[4,33],[3,19],[1,34],[0,18],[-2,9],[-4,11],[-3,9],[4,6],[3,5],[6,13],[4,20],[2,24],[-4,16],[2,20],[-6,12],[0,12],[4,2],[7,9],[1,12],[-1,13],[-1,11],[-2,9],[-1,11],[-4,12],[1,10],[6,5],[10,17],[-4,13],[-3,9],[-1,11],[7,22],[-2,10],[0,17],[0,11],[1,8],[2,11],[8,3],[4,13],[12,11],[6,14],[12,13],[16,4],[18,9],[30,9],[9,25],[4,17],[18,7],[3,17],[10,15],[20,-1],[17,11],[36,-2],[45,-22],[14,-14],[17,-7],[14,-5],[24,0],[19,0],[27,-20],[17,3],[4,-5],[11,-35],[5,-7],[6,-3],[7,1],[-3,11],[-3,13],[-5,11],[-20,25],[-18,8],[-26,20],[5,18],[17,7],[35,2],[44,3],[22,-11],[53,-7],[12,1],[9,12],[-3,0],[-64,10],[-42,13],[-88,-1],[-47,27],[-19,15],[-36,13],[-24,6],[-21,26],[-14,35],[-6,7],[-7,6],[-6,8],[-7,13],[-26,3],[-29,11],[-26,1],[-24,-25],[-29,0],[-45,-8],[-18,4],[-18,-18],[-16,-12],[-5,-20],[-15,-10],[-18,17],[-34,-2],[-17,-8],[-18,-4],[-16,1],[-15,-11],[-22,-15],[-17,-10],[-17,18],[-11,7],[-4,-23],[-17,-6],[-27,-16],[-7,-12],[6,-19],[1,-16],[-9,-15],[-11,-5],[-10,1],[-6,-9],[3,-11],[13,2],[8,-3],[-2,-11],[0,-16],[18,-9],[8,1],[8,-10],[11,-11],[6,-9],[0,-10],[-11,-3],[-19,1],[-10,-5],[-10,-6],[-3,-6],[0,-9],[6,-7],[-7,-10],[-6,3],[-9,-3],[-16,-19],[-16,-20],[-2,-10],[1,-10],[6,-28],[1,-13],[2,-7],[9,-11],[1,-8],[3,-8],[-1,-8],[-10,-5],[-7,-5],[2,-10],[6,-10],[20,0],[6,-1],[-3,-12],[-7,-6],[-7,-6],[-2,-15],[-1,-10],[-5,-8],[-2,-8],[-9,-13],[-10,-5],[5,-10],[-5,-16],[-9,-4],[-6,-8],[7,0],[7,-3],[-2,-16],[-10,-21],[-2,-14],[-4,-11],[-5,-12],[-8,-16],[-1,-9],[5,-9],[13,-11],[29,-15],[8,-1],[6,-10],[34,-7],[23,-12],[9,-9],[7,-4],[-8,-10],[0,-15],[1,-15],[-12,-8],[-18,-3],[-8,-2],[-5,-5],[0,-7],[6,-3],[2,-11],[-9,3],[-3,9],[-11,4],[-11,-4],[-9,-8],[-5,-8],[-68,0],[-1,2],[-5,2],[-7,-1],[-3,-3],[-3,0],[1,9],[5,6],[8,8],[16,4],[1,9],[-5,16],[0,6],[-19,15],[-14,11],[-13,3],[-14,-5],[-24,-15],[-28,-23],[3,-18],[18,-13],[24,2],[7,-9],[1,-6],[-37,0],[-24,14],[-22,24],[-14,7],[-14,6],[-5,2],[-12,5],[-3,-3],[-8,-11],[-4,-25],[-9,-12],[-13,3],[-8,-1],[3,-9],[-734,0],[-6,11],[-3,5],[10,4],[9,12],[2,18],[-4,14],[-13,3],[-4,3],[24,20],[19,27],[13,15],[-6,11],[1,13],[-5,6],[-7,0],[-2,11],[10,8],[4,7],[-2,9],[0,8],[-7,3],[-1,8],[-1,6],[4,2],[4,6],[-3,5],[-4,9],[-2,6],[-2,5],[-2,2],[-4,2],[-1,17],[1,6],[-6,-3],[-12,-1],[-10,-12],[-10,-5],[-6,-8],[0,-6],[-2,-4],[-14,-14],[-18,-3],[-7,-9],[-14,-8],[-13,-9],[-11,-27],[-8,-21],[-2,-11],[-5,-14],[-6,-1],[-1,-8],[-7,-13],[-8,-3],[-3,-9],[-6,-11],[-14,3],[-12,6],[-2,6],[-4,-9],[-2,-10],[-18,4],[-4,-2],[-1,7],[-6,9],[-2,-15],[2,-15],[-9,2],[-11,-4],[-10,-8],[-11,-8],[-7,-9],[-13,10],[-8,8],[1,8],[-4,13],[1,11],[6,6],[4,12],[-2,17],[-2,11],[2,14],[4,17],[7,10],[-6,2],[-7,0],[-2,-8],[1,-12],[-15,-3],[0,-8],[-3,-16],[-9,12],[-9,6],[-11,9],[-6,16],[-9,1],[-2,9],[5,1],[10,5],[4,16],[-3,19],[-13,14],[-26,7],[-28,9],[-34,4],[-19,-1],[-17,0],[-7,-8],[-5,-4],[-24,2],[-9,-8],[-11,-13],[-7,-16],[3,-27],[-6,-5],[-14,0],[-16,0],[-7,10],[-22,1],[-26,-2],[-20,-1],[-2,-7],[-8,-20],[-13,-7],[-8,12],[-10,8],[-12,7],[-29,5],[-23,-2],[-11,-11],[-1,-11],[-21,-27],[-11,4],[-7,-13],[-15,-18],[-6,6],[-5,3],[-3,-8],[-8,-1],[-11,4],[-14,5],[-3,12],[-23,5],[-31,13],[-39,-1],[-54,10],[-14,-4],[0,3945],[1807,0],[2289,0]],[[3109,0],[-367,0],[163,114],[82,-47],[65,70],[32,-23],[-17,-30],[42,-84]]]}