{"objects":{"water":{"type":"GeometryCollection","geometries":[{"type":"MultiPolygon","properties":{"source":"naturalearthdata.com","kind":"ocean","area":989871000000000,"sort_rank":200,"min_zoom":0,"id":1},"arcs":[[[0],[1]],[[2]]]},{"type":"LineString","properties":{"source":"naturalearthdata.com","kind":"ocean","sort_rank":205,"boundary":true,"min_zoom":0,"id":1844},"arcs":[3]},{"type":"MultiLineString","properties":{"source":"naturalearthdata.com","kind":"ocean","sort_rank":205,"boundary":true,"min_zoom":0,"id":4015},"arcs":[[4],[5],[6],[7],[8],[9]]}]},"buildings":{"type":"GeometryCollection","geometries":[]},"places":{"type":"GeometryCollection","geometries":[{"type":"Point","properties":{"name:pt":"Krai de Kamtchatka","int_name":"Kamchatkiy Kray","max_zoom":10.2,"min_zoom":5,"collision_rank":387,"name:vi":"Kamchatka (v\u00f9ng)","name:ru":"\u041a\u0430\u043c\u0447\u0430\u0442\u0441\u043a\u0438\u0439 \u043a\u0440\u0430\u0439","name:pl":"Kraj Kamczacki","id":508057529,"name:ca":"Territori de Kamtxatka","kind_detail":"state","name:de":"Region Kamtschatka","source":"openstreetmap.org","name:fr":"Kra\u00ef du Kamtchatka","name:be":"\u041a\u0430\u043c\u0447\u0430\u0442\u043a\u0430","name:zh":"\u582a\u5bdf\u52a0\u908a\u7586\u5340","name":"\u041a\u0430\u043c\u0447\u0430\u0442\u0441\u043a\u0438\u0439 \u043a\u0440\u0430\u0439","admin_level":"4","name:sk":"Kam\u010datsk\u00fd kraj","name:ja":"\u30ab\u30e0\u30c1\u30e3\u30c4\u30ab\u5730\u65b9","name:lt":"Kam\u010diatkos kra\u0161tas","name:he":"\u05de\u05d7\u05d5\u05d6 \u05e7\u05de\u05e6'\u05d8\u05e7\u05d4","kind":"region","name:br":"Kamtchatka","name:uk":"\u041a\u0430\u043c\u0447\u0430\u0442\u0441\u044c\u043a\u0438\u0439 \u043a\u0440\u0430\u0439","name:sv":"Kamtjatka kraj","name:hu":"Kamcsatkai hat\u00e1rter\u00fclet","name:hr":"Kama\u010datski kraj","population":319864,"name:eo":"Kam\u0109atko Regiono","name:en":"Kamchatka Krai","population_rank":10,"wikidata_id":"Q7948","name:et":"Kamt\u0161atka krai","name:nl":"Kraj Kamtsjatka","name:es":"Krai de Kamchatka"},"coordinates":[924,994]},{"type":"Point","properties":{"name:pt":"Palana","collision_rank":365,"name:nl":"Palana","name:id":"Palana","name":"Palana","name:hi":null,"name:tr":"Palana","name:sv":"Palana","name:ar":"\u0628\u0627\u0644\u0627\u0646\u0627","min_zoom":5.0,"name:it":"Palana","name:vi":null,"name:ru":"\u041f\u0430\u043b\u0430\u043d\u0430","name:pl":"Pa\u0142ana","name:hu":null,"id":6917,"name:ja":"\u30d1\u30e9\u30ca","name:el":"\u03a0\u03b1\u03bb\u03ac\u03bd\u03b1","kind":"locality","name:en":"Palana","population_rank":4,"source":"naturalearthdata.com","name:bn":null,"name:de":"Palana","name:ko":"\ud314\ub77c\ub098","name:fr":"Palana","wikidata_id":"Q695360","population":3671,"name:zh":"\u5e15\u62c9\u7eb3","name:es":"Palana"},"coordinates":[892,2324]}]},"transit":{"type":"GeometryCollection","geometries":[]},"pois":{"type":"GeometryCollection","geometries":[]},"boundaries":{"type":"GeometryCollection","geometries":[]},"roads":{"type":"GeometryCollection","geometries":[{"type":"LineString","properties":{"source":"naturalearthdata.com","kind":"minor_road","sort_rank":355,"kind_detail":"tertiary","min_zoom":5.2,"id":12458},"arcs":[10]},{"type":"LineString","properties":{"source":"naturalearthdata.com","kind":"minor_road","sort_rank":355,"kind_detail":"tertiary","min_zoom":5.2,"id":12589},"arcs":[11]},{"type":"LineString","properties":{"source":"naturalearthdata.com","kind":"minor_road","sort_rank":355,"kind_detail":"tertiary","min_zoom":5.2,"id":12613},"arcs":[12]},{"type":"LineString","properties":{"source":"naturalearthdata.com","kind":"minor_road","sort_rank":355,"kind_detail":"tertiary","min_zoom":5.2,"id":13256},"arcs":[13]}]},"earth":{"type":"GeometryCollection","geometries":[{"type":"MultiPolygon","properties":{"sort_rank":10,"source":"naturalearthdata.com","kind":"earth","min_zoom":2.0,"area":81316714394},"arcs":[[[14]]]},{"type":"MultiPolygon","properties":{"sort_rank":10,"source":"naturalearthdata.com","min_zoom":0,"kind":"earth","area":46840771247929},"arcs":[[[15]],[[16]],[[17]],[[18]],[[19]]]}]},"landuse":{"type":"GeometryCollection","geometries":[{"type":"MultiPolygon","properties":{"kind":"nature_reserve","protect_class":"1","area":353838078782,"sort_rank":23,"source":"openstreetmap.org","min_zoom":4.0,"tier":2,"id":-5576397},"arcs":[[[20]],[[21]],[[22]]]}]}},"type":"Topology","transform":{"translate":[157.5,55.7765730187],"scale":[0.002746582,0.0014232967]},"arcs":[[[4096,3368],[0,-3368],[-2490,0],[5,12],[-1,22],[10,20],[7,29],[18,26],[0,31],[14,20],[7,13],[-10,10],[-3,6],[2,9],[4,8],[15,13],[9,14],[7,15],[9,3],[4,2],[35,20],[34,15],[20,13],[8,5],[16,3],[1,12],[2,6],[8,1],[4,3],[11,3],[6,5],[6,7],[-12,14],[-8,12],[-4,14],[-16,6],[-30,25],[5,10],[6,7],[5,0],[4,3],[3,5],[3,6],[2,5],[8,10],[5,4],[5,1],[5,-4],[6,-6],[6,-1],[20,9],[8,21],[12,10],[21,-3],[36,-22],[26,-16],[12,16],[5,36],[12,24],[11,3],[8,-12],[21,-2],[6,-12],[-12,-28],[-9,-11],[-21,-5],[-21,-23],[-1,-17],[-25,-16],[-28,-2],[-15,-6],[-3,-10],[-2,-14],[-6,-16],[-6,-14],[-11,-9],[-12,-10],[-13,-3],[-10,-4],[-9,-3],[10,-3],[20,-3],[19,-35],[17,-15],[6,-29],[7,-10],[18,-27],[12,-4],[11,-6],[16,-16],[23,-6],[21,-3],[1,15],[5,12],[8,13],[2,4],[1,6],[2,9],[3,8],[2,4],[5,2],[17,17],[19,6],[23,5],[6,13],[21,9],[-5,13],[-1,15],[-3,9],[-2,31],[4,14],[2,17],[-2,8],[-2,9],[-1,7],[-14,31],[-7,18],[-5,3],[-4,7],[-2,8],[3,5],[7,3],[1,7],[-3,5],[-3,6],[-5,19],[-2,11],[6,13],[6,10],[-14,21],[-1,21],[3,17],[7,15],[6,13],[-11,8],[-3,10],[-6,6],[4,8],[-4,7],[-15,-7],[-22,-4],[-21,10],[-4,-6],[-15,-5],[-17,-16],[-12,4],[-8,0],[-8,5],[-21,4],[-18,29],[2,41],[-1,27],[1,44],[3,15],[8,18],[8,34],[6,24],[-15,29],[-11,37],[3,27],[-7,50],[5,50],[4,14],[12,26],[27,24],[20,13],[41,17],[12,24],[6,12],[4,16],[10,20],[10,5],[9,8],[10,10],[0,16],[-2,16],[2,21],[4,5],[27,22],[-18,34],[-4,14],[-17,14],[-1,11],[-46,5],[-32,12],[-53,54],[-3,3],[-4,2],[-10,-1],[-6,7],[-8,-2],[-3,1],[-4,5],[-8,15],[-4,4],[-4,3],[-3,1],[-4,1],[-5,-2],[-5,-6],[-3,-1],[-26,-2],[-9,-3],[-11,-9],[-7,-21],[-7,-14],[1,-28],[8,-33],[2,-33],[-46,-39],[-4,-4],[-5,-2],[-6,-1],[-3,2],[18,25],[17,10],[9,17],[-4,14],[-31,0],[-31,14],[-25,12],[-25,18],[-24,25],[-20,32],[-4,54],[-7,39],[-1,19],[11,47],[8,36],[45,140],[25,52],[37,69],[24,54],[39,47],[82,70],[18,8],[-2,11],[2,5],[1,6],[-1,7],[-6,-11],[-5,1],[-5,4],[-7,-3],[3,-5],[-7,-5],[-6,0],[-5,7],[-2,12],[8,1],[13,11],[30,-2],[10,13],[9,41],[7,10],[5,3],[6,-8],[-2,-17],[-13,-29],[16,12],[25,7],[16,11],[12,13],[5,11],[-1,17],[-12,16],[-1,0],[-2,-3],[-4,0],[-14,11],[-7,8],[-30,43],[-2,4],[1,9],[3,2],[4,-1],[7,1],[6,-1],[2,0],[0,2],[0,6],[0,6],[1,3],[1,2],[3,1],[5,-4],[3,-1],[9,4],[3,0],[23,-13],[-1,-4],[-1,-8],[-1,-4],[24,-8],[12,-8],[4,-17],[-3,-7],[-5,-6],[-3,-5],[1,-6],[5,-4],[5,5],[18,11],[7,5],[6,13],[-4,18],[-7,18],[-5,13],[-17,5],[-11,14],[-5,3],[-19,7],[0,9],[1,5],[-3,8],[-1,7],[0,7],[1,6],[1,7],[3,6],[5,6],[14,8],[9,2],[6,3],[3,1],[3,-1],[6,-7],[4,-2],[20,13],[5,-3],[0,-9],[-4,-6],[-8,-7],[-9,-13],[-1,-5],[7,-3],[5,1],[7,6],[6,8],[4,8],[2,12],[2,30],[4,29],[0,14],[-2,14],[-7,15],[-9,12],[-22,19],[-14,18],[-3,2],[-1,3],[3,11],[2,5],[8,11],[2,8],[-7,-3],[-4,2],[1,5],[7,7],[17,8],[8,2],[8,-4],[10,2],[15,14],[11,17],[0,15],[-4,9],[-1,8],[-1,15],[-4,23],[-1,8],[2,16],[4,19],[0,16],[-6,9],[23,15],[10,10],[19,25],[11,5],[12,1],[37,-7],[7,1],[4,4],[6,16],[13,25],[8,12],[8,8],[-8,4],[-3,1],[-2,-2],[0,-2],[0,-4],[0,-2],[-14,-8],[-7,-2],[-7,3],[-7,9],[-9,12],[-6,15],[2,15],[9,4],[32,1],[9,-3],[5,-3],[7,0],[5,2],[5,6],[3,2],[15,-9],[-1,-6],[-1,-4],[-2,-3],[-3,-2],[23,10],[36,-2],[8,-3],[7,-5],[12,-17],[6,-7],[9,-2],[18,6],[8,1],[-17,-20],[-7,-10],[-9,-8],[-3,-6],[-3,-9],[-3,-4],[-4,-2],[-9,1],[-4,-2],[0,-4],[4,-19],[4,-3],[9,-1],[28,-14],[9,0],[-7,9],[-17,12],[-6,13],[-1,15],[5,12],[8,7],[8,9],[16,7],[25,3],[23,9],[11,24],[-12,8],[-6,19],[0,18],[8,1],[8,-10],[5,-1],[2,11],[3,9],[7,5],[15,3],[13,-3],[12,-7],[11,-12],[27,-39],[22,-24],[6,-9],[8,-17],[11,-34],[5,-19],[1,-3],[5,-7],[1,-4],[-1,-5],[-2,-4],[-1,-3],[-1,-2],[2,-9],[3,-11],[3,-10],[4,-6],[12,-2],[11,10],[12,13],[10,10],[23,4],[8,6],[42,62],[12,26],[7,9],[11,3],[-5,10],[-13,12],[-5,7],[-2,9],[-3,21],[-2,6],[-6,4],[-10,3],[-8,-2],[-4,-9],[-3,-7],[-8,3],[-5,8],[2,8],[-4,14],[-1,7],[-1,7],[20,-13],[11,-2],[9,6],[7,12],[6,12],[7,9],[10,1],[-1,-7],[-6,-8],[-3,-5],[-1,-6],[0,-3],[5,-8],[2,-6],[1,-4],[1,-3],[5,-3],[5,-1],[6,3],[6,4],[19,26],[38,21],[16,19],[-4,10],[-1,11],[1,12],[4,10],[6,-27],[20,-1],[56,23],[18,13],[18,17],[14,19],[17,15],[41,16],[31,41],[20,10],[19,3],[19,11],[-16,-4],[-32,-10],[-14,-10],[-23,-34],[-14,-7],[-6,12],[8,5],[25,36],[14,9],[73,22],[7,-1],[12,-7],[6,-2],[5,5],[7,10],[7,5],[6,-5],[1,-8],[-4,-7],[-12,-9],[3,-4],[2,-1],[-7,-24],[-11,-17],[-14,-6],[-16,9],[7,-9],[6,-18],[3,-19],[-2,-15],[-4,-17],[2,-15],[9,-28],[-1,-19],[-7,-13],[-20,-18],[-9,-11],[-4,-12],[-11,-55],[-1,-7],[0,-8],[2,-14],[1,-9],[-3,-15],[-11,-25],[-4,-15],[0,-33],[1,-17],[2,-8],[32,-1],[17,3],[16,10],[26,28],[63,84],[70,90],[41,62],[7,7],[21,14],[6,6],[3,7],[-2,8],[-10,9],[-3,5],[5,-2],[5,0],[22,13],[12,4],[10,5],[2,9],[-7,29],[3,6],[-1,6],[-2,7],[-3,7],[0,6],[6,1],[12,-4],[2,-17],[13,-15],[16,-11],[12,-5],[13,3],[18,10],[10,13],[-9,17],[8,-2],[10,-7],[9,-3],[7,5],[0,10],[-4,13],[-10,22],[11,-3],[25,-32],[10,4],[2,8],[1,8],[1,7],[3,6],[4,-1],[15,-12],[6,-4],[15,1],[16,7],[28,24],[15,2],[7,3],[0,9],[-4,8],[-4,10],[0,9],[6,4],[6,-4],[7,-18],[5,-7],[8,-1],[94,43],[52,9],[15,8],[74,2],[17,-4],[17,-7],[17,-19],[10,-2],[16,0],[3,1],[11,9],[5,2],[1,0]],[[2624,2248],[1,21],[9,12],[-11,18],[-6,20],[-5,5],[-13,11],[-3,8],[-5,35],[0,4],[0,8],[0,3],[-2,2],[-8,-3],[-3,1],[-1,7],[1,29],[-8,4],[-38,-22],[-22,-17],[-19,-23],[-9,-14],[-12,-12],[-116,-60],[-59,2],[-20,-9],[-11,-9],[-8,-10],[13,3],[9,8],[12,8],[5,-2],[11,-6],[5,-2],[11,3],[6,1],[7,-11],[-19,-23],[-15,-26],[-14,-22],[-5,-15],[2,-26],[2,-17],[-12,-24],[-7,-19],[-19,-24],[-7,-18],[-6,-27],[-10,-31],[-20,-24],[-40,-8],[-11,-8],[-1,-11],[12,-21],[0,-21],[9,-10],[7,-12],[9,37],[14,18],[12,25],[30,27],[44,33],[21,33],[13,9],[12,-1],[14,4],[12,15],[19,14],[17,12],[13,11],[4,15],[10,13],[4,2],[3,1],[4,-1],[7,-6],[4,-1],[4,-1],[9,-10],[12,7],[5,13],[17,13],[21,14],[19,2],[39,-4],[24,2],[17,28],[2,7],[-1,8],[3,10],[0,10],[6,15]],[[2038,4096],[273,0],[-1,-6],[1,-13],[-6,-17],[-11,-25],[-15,-29],[-3,-25],[3,-10],[6,-11],[7,6],[6,13],[6,6],[7,3],[9,0],[29,-13],[9,-10],[17,-33],[2,-19],[-9,-14],[-19,-18],[-2,-7],[0,-17],[-1,-10],[-4,-12],[-5,-4],[-6,-2],[-51,-28],[-35,-29],[-6,-10],[-9,-7],[-3,-11],[5,-16],[-4,-16],[-22,-9],[-10,-10],[-16,-22],[10,-4],[8,-4],[26,-18],[28,-7],[18,-11],[6,-6],[8,-8],[-5,-12],[-3,-13],[-8,-11],[-11,-9],[-15,9],[-15,1],[-11,-3],[-17,-5],[-17,-10],[-11,-6],[-10,-2],[-7,-8],[-8,-4],[-4,-14],[-9,-17],[-6,-14],[-3,-18],[-7,-3],[-7,5],[7,16],[7,20],[4,14],[-7,4],[-20,-1],[-10,-5],[-11,7],[-7,-1],[-4,-8],[-4,-8],[-18,-3],[-7,-1],[7,-8],[-8,-7],[-17,3],[-12,14],[-20,-8],[-18,-6],[-10,-5],[-2,-8],[3,-6],[-8,-16],[-20,-16],[-17,-24],[-5,-5],[-15,-2],[-13,-13],[-9,-6],[-10,-4],[-6,1],[-13,8],[-13,2],[-13,-3],[-10,-12],[-5,-7],[-10,-10],[-11,-14],[-13,-4],[-7,-3],[-52,-9],[-8,-11],[-6,-14],[-15,-12],[-48,-38],[-20,-10],[-5,-14],[1,-17],[-6,-16],[-1,-16],[-6,-17],[1,-4],[10,12],[6,-7],[2,-7],[1,-17],[-4,-24],[-14,-23],[-43,-41],[-12,-10],[-13,-5],[-21,-24],[-22,-6],[-5,-5],[-6,-1],[-11,-3],[-24,-25],[-18,-35],[-29,-26],[-19,-53],[-34,-28],[-34,-47],[-7,-3],[-7,-1],[-8,-4],[-2,-3],[-3,-9],[-2,-2],[-10,-6],[-6,-6],[-3,-5],[-15,-28],[-19,-25],[-9,-10],[-16,-9],[-50,-7],[-20,-17],[-7,-3],[-18,-2],[-8,-3],[-9,-5],[-6,-9],[-5,-13],[-3,-16],[-1,-17],[-3,-13],[-40,-67],[-10,-10],[-12,-4],[-15,-2],[-8,-4],[-5,-6],[-5,-8],[-9,-13],[-108,-107],[-22,-32],[-4,-8],[-1,-12],[-17,-25],[-5,-14],[1,-8],[5,-14],[1,-7],[1,-9],[-1,-23],[-2,-15],[-6,-14],[-7,-13],[-7,-8],[-7,-4],[-6,-3],[-7,-4],[-5,-8],[-3,-10],[0,-5],[-1,-5],[-10,-11],[-10,-20],[-5,-7],[-11,-11],[-5,-8],[1,-2],[1,-4],[1,-5],[0,-3],[-3,-4],[-27,-5],[-8,-4],[-6,-9],[-8,-15],[-61,-72],[-5,-14],[2,-10],[6,-5],[6,-4],[5,-5],[3,-11],[-2,-3],[-5,2],[-5,5],[-4,6],[-2,7],[-3,7],[-6,3],[-5,-2],[-2,-7],[-1,-7],[-3,-3],[-10,-6],[-31,-42],[-28,-19],[-20,-22],[-15,-6],[-25,-25],[-47,-31],[-40,-49],[-46,-35],[-30,-42],[-6,-7],[-26,-19],[-7,-10],[9,0],[9,-2],[7,-7],[-2,-15],[14,-15],[6,-11],[-3,-10],[-6,1],[-6,11],[-10,24],[-19,15],[-21,-3],[-40,-22],[-40,-5],[-58,10],[-8,4],[-16,15],[-10,2],[-20,-1],[1,-4],[2,-7],[2,-4],[-8,-14],[-16,-23],[-6,-16],[-1,-7],[-1,-15],[0,-7],[-3,-8],[-11,-23],[-10,-13],[0,2657],[1014,0],[-8,-9],[-5,-6],[1,-7],[5,-7],[7,-8],[-14,-12],[-6,-7],[-5,-10],[-16,-5],[-16,-3],[-6,-1],[1,-7],[-5,-5],[-5,-5],[-7,-3],[-5,-5],[-7,-4],[-1,-5],[7,-2],[7,1],[6,2],[7,-6],[0,-10],[-8,-14],[-6,-4],[-6,-6],[-1,-6],[1,-6],[-6,1],[-13,2],[-12,-3],[3,-15],[-1,-13],[-14,-8],[-8,-9],[12,-12],[22,-4],[-3,-5],[-12,-8],[-15,5],[-4,4],[-1,5],[-13,-1],[-11,0],[-9,-2],[3,-7],[-13,-9],[-1,-9],[-4,-8],[10,-1],[7,-6],[12,18],[10,-1],[9,2],[13,-11],[4,-11],[-7,-5],[-7,-5],[4,-7],[9,-8],[4,-7],[3,-10],[4,-11],[-3,-9],[6,-11],[3,-12],[-8,-8],[-3,-11],[-6,-6],[6,-9],[-9,-9],[-11,-17],[-13,-15],[-9,-12],[-8,-3],[2,-7],[-1,-10],[-2,-9],[-8,-4],[-3,-3],[11,0],[6,-2],[7,-4],[6,-7],[6,2],[2,6],[-5,5],[-2,7],[11,2],[13,-3],[3,7],[-3,6],[6,5],[6,-1],[6,-1],[4,5],[5,10],[8,0],[6,8],[3,7],[22,10],[15,7],[11,6],[28,-14],[14,12],[11,-2],[9,7],[5,-4],[9,-1],[12,0],[-8,-12],[-5,-10],[6,-15],[-19,-12],[-7,-15],[0,-15],[1,-9],[-5,-2],[-6,0],[-8,-2],[-8,1],[-4,-4],[-1,-5],[-10,-13],[2,-14],[3,-21],[-8,6],[-5,9],[-5,-6],[-3,-7],[-10,-2],[22,-23],[8,-14],[-3,-10],[2,-8],[1,-8],[-7,-7],[4,-8],[-9,-3],[-6,-9],[2,-9],[2,-6],[2,-7],[-8,-3],[-12,2],[-6,-2],[1,-7],[3,-7],[-8,-28],[6,-18],[12,2],[19,8],[4,9],[12,4],[2,13],[0,9],[11,7],[14,6],[9,30],[-3,15],[9,8],[6,6],[6,5],[4,-5],[-6,-9],[-5,-17],[10,-2],[11,-2],[9,5],[3,9],[9,2],[6,12],[6,1],[7,-2],[1,-11],[7,-1],[5,-4],[8,0],[2,13],[7,13],[9,5],[12,-6],[7,-14],[10,-2],[9,-7],[0,11],[2,9],[12,6],[1,17],[6,24],[9,24],[11,9],[3,14],[1,13],[13,1],[10,6],[13,15],[10,8],[34,21],[18,15],[0,15],[8,5],[4,10],[-3,8],[2,5],[7,-1],[10,-1],[14,3],[36,37],[7,7],[11,2],[3,11],[-7,4],[-9,7],[2,3],[9,4],[7,6],[3,9],[1,8],[6,5],[6,-3],[7,-2],[8,-2],[8,-6],[4,5],[1,7],[5,5],[3,13],[-3,8],[0,12],[7,2],[8,3],[4,1],[3,4],[13,12],[29,8],[11,14],[-3,12],[6,8],[-2,11],[1,7],[7,1],[8,-10],[5,-14],[10,-2],[9,15],[-9,19],[-2,12],[-1,12],[3,9],[4,-3],[9,-25],[5,-10],[17,-3],[15,20],[13,11],[-8,13],[7,2],[13,-1],[4,7],[-2,7],[6,10],[7,9],[1,9],[4,-1],[7,-1],[4,8],[13,5],[5,8],[-6,15],[1,9],[4,1],[9,-5],[8,8],[8,9],[12,10],[-8,7],[-2,4],[133,0],[2,-1],[38,-8],[-3,9],[33,0],[0,-3],[3,3],[16,0],[1,-7],[-4,-5],[2,-7],[7,-1],[11,0],[4,-4],[5,-25],[13,-14],[10,0],[24,22],[-3,6],[2,10],[-9,6],[-3,4],[4,10],[4,5]],[[2624,2248],[1,21],[9,12],[-11,18],[-6,20],[-5,5],[-13,11],[-3,8],[-5,35],[0,4],[0,8],[0,3],[-2,2],[-8,-3],[-3,1],[-1,7],[1,29],[-8,4],[-38,-22],[-22,-17],[-19,-23],[-9,-14],[-12,-12],[-116,-60],[-59,2],[-20,-9],[-11,-9],[-8,-10],[13,3],[9,8],[12,8],[5,-2],[11,-6],[5,-2],[11,3],[6,1],[7,-11],[-19,-23],[-15,-26],[-14,-22],[-5,-15],[2,-26],[2,-17],[-12,-24],[-7,-19],[-19,-24],[-7,-18],[-6,-27],[-10,-31],[-20,-24],[-40,-8],[-11,-8],[-1,-11],[12,-21],[0,-21],[9,-10],[7,-12],[9,37],[14,18],[12,25],[30,27],[44,33],[21,33],[13,9],[12,-1],[14,4],[12,15],[19,14],[17,12],[13,11],[4,15],[10,13],[4,2],[3,1],[4,-1],[7,-6],[4,-1],[4,-1],[9,-10],[12,7],[5,13],[17,13],[21,14],[19,2],[39,-4],[24,2],[17,28],[2,7],[-1,8],[3,10],[0,10],[6,15]],[[1014,4096],[-8,-9],[-5,-6],[1,-7],[5,-7],[7,-8],[-14,-12],[-6,-7],[-5,-10],[-16,-5],[-16,-3],[-6,-1],[1,-7],[-5,-5],[-5,-5],[-7,-3],[-5,-5],[-7,-4],[-1,-5],[7,-2],[7,1],[6,2],[7,-6],[0,-10],[-8,-14],[-6,-4],[-6,-6],[-1,-6],[1,-6],[-6,1],[-13,2],[-12,-3],[3,-15],[-1,-13],[-14,-8],[-8,-9],[12,-12],[22,-4],[-3,-5],[-12,-8],[-15,5],[-4,4],[-1,5],[-13,-1],[-11,0],[-9,-2],[3,-7],[-13,-9],[-1,-9],[-4,-8],[10,-1],[7,-6],[12,18],[10,-1],[9,2],[13,-11],[4,-11],[-7,-5],[-7,-5],[4,-7],[9,-8],[4,-7],[3,-10],[4,-11],[-3,-9],[6,-11],[3,-12],[-8,-8],[-3,-11],[-6,-6],[6,-9],[-9,-9],[-11,-17],[-13,-15],[-9,-12],[-8,-3],[2,-7],[-1,-10],[-2,-9],[-8,-4],[-3,-3],[11,0],[6,-2],[7,-4],[6,-7],[6,2],[2,6],[-5,5],[-2,7],[11,2],[13,-3],[3,7],[-3,6],[6,5],[6,-1],[6,-1],[4,5],[5,10],[8,0],[6,8],[3,7],[22,10],[15,7],[11,6],[28,-14],[14,12],[11,-2],[9,7],[5,-4],[9,-1],[12,0],[-8,-12],[-5,-10],[6,-15],[-19,-12],[-7,-15],[0,-15],[1,-9],[-5,-2],[-6,0],[-8,-2],[-8,1],[-4,-4],[-1,-5],[-10,-13],[2,-14],[3,-21],[-8,6],[-5,9],[-5,-6],[-3,-7],[-10,-2],[22,-23],[8,-14],[-3,-10],[2,-8],[1,-8],[-7,-7],[4,-8],[-9,-3],[-6,-9],[2,-9],[2,-6],[2,-7],[-8,-3],[-12,2],[-6,-2],[1,-7],[3,-7],[-8,-28],[6,-18],[12,2],[19,8],[4,9],[12,4],[2,13],[0,9],[11,7],[14,6],[9,30],[-3,15],[9,8],[6,6],[6,5],[4,-5],[-6,-9],[-5,-17],[10,-2],[11,-2],[9,5],[3,9],[9,2],[6,12],[6,1],[7,-2],[1,-11],[7,-1],[5,-4],[8,0],[2,13],[7,13],[9,5],[12,-6],[7,-14],[10,-2],[9,-7],[0,11],[2,9],[12,6],[1,17],[6,24],[9,24],[11,9],[3,14],[1,13],[13,1],[10,6],[13,15],[10,8],[34,21],[18,15],[0,15],[8,5],[4,10],[-3,8],[2,5],[7,-1],[10,-1],[14,3],[36,37],[7,7],[11,2],[3,11],[-7,4],[-9,7],[2,3],[9,4],[7,6],[3,9],[1,8],[6,5],[6,-3],[7,-2],[8,-2],[8,-6],[4,5],[1,7],[5,5],[3,13],[-3,8],[0,12],[7,2],[8,3],[4,1],[3,4],[13,12],[29,8],[11,14],[-3,12],[6,8],[-2,11],[1,7],[7,1],[8,-10],[5,-14],[10,-2],[9,15],[-9,19],[-2,12],[-1,12],[3,9],[4,-3],[9,-25],[5,-10],[17,-3],[15,20],[13,11],[-8,13],[7,2],[13,-1],[4,7],[-2,7],[6,10],[7,9],[1,9],[4,-1],[7,-1],[4,8],[13,5],[5,8],[-6,15],[1,9],[4,1],[9,-5],[8,8],[8,9],[12,10],[-8,7],[-2,4]],[[1881,4096],[2,-1],[38,-8],[-3,9]],[[1951,4096],[0,-3],[3,3]],[[1970,4096],[1,-7],[-4,-5],[2,-7],[7,-1],[11,0],[4,-4],[5,-25],[13,-14],[10,0],[24,22],[-3,6],[2,10],[-9,6],[-3,4],[4,10],[4,5]],[[2311,4096],[-1,-6],[1,-13],[-6,-17],[-11,-25],[-15,-29],[-3,-25],[3,-10],[6,-11],[7,6],[6,13],[6,6],[7,3],[9,0],[29,-13],[9,-10],[17,-33],[2,-19],[-9,-14],[-19,-18],[-2,-7],[0,-17],[-1,-10],[-4,-12],[-5,-4],[-6,-2],[-51,-28],[-35,-29],[-6,-10],[-9,-7],[-3,-11],[5,-16],[-4,-16],[-22,-9],[-10,-10],[-16,-22],[10,-4],[8,-4],[26,-18],[28,-7],[18,-11],[6,-6],[8,-8],[-5,-12],[-3,-13],[-8,-11],[-11,-9],[-15,9],[-15,1],[-11,-3],[-17,-5],[-17,-10],[-11,-6],[-10,-2],[-7,-8],[-8,-4],[-4,-14],[-9,-17],[-6,-14],[-3,-18],[-7,-3],[-7,5],[7,16],[7,20],[4,14],[-7,4],[-20,-1],[-10,-5],[-11,7],[-7,-1],[-4,-8],[-4,-8],[-18,-3],[-7,-1],[7,-8],[-8,-7],[-17,3],[-12,14],[-20,-8],[-18,-6],[-10,-5],[-2,-8],[3,-6],[-8,-16],[-20,-16],[-17,-24],[-5,-5],[-15,-2],[-13,-13],[-9,-6],[-10,-4],[-6,1],[-13,8],[-13,2],[-13,-3],[-10,-12],[-5,-7],[-10,-10],[-11,-14],[-13,-4],[-7,-3],[-52,-9],[-8,-11],[-6,-14],[-15,-12],[-48,-38],[-20,-10],[-5,-14],[1,-17],[-6,-16],[-1,-16],[-6,-17],[1,-4],[10,12],[6,-7],[2,-7],[1,-17],[-4,-24],[-14,-23],[-43,-41],[-12,-10],[-13,-5],[-21,-24],[-22,-6],[-5,-5],[-6,-1],[-11,-3],[-24,-25],[-18,-35],[-29,-26],[-19,-53],[-34,-28],[-34,-47],[-7,-3],[-7,-1],[-8,-4],[-2,-3],[-3,-9],[-2,-2],[-10,-6],[-6,-6],[-3,-5],[-15,-28],[-19,-25],[-9,-10],[-16,-9],[-50,-7],[-20,-17],[-7,-3],[-18,-2],[-8,-3],[-9,-5],[-6,-9],[-5,-13],[-3,-16],[-1,-17],[-3,-13],[-40,-67],[-10,-10],[-12,-4],[-15,-2],[-8,-4],[-5,-6],[-5,-8],[-9,-13],[-108,-107],[-22,-32],[-4,-8],[-1,-12],[-17,-25],[-5,-14],[1,-8],[5,-14],[1,-7],[1,-9],[-1,-23],[-2,-15],[-6,-14],[-7,-13],[-7,-8],[-7,-4],[-6,-3],[-7,-4],[-5,-8],[-3,-10],[0,-5],[-1,-5],[-10,-11],[-10,-20],[-5,-7],[-11,-11],[-5,-8],[1,-2],[1,-4],[1,-5],[0,-3],[-3,-4],[-27,-5],[-8,-4],[-6,-9],[-8,-15],[-61,-72],[-5,-14],[2,-10],[6,-5],[6,-4],[5,-5],[3,-11],[-2,-3],[-5,2],[-5,5],[-4,6],[-2,7],[-3,7],[-6,3],[-5,-2],[-2,-7],[-1,-7],[-3,-3],[-10,-6],[-31,-42],[-28,-19],[-20,-22],[-15,-6],[-25,-25],[-47,-31],[-40,-49],[-46,-35],[-30,-42],[-6,-7],[-26,-19],[-7,-10],[9,0],[9,-2],[7,-7],[-2,-15],[14,-15],[6,-11],[-3,-10],[-6,1],[-6,11],[-10,24],[-19,15],[-21,-3],[-40,-22],[-40,-5],[-58,10],[-8,4],[-16,15],[-10,2],[-20,-1],[1,-4],[2,-7],[2,-4],[-8,-14],[-16,-23],[-6,-16],[-1,-7],[-1,-15],[0,-7],[-3,-8],[-11,-23],[-10,-13]],[[1606,0],[5,12],[-1,22],[10,20],[7,29],[18,26],[0,31],[14,20],[7,13],[-10,10],[-3,6],[2,9],[4,8],[15,13],[9,14],[7,15],[9,3],[4,2],[35,20],[34,15],[20,13],[8,5],[16,3],[1,12],[2,6],[8,1],[4,3],[11,3],[6,5],[6,7],[-12,14],[-8,12],[-4,14],[-16,6],[-30,25],[5,10],[6,7],[5,0],[4,3],[3,5],[3,6],[2,5],[8,10],[5,4],[5,1],[5,-4],[6,-6],[6,-1],[20,9],[8,21],[12,10],[21,-3],[36,-22],[26,-16],[12,16],[5,36],[12,24],[11,3],[8,-12],[21,-2],[6,-12],[-12,-28],[-9,-11],[-21,-5],[-21,-23],[-1,-17],[-25,-16],[-28,-2],[-15,-6],[-3,-10],[-2,-14],[-6,-16],[-6,-14],[-11,-9],[-12,-10],[-13,-3],[-10,-4],[-9,-3],[10,-3],[20,-3],[19,-35],[17,-15],[6,-29],[7,-10],[18,-27],[12,-4],[11,-6],[16,-16],[23,-6],[21,-3],[1,15],[5,12],[8,13],[2,4],[1,6],[2,9],[3,8],[2,4],[5,2],[17,17],[19,6],[23,5],[6,13],[21,9],[-5,13],[-1,15],[-3,9],[-2,31],[4,14],[2,17],[-2,8],[-2,9],[-1,7],[-14,31],[-7,18],[-5,3],[-4,7],[-2,8],[3,5],[7,3],[1,7],[-3,5],[-3,6],[-5,19],[-2,11],[6,13],[6,10],[-14,21],[-1,21],[3,17],[7,15],[6,13],[-11,8],[-3,10],[-6,6],[4,8],[-4,7],[-15,-7],[-22,-4],[-21,10],[-4,-6],[-15,-5],[-17,-16],[-12,4],[-8,0],[-8,5],[-21,4],[-18,29],[2,41],[-1,27],[1,44],[3,15],[8,18],[8,34],[6,24],[-15,29],[-11,37],[3,27],[-7,50],[5,50],[4,14],[12,26],[27,24],[20,13],[41,17],[12,24],[6,12],[4,16],[10,20],[10,5],[9,8],[10,10],[0,16],[-2,16],[2,21],[4,5],[27,22],[-18,34],[-4,14],[-17,14],[-1,11],[-46,5],[-32,12],[-53,54],[-3,3],[-4,2],[-10,-1],[-6,7],[-8,-2],[-3,1],[-4,5],[-8,15],[-4,4],[-4,3],[-3,1],[-4,1],[-5,-2],[-5,-6],[-3,-1],[-26,-2],[-9,-3],[-11,-9],[-7,-21],[-7,-14],[1,-28],[8,-33],[2,-33],[-46,-39],[-4,-4],[-5,-2],[-6,-1],[-3,2],[18,25],[17,10],[9,17],[-4,14],[-31,0],[-31,14],[-25,12],[-25,18],[-24,25],[-20,32],[-4,54],[-7,39],[-1,19],[11,47],[8,36],[45,140],[25,52],[37,69],[24,54],[39,47],[82,70],[18,8],[-2,11],[2,5],[1,6],[-1,7],[-6,-11],[-5,1],[-5,4],[-7,-3],[3,-5],[-7,-5],[-6,0],[-5,7],[-2,12],[8,1],[13,11],[30,-2],[10,13],[9,41],[7,10],[5,3],[6,-8],[-2,-17],[-13,-29],[16,12],[25,7],[16,11],[12,13],[5,11],[-1,17],[-12,16],[-1,0],[-2,-3],[-4,0],[-14,11],[-7,8],[-30,43],[-2,4],[1,9],[3,2],[4,-1],[7,1],[6,-1],[2,0],[0,2],[0,6],[0,6],[1,3],[1,2],[3,1],[5,-4],[3,-1],[9,4],[3,0],[23,-13],[-1,-4],[-1,-8],[-1,-4],[24,-8],[12,-8],[4,-17],[-3,-7],[-5,-6],[-3,-5],[1,-6],[5,-4],[5,5],[18,11],[7,5],[6,13],[-4,18],[-7,18],[-5,13],[-17,5],[-11,14],[-5,3],[-19,7],[0,9],[1,5],[-3,8],[-1,7],[0,7],[1,6],[1,7],[3,6],[5,6],[14,8],[9,2],[6,3],[3,1],[3,-1],[6,-7],[4,-2],[20,13],[5,-3],[0,-9],[-4,-6],[-8,-7],[-9,-13],[-1,-5],[7,-3],[5,1],[7,6],[6,8],[4,8],[2,12],[2,30],[4,29],[0,14],[-2,14],[-7,15],[-9,12],[-22,19],[-14,18],[-3,2],[-1,3],[3,11],[2,5],[8,11],[2,8],[-7,-3],[-4,2],[1,5],[7,7],[17,8],[8,2],[8,-4],[10,2],[15,14],[11,17],[0,15],[-4,9],[-1,8],[-1,15],[-4,23],[-1,8],[2,16],[4,19],[0,16],[-6,9],[23,15],[10,10],[19,25],[11,5],[12,1],[37,-7],[7,1],[4,4],[6,16],[13,25],[8,12],[8,8],[-8,4],[-3,1],[-2,-2],[0,-2],[0,-4],[0,-2],[-14,-8],[-7,-2],[-7,3],[-7,9],[-9,12],[-6,15],[2,15],[9,4],[32,1],[9,-3],[5,-3],[7,0],[5,2],[5,6],[3,2],[15,-9],[-1,-6],[-1,-4],[-2,-3],[-3,-2],[23,10],[36,-2],[8,-3],[7,-5],[12,-17],[6,-7],[9,-2],[18,6],[8,1],[-17,-20],[-7,-10],[-9,-8],[-3,-6],[-3,-9],[-3,-4],[-4,-2],[-9,1],[-4,-2],[0,-4],[4,-19],[4,-3],[9,-1],[28,-14],[9,0],[-7,9],[-17,12],[-6,13],[-1,15],[5,12],[8,7],[8,9],[16,7],[25,3],[23,9],[11,24],[-12,8],[-6,19],[0,18],[8,1],[8,-10],[5,-1],[2,11],[3,9],[7,5],[15,3],[13,-3],[12,-7],[11,-12],[27,-39],[22,-24],[6,-9],[8,-17],[11,-34],[5,-19],[1,-3],[5,-7],[1,-4],[-1,-5],[-2,-4],[-1,-3],[-1,-2],[2,-9],[3,-11],[3,-10],[4,-6],[12,-2],[11,10],[12,13],[10,10],[23,4],[8,6],[42,62],[12,26],[7,9],[11,3],[-5,10],[-13,12],[-5,7],[-2,9],[-3,21],[-2,6],[-6,4],[-10,3],[-8,-2],[-4,-9],[-3,-7],[-8,3],[-5,8],[2,8],[-4,14],[-1,7],[-1,7],[20,-13],[11,-2],[9,6],[7,12],[6,12],[7,9],[10,1],[-1,-7],[-6,-8],[-3,-5],[-1,-6],[0,-3],[5,-8],[2,-6],[1,-4],[1,-3],[5,-3],[5,-1],[6,3],[6,4],[19,26],[38,21],[16,19],[-4,10],[-1,11],[1,12],[4,10],[6,-27],[20,-1],[56,23],[18,13],[18,17],[14,19],[17,15],[41,16],[31,41],[20,10],[19,3],[19,11],[-16,-4],[-32,-10],[-14,-10],[-23,-34],[-14,-7],[-6,12],[8,5],[25,36],[14,9],[73,22],[7,-1],[12,-7],[6,-2],[5,5],[7,10],[7,5],[6,-5],[1,-8],[-4,-7],[-12,-9],[3,-4],[2,-1],[-7,-24],[-11,-17],[-14,-6],[-16,9],[7,-9],[6,-18],[3,-19],[-2,-15],[-4,-17],[2,-15],[9,-28],[-1,-19],[-7,-13],[-20,-18],[-9,-11],[-4,-12],[-11,-55],[-1,-7],[0,-8],[2,-14],[1,-9],[-3,-15],[-11,-25],[-4,-15],[0,-33],[1,-17],[2,-8],[32,-1],[17,3],[16,10],[26,28],[63,84],[70,90],[41,62],[7,7],[21,14],[6,6],[3,7],[-2,8],[-10,9],[-3,5],[5,-2],[5,0],[22,13],[12,4],[10,5],[2,9],[-7,29],[3,6],[-1,6],[-2,7],[-3,7],[0,6],[6,1],[12,-4],[2,-17],[13,-15],[16,-11],[12,-5],[13,3],[18,10],[10,13],[-9,17],[8,-2],[10,-7],[9,-3],[7,5],[0,10],[-4,13],[-10,22],[11,-3],[25,-32],[10,4],[2,8],[1,8],[1,7],[3,6],[4,-1],[15,-12],[6,-4],[15,1],[16,7],[28,24],[15,2],[7,3],[0,9],[-4,8],[-4,10],[0,9],[6,4],[6,-4],[7,-18],[5,-7],[8,-1],[94,43],[52,9],[15,8],[74,2],[17,-4],[17,-7],[17,-19],[10,-2],[16,0],[3,1],[11,9],[5,2],[1,0]],[[1681,308],[12,5],[12,9],[18,6],[29,0],[27,0],[30,-9]],[[932,325],[4,0],[33,23],[20,3],[5,6],[19,32],[15,17],[8,6],[18,0],[10,-3],[17,0],[12,-3],[30,-9],[13,0],[8,-3],[10,-5],[15,-3],[12,3],[8,-3],[12,-6],[30,-20],[10,-15],[12,-6],[24,3],[11,-5],[6,-9],[7,-12],[3,-20],[-3,-23],[0,-12],[11,-17],[21,-21],[9,-17],[0,-23],[3,-15],[4,-11],[5,-9],[12,-3],[12,12],[7,14],[5,24],[3,28],[6,12],[10,9],[8,14],[4,23],[0,9],[5,12],[12,14],[20,3],[4,9],[6,14],[6,3],[11,0],[15,6],[10,-3],[8,-6],[13,-17],[6,-3],[11,0],[15,6],[7,0],[14,-9],[21,-23],[7,0],[23,12],[22,5],[15,-5],[9,0]],[[932,325],[-21,-32],[-11,-20],[-4,-12],[-17,-32],[-4,-8],[-12,-35],[-12,-23],[-29,-50],[-7,-11]],[[815,102],[15,0],[10,-6],[2,-29],[0,-26],[-5,-35],[-2,-6]],[[2624,2248],[-6,-15],[0,-10],[-3,-10],[1,-8],[-2,-7],[-17,-28],[-24,-2],[-39,4],[-19,-2],[-21,-14],[-17,-13],[-5,-13],[-12,-7],[-9,10],[-4,1],[-4,1],[-7,6],[-4,1],[-3,-1],[-4,-2],[-10,-13],[-4,-15],[-13,-11],[-17,-12],[-19,-14],[-12,-15],[-14,-4],[-12,1],[-13,-9],[-21,-33],[-44,-33],[-30,-27],[-12,-25],[-14,-18],[-9,-37],[-7,12],[-9,10],[0,21],[-12,21],[1,11],[11,8],[40,8],[20,24],[10,31],[6,27],[7,18],[19,24],[7,19],[12,24],[-2,17],[-2,26],[5,15],[14,22],[15,26],[19,23],[-7,11],[-6,-1],[-11,-3],[-5,2],[-11,6],[-5,2],[-12,-8],[-9,-8],[-13,-3],[8,10],[11,9],[20,9],[59,-2],[116,60],[12,12],[9,14],[19,23],[22,17],[38,22],[8,-4],[-1,-29],[1,-7],[3,-1],[8,3],[2,-2],[0,-3],[0,-8],[0,-4],[5,-35],[3,-8],[13,-11],[5,-5],[6,-20],[11,-18],[-9,-12],[-1,-21]],[[2311,4096],[1785,0],[0,-728],[-1,0],[-5,-2],[-11,-9],[-3,-1],[-16,0],[-10,2],[-17,19],[-17,7],[-17,4],[-74,-2],[-15,-8],[-52,-9],[-94,-43],[-8,1],[-5,7],[-7,18],[-6,4],[-6,-4],[0,-9],[4,-10],[4,-8],[0,-9],[-7,-3],[-15,-2],[-28,-24],[-16,-7],[-15,-1],[-6,4],[-15,12],[-4,1],[-3,-6],[-1,-7],[-1,-8],[-2,-8],[-10,-4],[-25,32],[-11,3],[10,-22],[4,-13],[0,-10],[-7,-5],[-9,3],[-10,7],[-8,2],[9,-17],[-10,-13],[-18,-10],[-13,-3],[-12,5],[-16,11],[-13,15],[-2,17],[-12,4],[-6,-1],[0,-6],[3,-7],[2,-7],[1,-6],[-3,-6],[7,-29],[-2,-9],[-10,-5],[-12,-4],[-22,-13],[-5,0],[-5,2],[3,-5],[10,-9],[2,-8],[-3,-7],[-6,-6],[-21,-14],[-7,-7],[-41,-62],[-70,-90],[-40,-53],[-23,-31],[-26,-28],[-16,-10],[-17,-3],[-32,1],[-2,8],[-1,17],[0,33],[3,13],[1,2],[11,25],[3,15],[-1,9],[-2,14],[0,8],[1,7],[11,55],[4,12],[9,11],[20,18],[7,13],[1,19],[-9,28],[-2,15],[4,17],[2,15],[-3,19],[-6,18],[-7,9],[16,-9],[14,6],[11,17],[7,24],[-2,1],[-3,4],[12,9],[4,7],[-1,8],[-6,5],[-7,-5],[-7,-10],[-5,-5],[-6,2],[-12,7],[-7,1],[-73,-22],[-14,-9],[-25,-36],[-8,-5],[6,-12],[14,7],[23,34],[14,10],[32,10],[16,4],[-19,-11],[-19,-3],[-20,-10],[-31,-41],[-41,-16],[-17,-15],[-14,-19],[-18,-17],[-18,-13],[-56,-23],[-20,1],[-6,27],[-4,-10],[-1,-12],[1,-11],[4,-10],[-16,-19],[-38,-21],[-19,-26],[-6,-4],[-6,-3],[-5,1],[-5,3],[-1,3],[-1,4],[-2,6],[-5,8],[0,3],[1,6],[3,5],[6,8],[1,7],[-10,-1],[-7,-9],[-6,-12],[-7,-12],[-9,-6],[-11,2],[-20,13],[1,-7],[1,-7],[4,-14],[-2,-8],[5,-8],[8,-3],[3,7],[4,9],[8,2],[10,-3],[6,-4],[2,-6],[3,-21],[2,-9],[5,-7],[13,-12],[5,-10],[-11,-3],[-7,-9],[-12,-26],[-5,-6],[-37,-56],[-8,-6],[-23,-4],[-10,-10],[-12,-13],[-11,-10],[-12,2],[-4,6],[-3,10],[-3,11],[-2,9],[1,2],[1,3],[2,4],[1,5],[-1,4],[-5,7],[-1,3],[-5,19],[-4,14],[-7,20],[-8,17],[-6,9],[-22,24],[-27,39],[-11,12],[-12,7],[-13,3],[-15,-3],[-7,-5],[-3,-9],[-2,-11],[-5,1],[-8,10],[-8,-1],[0,-18],[6,-19],[12,-8],[-11,-24],[-23,-9],[-25,-3],[-16,-7],[-8,-9],[-8,-7],[-4,-9],[-1,-3],[1,-15],[6,-13],[17,-12],[7,-9],[-9,0],[-28,14],[-9,1],[-4,3],[-4,19],[0,4],[4,2],[9,-1],[4,2],[3,4],[1,4],[2,5],[3,6],[9,8],[7,10],[17,20],[-8,-1],[-18,-6],[-9,2],[-6,7],[-12,17],[-7,5],[-8,3],[-36,2],[-23,-10],[3,2],[2,3],[1,4],[1,6],[-15,9],[-3,-2],[-5,-6],[-5,-2],[-7,0],[-5,3],[-9,3],[-32,-1],[-9,-4],[-2,-15],[6,-15],[9,-12],[7,-9],[7,-3],[7,2],[14,8],[0,2],[0,4],[0,2],[2,2],[3,-1],[8,-4],[-8,-8],[-8,-12],[-13,-24],[0,-1],[-6,-16],[-4,-4],[-7,-1],[-37,7],[-12,-1],[-11,-5],[-19,-25],[-10,-10],[-23,-15],[6,-9],[0,-16],[-4,-19],[-2,-16],[1,-8],[4,-23],[1,-15],[1,-8],[4,-9],[0,-15],[-11,-17],[-15,-14],[-10,-2],[-8,4],[-8,-2],[-17,-8],[-7,-7],[-1,-5],[4,-2],[7,3],[-2,-8],[-8,-11],[-2,-5],[-3,-11],[1,-3],[3,-2],[14,-18],[22,-19],[9,-12],[7,-15],[2,-14],[0,-14],[-4,-29],[-2,-30],[-2,-12],[-4,-8],[-6,-8],[-7,-6],[-5,-1],[-7,3],[1,5],[9,13],[8,7],[4,6],[0,9],[-5,3],[-20,-13],[-4,2],[-6,7],[-3,1],[-3,-1],[-6,-3],[-9,-2],[-14,-8],[-5,-6],[-3,-6],[-1,-7],[-1,-6],[0,-7],[1,-7],[3,-8],[-1,-5],[0,-9],[19,-7],[5,-3],[11,-14],[17,-5],[5,-13],[7,-18],[4,-18],[-6,-13],[-7,-5],[-18,-11],[-5,-5],[-5,4],[-1,6],[3,5],[5,6],[3,7],[-4,17],[-12,8],[-24,8],[1,4],[1,8],[1,4],[-23,13],[-3,0],[-9,-4],[-3,1],[-5,4],[-3,-1],[-1,-2],[-1,-3],[0,-6],[0,-6],[0,-2],[-2,0],[-6,1],[-7,-1],[-4,1],[-3,-2],[-1,-9],[2,-4],[30,-43],[7,-8],[14,-11],[4,0],[2,3],[1,0],[12,-16],[1,-17],[-5,-11],[-12,-13],[-16,-11],[-25,-7],[-16,-12],[13,29],[2,17],[-6,8],[-5,-3],[-7,-10],[-9,-41],[-10,-13],[-30,2],[-13,-11],[-8,-1],[2,-12],[5,-7],[6,0],[7,5],[-3,5],[7,3],[5,-4],[5,-1],[6,11],[1,-7],[-1,-6],[-2,-5],[2,-11],[-18,-8],[-82,-70],[-18,-22],[-21,-25],[-24,-54],[-37,-69],[-25,-52],[-45,-140],[-8,-36],[-11,-47],[1,-19],[7,-39],[4,-54],[20,-32],[24,-25],[25,-18],[25,-12],[31,-14],[31,0],[3,-11],[1,-3],[-1,-2],[-8,-15],[-17,-10],[-18,-25],[3,-2],[6,1],[5,2],[4,4],[25,22],[21,17],[-2,33],[-8,33],[-1,28],[7,14],[7,21],[11,9],[9,3],[26,2],[3,1],[5,6],[5,2],[4,-1],[3,-1],[4,-3],[4,-4],[8,-15],[4,-5],[3,-1],[8,2],[6,-7],[10,1],[4,-2],[3,-3],[53,-54],[32,-12],[46,-5],[1,-11],[17,-14],[4,-14],[18,-34],[-27,-22],[-4,-5],[-2,-21],[2,-16],[0,-16],[-10,-10],[-9,-8],[-10,-5],[-10,-20],[-4,-16],[-6,-12],[-12,-24],[-41,-17],[-20,-13],[-27,-24],[-12,-26],[-4,-14],[-5,-50],[7,-50],[-3,-27],[11,-37],[15,-29],[-6,-24],[-8,-34],[-8,-18],[-3,-15],[-1,-44],[1,-27],[-2,-41],[18,-29],[21,-4],[8,-5],[8,0],[12,-4],[17,16],[15,5],[4,6],[21,-10],[22,4],[15,7],[4,-7],[-4,-8],[6,-6],[3,-10],[11,-8],[-6,-13],[-7,-15],[-3,-17],[1,-21],[14,-21],[-6,-10],[-6,-13],[2,-11],[5,-19],[3,-6],[3,-5],[-1,-7],[-7,-3],[-3,-5],[2,-8],[4,-7],[5,-3],[7,-18],[14,-31],[1,-7],[2,-9],[2,-8],[-2,-17],[-4,-14],[2,-31],[3,-9],[1,-15],[5,-13],[-21,-9],[-6,-13],[-23,-5],[-19,-6],[-17,-17],[-5,-2],[-2,-4],[-3,-8],[-2,-9],[-1,-6],[-2,-4],[-8,-13],[-5,-12],[-1,-15],[-21,3],[-23,6],[-16,16],[-11,6],[-12,4],[-18,27],[-7,10],[-6,29],[-17,15],[-19,35],[-20,3],[-10,3],[9,3],[10,4],[13,3],[12,10],[11,9],[6,14],[6,16],[2,14],[3,10],[15,6],[28,2],[25,16],[1,17],[21,23],[21,5],[9,11],[12,28],[-6,12],[-21,2],[-8,12],[-11,-3],[-12,-24],[-5,-36],[-12,-16],[-26,16],[-36,22],[-21,3],[-12,-10],[-8,-21],[-20,-9],[-6,1],[-6,6],[-5,4],[-5,-1],[-5,-4],[-8,-10],[-2,-5],[-3,-5],[0,-1],[-3,-5],[-4,-3],[-5,0],[-6,-7],[-5,-10],[23,-19],[7,-6],[16,-6],[4,-14],[8,-12],[12,-14],[-6,-7],[-6,-5],[-11,-3],[-4,-3],[-8,-1],[-2,-6],[-1,-12],[-9,-1],[-7,-2],[-8,-5],[-20,-13],[-34,-15],[-35,-20],[-4,-2],[-9,-3],[-7,-15],[-9,-14],[-15,-13],[-4,-8],[-2,-9],[3,-6],[10,-10],[-7,-13],[-14,-20],[0,-31],[-18,-26],[-7,-29],[-10,-20],[1,-22],[-5,-12],[-1606,0],[0,1439],[10,13],[11,23],[3,8],[0,7],[1,15],[1,7],[6,16],[16,23],[8,14],[-2,4],[-2,7],[-1,4],[20,1],[10,-2],[16,-15],[8,-4],[58,-10],[40,5],[40,22],[21,3],[19,-15],[10,-24],[6,-11],[6,-1],[3,10],[-6,11],[-14,15],[2,15],[-7,7],[-9,2],[-9,0],[7,10],[26,19],[6,7],[30,42],[46,35],[40,49],[47,31],[25,25],[15,6],[20,22],[28,19],[31,42],[10,6],[3,3],[1,7],[2,7],[5,2],[6,-3],[3,-7],[2,-7],[4,-6],[5,-5],[5,-2],[2,3],[-3,11],[-5,5],[-6,4],[-6,5],[-2,10],[5,14],[61,72],[8,15],[6,9],[8,4],[27,5],[3,4],[0,3],[-1,5],[-1,4],[-1,2],[5,8],[11,11],[5,7],[10,20],[10,11],[1,5],[0,5],[3,10],[5,8],[7,4],[6,3],[7,4],[7,8],[7,13],[6,14],[2,15],[1,23],[-1,9],[-1,7],[-5,14],[-1,8],[5,14],[17,25],[1,12],[4,8],[22,32],[108,107],[9,13],[5,8],[5,6],[8,4],[15,2],[12,4],[10,10],[40,67],[3,13],[1,17],[3,16],[5,13],[6,9],[9,5],[8,3],[18,2],[7,3],[20,17],[50,7],[16,9],[9,10],[19,25],[15,28],[3,5],[6,6],[10,6],[2,2],[3,9],[2,3],[8,4],[7,1],[7,3],[34,47],[34,28],[15,41],[4,12],[29,26],[18,35],[24,25],[11,3],[6,1],[5,5],[22,6],[21,24],[13,5],[12,10],[43,41],[14,23],[4,24],[-1,17],[-2,7],[-6,7],[-10,-12],[-1,4],[6,17],[1,16],[6,16],[-1,17],[5,14],[20,10],[48,38],[15,12],[6,14],[8,11],[52,9],[7,3],[13,4],[11,14],[10,10],[1,2],[4,5],[10,12],[13,3],[13,-2],[13,-8],[6,-1],[10,4],[9,6],[13,13],[15,2],[5,5],[17,24],[20,16],[8,16],[-3,6],[2,8],[10,5],[18,6],[20,8],[12,-14],[17,-3],[8,7],[-7,8],[7,1],[18,3],[4,8],[4,8],[7,1],[11,-7],[10,5],[20,1],[7,-4],[-4,-14],[-7,-20],[-7,-16],[7,-5],[7,3],[3,18],[6,14],[9,17],[4,14],[8,4],[7,8],[10,2],[11,6],[17,10],[17,5],[11,3],[15,-1],[15,-9],[11,9],[8,11],[3,13],[5,12],[-8,8],[-6,6],[-18,11],[-28,7],[-26,18],[-8,4],[-10,4],[16,22],[10,10],[22,9],[4,16],[-5,16],[3,11],[9,7],[6,10],[35,29],[51,28],[6,2],[5,4],[4,12],[1,10],[0,17],[2,7],[19,18],[9,14],[-2,19],[-17,33],[-9,10],[-29,13],[-9,0],[-7,-3],[-6,-6],[-6,-13],[-7,-6],[-6,11],[-3,10],[3,25],[15,29],[11,25],[6,17],[-1,13],[1,6]],[[1970,4096],[68,0],[-4,-5],[-4,-10],[3,-4],[9,-6],[-2,-10],[3,-6],[-24,-22],[-10,0],[-13,14],[-5,25],[-4,4],[-11,0],[-7,1],[-2,7],[4,5],[-1,7]],[[1951,4096],[3,0],[-3,-3],[0,3]],[[1881,4096],[37,0],[3,-9],[-38,8],[-2,1]],[[1014,4096],[734,0],[2,-4],[8,-7],[-12,-10],[-8,-9],[-8,-8],[-9,5],[-4,-1],[-1,-9],[6,-15],[-5,-8],[-13,-5],[-4,-8],[-7,1],[-4,1],[-1,-9],[-7,-9],[-6,-10],[2,-7],[-4,-7],[-13,1],[-7,-2],[8,-13],[-13,-11],[-15,-20],[-17,3],[-5,10],[-9,25],[-4,3],[-3,-9],[1,-12],[2,-12],[9,-19],[-9,-15],[-10,2],[-5,14],[-8,10],[-7,-1],[-1,-7],[2,-11],[-6,-8],[3,-12],[-11,-14],[-29,-8],[-13,-12],[-3,-4],[-4,-1],[-8,-3],[-7,-2],[0,-12],[3,-8],[-3,-13],[-5,-5],[-1,-7],[-4,-5],[-8,6],[-8,2],[-7,2],[-6,3],[-6,-5],[-1,-8],[-3,-9],[-7,-6],[-9,-4],[-2,-3],[9,-7],[7,-4],[-3,-11],[-11,-2],[-7,-7],[-36,-37],[-14,-3],[-10,1],[-7,1],[-2,-5],[3,-8],[-4,-10],[-8,-5],[0,-15],[-18,-15],[-34,-21],[-10,-8],[-13,-15],[-10,-6],[-13,-1],[-1,-13],[-3,-14],[-11,-9],[-9,-24],[-6,-24],[-1,-17],[-12,-6],[-2,-9],[0,-11],[-9,7],[-10,2],[-7,14],[-12,6],[-9,-5],[-7,-13],[-2,-13],[-8,0],[-5,4],[-7,1],[-1,11],[-7,2],[-6,-1],[-6,-12],[-9,-2],[-3,-9],[-9,-5],[-11,2],[-10,2],[5,17],[6,9],[-4,5],[-6,-5],[-6,-6],[-9,-8],[3,-15],[-9,-30],[-14,-6],[-11,-7],[0,-9],[-2,-13],[-12,-4],[-4,-9],[-19,-8],[-12,-2],[-6,18],[8,28],[-3,7],[-1,7],[6,2],[12,-2],[8,3],[-2,7],[-2,6],[-2,9],[6,9],[9,3],[-4,8],[7,7],[-1,8],[-2,8],[3,10],[-8,14],[-22,23],[10,2],[3,7],[5,6],[5,-9],[8,-6],[-3,21],[-2,14],[10,13],[1,5],[4,4],[8,-1],[8,2],[6,0],[5,2],[-1,9],[0,15],[7,15],[19,12],[-6,15],[5,10],[8,12],[-12,0],[-9,1],[-5,4],[-9,-7],[-11,2],[-14,-12],[-28,14],[-11,-6],[-15,-7],[-22,-10],[-3,-7],[-6,-8],[-8,0],[-5,-10],[-4,-5],[-6,1],[-6,1],[-6,-5],[3,-6],[-3,-7],[-13,3],[-11,-2],[2,-7],[5,-5],[-2,-6],[-6,-2],[-6,7],[-7,4],[-6,2],[-11,0],[3,3],[8,4],[2,9],[1,10],[-2,7],[8,3],[9,12],[13,15],[11,17],[9,9],[-6,9],[6,6],[3,11],[8,8],[-3,12],[-6,11],[3,9],[-4,11],[-3,10],[-4,7],[-9,8],[-4,7],[7,5],[7,5],[-4,11],[-13,11],[-9,-2],[-10,1],[-12,-18],[-7,6],[-10,1],[4,8],[1,9],[13,9],[-3,7],[9,2],[11,0],[13,1],[1,-5],[4,-4],[15,-5],[12,8],[3,5],[-22,4],[-12,12],[8,9],[14,8],[1,13],[-3,15],[12,3],[13,-2],[6,-1],[-1,6],[1,6],[6,6],[6,4],[8,14],[0,10],[-7,6],[-6,-2],[-7,-1],[-7,2],[1,5],[7,4],[5,5],[7,3],[5,5],[5,5],[-1,7],[6,1],[16,3],[16,5],[5,10],[6,7],[14,12],[-7,8],[-5,7],[-1,7],[5,6],[8,9]],[[3325,0],[-414,0],[53,35],[124,25],[237,-60]],[[3054,2836],[29,155],[133,-17],[92,42],[77,-59],[-159,-187],[-124,-6],[-48,72]],[[2742,4096],[367,0],[3,-6],[41,-23],[1,-44],[-90,18],[-171,-11],[-217,-90],[-18,-52],[16,-35],[-59,-92],[-15,-82],[-100,34],[-65,125],[3,30],[188,159],[116,69]]]}