{"objects":{"water":{"type":"GeometryCollection","geometries":[{"type":"MultiPolygon","properties":{"source":"naturalearthdata.com","kind":"ocean","area":989871000000000,"sort_rank":200,"min_zoom":0,"id":1},"arcs":[[[0],[1],[2],[3],[4]]]},{"type":"MultiLineString","properties":{"source":"naturalearthdata.com","kind":"ocean","sort_rank":205,"boundary":true,"min_zoom":0,"id":2355},"arcs":[[5],[6]]},{"type":"LineString","properties":{"source":"naturalearthdata.com","kind":"ocean","sort_rank":205,"boundary":true,"min_zoom":0,"id":2369},"arcs":[7]},{"type":"LineString","properties":{"source":"naturalearthdata.com","kind":"ocean","sort_rank":205,"boundary":true,"min_zoom":0,"id":3231},"arcs":[8]},{"type":"LineString","properties":{"source":"naturalearthdata.com","kind":"ocean","sort_rank":205,"boundary":true,"min_zoom":0,"id":4080},"arcs":[9]},{"type":"LineString","properties":{"source":"naturalearthdata.com","kind":"ocean","sort_rank":205,"boundary":true,"min_zoom":0,"id":4081},"arcs":[10]}]},"buildings":{"type":"GeometryCollection","geometries":[]},"places":{"type":"GeometryCollection","geometries":[]},"transit":{"type":"GeometryCollection","geometries":[]},"pois":{"type":"GeometryCollection","geometries":[]},"boundaries":{"type":"GeometryCollection","geometries":[]},"roads":{"type":"GeometryCollection","geometries":[]},"earth":{"type":"GeometryCollection","geometries":[{"type":"MultiPolygon","properties":{"sort_rank":10,"source":"naturalearthdata.com","kind":"earth","min_zoom":4.0,"area":5685066583},"arcs":[[[11]]]},{"type":"MultiPolygon","properties":{"sort_rank":10,"source":"naturalearthdata.com","min_zoom":3.0,"kind":"earth","area":62931509554},"arcs":[[[12]],[[13]]]}]},"landuse":{"type":"GeometryCollection","geometries":[]}},"type":"Topology","transform":{"translate":[-168.75,-0.0],"scale":[0.002746582,0.002729102]},"arcs":[[[4096,675],[0,-675],[-4096,0],[0,4096],[4096,0],[0,-3352],[-3,-2],[0,-5],[3,-3],[0,-51],[0,1],[-5,0],[-5,-1],[-4,1],[-4,7],[1,6],[5,5],[5,2],[1,1],[-2,1],[-3,1],[-5,0],[-10,-6],[-2,-2],[-2,-10],[6,-6],[7,-3],[3,0],[4,2],[7,-4],[3,-3]],[[3446,1420],[-3,1],[-5,-1],[-5,1],[-1,5],[-1,3],[-2,4],[-4,5],[-12,3],[-11,-11],[-1,-15],[15,-8],[-10,18],[3,4],[3,3],[5,1],[4,-1],[2,-2],[2,-8],[3,-3],[3,-3],[10,-4],[3,-2],[1,-4],[2,-5],[-1,-4],[-3,-2],[-18,5],[-6,0],[2,-8],[7,-5],[9,0],[10,2],[7,3],[4,4],[1,4],[-1,3],[-5,6],[-4,8],[-3,3]],[[3036,1726],[6,-2],[4,1],[2,2],[-4,3],[-4,1],[-4,-1],[-2,-2],[2,-2]],[[2435,2157],[-3,1],[-11,0],[-1,0],[1,-1],[2,0],[3,-1],[1,0],[2,1],[1,0],[-4,-3],[-1,-1],[-2,0],[1,-2],[7,0],[4,1],[2,3],[-2,2]],[[2312,2362],[0,-6],[5,0],[0,6],[-5,0]],[[4096,744],[-3,-2],[0,-5],[3,-3]],[[4096,683],[0,1],[-5,0],[-5,-1],[-4,1],[-4,7],[1,6],[5,5],[5,2],[1,1],[-2,1],[-3,1],[-5,0],[-10,-6],[-2,-2],[-2,-10],[6,-6],[7,-3],[3,0],[4,2],[7,-4],[3,-3]],[[3446,1420],[-3,1],[-5,-1],[-5,1],[-1,5],[-1,3],[-2,4],[-4,5],[-12,3],[-11,-11],[-1,-15],[15,-8],[-10,18],[3,4],[3,3],[5,1],[4,-1],[2,-2],[2,-8],[3,-3],[3,-3],[10,-4],[3,-2],[1,-4],[2,-5],[-1,-4],[-3,-2],[-18,5],[-6,0],[2,-8],[7,-5],[9,0],[10,2],[7,3],[4,4],[1,4],[-1,3],[-5,6],[-4,8],[-3,3]],[[3036,1726],[6,-2],[4,1],[2,2],[-4,3],[-4,1],[-4,-1],[-2,-2],[2,-2]],[[2435,2157],[2,-2],[-2,-3],[-4,-1],[-7,0],[-1,2],[2,0],[1,1],[4,3],[-1,0],[-2,-1],[-1,0],[-3,1],[-2,0],[-1,1],[1,0],[11,0],[3,-1]],[[2312,2362],[5,0],[0,-6],[-5,0],[0,6]],[[3446,1420],[3,-3],[4,-8],[5,-6],[1,-3],[-1,-4],[-4,-4],[-7,-3],[-10,-2],[-9,0],[-7,5],[-2,8],[6,0],[18,-5],[3,2],[1,4],[-2,5],[-1,4],[-3,2],[-10,4],[-3,3],[-3,3],[-2,8],[-2,2],[-4,1],[-5,-1],[-3,-3],[-3,-4],[10,-18],[-15,8],[1,15],[11,11],[12,-3],[4,-5],[2,-4],[1,-3],[1,-5],[5,-1],[5,1],[3,-1]],[[4096,683],[0,-8],[-3,3],[-7,4],[-4,-2],[-3,0],[-7,3],[-6,6],[2,10],[2,2],[10,6],[5,0],[3,-1],[2,-1],[-1,-1],[-5,-2],[-5,-5],[-1,-6],[4,-7],[4,-1],[5,1],[5,0],[0,-1]],[[4096,744],[0,-10],[-3,3],[0,5],[3,2]]]}