{"objects":{"water":{"type":"GeometryCollection","geometries":[{"type":"Polygon","properties":{"source":"naturalearthdata.com","kind":"ocean","area":989871000000000,"sort_rank":200,"min_zoom":0,"id":1},"arcs":[[0]]},{"type":"LineString","properties":{"source":"naturalearthdata.com","kind":"ocean","sort_rank":205,"boundary":true,"min_zoom":0,"id":2},"arcs":[1]},{"type":"LineString","properties":{"source":"naturalearthdata.com","kind":"ocean","sort_rank":205,"boundary":true,"min_zoom":0,"id":3024},"arcs":[2]}]},"buildings":{"type":"GeometryCollection","geometries":[]},"places":{"type":"GeometryCollection","geometries":[]},"transit":{"type":"GeometryCollection","geometries":[]},"pois":{"type":"GeometryCollection","geometries":[]},"boundaries":{"type":"GeometryCollection","geometries":[]},"roads":{"type":"GeometryCollection","geometries":[]},"earth":{"type":"GeometryCollection","geometries":[{"type":"MultiPolygon","properties":{"sort_rank":10,"source":"naturalearthdata.com","min_zoom":1.0,"kind":"earth","area":480927037249},"arcs":[[[3]]]},{"type":"MultiPolygon","properties":{"sort_rank":10,"source":"naturalearthdata.com","min_zoom":0,"kind":"earth","area":53730332668114},"arcs":[[[4]]]}]},"landuse":{"type":"GeometryCollection","geometries":[]}},"type":"Topology","transform":{"translate":[-168.75,-79.1713346408],"scale":[0.002746582,0.0005689742]},"arcs":[[[4096,3453],[-4,8],[-23,26],[-4,14],[-3,18],[-6,19],[-7,11],[-23,16],[-55,119],[-30,33],[-107,-30],[-16,-22],[-14,-34],[-4,-48],[4,-19],[7,-18],[21,-37],[6,-14],[11,-41],[-37,-90],[-17,-68],[-1,-82],[14,-58],[40,-44],[15,-48],[-29,-61],[-12,-37],[-12,-53],[61,-74],[-14,-60],[-43,-45],[-18,-36],[-8,-36],[-13,-84],[-7,-31],[-9,-25],[-10,-17],[-21,-19],[-8,-14],[-33,-114],[-6,-33],[1,-28],[66,-61],[7,-24],[5,-30],[8,-33],[9,-26],[12,-19],[12,-11],[21,-2],[26,-43],[34,1],[11,-16],[18,-49],[9,-18],[115,-126],[61,-67],[0,-1773],[-1125,0],[-129,140],[-153,167],[-3,10],[0,9],[2,7],[5,7],[-1,6],[-9,27],[-139,146],[-139,147],[-55,15],[-7,8],[-2,10],[-5,24],[-3,9],[-4,4],[-162,41],[-162,40],[-25,-25],[14,-57],[3,-7],[-13,-29],[-62,-51],[-5,-15],[-56,-59],[-15,-30],[-4,-5],[-12,-7],[-5,-6],[-12,-27],[-17,-20],[-6,-14],[21,-25],[-1,-16],[-6,-7],[-53,-17],[-6,-8],[-3,-6],[-4,-17],[-3,-7],[-3,-5],[-56,-42],[-6,-7],[-5,-13],[-9,-34],[-5,-15],[-8,-15],[-3,-6],[5,-10],[5,-17],[5,-22],[1,-23],[-5,-19],[-8,-8],[-14,0],[1,-18],[1,-10],[0,-9],[-2,-10],[-4,-10],[-1,-6],[0,-13],[4,-50],[-1628,0],[0,4096],[4096,0],[0,-643]],[[4096,3453],[-4,8],[-23,26],[-4,14],[-3,18],[-6,19],[-7,11],[-23,16],[-55,119],[-30,33],[-107,-30],[-16,-22],[-14,-34],[-4,-48],[4,-19],[7,-18],[21,-37],[6,-14],[11,-41],[-37,-90],[-17,-68],[-1,-82],[14,-58],[40,-44],[15,-48],[-29,-61],[-12,-37],[-12,-53],[61,-74],[-14,-60],[-43,-45],[-18,-36],[-8,-36],[-13,-84],[-7,-31],[-9,-25],[-10,-17],[-21,-19],[-8,-14],[-33,-114],[-6,-33],[1,-28],[66,-61],[7,-24],[5,-30],[8,-33],[9,-26],[12,-19],[12,-11],[21,-2],[26,-43],[34,1],[11,-16],[18,-49],[9,-18],[115,-126],[61,-67]],[[2971,0],[-129,140],[-153,167],[-3,10],[0,9],[2,7],[5,7],[-1,6],[-9,27],[-139,146],[-139,147],[-55,15],[-7,8],[-2,10],[-5,24],[-3,9],[-4,4],[-162,41],[-162,40],[-25,-25],[14,-57],[3,-7],[-13,-29],[-62,-51],[-5,-15],[-56,-59],[-15,-30],[-4,-5],[-12,-7],[-5,-6],[-12,-27],[-17,-20],[-6,-14],[21,-25],[-1,-16],[-6,-7],[-53,-17],[-6,-8],[-3,-6],[-4,-17],[-3,-7],[-3,-5],[-56,-42],[-6,-7],[-5,-13],[-9,-34],[-5,-15],[-8,-15],[-3,-6],[5,-10],[5,-17],[5,-22],[1,-23],[-5,-19],[-8,-8],[-14,0],[1,-18],[1,-10],[0,-9],[-2,-10],[-4,-10],[-1,-6],[0,-13],[4,-50]],[[2971,0],[-1343,0],[-4,50],[0,13],[1,6],[4,10],[2,10],[0,9],[-1,10],[-1,18],[14,0],[8,8],[5,19],[-1,23],[-5,22],[-5,17],[-5,10],[3,6],[8,15],[5,15],[9,34],[5,13],[6,7],[56,42],[3,5],[3,7],[4,17],[3,6],[6,8],[53,17],[6,7],[1,16],[-21,25],[6,14],[17,20],[12,27],[5,6],[12,7],[4,5],[15,30],[56,59],[5,15],[62,51],[13,29],[-3,7],[-14,57],[25,25],[162,-40],[162,-41],[4,-4],[3,-9],[5,-24],[2,-10],[7,-8],[55,-15],[139,-147],[139,-146],[9,-27],[1,-6],[-5,-7],[-2,-7],[0,-9],[3,-10],[153,-167],[129,-140]],[[4096,3453],[0,-1680],[-61,67],[-115,126],[-9,18],[-18,49],[-11,16],[-34,-1],[-26,43],[-21,2],[-12,11],[-12,19],[-9,26],[-8,33],[-5,30],[-7,24],[-66,61],[-1,28],[6,33],[33,114],[8,14],[21,19],[10,17],[9,25],[7,31],[13,84],[8,36],[18,36],[43,45],[14,60],[-61,74],[12,53],[12,37],[29,61],[-15,48],[-40,44],[-14,58],[1,82],[17,68],[37,90],[-11,41],[-6,14],[-21,37],[-7,18],[-4,19],[4,48],[14,34],[16,22],[107,30],[30,-33],[55,-119],[23,-16],[7,-11],[6,-19],[3,-18],[4,-14],[23,-26],[4,-8]]]}