{"objects":{"water":{"type":"GeometryCollection","geometries":[{"type":"MultiPolygon","properties":{"source":"naturalearthdata.com","kind":"ocean","area":989871000000000,"sort_rank":200,"min_zoom":0,"id":1},"arcs":[[[0],[1]],[[2]]]},{"type":"MultiLineString","properties":{"source":"naturalearthdata.com","kind":"ocean","sort_rank":205,"boundary":true,"min_zoom":0,"id":2},"arcs":[[3],[4],[5]]},{"type":"LineString","properties":{"source":"naturalearthdata.com","kind":"ocean","sort_rank":205,"boundary":true,"min_zoom":0,"id":3016},"arcs":[6]}]},"buildings":{"type":"GeometryCollection","geometries":[]},"places":{"type":"GeometryCollection","geometries":[]},"transit":{"type":"GeometryCollection","geometries":[]},"pois":{"type":"GeometryCollection","geometries":[]},"boundaries":{"type":"GeometryCollection","geometries":[]},"roads":{"type":"GeometryCollection","geometries":[]},"earth":{"type":"GeometryCollection","geometries":[{"type":"MultiPolygon","properties":{"sort_rank":10,"source":"naturalearthdata.com","min_zoom":3.0,"kind":"earth","area":99447052320},"arcs":[[[7]]]},{"type":"MultiPolygon","properties":{"sort_rank":10,"source":"naturalearthdata.com","min_zoom":0,"kind":"earth","area":53730332668114},"arcs":[[[8]],[[9]]]}]},"landuse":{"type":"GeometryCollection","geometries":[]}},"type":"Topology","transform":{"translate":[-168.75,-83.9792594989],"scale":[0.002746582,0.000318109]},"arcs":[[[4096,2785],[-11,-2],[-176,-38],[-176,-37],[-22,-47],[13,-81],[21,-27],[175,-41],[174,-40],[2,0],[0,-539],[-11,-62],[-9,-19],[-175,-70],[-176,-71],[-175,-70],[-16,-59],[-9,-75],[-8,-85],[-4,-20],[-34,-35],[-105,-4],[-107,105],[-107,104],[-153,-29],[-152,-28],[-153,-29],[-153,-28],[-153,-29],[-86,92],[-19,68],[54,35],[18,40],[-40,81],[-145,80],[-13,22],[-9,59],[3,3],[4,15],[2,3],[-9,104],[-15,37],[-96,19],[-55,-73],[-66,5],[-48,-96],[-104,-45],[-103,-45],[-9,-23],[-5,-42],[0,-47],[3,-46],[8,-74],[5,-33],[17,-82],[-23,-65],[-160,64],[-15,27],[-12,42],[-2,53],[2,13],[6,22],[2,15],[-3,15],[-9,28],[-28,150],[-16,43],[-47,69],[-13,-2],[1,49],[11,70],[2,41],[0,14],[-2,20],[0,14],[1,15],[1,11],[2,9],[2,7],[8,17],[8,4],[7,13],[7,48],[-84,151],[-164,3],[-163,2],[-164,3],[-164,2],[-163,3],[-9,-9],[-26,-73],[-5,-8],[-103,29],[-103,29],[-7,-22],[-13,-100],[-8,-27],[-150,9],[-92,5],[0,1807],[4096,0],[0,-1311]],[[2334,3318],[-25,86],[-27,62],[-154,45],[-154,45],[-153,45],[-23,-41],[37,-46],[8,-32],[-12,-5],[-12,-21],[9,-31],[46,-57],[9,-19],[6,-32],[-16,-51],[-7,-39],[-2,-56],[4,-35],[6,-27],[35,-65],[77,-49],[10,-60],[-1,-18],[-4,-20],[-1,-17],[8,-56],[157,-106],[156,-106],[142,70],[16,31],[11,49],[24,133],[10,40],[12,22],[86,45],[-126,122],[-126,122],[-26,72]],[[0,1429],[61,-18],[13,-38],[5,-96],[-9,-17],[-28,-82],[9,-56],[56,-101],[43,-121],[44,-63],[176,-30],[21,-68],[-106,1],[-106,1],[75,-32],[23,-41],[-34,-40],[143,-92],[142,-91],[38,39],[-21,45],[-136,65],[-19,63],[147,-37],[146,-38],[147,-37],[146,-38],[29,48],[13,41],[7,12],[153,126],[11,-12],[23,-54],[161,-93],[6,-16],[19,-68],[167,-182],[167,-183],[16,-41],[16,-16],[5,-20],[-3,-21],[-7,-9],[-20,-3],[-9,-9],[-2,-7],[-1728,0],[0,1429]],[[4096,2785],[-11,-2],[-176,-38],[-176,-37],[-22,-47],[13,-81],[21,-27],[175,-41],[174,-40],[2,0]],[[4096,1933],[-11,-62],[-9,-19],[-175,-70],[-176,-71],[-175,-70],[-16,-59],[-9,-75],[-8,-85],[-4,-20],[-34,-35],[-105,-4],[-107,105],[-107,104],[-153,-29],[-152,-28],[-153,-29],[-153,-28],[-153,-29],[-86,92],[-19,68],[54,35],[18,40],[-40,81],[-145,80],[-13,22],[-9,59],[3,3],[4,15],[2,3],[-9,104],[-15,37],[-96,19],[-55,-73],[-66,5],[-48,-96],[-104,-45],[-103,-45],[-9,-23],[-5,-42],[0,-47],[3,-46],[8,-74],[5,-33],[17,-82],[-23,-65],[-160,64],[-15,27],[-12,42],[-2,53],[2,13],[6,22],[2,15],[-3,15],[-9,28],[-28,150],[-16,43],[-47,69],[-13,-2],[1,49],[11,70],[2,41],[0,14],[-2,20],[0,14],[1,15],[1,11],[2,9],[2,7],[8,17],[8,4],[7,13],[7,48],[-84,151],[-164,3],[-163,2],[-164,3],[-164,2],[-163,3],[-9,-9],[-26,-73],[-5,-8],[-103,29],[-103,29],[-7,-22],[-13,-100],[-8,-27],[-150,9],[-92,5]],[[0,1429],[61,-18],[13,-38],[5,-96],[-9,-17],[-28,-82],[9,-56],[56,-101],[43,-121],[44,-63],[176,-30],[21,-68],[-106,1],[-106,1],[75,-32],[23,-41],[-34,-40],[143,-92],[142,-91],[38,39],[-21,45],[-136,65],[-19,63],[147,-37],[146,-38],[147,-37],[146,-38],[29,48],[13,41],[7,12],[153,126],[11,-12],[23,-54],[161,-93],[6,-16],[19,-68],[167,-182],[167,-183],[16,-41],[16,-16],[5,-20],[-3,-21],[-7,-9],[-20,-3],[-9,-9],[-2,-7]],[[2334,3318],[-25,86],[-27,62],[-154,45],[-154,45],[-153,45],[-23,-41],[37,-46],[8,-32],[-12,-5],[-12,-21],[9,-31],[46,-57],[9,-19],[6,-32],[-16,-51],[-7,-39],[-2,-56],[4,-35],[6,-27],[35,-65],[77,-49],[10,-60],[-1,-18],[-4,-20],[-1,-17],[8,-56],[157,-106],[156,-106],[142,70],[16,31],[11,49],[24,133],[10,40],[12,22],[86,45],[-126,122],[-126,122],[-26,72]],[[2334,3318],[26,-72],[126,-122],[126,-122],[-86,-45],[-12,-22],[-10,-40],[-24,-133],[-11,-49],[-16,-31],[-142,-70],[-156,106],[-157,106],[-8,56],[1,17],[4,20],[1,18],[-10,60],[-77,49],[-35,65],[-6,27],[-4,35],[2,56],[7,39],[16,51],[-6,32],[-9,19],[-46,57],[-9,31],[12,21],[12,5],[-8,32],[-37,46],[23,41],[153,-45],[154,-45],[154,-45],[27,-62],[25,-86]],[[4096,1933],[0,-1933],[-2368,0],[2,7],[9,9],[20,3],[7,9],[3,21],[-5,20],[-16,16],[-16,41],[-167,183],[-167,182],[-19,68],[-6,16],[-161,93],[-23,54],[-11,12],[-153,-126],[-7,-12],[-13,-41],[-29,-48],[-146,38],[-147,37],[-146,38],[-147,37],[19,-63],[136,-65],[21,-45],[-38,-39],[-142,91],[-143,92],[34,40],[-23,41],[-75,32],[106,-1],[106,-1],[-21,68],[-176,30],[-44,63],[-43,121],[-56,101],[-9,56],[28,82],[9,17],[-5,96],[-13,38],[-61,18],[0,860],[92,-5],[150,-9],[8,27],[13,100],[7,22],[103,-29],[103,-29],[5,8],[26,73],[9,9],[163,-3],[164,-2],[164,-3],[163,-2],[164,-3],[84,-151],[-7,-48],[-7,-13],[-8,-4],[-8,-17],[-2,-7],[-2,-9],[-1,-11],[-1,-15],[0,-14],[2,-20],[0,-14],[-2,-41],[-11,-70],[-1,-49],[13,2],[47,-69],[16,-43],[28,-150],[9,-28],[3,-15],[-2,-15],[-6,-22],[-2,-13],[2,-53],[12,-42],[15,-27],[160,-64],[23,65],[-17,82],[-5,33],[-8,74],[-3,46],[0,47],[5,42],[9,23],[103,45],[104,45],[48,96],[66,-5],[55,73],[5,-2],[91,-17],[15,-37],[9,-104],[-2,-3],[-4,-15],[-3,-3],[9,-59],[13,-22],[145,-80],[40,-81],[-18,-40],[-54,-35],[19,-68],[86,-92],[153,29],[153,28],[153,29],[152,28],[153,29],[107,-104],[107,-105],[105,4],[34,35],[4,20],[8,85],[9,75],[16,59],[175,70],[176,71],[175,70],[9,19],[11,62]],[[4096,2785],[0,-313],[-2,0],[-174,40],[-175,41],[-21,27],[-13,81],[22,47],[176,37],[176,38],[11,2]]]}