{"objects":{"water":{"type":"GeometryCollection","geometries":[{"type":"Polygon","properties":{"source":"naturalearthdata.com","kind":"ocean","area":989871000000000,"sort_rank":200,"min_zoom":0,"id":1},"arcs":[[0]]},{"type":"MultiLineString","properties":{"source":"naturalearthdata.com","kind":"ocean","sort_rank":205,"boundary":true,"min_zoom":0,"id":2},"arcs":[[1],[2],[3]]}]},"buildings":{"type":"GeometryCollection","geometries":[]},"places":{"type":"GeometryCollection","geometries":[]},"transit":{"type":"GeometryCollection","geometries":[]},"pois":{"type":"GeometryCollection","geometries":[]},"boundaries":{"type":"GeometryCollection","geometries":[]},"roads":{"type":"GeometryCollection","geometries":[]},"earth":{"type":"GeometryCollection","geometries":[{"type":"MultiPolygon","properties":{"sort_rank":10,"source":"naturalearthdata.com","min_zoom":0,"kind":"earth","area":53730332668114},"arcs":[[[4]],[[5]],[[6]]]}]},"landuse":{"type":"GeometryCollection","geometries":[]}},"type":"Topology","transform":{"translate":[-168.75,-85.0511287798],"scale":[0.002746582,0.0002616868]},"arcs":[[[1728,4096],[-9,-38],[-4,-6],[108,-157],[15,-69],[-159,-9],[-159,-8],[-158,-9],[-31,-59],[6,-64],[6,-49],[16,-66],[-27,25],[-13,-21],[-10,-76],[151,-70],[42,-111],[158,-154],[-15,-35],[-15,-14],[18,-45],[41,-54],[5,6],[-7,-33],[-17,-3],[-7,-39],[4,-26],[5,-11],[134,-62],[133,-62],[133,-61],[6,-22],[9,-52],[6,-12],[-175,-1],[-176,-2],[-175,-1],[-175,-1],[-176,-1],[-38,-64],[4,-67],[-168,55],[-167,54],[149,-82],[149,-82],[150,-82],[6,7],[17,49],[178,-11],[179,-12],[178,-12],[125,-183],[19,-57],[-151,22],[-152,21],[68,-125],[3,-18],[-1,-10],[-2,-27],[-1,-10],[7,-57],[11,-18],[171,-69],[170,-69],[170,-69],[171,-69],[170,-70],[170,-69],[171,-69],[170,-69],[170,-69],[170,-70],[171,-69],[170,-69],[-10,-53],[-39,-31],[167,-25],[155,-23],[0,-314],[-30,4],[-20,-55],[50,-53],[0,-535],[-688,0],[-173,88],[-181,93],[-181,92],[-181,92],[-181,93],[-181,92],[-181,92],[-40,-101],[-13,-18],[-172,37],[-171,36],[-41,73],[-174,36],[-173,35],[-174,36],[-174,35],[-174,36],[-174,35],[-96,-90],[-97,-90],[-41,73],[27,46],[-10,93],[-93,59],[-93,59],[-14,39],[-39,187],[15,103],[-8,19],[-23,126],[-17,34],[-180,63],[0,1],[0,2492],[1728,0]],[[1728,4096],[-9,-38],[-4,-6],[108,-157],[15,-69],[-159,-9],[-159,-8],[-158,-9],[-31,-59],[6,-64],[6,-49],[16,-66],[-27,25],[-13,-21],[-10,-76],[151,-70],[42,-111],[158,-154],[-15,-35],[-15,-14],[18,-45],[41,-54],[5,6],[-7,-33],[-17,-3],[-7,-39],[4,-26],[5,-11],[134,-62],[133,-62],[133,-61],[6,-22],[9,-52],[6,-12],[-175,-1],[-176,-2],[-175,-1],[-175,-1],[-176,-1],[-38,-64],[4,-67],[-168,55],[-167,54],[149,-82],[149,-82],[150,-82],[6,7],[17,49],[178,-11],[179,-12],[178,-12],[125,-183],[19,-57],[-151,22],[-152,21],[68,-125],[3,-18],[-1,-10],[-2,-27],[-1,-10],[7,-57],[11,-18],[171,-69],[170,-69],[170,-69],[171,-69],[170,-70],[170,-69],[171,-69],[170,-69],[170,-69],[170,-70],[171,-69],[170,-69],[-10,-53],[-39,-31],[167,-25],[155,-23]],[[4096,639],[-30,4],[-20,-55],[50,-53]],[[3408,0],[-173,88],[-181,93],[-181,92],[-181,92],[-181,93],[-181,92],[-181,92],[-40,-101],[-13,-18],[-172,37],[-171,36],[-41,73],[-174,36],[-173,35],[-174,36],[-174,35],[-174,36],[-174,35],[-96,-90],[-97,-90],[-41,73],[27,46],[-10,93],[-93,59],[-93,59],[-14,39],[-39,187],[15,103],[-8,19],[-23,126],[-17,34],[-180,63],[0,1]],[[0,0],[0,1604],[0,-1],[180,-63],[17,-34],[23,-126],[8,-19],[-15,-103],[39,-187],[14,-39],[93,-59],[93,-59],[10,-93],[-27,-46],[41,-73],[97,90],[96,90],[174,-35],[174,-36],[174,-35],[174,-36],[173,-35],[174,-36],[41,-73],[171,-36],[172,-37],[13,18],[40,101],[181,-92],[181,-92],[181,-93],[181,-92],[181,-92],[181,-93],[173,-88],[-3408,0]],[[4096,639],[0,-104],[-50,53],[20,55],[30,-4]],[[1728,4096],[2368,0],[0,-3143],[-155,23],[-167,25],[39,31],[10,53],[-170,69],[-171,69],[-170,70],[-170,69],[-170,69],[-171,69],[-170,69],[-170,70],[-171,69],[-170,69],[-70,28],[-100,41],[-171,69],[-11,18],[-7,57],[1,10],[2,27],[1,10],[-3,18],[-68,125],[152,-21],[151,-22],[-19,57],[-125,183],[-178,12],[-179,12],[-178,11],[-17,-49],[-6,-7],[-150,82],[-149,82],[-149,82],[167,-54],[168,-55],[-4,67],[38,64],[176,1],[175,1],[175,1],[176,2],[132,0],[43,1],[-6,12],[-9,52],[-6,22],[-22,10],[-111,51],[-133,62],[-134,62],[-5,11],[-4,26],[7,39],[17,3],[7,33],[-5,-6],[-41,54],[-18,45],[15,14],[15,35],[-158,154],[-42,111],[-151,70],[10,76],[13,21],[27,-25],[-16,66],[-6,49],[-6,64],[31,59],[158,9],[159,8],[159,9],[-15,69],[-108,157],[4,6],[9,38]]]}