{"objects":{"water":{"type":"GeometryCollection","geometries":[{"type":"MultiPolygon","properties":{"source":"naturalearthdata.com","kind":"ocean","area":989871000000000,"sort_rank":200,"min_zoom":0,"id":1},"arcs":[[[0]]]}]},"buildings":{"type":"GeometryCollection","geometries":[]},"places":{"type":"GeometryCollection","geometries":[]},"transit":{"type":"GeometryCollection","geometries":[]},"pois":{"type":"GeometryCollection","geometries":[]},"boundaries":{"type":"GeometryCollection","geometries":[]},"roads":{"type":"GeometryCollection","geometries":[]},"earth":{"type":"GeometryCollection","geometries":[]},"landuse":{"type":"GeometryCollection","geometries":[{"type":"MultiPolygon","properties":{"kind":"nature_reserve","protect_class":"2","area":5534799985934,"sort_rank":23,"source":"openstreetmap.org","min_zoom":4.0,"tier":2,"id":-7008461},"arcs":[[[1]]]}]}},"type":"Topology","transform":{"translate":[33.75,81.0932138526],"scale":[0.002746582,0.000386492]},"arcs":[[[4096,0],[-4096,0],[0,4096],[4096,0],[0,-4096]],[[4096,3640],[0,-3640],[-364,0],[0,3640],[364,0]]]}