{"objects":{"water":{"type":"GeometryCollection","geometries":[{"type":"Polygon","properties":{"source":"naturalearthdata.com","kind":"ocean","area":989871000000000,"sort_rank":200,"min_zoom":0,"id":1},"arcs":[[0],[1],[2]]},{"type":"LineString","properties":{"source":"naturalearthdata.com","kind":"ocean","sort_rank":205,"boundary":true,"min_zoom":0,"id":1026},"arcs":[3]},{"type":"LineString","properties":{"source":"naturalearthdata.com","kind":"ocean","sort_rank":205,"boundary":true,"min_zoom":0,"id":1027},"arcs":[4]}]},"buildings":{"type":"GeometryCollection","geometries":[]},"places":{"type":"GeometryCollection","geometries":[]},"transit":{"type":"GeometryCollection","geometries":[]},"pois":{"type":"GeometryCollection","geometries":[]},"boundaries":{"type":"GeometryCollection","geometries":[]},"roads":{"type":"GeometryCollection","geometries":[]},"earth":{"type":"GeometryCollection","geometries":[{"type":"MultiPolygon","properties":{"sort_rank":10,"source":"naturalearthdata.com","min_zoom":3.0,"kind":"earth","area":4981103112},"arcs":[[[5]]]}]},"landuse":{"type":"GeometryCollection","geometries":[]}},"type":"Topology","transform":{"translate":[33.75,-48.9224992638],"scale":[0.002746582,0.0019391116]},"arcs":[[[4096,0],[-4096,0],[0,4096],[4096,0],[0,-4096]],[[1424,1080],[-3,-4],[-8,-12],[-2,-2],[-4,-3],[-8,-12],[-6,-6],[0,-7],[2,-7],[2,-4],[5,-5],[7,-3],[13,-2],[5,1],[41,-2],[6,-2],[3,-1],[11,4],[10,9],[7,13],[4,13],[-10,4],[-17,20],[-33,10],[-13,1],[-12,-3]],[[1497,1179],[11,-7],[17,-2],[14,5],[0,15],[-11,9],[-17,-1],[-13,-8],[-1,-11]],[[1424,1080],[-3,-4],[-8,-12],[-2,-2],[-4,-3],[-8,-12],[-6,-6],[0,-7],[2,-7],[2,-4],[5,-5],[7,-3],[13,-2],[5,1],[41,-2],[6,-2],[3,-1],[11,4],[10,9],[7,13],[4,13],[-10,4],[-17,20],[-33,10],[-13,1],[-12,-3]],[[1497,1179],[11,-7],[17,-2],[14,5],[0,15],[-11,9],[-17,-1],[-13,-8],[-1,-11]],[[1424,1080],[12,3],[13,-1],[33,-10],[17,-20],[10,-4],[-4,-13],[-7,-13],[-10,-9],[-11,-4],[-3,1],[-6,2],[-41,2],[-5,-1],[-13,2],[-7,3],[-5,5],[-2,4],[-2,7],[0,7],[6,6],[8,12],[4,3],[2,2],[8,12],[3,4]]]}