{"objects":{"water":{"type":"GeometryCollection","geometries":[{"type":"MultiPolygon","properties":{"source":"naturalearthdata.com","kind":"ocean","area":989871000000000,"sort_rank":200,"min_zoom":0,"id":1},"arcs":[[[0],[1]]]},{"type":"LineString","properties":{"source":"naturalearthdata.com","kind":"ocean","sort_rank":205,"boundary":true,"min_zoom":0,"id":1988},"arcs":[2]},{"type":"LineString","properties":{"source":"naturalearthdata.com","kind":"ocean","sort_rank":205,"boundary":true,"min_zoom":0,"id":2001},"arcs":[3]}]},"buildings":{"type":"GeometryCollection","geometries":[]},"places":{"type":"GeometryCollection","geometries":[]},"transit":{"type":"GeometryCollection","geometries":[]},"pois":{"type":"GeometryCollection","geometries":[]},"boundaries":{"type":"GeometryCollection","geometries":[]},"roads":{"type":"GeometryCollection","geometries":[]},"earth":{"type":"GeometryCollection","geometries":[{"type":"MultiPolygon","properties":{"sort_rank":10,"source":"naturalearthdata.com","min_zoom":1.0,"kind":"earth","area":300698960507},"arcs":[[[4]]]}]},"landuse":{"type":"GeometryCollection","geometries":[{"type":"MultiPolygon","properties":{"kind":"nature_reserve","protect_class":"1","area":2495102325819,"sort_rank":23,"source":"openstreetmap.org","min_zoom":4.0,"tier":2,"id":-9349959},"arcs":[[[5]]]},{"type":"MultiPolygon","properties":{"kind":"nature_reserve","protect_class":"2","area":5534799985934,"sort_rank":23,"source":"openstreetmap.org","min_zoom":4.0,"tier":2,"id":-7008461},"arcs":[[[6]]]}]}},"type":"Topology","transform":{"translate":[33.75,79.1713346408],"scale":[0.002746582,0.0004692088]},"arcs":[[[4096,3046],[0,-3046],[-4096,0],[0,4096],[4096,0],[0,-979],[-34,-8],[-10,-10],[-8,-17],[14,-27],[38,-9]],[[1035,2104],[9,-19],[10,-9],[23,-1],[28,-11],[15,4],[10,22],[-73,49],[-22,-35]],[[1035,2104],[9,-19],[10,-9],[23,-1],[28,-11],[15,4],[10,22],[-73,49],[-22,-35]],[[4096,3117],[-34,-8],[-10,-10],[-8,-17],[14,-27],[38,-9]],[[4096,3117],[0,-71],[-38,9],[-14,27],[8,17],[10,10],[34,8]],[[0,1666],[0,1098],[4,-2],[240,-235],[86,-170],[10,-133],[-30,-178],[-79,-188],[-83,-104],[-127,-80],[-21,-8]],[[3732,4096],[364,0],[0,-3396],[-364,0],[0,3396]]]}