{"objects":{"water":{"type":"GeometryCollection","geometries":[{"type":"MultiPolygon","properties":{"source":"naturalearthdata.com","kind":"ocean","area":990044000000000,"sort_rank":200,"min_zoom":0,"id":1},"arcs":[[[0],[1],[2],[3],[4],[5],[6]],[[7],[8]]]},{"type":"LineString","properties":{"source":"naturalearthdata.com","kind":"ocean","sort_rank":205,"boundary":true,"min_zoom":0,"id":214},"arcs":[9]},{"type":"LineString","properties":{"source":"naturalearthdata.com","kind":"ocean","sort_rank":205,"boundary":true,"min_zoom":0,"id":216},"arcs":[10]},{"type":"LineString","properties":{"source":"naturalearthdata.com","kind":"ocean","sort_rank":205,"boundary":true,"min_zoom":0,"id":217},"arcs":[11]},{"type":"LineString","properties":{"source":"naturalearthdata.com","kind":"ocean","sort_rank":205,"boundary":true,"min_zoom":0,"id":218},"arcs":[12]},{"type":"LineString","properties":{"source":"naturalearthdata.com","kind":"ocean","sort_rank":205,"boundary":true,"min_zoom":0,"id":219},"arcs":[13]},{"type":"LineString","properties":{"source":"naturalearthdata.com","kind":"ocean","sort_rank":205,"boundary":true,"min_zoom":0,"id":221},"arcs":[14]},{"type":"LineString","properties":{"source":"naturalearthdata.com","kind":"ocean","sort_rank":205,"boundary":true,"min_zoom":0,"id":252},"arcs":[15]},{"type":"MultiLineString","properties":{"source":"naturalearthdata.com","kind":"ocean","sort_rank":205,"boundary":true,"min_zoom":0,"id":1386},"arcs":[[16],[17]]}]},"buildings":{"type":"GeometryCollection","geometries":[]},"places":{"type":"GeometryCollection","geometries":[]},"transit":{"type":"GeometryCollection","geometries":[]},"pois":{"type":"GeometryCollection","geometries":[]},"boundaries":{"type":"GeometryCollection","geometries":[]},"roads":{"type":"GeometryCollection","geometries":[]},"earth":{"type":"GeometryCollection","geometries":[{"type":"MultiPolygon","properties":{"sort_rank":10,"source":"naturalearthdata.com","min_zoom":0,"kind":"earth","area":608027485394504},"arcs":[[[18]]]},{"type":"MultiPolygon","properties":{"sort_rank":10,"source":"naturalearthdata.com","min_zoom":3.0,"kind":"earth","area":833312034851},"arcs":[[[19]],[[20]],[[21]],[[22]],[[23]]]}]},"landuse":{"type":"GeometryCollection","geometries":[]}},"type":"Topology","transform":{"translate":[45.0,-79.1713346408],"scale":[0.0109863281,0.0030903501]},"arcs":[[[1097,4096],[2999,0],[0,-91],[-27,-9],[-32,1],[-25,6],[-26,3],[-43,-8],[-31,9],[-81,-49],[-13,-15],[-18,-17],[-57,-5],[-37,-35],[-26,0],[-28,12],[-34,7],[-24,-4],[-30,-42],[-23,-15],[-37,-48],[-17,-53],[-14,-2],[-50,-1],[-30,-25],[-24,0],[-75,-45],[-75,-38],[-98,-56],[-23,-18],[-28,-33],[-15,-38],[-7,-75],[-23,-42],[-20,-44],[-18,-57],[-25,-34],[-32,-10],[-38,-44],[-38,-48],[-22,1],[-20,-29],[-7,-48],[-16,-40],[-20,-15],[-25,13],[-52,-8],[-32,25],[-26,19],[-24,-27],[-32,-7],[-26,-52],[-20,-28],[-7,-47],[2,-50],[-13,-25],[-18,-41],[-14,-19],[-33,-16],[-12,-31],[-13,-47],[-15,-67],[-8,-50],[-3,-66],[-6,-36],[-10,-15],[-8,-21],[-32,-28],[-10,-6],[-4,-29],[-26,-40],[-30,-25],[-17,-40],[-20,-39],[-22,-11],[-14,-3],[-67,-31],[-29,-44],[-12,-32],[4,-55],[-4,-54],[-20,-26],[-39,-43],[-29,20],[-22,7],[-18,2],[-6,27],[22,41],[14,17],[20,99],[9,58],[6,56],[14,93],[24,86],[16,51],[15,61],[25,33],[12,12],[16,22],[13,30],[10,18],[29,107],[0,38],[5,50],[-8,32],[-13,3],[-24,-15],[-18,-14],[-56,-3],[-26,31],[-35,17],[13,31],[15,29],[31,44],[10,19],[14,18],[21,-21],[30,-6],[16,3],[15,15],[7,31],[3,37],[-5,25],[-16,13],[-7,22],[2,32],[14,11],[28,2],[17,12],[7,20],[-2,26],[-7,42],[10,29],[-9,25],[-1,38],[21,45],[15,21],[5,23],[-7,27],[-11,32],[-7,39],[-10,39],[5,57],[-9,33],[-13,6],[-22,-26],[-25,-12],[-52,-9],[-21,11],[-54,14],[-30,14],[-62,1],[-71,16],[-103,31],[-59,30],[-21,6],[-42,-6],[-20,-11],[-30,-28],[-47,23],[-79,12],[-27,13],[-48,37],[-56,-6],[-20,-18],[-36,-8],[-47,82],[-38,22],[-26,19],[-18,20],[-19,9],[-24,-13],[-43,-1],[-12,-5],[-18,-14],[-17,-31],[-20,-17],[-32,21],[54,73],[8,37],[-3,26],[-14,19],[-13,30],[13,8],[20,-18],[28,-18],[15,3],[18,30],[-12,32]],[[3653,4056],[8,-2],[10,10],[-12,18],[-3,11],[-4,1],[-5,-21],[1,-6],[5,-11]],[[3757,4037],[-4,-12],[10,-18],[8,-1],[10,8],[10,16],[-8,4],[-4,6],[-12,4],[-10,-7]],[[3691,4026],[-19,2],[-2,-17],[4,-25],[23,-32],[1,-4],[2,-5],[16,9],[10,19],[-12,38],[-23,15]],[[2431,2876],[-6,-17],[0,-35],[2,-17],[6,-17],[10,-24],[8,-3],[7,0],[7,8],[1,11],[-2,16],[-1,8],[-5,14],[-11,16],[-3,13],[-1,18],[-4,15],[-8,-6]],[[2252,2306],[5,-1],[11,42],[-2,3],[-9,5],[-5,-9],[-4,-15],[4,-25]],[[2133,2236],[-2,-13],[5,0],[18,8],[14,16],[2,20],[-10,25],[-6,-5],[-9,-28],[-12,-23]],[[0,3690],[0,406],[482,0],[-5,-29],[6,-49],[20,-21],[-2,-39],[9,-68],[-5,-14],[-23,7],[-26,-1],[-47,46],[-22,29],[-38,1],[-34,-34],[13,-41],[10,-15],[19,6],[27,-9],[-15,-41],[-39,-54],[0,-34],[2,-54],[-9,-43],[-16,-20],[-5,23],[0,42],[-10,28],[-23,13],[-23,-18],[-19,-4],[-16,20],[-18,30],[10,34],[16,19],[-5,15],[-18,2],[-25,27],[-29,2],[-10,-12],[-12,-32],[0,-24],[11,-18],[-4,-27],[-22,-13],[-24,-1],[-29,-25],[-34,2],[-18,-12]],[[306,4034],[-6,-6],[0,-9],[0,-7],[1,-8],[6,-3],[16,7],[21,2],[1,4],[-1,11],[-3,4],[-10,6],[-25,-1]],[[3672,4028],[-2,-17],[4,-25],[23,-32],[1,-4],[2,-5],[16,9],[10,19],[-12,38],[-23,15],[-19,2]],[[3767,4044],[-10,-7],[-4,-12],[10,-18],[8,-1],[10,8],[10,16],[-8,4],[-4,6],[-12,4]],[[3656,4093],[-4,1],[-5,-21],[1,-6],[5,-11],[8,-2],[10,10],[-12,18],[-3,11]],[[2257,2355],[-5,-9],[-4,-15],[4,-25],[5,-1],[11,42],[-2,3],[-9,5]],[[2154,2287],[-9,-28],[-12,-23],[-2,-13],[5,0],[18,8],[14,16],[2,20],[-10,25],[-6,-5]],[[2464,2798],[-1,8],[-5,14],[-11,16],[-3,13],[-1,18],[-4,15],[-8,-6],[-6,-17],[0,-35],[2,-17],[6,-17],[10,-24],[8,-3],[7,0],[7,8],[1,11],[-2,16]],[[331,4035],[-25,-1],[-6,-6],[0,-9],[0,-7],[1,-8],[6,-3],[16,7],[21,2],[1,4],[-1,11],[-3,4],[-10,6]],[[0,3690],[18,12],[34,-2],[29,25],[24,1],[22,13],[4,27],[-11,18],[0,24],[12,32],[10,12],[29,-2],[25,-27],[18,-2],[5,-15],[-16,-19],[-10,-34],[18,-30],[16,-20],[19,4],[23,18],[23,-13],[10,-28],[0,-42],[5,-23],[16,20],[9,43],[-2,54],[0,34],[39,54],[15,41],[-27,9],[-19,-6],[-10,15],[-13,41],[34,34],[38,-1],[22,-29],[47,-46],[26,1],[23,-7],[5,14],[-9,68],[2,39],[-20,21],[-6,49],[5,29]],[[1097,4096],[12,-32],[-18,-30],[-15,-3],[-28,18],[-20,18],[-13,-8],[13,-30],[14,-19],[3,-26],[-8,-37],[-54,-73],[32,-21],[20,17],[17,31],[18,14],[12,5],[43,1],[24,13],[19,-9],[18,-20],[26,-19],[38,-22],[47,-82],[36,8],[20,18],[56,6],[48,-37],[27,-13],[79,-12],[47,-23],[30,28],[20,11],[42,6],[21,-6],[59,-30],[103,-31],[71,-16],[62,-1],[30,-14],[54,-14],[21,-11],[52,9],[25,12],[22,26],[13,-6],[9,-33],[-5,-57],[10,-39],[7,-39],[11,-32],[7,-27],[-5,-23],[-15,-21],[-21,-45],[1,-38],[9,-25],[-10,-29],[7,-42],[2,-26],[-7,-20],[-17,-12],[-28,-2],[-14,-11],[-2,-32],[7,-22],[16,-13],[5,-25],[-3,-37],[-7,-31],[-15,-15],[-16,-3],[-30,6],[-21,21],[-14,-18],[-10,-19],[-31,-44],[-15,-29],[-13,-31],[35,-17],[26,-31],[56,3],[18,14],[24,15],[13,-3],[8,-32],[-5,-50],[0,-38],[-29,-107],[-10,-18],[-13,-30],[-16,-22],[-12,-12],[-25,-33],[-15,-61],[-16,-51],[-24,-86],[-14,-93],[-6,-56],[-9,-58],[-20,-99],[-14,-17],[-22,-41],[6,-27],[18,-2],[22,-7],[29,-20],[39,43],[20,26],[4,54],[-4,55],[12,32],[29,44],[67,31],[14,3],[22,11],[20,39],[17,40],[30,25],[26,40],[4,29],[10,6],[32,28],[8,21],[10,15],[6,36],[3,66],[8,50],[15,67],[13,47],[12,31],[33,16],[14,19],[18,41],[13,25],[-2,50],[7,47],[20,28],[26,52],[32,7],[24,27],[26,-19],[32,-25],[52,8],[25,-13],[20,15],[16,40],[7,48],[20,29],[22,-1],[38,48],[38,44],[32,10],[25,34],[18,57],[20,44],[23,42],[7,75],[15,38],[28,33],[23,18],[98,56],[75,38],[75,45],[24,0],[30,25],[50,1],[14,2],[17,53],[37,48],[23,15],[30,42],[24,4],[34,-7],[28,-12],[26,0],[37,35],[57,5],[18,17],[13,15],[81,49],[31,-9],[43,8],[26,-3],[25,-6],[32,-1],[27,9]],[[4096,4005],[0,-4005],[-4096,0],[0,3690],[18,12],[34,-2],[29,25],[24,1],[22,13],[4,27],[-11,18],[0,24],[12,32],[10,12],[29,-2],[25,-27],[18,-2],[5,-15],[-16,-19],[-10,-34],[18,-30],[16,-20],[19,4],[23,18],[23,-13],[10,-28],[0,-42],[5,-23],[16,20],[9,43],[-2,54],[0,34],[39,54],[15,41],[-27,9],[-19,-6],[-10,15],[-13,41],[34,34],[38,-1],[22,-29],[47,-46],[26,1],[23,-7],[5,14],[-9,68],[2,39],[-20,21],[-6,49],[5,29],[615,0],[12,-32],[-18,-30],[-15,-3],[-28,18],[-20,18],[-13,-8],[13,-30],[14,-19],[3,-26],[-8,-37],[-54,-73],[32,-21],[20,17],[17,31],[18,14],[12,5],[43,1],[24,13],[19,-9],[18,-20],[26,-19],[38,-22],[47,-82],[36,8],[20,18],[56,6],[48,-37],[27,-13],[79,-12],[47,-23],[30,28],[20,11],[42,6],[21,-6],[59,-30],[103,-31],[71,-16],[62,-1],[30,-14],[54,-14],[21,-11],[52,9],[25,12],[22,26],[13,-6],[9,-33],[-5,-57],[10,-39],[7,-39],[11,-32],[7,-27],[-5,-23],[-15,-21],[-21,-45],[1,-38],[9,-25],[-10,-29],[7,-42],[2,-26],[-7,-20],[-17,-12],[-28,-2],[-14,-11],[-2,-32],[7,-22],[16,-13],[5,-25],[-3,-37],[-7,-31],[-15,-15],[-16,-3],[-30,6],[-21,21],[-14,-18],[-10,-19],[-31,-44],[-15,-29],[-13,-31],[35,-17],[26,-31],[56,3],[18,14],[24,15],[13,-3],[8,-32],[-5,-50],[0,-38],[-29,-107],[-10,-18],[-13,-30],[-16,-22],[-12,-12],[-25,-33],[-15,-61],[-16,-51],[-24,-86],[-14,-93],[-6,-56],[-9,-58],[-20,-99],[-14,-17],[-22,-41],[6,-27],[18,-2],[22,-7],[29,-20],[39,43],[20,26],[4,54],[-4,55],[12,32],[29,44],[67,31],[14,3],[22,11],[20,39],[17,40],[30,25],[26,40],[4,29],[10,6],[32,28],[8,21],[10,15],[6,36],[3,66],[8,50],[15,67],[13,47],[12,31],[33,16],[14,19],[18,41],[13,25],[-2,50],[7,47],[20,28],[26,52],[32,7],[24,27],[26,-19],[32,-25],[52,8],[25,-13],[20,15],[16,40],[7,48],[20,29],[22,-1],[38,48],[38,44],[32,10],[25,34],[18,57],[20,44],[23,42],[7,75],[15,38],[28,33],[23,18],[98,56],[75,38],[75,45],[24,0],[30,25],[50,1],[14,2],[17,53],[37,48],[23,15],[30,42],[24,4],[34,-7],[28,-12],[26,0],[37,35],[57,5],[18,17],[13,15],[81,49],[31,-9],[43,8],[26,-3],[25,-6],[32,-1],[27,9]],[[2136,2223],[-5,0],[2,13],[12,23],[9,28],[6,5],[10,-25],[-2,-20],[-14,-16],[-18,-8]],[[2458,2763],[-7,0],[-8,3],[-10,24],[-6,17],[-2,17],[0,35],[6,17],[8,6],[4,-15],[1,-18],[3,-13],[11,-16],[5,-14],[1,-8],[2,-16],[-1,-11],[-7,-8]],[[3716,3954],[-16,-9],[-2,5],[-1,4],[-23,32],[-4,25],[2,17],[19,-2],[23,-15],[12,-38],[-10,-19]],[[323,4008],[-16,-7],[-6,3],[-1,8],[0,7],[0,9],[6,6],[25,1],[10,-6],[3,-4],[1,-11],[-1,-4],[-21,-2]],[[3781,4014],[-10,-8],[-8,1],[-10,18],[4,12],[10,7],[12,-4],[4,-6],[8,-4],[-10,-16]]]}