{"objects":{"water":{"type":"GeometryCollection","geometries":[{"type":"MultiPolygon","properties":{"source":"naturalearthdata.com","kind":"ocean","area":989871000000000,"sort_rank":200,"min_zoom":0,"id":1},"arcs":[[[0],[1]]]},{"type":"LineString","properties":{"source":"naturalearthdata.com","kind":"ocean","sort_rank":205,"boundary":true,"min_zoom":0,"id":3158},"arcs":[2]}]},"buildings":{"type":"GeometryCollection","geometries":[]},"places":{"type":"GeometryCollection","geometries":[]},"transit":{"type":"GeometryCollection","geometries":[]},"pois":{"type":"GeometryCollection","geometries":[]},"boundaries":{"type":"GeometryCollection","geometries":[]},"roads":{"type":"GeometryCollection","geometries":[]},"earth":{"type":"GeometryCollection","geometries":[]},"landuse":{"type":"GeometryCollection","geometries":[]}},"type":"Topology","transform":{"translate":[-33.75,-0.0],"scale":[0.002746582,0.002729102]},"arcs":[[[0,0],[0,4096],[4096,0],[0,-4096],[-4096,0]],[[1581,324],[-6,-5],[-1,-4],[2,-5],[4,-4],[7,-1],[8,0],[4,3],[3,4],[2,6],[-4,5],[-9,4],[-10,-3]],[[1581,324],[-6,-5],[-1,-4],[2,-5],[4,-4],[7,-1],[8,0],[4,3],[3,4],[2,6],[-4,5],[-9,4],[-10,-3]]]}