{"objects":{"water":{"type":"GeometryCollection","geometries":[{"type":"MultiPolygon","properties":{"source":"naturalearthdata.com","kind":"ocean","area":989871000000000,"sort_rank":200,"min_zoom":0,"id":1},"arcs":[[[0]]]},{"type":"LineString","properties":{"source":"naturalearthdata.com","kind":"ocean","sort_rank":205,"boundary":true,"min_zoom":0,"id":1},"arcs":[1]}]},"buildings":{"type":"GeometryCollection","geometries":[]},"places":{"type":"GeometryCollection","geometries":[]},"transit":{"type":"GeometryCollection","geometries":[]},"pois":{"type":"GeometryCollection","geometries":[]},"boundaries":{"type":"GeometryCollection","geometries":[]},"roads":{"type":"GeometryCollection","geometries":[]},"earth":{"type":"GeometryCollection","geometries":[{"type":"MultiPolygon","properties":{"sort_rank":10,"source":"naturalearthdata.com","min_zoom":0,"kind":"earth","area":59133836386451},"arcs":[[[2]]]}]},"landuse":{"type":"GeometryCollection","geometries":[]}},"type":"Topology","transform":{"translate":[-33.75,-76.8408164144],"scale":[0.002746582,0.0006887874]},"arcs":[[[1130,0],[-1130,0],[0,4096],[4096,0],[0,-2367],[-12,11],[-10,-2],[-13,-45],[-10,-15],[-10,-8],[-29,1],[-42,-26],[-94,4],[-21,-10],[-10,0],[-9,-6],[-11,-20],[-9,-12],[-172,-13],[-172,-14],[-41,-34],[-147,-55],[-148,-56],[-148,-55],[-147,-56],[-62,-59],[-42,-17],[-20,-16],[-31,-52],[-12,-13],[-37,-20],[-32,-50],[-11,-8],[-61,4],[-11,-8],[-9,-15],[-1,-7],[0,-22],[-1,-7],[-2,-4],[-11,-19],[-35,-31],[-86,13],[-42,-16],[-95,-81],[-81,0],[-126,-60],[-126,-61],[-126,-61],[-109,-105],[-66,-20],[-7,-7],[-10,-28],[-9,-16],[-22,-23],[-5,-2],[-11,3],[-4,-3],[-4,-8],[-7,-26],[-5,-9],[1,-7],[2,-18],[1,-7],[-25,-38],[-11,-11],[-181,-85],[-26,-46],[-55,-47],[-3,-10],[-4,-34],[-3,-9],[-19,-14],[-30,-58],[-10,-14],[-17,-13],[-5,-8],[-3,-15],[-3,-21],[-1,-9]],[[4096,1729],[-12,11],[-10,-2],[-13,-45],[-10,-15],[-10,-8],[-29,1],[-42,-26],[-94,4],[-21,-10],[-10,0],[-9,-6],[-11,-20],[-9,-12],[-172,-13],[-172,-14],[-41,-34],[-147,-55],[-148,-56],[-148,-55],[-147,-56],[-62,-59],[-42,-17],[-20,-16],[-31,-52],[-12,-13],[-37,-20],[-32,-50],[-11,-8],[-61,4],[-11,-8],[-9,-15],[-1,-7],[0,-22],[-1,-7],[-2,-4],[-11,-19],[-35,-31],[-86,13],[-42,-16],[-95,-81],[-81,0],[-126,-60],[-126,-61],[-126,-61],[-109,-105],[-66,-20],[-7,-7],[-10,-28],[-9,-16],[-22,-23],[-5,-2],[-11,3],[-4,-3],[-4,-8],[-7,-26],[-5,-9],[1,-7],[2,-18],[1,-7],[-25,-38],[-11,-11],[-181,-85],[-26,-46],[-55,-47],[-3,-10],[-4,-34],[-3,-9],[-19,-14],[-30,-58],[-10,-14],[-17,-13],[-5,-8],[-3,-15],[-3,-21],[-1,-9]],[[4096,1729],[0,-1729],[-2966,0],[1,9],[3,21],[3,15],[5,8],[17,13],[10,14],[30,58],[19,14],[3,9],[4,34],[3,10],[55,47],[26,46],[181,85],[11,11],[25,38],[-1,7],[-2,18],[-1,7],[5,9],[7,26],[4,8],[4,3],[11,-3],[5,2],[22,23],[9,16],[10,28],[7,7],[66,20],[109,105],[126,61],[126,61],[17,8],[109,52],[81,0],[95,81],[42,16],[86,-13],[35,31],[11,19],[2,4],[1,7],[0,22],[1,7],[9,15],[11,8],[61,-4],[11,8],[32,50],[37,20],[12,13],[31,52],[20,16],[42,17],[62,59],[147,56],[148,55],[148,56],[147,55],[41,34],[172,14],[172,13],[9,12],[11,20],[9,6],[10,0],[21,10],[94,-4],[42,26],[29,-1],[10,8],[10,15],[13,45],[10,2],[12,-11]]]}