{"objects":{"water":{"type":"GeometryCollection","geometries":[{"type":"MultiPolygon","properties":{"source":"naturalearthdata.com","kind":"ocean","area":989871000000000,"sort_rank":200,"min_zoom":0,"id":1},"arcs":[[[0],[1],[2]]]},{"type":"MultiLineString","properties":{"source":"naturalearthdata.com","kind":"ocean","sort_rank":205,"boundary":true,"min_zoom":0,"id":1},"arcs":[[3],[4]]},{"type":"LineString","properties":{"source":"naturalearthdata.com","kind":"ocean","sort_rank":205,"boundary":true,"min_zoom":0,"id":2518},"arcs":[5]},{"type":"LineString","properties":{"source":"naturalearthdata.com","kind":"ocean","sort_rank":205,"boundary":true,"min_zoom":0,"id":3023},"arcs":[6]}]},"buildings":{"type":"GeometryCollection","geometries":[]},"places":{"type":"GeometryCollection","geometries":[]},"transit":{"type":"GeometryCollection","geometries":[]},"pois":{"type":"GeometryCollection","geometries":[]},"boundaries":{"type":"GeometryCollection","geometries":[]},"roads":{"type":"GeometryCollection","geometries":[]},"earth":{"type":"GeometryCollection","geometries":[{"type":"MultiPolygon","properties":{"sort_rank":10,"source":"naturalearthdata.com","kind":"earth","min_zoom":2.0,"area":270874700878},"arcs":[[[7]]]},{"type":"MultiPolygon","properties":{"sort_rank":10,"source":"naturalearthdata.com","min_zoom":3.0,"kind":"earth","area":28297414695},"arcs":[[[8]]]},{"type":"MultiPolygon","properties":{"sort_rank":10,"source":"naturalearthdata.com","min_zoom":0,"kind":"earth","area":59133836386451},"arcs":[[[9]],[[10]]]}]},"landuse":{"type":"GeometryCollection","geometries":[]}},"type":"Topology","transform":{"translate":[-33.75,-81.0932138526],"scale":[0.002746582,0.0004692088]},"arcs":[[[684,4096],[619,0],[-101,-98],[-39,-66],[5,-57],[6,-24],[170,50],[82,-28],[-5,-48],[-1,-19],[8,-26],[14,14],[58,96],[16,1],[16,-27],[-134,-201],[-135,-201],[-135,-201],[-8,-53],[181,-35],[180,-34],[180,-34],[181,-35],[180,-34],[180,-35],[181,-34],[180,-35],[180,-34],[180,-35],[181,-34],[180,-34],[173,142],[-4,-28],[-2,-28],[0,-31],[0,-35],[-1,-20],[-3,-18],[-7,-29],[14,-39],[23,-9],[40,14],[58,-22],[19,6],[21,22],[11,3],[9,-11],[10,-20],[146,-62],[147,-62],[146,-61],[-28,-26],[-57,6],[-27,-38],[1,-10],[3,-22],[2,-9],[-30,-42],[-141,-19],[-141,-19],[-141,-19],[-14,-21],[-37,-107],[-17,-13],[-176,-8],[-177,-9],[-177,-8],[-176,-8],[-12,-10],[-29,-48],[-10,-7],[-178,-16],[-178,-17],[-178,-16],[-179,-16],[-178,-17],[-178,-16],[-179,-16],[-20,-26],[-17,-59],[27,-39],[25,-60],[-55,-4],[-5,-3],[-4,-9],[-7,-26],[-3,-6],[-164,-9],[-165,-9],[-164,-9],[-15,-25],[133,-160],[134,-159],[47,0],[25,-23],[14,-66],[-14,4],[-43,43],[-139,23],[-138,23],[-139,22],[-139,23],[-164,-113],[-164,-113],[-50,23],[-20,-3],[-105,73],[-19,0],[14,-55],[90,-66],[-108,-130],[-100,0],[0,3073],[169,-75],[170,-75],[160,72],[161,72],[24,11]],[[585,3052],[-14,-3],[-6,12],[-4,30],[1,34],[6,14],[82,20],[15,24],[4,57],[-8,21],[-105,91],[-26,-3],[-24,-21],[-23,-35],[-11,-6],[2,-13],[4,-10],[3,-13],[0,-22],[-1,-8],[-4,-17],[-1,-10],[-1,-27],[0,-16],[-1,-10],[-5,-9],[-9,-4],[-18,5],[-9,-8],[3,-2],[12,-27],[10,-3],[3,-7],[-16,-20],[-26,-14],[38,-26],[120,9],[9,17]],[[1504,2519],[2,2],[-55,124],[-52,79],[-134,80],[-135,81],[-6,11],[-16,49],[-6,27],[-6,59],[-6,23],[-15,22],[-17,-6],[-16,-26],[-15,-41],[3,-9],[6,-9],[2,-7],[3,-15],[5,-36],[2,-16],[9,-28],[10,-17],[108,-95],[108,-95],[-23,-33],[-25,-5],[-49,29],[-59,-9],[-161,75],[-7,11],[-7,17],[-20,68],[-92,122],[-54,128],[-20,25],[-52,13],[-86,-40],[-14,-31],[-5,-6],[15,-31],[19,-8],[6,-11],[-11,-14],[-60,-27],[60,-9],[5,-8],[4,-12],[8,-31],[4,-13],[6,-8],[16,-15],[-6,-22],[-7,-15],[-63,-80],[16,-20],[17,-3],[68,41],[34,-18],[-7,-16],[-36,-33],[-7,-12],[-6,-19],[7,-12],[36,-14],[77,-84],[119,-29],[119,-28],[76,-66],[7,1],[5,9],[5,27],[-1,25],[-4,17],[-2,5],[8,22],[37,8],[2,-3],[3,-10],[3,-23],[2,-20],[2,-18],[5,-16],[62,-47],[12,-19],[-3,0],[-14,-19],[-53,-8],[16,-47],[22,-15],[66,27],[71,84],[-2,6],[-7,32],[-3,9],[-4,6],[-41,21],[-39,96],[33,19],[25,44],[15,9],[16,-3],[31,-35],[5,-16],[8,-52],[4,-22],[6,-15],[30,-22],[28,-4],[8,7],[22,36]],[[0,4091],[169,-75],[170,-75],[160,72],[161,72],[24,11]],[[1303,4096],[-101,-98],[-39,-66],[5,-57],[6,-24],[170,50],[82,-28],[-5,-48],[-1,-19],[8,-26],[14,14],[58,96],[16,1],[16,-27],[-134,-201],[-135,-201],[-135,-201],[-8,-53],[181,-35],[180,-34],[180,-34],[181,-35],[180,-34],[180,-35],[181,-34],[180,-35],[180,-34],[180,-35],[181,-34],[180,-34],[173,142],[-4,-28],[-2,-28],[0,-31],[0,-35],[-1,-20],[-3,-18],[-7,-29],[14,-39],[23,-9],[40,14],[58,-22],[19,6],[21,22],[11,3],[9,-11],[10,-20],[146,-62],[147,-62],[146,-61],[-28,-26],[-57,6],[-27,-38],[1,-10],[3,-22],[2,-9],[-30,-42],[-141,-19],[-141,-19],[-141,-19],[-14,-21],[-37,-107],[-17,-13],[-176,-8],[-177,-9],[-177,-8],[-176,-8],[-12,-10],[-29,-48],[-10,-7],[-178,-16],[-178,-17],[-178,-16],[-179,-16],[-178,-17],[-178,-16],[-179,-16],[-20,-26],[-17,-59],[27,-39],[25,-60],[-55,-4],[-5,-3],[-4,-9],[-7,-26],[-3,-6],[-164,-9],[-165,-9],[-164,-9],[-15,-25],[133,-160],[134,-159],[47,0],[25,-23],[14,-66],[-14,4],[-43,43],[-139,23],[-138,23],[-139,22],[-139,23],[-164,-113],[-164,-113],[-50,23],[-20,-3],[-105,73],[-19,0],[14,-55],[90,-66],[-108,-130],[-100,0]],[[585,3052],[-14,-3],[-6,12],[-4,30],[1,34],[6,14],[82,20],[15,24],[4,57],[-8,21],[-105,91],[-26,-3],[-24,-21],[-23,-35],[-11,-6],[2,-13],[4,-10],[3,-13],[0,-22],[-1,-8],[-4,-17],[-1,-10],[-1,-27],[0,-16],[-1,-10],[-5,-9],[-9,-4],[-18,5],[-9,-8],[3,-2],[12,-27],[10,-3],[3,-7],[-16,-20],[-26,-14],[38,-26],[120,9],[9,17]],[[1504,2519],[2,2],[-55,124],[-52,79],[-134,80],[-135,81],[-6,11],[-16,49],[-6,27],[-6,59],[-6,23],[-15,22],[-17,-6],[-16,-26],[-15,-41],[3,-9],[6,-9],[2,-7],[3,-15],[5,-36],[2,-16],[9,-28],[10,-17],[108,-95],[108,-95],[-23,-33],[-25,-5],[-49,29],[-59,-9],[-161,75],[-7,11],[-7,17],[-20,68],[-92,122],[-54,128],[-20,25],[-52,13],[-86,-40],[-14,-31],[-5,-6],[15,-31],[19,-8],[6,-11],[-11,-14],[-60,-27],[60,-9],[5,-8],[4,-12],[8,-31],[4,-13],[6,-8],[16,-15],[-6,-22],[-7,-15],[-63,-80],[16,-20],[17,-3],[68,41],[34,-18],[-7,-16],[-36,-33],[-7,-12],[-6,-19],[7,-12],[36,-14],[77,-84],[119,-29],[119,-28],[76,-66],[7,1],[5,9],[5,27],[-1,25],[-4,17],[-2,5],[8,22],[37,8],[2,-3],[3,-10],[3,-23],[2,-20],[2,-18],[5,-16],[62,-47],[12,-19],[-3,0],[-14,-19],[-53,-8],[16,-47],[22,-15],[66,27],[71,84],[-2,6],[-7,32],[-3,9],[-4,6],[-41,21],[-39,96],[33,19],[25,44],[15,9],[16,-3],[31,-35],[5,-16],[8,-52],[4,-22],[6,-15],[30,-22],[28,-4],[8,7],[22,36]],[[1504,2519],[-22,-36],[-8,-7],[-28,4],[-30,22],[-6,15],[-4,22],[-8,52],[-5,16],[-31,35],[-16,3],[-15,-9],[-25,-44],[-33,-19],[39,-96],[41,-21],[4,-6],[3,-9],[7,-32],[2,-6],[-71,-84],[-66,-27],[-22,15],[-16,47],[53,8],[14,19],[3,0],[-12,19],[-62,47],[-5,16],[-2,18],[-2,20],[-3,23],[-3,10],[-2,3],[-37,-8],[-8,-22],[2,-5],[4,-17],[1,-25],[-5,-27],[-5,-9],[-7,-1],[-76,66],[-119,28],[-119,29],[-77,84],[-36,14],[-7,12],[6,19],[7,12],[36,33],[7,16],[-34,18],[-68,-41],[-17,3],[-16,20],[63,80],[7,15],[6,22],[-16,15],[-6,8],[-4,13],[-8,31],[-4,12],[-5,8],[-60,9],[60,27],[11,14],[-6,11],[-19,8],[-15,31],[5,6],[14,31],[86,40],[52,-13],[20,-25],[54,-128],[92,-122],[20,-68],[7,-17],[7,-11],[161,-75],[59,9],[49,-29],[25,5],[23,33],[-108,95],[-108,95],[-10,17],[-9,28],[-2,16],[-5,36],[-3,15],[-2,7],[-6,9],[-3,9],[15,41],[16,26],[17,6],[15,-22],[6,-23],[6,-59],[6,-27],[16,-49],[6,-11],[135,-81],[134,-80],[52,-79],[55,-124],[-2,-2]],[[585,3052],[-9,-17],[-120,-9],[-38,26],[26,14],[16,20],[-3,7],[-10,3],[-12,27],[-3,2],[9,8],[18,-5],[9,4],[5,9],[1,10],[0,16],[1,27],[1,10],[4,17],[1,8],[0,22],[-3,13],[-4,10],[-2,13],[11,6],[23,35],[24,21],[26,3],[105,-91],[8,-21],[-4,-57],[-15,-24],[-82,-20],[-6,-14],[-1,-34],[4,-30],[6,-12],[14,3]],[[1303,4096],[2793,0],[0,-4096],[-4096,0],[0,1018],[100,0],[108,130],[-90,66],[-14,55],[19,0],[105,-73],[20,3],[50,-23],[164,113],[164,113],[139,-23],[139,-22],[138,-23],[139,-23],[43,-43],[14,-4],[-14,66],[-25,23],[-47,0],[-134,159],[-133,160],[15,25],[164,9],[165,9],[164,9],[3,6],[7,26],[4,9],[5,3],[55,4],[-25,60],[-27,39],[17,59],[20,26],[179,16],[178,16],[178,17],[63,5],[116,11],[178,16],[178,17],[178,16],[10,7],[29,48],[12,10],[176,8],[177,8],[177,9],[176,8],[17,13],[37,107],[14,21],[141,19],[141,19],[141,19],[30,42],[-2,9],[-3,22],[-1,10],[27,38],[57,-6],[28,26],[-146,61],[-147,62],[-146,62],[-10,20],[-9,11],[-11,-3],[-21,-22],[-19,-6],[-58,22],[-40,-14],[-23,9],[-14,39],[7,29],[3,18],[1,20],[0,35],[0,31],[2,28],[4,28],[-173,-142],[-180,34],[-181,34],[-180,35],[-180,34],[-180,35],[-181,34],[-152,29],[-28,6],[-180,34],[-181,35],[-180,34],[-180,34],[-181,35],[8,53],[135,201],[135,201],[134,201],[-16,27],[-16,-1],[-58,-96],[-14,-14],[-8,26],[1,19],[5,48],[-82,28],[-170,-50],[-6,24],[-5,57],[39,66],[101,98]],[[0,4091],[0,5],[684,0],[-24,-11],[-161,-72],[-160,-72],[-170,75],[-169,75]]]}