{"objects":{"water":{"type":"GeometryCollection","geometries":[{"type":"MultiPolygon","properties":{"source":"naturalearthdata.com","kind":"ocean","area":989871000000000,"sort_rank":200,"min_zoom":0,"id":1},"arcs":[[[0],[1],[2],[3],[4]],[[5],[6]]]},{"type":"MultiLineString","properties":{"source":"naturalearthdata.com","kind":"ocean","sort_rank":205,"boundary":true,"min_zoom":0,"id":514},"arcs":[[7],[8],[9],[10]]},{"type":"LineString","properties":{"source":"naturalearthdata.com","kind":"ocean","sort_rank":205,"boundary":true,"min_zoom":0,"id":1459},"arcs":[11]},{"type":"LineString","properties":{"source":"naturalearthdata.com","kind":"ocean","sort_rank":205,"boundary":true,"min_zoom":0,"id":1460},"arcs":[12]},{"type":"LineString","properties":{"source":"naturalearthdata.com","kind":"ocean","sort_rank":205,"boundary":true,"min_zoom":0,"id":1463},"arcs":[13]},{"type":"LineString","properties":{"source":"naturalearthdata.com","kind":"ocean","sort_rank":205,"boundary":true,"min_zoom":0,"id":2485},"arcs":[14]},{"type":"LineString","properties":{"source":"naturalearthdata.com","kind":"ocean","sort_rank":205,"boundary":true,"min_zoom":0,"id":2486},"arcs":[15]},{"type":"LineString","properties":{"source":"naturalearthdata.com","kind":"ocean","sort_rank":205,"boundary":true,"min_zoom":0,"id":2488},"arcs":[16]}]},"buildings":{"type":"GeometryCollection","geometries":[]},"places":{"type":"GeometryCollection","geometries":[]},"transit":{"type":"GeometryCollection","geometries":[]},"pois":{"type":"GeometryCollection","geometries":[]},"boundaries":{"type":"GeometryCollection","geometries":[]},"roads":{"type":"GeometryCollection","geometries":[]},"earth":{"type":"GeometryCollection","geometries":[{"type":"MultiPolygon","properties":{"sort_rank":10,"source":"naturalearthdata.com","min_zoom":0.5,"kind":"earth","area":54586915647},"arcs":[[[17]]]},{"type":"MultiPolygon","properties":{"sort_rank":10,"source":"naturalearthdata.com","kind":"earth","min_zoom":4.0,"area":112145940633},"arcs":[[[18]]]},{"type":"MultiPolygon","properties":{"sort_rank":10,"source":"naturalearthdata.com","kind":"earth","min_zoom":5.0,"area":15075057983},"arcs":[[[19]]]},{"type":"MultiPolygon","properties":{"sort_rank":10,"source":"naturalearthdata.com","min_zoom":0,"kind":"earth","area":44884805284559},"arcs":[[[20]],[[21]],[[22]],[[23]]]}]},"landuse":{"type":"GeometryCollection","geometries":[]}},"type":"Topology","transform":{"translate":[-33.75,66.5132604431],"scale":[0.002746582,0.0010008188]},"arcs":[[[4096,3460],[0,-3460],[-4096,0],[0,475],[8,6],[-2,4],[2,3],[-8,15],[0,31],[14,4],[6,6],[2,9],[2,14],[4,9],[4,6],[5,2],[-2,0],[17,1],[6,-1],[15,-20],[4,0],[3,10],[-2,8],[-4,8],[-2,8],[2,11],[3,8],[8,15],[-11,13],[0,8],[6,11],[5,23],[-20,18],[-7,2],[-23,-10],[-6,7],[1,5],[21,30],[3,3],[4,-1],[3,-4],[3,-7],[3,-6],[6,-3],[23,0],[44,13],[-6,14],[-17,14],[-5,14],[6,13],[-3,9],[-7,4],[-8,1],[0,7],[15,7],[5,0],[0,7],[-46,8],[-9,6],[1,2],[0,1],[0,1],[1,2],[-12,14],[8,8],[9,-2],[9,-5],[9,-1],[-1,4],[0,3],[-1,3],[-1,4],[20,-5],[3,2],[4,10],[7,-4],[4,-9],[-5,-8],[3,-12],[5,-4],[13,2],[7,3],[4,8],[7,20],[4,4],[6,3],[4,5],[2,12],[-4,5],[-24,16],[0,7],[16,11],[8,12],[4,14],[-3,14],[-8,2],[-17,-5],[13,19],[-9,10],[-9,16],[-2,17],[10,13],[5,-2],[15,-19],[4,-1],[14,1],[9,4],[8,11],[16,29],[4,4],[5,3],[5,4],[2,10],[2,7],[10,14],[3,3],[-6,15],[-10,5],[-21,1],[-8,3],[-7,8],[-3,12],[2,18],[6,6],[10,2],[10,-1],[28,-16],[47,4],[9,12],[22,9],[8,9],[10,5],[3,6],[3,7],[2,5],[27,20],[6,8],[3,11],[-4,15],[14,12],[31,10],[13,13],[-5,12],[-3,14],[1,10],[8,5],[36,0],[33,14],[7,-5],[13,-19],[49,-11],[5,7],[-7,17],[-10,16],[-5,5],[3,25],[8,-2],[11,-12],[10,-1],[-1,6],[-2,16],[-2,6],[21,-7],[7,-1],[-5,13],[-15,6],[-5,9],[-1,16],[4,9],[6,8],[3,15],[-11,-1],[-6,-3],[4,6],[4,7],[2,12],[-12,8],[-5,7],[-3,12],[8,0],[12,11],[5,2],[21,-12],[9,-1],[-3,15],[1,10],[1,7],[1,9],[-3,12],[-8,19],[-2,13],[-8,20],[-18,4],[-34,-7],[4,11],[1,3],[-49,41],[-15,6],[-8,-1],[-11,-16],[-6,-1],[-5,4],[-5,8],[1,8],[-1,18],[1,5],[4,3],[17,-13],[62,-8],[31,-20],[9,-9],[8,-4],[7,7],[-32,84],[-2,18],[-6,13],[-4,19],[-6,19],[-9,11],[-22,-3],[-41,24],[-19,18],[-15,31],[-26,81],[11,-6],[32,-1],[9,7],[3,28],[8,6],[-10,1],[-10,7],[-9,12],[-6,15],[-3,27],[6,18],[10,7],[12,-5],[6,-11],[14,-36],[5,-15],[1,-10],[2,-20],[2,-11],[3,-7],[12,-20],[-7,-32],[-4,-9],[7,-11],[21,-24],[6,4],[7,8],[14,44],[6,10],[6,1],[9,-12],[-3,-15],[-8,-28],[-2,-12],[1,-22],[4,-9],[17,-9],[8,-12],[1,-10],[-1,-11],[0,-15],[4,-13],[15,-22],[4,-10],[2,-17],[6,-10],[8,-4],[8,0],[4,2],[9,10],[4,2],[113,-14],[8,-3],[9,-6],[6,-11],[-8,-8],[-10,-2],[-27,6],[-7,6],[-7,3],[-6,-5],[1,-11],[-4,-7],[-6,-4],[-6,1],[3,-13],[4,-3],[5,0],[5,-4],[6,-9],[1,-4],[-3,-4],[-4,-11],[-4,-15],[-1,-6],[0,-13],[1,-1],[4,-17],[0,-10],[3,-5],[27,5],[-1,-3],[0,-1],[-2,-2],[9,-16],[8,-6],[40,1],[12,4],[9,10],[-7,11],[-17,7],[-6,9],[-3,16],[2,11],[5,6],[4,1],[11,8],[14,2],[14,-4],[11,-13],[-23,3],[-11,-4],[-9,-12],[16,-14],[79,-41],[18,-18],[7,-2],[7,-6],[4,0],[1,9],[1,3],[3,0],[5,0],[11,-16],[7,-6],[3,5],[6,8],[29,-9],[8,12],[-7,10],[-3,3],[8,9],[9,-1],[18,-8],[4,2],[13,13],[5,0],[14,-8],[2,-2],[7,-10],[4,-2],[15,0],[10,3],[18,15],[10,4],[-3,-2],[-1,-2],[-1,-4],[10,-12],[14,-6],[14,2],[12,9],[-7,8],[-8,7],[5,13],[-2,15],[-4,18],[-5,41],[-7,12],[-109,56],[-8,15],[53,2],[78,-34],[20,-2],[3,-7],[0,-16],[-4,-28],[-1,-23],[1,-9],[4,-13],[10,-18],[10,-8],[24,-1],[5,1],[11,10],[6,2],[18,-9],[6,2],[4,5],[3,7],[4,6],[5,3],[5,-1],[12,-13],[9,6],[8,8],[-21,45],[-2,3],[-6,4],[-3,3],[-2,8],[-1,8],[1,7],[0,4],[-7,17],[-9,13],[-11,9],[-10,3],[-20,-8],[-10,1],[-6,13],[11,10],[27,5],[12,-1],[11,-7],[22,-19],[9,-2],[5,0],[9,4],[7,5],[2,5],[-2,8],[-19,22],[-7,11],[-2,24],[8,9],[9,5],[5,13],[2,21],[4,11],[7,5],[13,2],[12,6],[4,4],[8,17],[7,2],[3,-6],[3,-11],[5,-13],[6,-6],[5,-3],[3,-7],[1,-22],[-1,-15],[1,-14],[3,-10],[16,-7],[12,-9],[6,-2],[25,6],[-8,-24],[-2,-10],[5,-9],[5,-5],[12,-7],[19,-17],[5,-3],[25,-3],[13,-7],[11,-10],[0,6],[-6,17],[-20,14],[-9,11],[9,14],[23,-17],[10,3],[4,12],[1,30],[3,12],[2,6],[14,8],[4,6],[2,-3],[25,-48],[7,-10],[9,5],[9,12],[15,31],[-5,20],[-7,7],[-9,4],[-9,10],[-6,14],[-2,15],[3,12],[8,7],[9,-1],[7,-8],[7,-10],[37,-33],[10,-3],[0,18],[11,-3],[35,-31],[2,25],[2,19],[7,8],[11,0],[47,-19],[12,1],[8,17],[-3,0],[-5,4],[-2,2],[0,7],[7,6],[7,8],[8,6],[10,1],[7,-2],[8,1],[4,10],[-4,25],[22,0],[55,-22],[15,15],[0,7],[-11,27],[-4,7],[-6,6],[-12,8],[-4,7],[33,-2],[16,-7],[19,-30],[16,-19],[6,-4],[6,3],[4,9],[4,12],[6,10],[7,-14],[4,-6],[5,3],[1,13],[-6,25],[0,10],[3,25],[-3,18],[0,14],[16,8],[11,-3],[5,-13],[2,-20],[6,-22],[11,-18],[27,-15],[10,-11],[14,9],[41,3],[10,15],[-56,26],[3,13],[9,9],[24,-9],[9,15],[9,19],[10,10],[35,0],[-4,-7],[-7,-11],[-5,-3],[0,-7],[27,-12],[51,-4],[14,9],[14,-4],[7,4],[-6,17],[-9,10],[-20,14],[-8,16],[5,9],[10,2],[17,-7],[24,4],[8,-7],[7,-10],[31,-13],[3,2],[9,9],[5,2],[1,4],[-2,20],[0,10],[7,10],[14,11],[14,6],[26,-16],[37,68],[19,-4],[-9,-20],[3,-15],[11,-9],[12,-4],[14,4],[26,22],[10,2],[4,-3],[7,-12],[4,-6],[5,-2],[13,1],[33,20],[15,16],[7,20],[-8,0],[0,7],[3,-1],[4,1],[4,2],[2,5],[0,10],[-3,4],[-3,1],[-2,5],[-2,5],[-2,5],[-2,6],[2,8],[6,11],[2,3],[4,3],[6,3],[15,-2],[6,-4],[7,-2],[17,8],[7,-6],[10,-6],[44,9],[37,41],[0,7],[-4,8],[2,2],[5,-1],[5,2],[4,3],[9,3],[4,3],[-17,15],[11,15],[45,-18],[15,6],[14,25],[3,14],[-7,6],[-33,5],[-11,8],[2,6],[4,18],[0,4],[24,6],[55,-6],[13,6],[2,13],[-7,13],[-13,9],[-43,-5],[-14,11],[27,12],[12,12],[-2,14],[-37,44],[13,8],[12,-3],[39,-31],[48,-1],[-8,-12],[6,-14],[13,-11],[12,-4],[0,6],[-3,0],[0,8],[19,1],[6,8],[5,18],[-11,14],[-19,38],[-12,16],[17,7],[8,6],[3,0],[-1,-6],[15,-16],[24,-13],[25,-1],[13,23],[-7,0],[-7,3],[-7,5],[-6,7],[10,10],[24,3],[11,7],[-2,10],[0,9],[1,8],[4,7],[-6,15],[-9,9],[-18,4],[2,0],[-73,2],[-4,6],[2,12],[6,3],[22,-3],[-5,14],[-1,7],[1,5],[7,8],[27,13],[6,8],[0,-7],[9,4],[46,-21],[16,-14],[32,-6],[9,3],[0,-7],[-2,-2],[-1,-2],[-2,-2],[-3,-1],[0,-7],[51,2],[14,12],[7,13],[1,11],[-4,7],[-8,3],[-32,-6],[-11,6],[0,7],[7,4],[16,1],[13,10],[13,6],[6,0],[-10,37],[-12,17],[-15,10],[-13,18],[-2,7],[3,2],[1,2],[1,3],[2,6],[-1,9],[2,4],[10,1],[4,-4],[3,-18],[2,-5],[8,-8],[29,-14],[33,6],[7,-6],[-15,-6],[0,-7],[12,-10],[12,0],[11,7],[18,31],[8,17],[1,17],[-9,13],[9,-5],[28,5],[3,-5],[45,-25],[9,0],[6,11],[-6,2],[-9,8],[-6,3],[0,6],[6,7],[-3,4],[-2,5],[-3,12],[18,-3],[8,2],[4,11],[-1,16],[-3,17],[-5,15],[-6,11],[-10,7],[-24,2],[-53,46],[7,6],[10,-4],[18,-16],[70,-28],[10,1],[5,9],[2,19],[6,7],[7,-3],[7,-13],[4,-15],[2,-16],[3,-11],[46,-23],[45,34],[15,18],[10,27],[-11,7],[-29,1],[0,6],[13,9],[28,3],[14,8],[0,7],[-17,13],[-8,11],[-3,14],[-3,19],[-6,17],[-8,11],[-75,28],[-8,10],[109,-23],[82,17],[21,12],[35,-10],[3,2],[-3,9],[-1,12],[-6,21],[-7,20],[-10,12],[-7,14],[-5,3],[-8,1],[-5,2],[-1,5],[8,7],[12,2],[14,-8],[13,-14],[19,-37],[11,-15],[26,-18],[27,-8],[12,4],[27,25],[4,7],[2,15],[-3,6],[-6,3],[-15,19],[-99,13],[-8,5],[-4,1],[14,18],[16,3],[48,-10],[7,3],[3,9],[-2,11],[-18,26],[9,16],[11,9],[12,-2],[13,-15],[13,-28],[7,-6],[31,-5],[9,-9],[10,11],[2,3],[-3,6],[-6,4],[-32,6],[-11,7],[-5,14],[2,11],[4,10],[6,7],[5,4],[10,0],[18,-8],[10,0],[-3,-3],[-2,-4],[-2,-5],[-1,-8],[8,-7],[6,14],[9,5],[56,-8],[6,6],[2,25],[4,8],[16,-2],[2,0]],[[100,673],[12,-14],[-4,-3],[-4,-4],[-7,-13],[12,-11],[15,11],[13,23],[13,31],[-12,1],[-27,-11],[-11,-10]],[[182,844],[-1,1],[-1,0],[0,2],[2,4],[-6,11],[-9,-7],[-9,-16],[-6,-15],[18,-35],[10,-5],[3,8],[-2,13],[-9,12],[13,13],[-2,3],[0,4],[0,3],[-1,4]],[[1470,1707],[-6,5],[-32,4],[-21,11],[-27,-4],[-12,-9],[-12,-14],[2,-22],[3,-14],[5,-10],[21,-17],[11,-6],[12,-3],[11,3],[22,19],[15,5],[7,7],[4,10],[-1,15],[4,5],[0,6],[-2,6],[-4,3]],[[3754,3227],[-28,-7],[-16,-8],[-12,-13],[18,-39],[23,-20],[74,-9],[13,6],[6,18],[-1,13],[-11,45],[-15,14],[-17,4],[-34,-4]],[[4067,4096],[29,0],[0,-497],[-97,-1],[-145,-1],[-144,0],[-9,4],[-16,14],[-9,3],[-30,2],[-8,7],[-14,7],[-24,-16],[-11,5],[-7,10],[-4,4],[-16,2],[-7,4],[-6,7],[-5,12],[-7,7],[-52,12],[-14,11],[-78,14],[-12,-2],[-3,2],[-1,4],[0,7],[-1,7],[-3,7],[-31,14],[-6,9],[-9,-1],[-24,23],[-25,12],[-14,12],[-12,8],[-14,-6],[-1,-5],[0,-6],[-1,-6],[-5,-4],[-5,2],[-4,6],[-2,10],[-1,13],[-6,17],[-13,12],[-15,8],[-11,1],[-10,-5],[-45,-48],[-5,-9],[-3,-9],[-2,-9],[-3,-6],[-6,-3],[-33,1],[-2,2],[-3,4],[-1,3],[-4,16],[2,11],[3,11],[2,3],[3,10],[14,13],[5,8],[-44,0],[13,12],[30,2],[14,6],[13,19],[-4,10],[-12,5],[-21,0],[-20,-14],[-28,-8],[-11,-12],[-160,-72],[-28,-30],[-92,-51],[-14,-14],[-19,-14],[-77,14],[-26,32],[-10,7],[-76,9],[-14,-3],[-10,-9],[-25,-40],[-9,-8],[-9,1],[-17,7],[-10,-5],[-30,-36],[3,-13],[-2,-9],[-4,-8],[-2,-11],[2,-11],[3,-6],[2,-6],[-3,-14],[-35,-97],[-9,-14],[-11,-7],[-49,-11],[-12,9],[-4,7],[-2,6],[-2,8],[0,13],[3,23],[0,11],[-1,11],[-11,12],[-15,0],[-76,-21],[-21,-18],[-26,-4],[-9,-7],[-3,0],[-4,3],[-8,9],[-12,9],[-18,33],[-8,7],[-45,0],[-50,-20],[-30,0],[-25,-7],[-7,4],[-9,12],[-9,15],[-2,17],[6,7],[34,-14],[20,8],[40,42],[20,5],[2,5],[53,-2],[74,-51],[32,7],[14,9],[27,27],[98,41],[9,9],[6,13],[36,52],[14,7],[29,6],[14,9],[21,25],[23,10],[17,21],[13,-2],[30,-25],[47,-12],[9,1],[90,42],[-1,13],[3,6],[22,3],[8,5],[9,9],[7,11],[-59,82],[-17,13],[-78,10],[-21,-4],[-38,-26],[-58,-12],[-43,14],[-156,-36],[-157,-36],[-22,3],[-47,-15],[-15,11],[-19,24],[-5,10],[-3,17],[2,9],[5,9],[9,19],[1,5],[-4,4],[-1,5],[-3,12],[5,-2],[4,2],[3,5],[3,8],[-41,-7],[-24,4],[-12,-3],[-18,-26],[-11,-4],[-78,-5],[-34,-18],[-11,-3],[-9,-5],[-16,-24],[-9,-5],[-11,-2],[-28,-18],[-35,0],[3,7],[3,6],[3,5],[1,9],[-3,6],[-17,14],[1,4],[-1,3],[4,13],[9,7],[10,2],[35,-8],[5,4],[9,13],[117,44],[43,-6],[6,3],[9,13],[5,5],[9,2],[26,-2],[11,3],[19,14],[20,8],[16,24],[9,5],[0,7],[-19,3],[-8,6],[-3,4],[118,0],[-6,-7],[-11,-10],[-7,-14],[6,-23],[19,-17],[3,-10],[-3,-10],[-7,-8],[-32,-26],[-9,-12],[-3,-16],[7,-22],[18,-7],[127,24],[127,25],[127,24],[4,2],[3,6],[3,7],[3,5],[6,5],[5,-2],[5,-5],[6,-4],[127,6],[10,6],[18,18],[55,16],[24,21],[16,5],[16,-2],[11,-9],[9,-29],[2,-5],[17,0],[2,-2],[2,-4],[1,-5],[1,-2],[26,4],[13,7],[50,59],[14,5],[33,-2],[16,5],[4,3],[624,0],[43,-44],[23,-15],[23,-9],[123,-104],[91,-14],[29,14],[129,-2],[11,7],[8,14],[3,16],[5,34],[3,14],[-1,14],[2,10],[3,10],[1,14],[-1,13],[-2,15],[-2,13]],[[2746,4049],[-6,-1],[-5,-2],[-5,-5],[-5,-6],[9,-11],[3,-2],[0,-7],[-7,1],[-14,10],[-6,2],[-7,-4],[-13,-16],[-8,-1],[6,-15],[2,-5],[-2,-3],[-4,-8],[-2,-3],[8,-6],[15,-5],[6,-12],[6,-7],[8,-3],[28,2],[10,7],[22,24],[-3,11],[1,8],[2,5],[10,10],[-8,6],[-19,2],[-7,10],[-7,18],[-3,5],[-5,1]],[[0,475],[8,6],[-2,4],[2,3],[-8,15]],[[0,534],[14,4],[6,6],[2,9],[2,14],[4,9],[4,6],[5,2],[-2,0],[17,1],[6,-1],[15,-20],[4,0],[3,10],[-2,8],[-4,8],[-2,8],[2,11],[3,8],[8,15],[-11,13],[0,8],[6,11],[5,23],[-20,18],[-7,2],[-23,-10],[-6,7],[1,5],[21,30],[3,3],[4,-1],[3,-4],[3,-7],[3,-6],[6,-3],[23,0],[44,13],[-6,14],[-17,14],[-5,14],[6,13],[-3,9],[-7,4],[-8,1],[0,7],[15,7],[5,0],[0,7],[-46,8],[-9,6],[1,2],[0,1],[0,1],[1,2],[-12,14],[8,8],[9,-2],[9,-5],[9,-1],[-1,4],[0,3],[-1,3],[-1,4],[20,-5],[3,2],[4,10],[7,-4],[4,-9],[-5,-8],[3,-12],[5,-4],[13,2],[7,3],[4,8],[7,20],[4,4],[6,3],[4,5],[2,12],[-4,5],[-24,16],[0,7],[16,11],[8,12],[4,14],[-3,14],[-8,2],[-17,-5],[13,19],[-9,10],[-9,16],[-2,17],[10,13],[5,-2],[15,-19],[4,-1],[14,1],[9,4],[8,11],[16,29],[4,4],[5,3],[5,4],[2,10],[2,7],[10,14],[3,3],[-6,15],[-10,5],[-21,1],[-8,3],[-7,8],[-3,12],[2,18],[6,6],[10,2],[10,-1],[28,-16],[47,4],[9,12],[22,9],[8,9],[10,5],[3,6],[3,7],[2,5],[27,20],[6,8],[3,11],[-4,15],[14,12],[31,10],[13,13],[-5,12],[-3,14],[1,10],[8,5],[36,0],[33,14],[7,-5],[13,-19],[49,-11],[5,7],[-7,17],[-10,16],[-5,5],[3,25],[8,-2],[11,-12],[10,-1],[-1,6],[-2,16],[-2,6],[21,-7],[7,-1],[-5,13],[-15,6],[-5,9],[-1,16],[4,9],[6,8],[3,15],[-11,-1],[-6,-3],[4,6],[4,7],[2,12],[-12,8],[-5,7],[-3,12],[8,0],[12,11],[5,2],[21,-12],[9,-1],[-3,15],[1,10],[1,7],[1,9],[-3,12],[-8,19],[-2,13],[-8,20],[-18,4],[-34,-7],[4,11],[1,3],[-49,41],[-15,6],[-8,-1],[-11,-16],[-6,-1],[-5,4],[-5,8],[1,8],[-1,18],[1,5],[4,3],[17,-13],[62,-8],[31,-20],[9,-9],[8,-4],[7,7],[-32,84],[-2,18],[-6,13],[-4,19],[-6,19],[-9,11],[-22,-3],[-41,24],[-19,18],[-15,31],[-26,81],[11,-6],[32,-1],[9,7],[3,28],[8,6],[-10,1],[-10,7],[-9,12],[-6,15],[-3,27],[6,18],[10,7],[12,-5],[6,-11],[14,-36],[5,-15],[1,-10],[2,-20],[2,-11],[3,-7],[12,-20],[-7,-32],[-4,-9],[7,-11],[21,-24],[6,4],[7,8],[14,44],[6,10],[6,1],[9,-12],[-3,-15],[-8,-28],[-2,-12],[1,-22],[4,-9],[17,-9],[8,-12],[1,-10],[-1,-11],[0,-15],[4,-13],[15,-22],[4,-10],[2,-17],[6,-10],[8,-4],[8,0],[4,2],[9,10],[4,2],[113,-14],[8,-3],[9,-6],[6,-11],[-8,-8],[-10,-2],[-27,6],[-7,6],[-7,3],[-6,-5],[1,-11],[-4,-7],[-6,-4],[-6,1],[3,-13],[4,-3],[5,0],[5,-4],[6,-9],[1,-4],[-3,-4],[-4,-11],[-4,-15],[-1,-6],[0,-13],[1,-1],[4,-17],[0,-10],[3,-5],[27,5],[-1,-3],[0,-1],[-2,-2],[9,-16],[8,-6],[40,1],[12,4],[9,10],[-7,11],[-17,7],[-6,9],[-3,16],[2,11],[5,6],[4,1],[11,8],[14,2],[14,-4],[11,-13],[-23,3],[-11,-4],[-9,-12],[16,-14],[79,-41],[18,-18],[7,-2],[7,-6],[4,0],[1,9],[1,3],[3,0],[5,0],[11,-16],[7,-6],[3,5],[6,8],[29,-9],[8,12],[-7,10],[-3,3],[8,9],[9,-1],[18,-8],[4,2],[13,13],[5,0],[14,-8],[2,-2],[7,-10],[4,-2],[15,0],[10,3],[18,15],[10,4],[-3,-2],[-1,-2],[-1,-4],[10,-12],[14,-6],[14,2],[12,9],[-7,8],[-8,7],[5,13],[-2,15],[-4,18],[-5,41],[-7,12],[-109,56],[-8,15],[53,2],[78,-34],[20,-2],[3,-7],[0,-16],[-4,-28],[-1,-23],[1,-9],[4,-13],[10,-18],[10,-8],[24,-1],[5,1],[11,10],[6,2],[18,-9],[6,2],[4,5],[3,7],[4,6],[5,3],[5,-1],[12,-13],[9,6],[8,8],[-21,45],[-2,3],[-6,4],[-3,3],[-2,8],[-1,8],[1,7],[0,4],[-7,17],[-9,13],[-11,9],[-10,3],[-20,-8],[-10,1],[-6,13],[11,10],[27,5],[12,-1],[11,-7],[22,-19],[9,-2],[5,0],[9,4],[7,5],[2,5],[-2,8],[-19,22],[-7,11],[-2,24],[8,9],[9,5],[5,13],[2,21],[4,11],[7,5],[13,2],[12,6],[4,4],[8,17],[7,2],[3,-6],[3,-11],[5,-13],[6,-6],[5,-3],[3,-7],[1,-22],[-1,-15],[1,-14],[3,-10],[16,-7],[12,-9],[6,-2],[25,6],[-8,-24],[-2,-10],[5,-9],[5,-5],[12,-7],[19,-17],[5,-3],[25,-3],[13,-7],[11,-10],[0,6],[-6,17],[-20,14],[-9,11],[9,14],[23,-17],[10,3],[4,12],[1,30],[3,12],[2,6],[14,8],[4,6],[2,-3],[25,-48],[7,-10],[9,5],[9,12],[15,31],[-5,20],[-7,7],[-9,4],[-9,10],[-6,14],[-2,15],[3,12],[8,7],[9,-1],[7,-8],[7,-10],[37,-33],[10,-3],[0,18],[11,-3],[35,-31],[2,25],[2,19],[7,8],[11,0],[47,-19],[12,1],[8,17],[-3,0],[-5,4],[-2,2],[0,7],[7,6],[7,8],[8,6],[10,1],[7,-2],[8,1],[4,10],[-4,25],[22,0],[55,-22],[15,15],[0,7],[-11,27],[-4,7],[-6,6],[-12,8],[-4,7],[33,-2],[16,-7],[19,-30],[16,-19],[6,-4],[6,3],[4,9],[4,12],[6,10],[7,-14],[4,-6],[5,3],[1,13],[-6,25],[0,10],[3,25],[-3,18],[0,14],[16,8],[11,-3],[5,-13],[2,-20],[6,-22],[11,-18],[27,-15],[10,-11],[14,9],[41,3],[10,15],[-56,26],[3,13],[9,9],[24,-9],[9,15],[9,19],[10,10],[35,0],[-4,-7],[-7,-11],[-5,-3],[0,-7],[27,-12],[51,-4],[14,9],[14,-4],[7,4],[-6,17],[-9,10],[-20,14],[-8,16],[5,9],[10,2],[17,-7],[24,4],[8,-7],[7,-10],[31,-13],[3,2],[9,9],[5,2],[1,4],[-2,20],[0,10],[7,10],[14,11],[14,6],[26,-16],[37,68],[19,-4],[-9,-20],[3,-15],[11,-9],[12,-4],[14,4],[26,22],[10,2],[4,-3],[7,-12],[4,-6],[5,-2],[13,1],[33,20],[15,16],[7,20],[-8,0],[0,7],[3,-1],[4,1],[4,2],[2,5],[0,10],[-3,4],[-3,1],[-2,5],[-2,5],[-2,5],[-2,6],[2,8],[6,11],[2,3],[4,3],[6,3],[15,-2],[6,-4],[7,-2],[17,8],[7,-6],[10,-6],[44,9],[37,41],[0,7],[-4,8],[2,2],[5,-1],[5,2],[4,3],[9,3],[4,3],[-17,15],[11,15],[45,-18],[15,6],[14,25],[3,14],[-7,6],[-33,5],[-11,8],[2,6],[4,18],[0,4],[24,6],[55,-6],[13,6],[2,13],[-7,13],[-13,9],[-43,-5],[-14,11],[27,12],[12,12],[-2,14],[-37,44],[13,8],[12,-3],[39,-31],[48,-1],[-8,-12],[6,-14],[13,-11],[12,-4],[0,6],[-3,0],[0,8],[19,1],[6,8],[5,18],[-11,14],[-19,38],[-12,16],[17,7],[8,6],[3,0],[-1,-6],[15,-16],[24,-13],[25,-1],[13,23],[-7,0],[-7,3],[-7,5],[-6,7],[10,10],[24,3],[11,7],[-2,10],[0,9],[1,8],[4,7],[-6,15],[-9,9],[-18,4],[2,0],[-73,2],[-4,6],[2,12],[6,3],[22,-3],[-5,14],[-1,7],[1,5],[7,8],[27,13],[6,8],[0,-7],[9,4],[46,-21],[16,-14],[32,-6],[9,3],[0,-7],[-2,-2],[-1,-2],[-2,-2],[-3,-1],[0,-7],[51,2],[14,12],[7,13],[1,11],[-4,7],[-8,3],[-32,-6],[-11,6],[0,7],[7,4],[16,1],[13,10],[13,6],[6,0],[-10,37],[-12,17],[-15,10],[-13,18],[-2,7],[3,2],[1,2],[1,3],[2,6],[-1,9],[2,4],[10,1],[4,-4],[3,-18],[2,-5],[8,-8],[29,-14],[33,6],[7,-6],[-15,-6],[0,-7],[12,-10],[12,0],[11,7],[18,31],[8,17],[1,17],[-9,13],[9,-5],[28,5],[3,-5],[45,-25],[9,0],[6,11],[-6,2],[-9,8],[-6,3],[0,6],[6,7],[-3,4],[-2,5],[-3,12],[18,-3],[8,2],[4,11],[-1,16],[-3,17],[-5,15],[-6,11],[-10,7],[-24,2],[-53,46],[7,6],[10,-4],[18,-16],[70,-28],[10,1],[5,9],[2,19],[6,7],[7,-3],[7,-13],[4,-15],[2,-16],[3,-11],[46,-23],[45,34],[15,18],[10,27],[-11,7],[-29,1],[0,6],[13,9],[28,3],[14,8],[0,7],[-17,13],[-8,11],[-3,14],[-3,19],[-6,17],[-8,11],[-75,28],[-8,10],[109,-23],[82,17],[21,12],[35,-10],[3,2],[-3,9],[-1,12],[-6,21],[-7,20],[-10,12],[-7,14],[-5,3],[-8,1],[-5,2],[-1,5],[8,7],[12,2],[14,-8],[13,-14],[19,-37],[11,-15],[26,-18],[27,-8],[12,4],[27,25],[4,7],[2,15],[-3,6],[-6,3],[-15,19],[-99,13],[-8,5],[-4,1],[14,18],[16,3],[48,-10],[7,3],[3,9],[-2,11],[-18,26],[9,16],[11,9],[12,-2],[13,-15],[13,-28],[7,-6],[31,-5],[9,-9],[10,11],[2,3],[-3,6],[-6,4],[-32,6],[-11,7],[-5,14],[2,11],[4,10],[6,7],[5,4],[10,0],[18,-8],[10,0],[-3,-3],[-2,-4],[-2,-5],[-1,-8],[8,-7],[6,14],[9,5],[56,-8],[6,6],[2,25],[4,8],[16,-2],[2,0]],[[4096,3599],[-97,-1],[-145,-1],[-144,0],[-9,4],[-16,14],[-9,3],[-30,2],[-8,7],[-14,7],[-24,-16],[-11,5],[-7,10],[-4,4],[-16,2],[-7,4],[-6,7],[-5,12],[-7,7],[-52,12],[-14,11],[-78,14],[-12,-2],[-3,2],[-1,4],[0,7],[-1,7],[-3,7],[-31,14],[-6,9],[-9,-1],[-24,23],[-25,12],[-14,12],[-12,8],[-14,-6],[-1,-5],[0,-6],[-1,-6],[-5,-4],[-5,2],[-4,6],[-2,10],[-1,13],[-6,17],[-13,12],[-15,8],[-11,1],[-10,-5],[-45,-48],[-5,-9],[-3,-9],[-2,-9],[-3,-6],[-6,-3],[-33,1],[-2,2],[-3,4],[-1,3],[-4,16],[2,11],[3,11],[2,3],[3,10],[14,13],[5,8],[-44,0],[13,12],[30,2],[14,6],[13,19],[-4,10],[-12,5],[-21,0],[-20,-14],[-28,-8],[-11,-12],[-160,-72],[-28,-30],[-92,-51],[-14,-14],[-19,-14],[-77,14],[-26,32],[-10,7],[-76,9],[-14,-3],[-10,-9],[-25,-40],[-9,-8],[-9,1],[-17,7],[-10,-5],[-30,-36],[3,-13],[-2,-9],[-4,-8],[-2,-11],[2,-11],[3,-6],[2,-6],[-3,-14],[-35,-97],[-9,-14],[-11,-7],[-49,-11],[-12,9],[-4,7],[-2,6],[-2,8],[0,13],[3,23],[0,11],[-1,11],[-11,12],[-15,0],[-76,-21],[-21,-18],[-26,-4],[-9,-7],[-3,0],[-4,3],[-8,9],[-12,9],[-18,33],[-8,7],[-45,0],[-50,-20],[-30,0],[-25,-7],[-7,4],[-9,12],[-9,15],[-2,17],[6,7],[34,-14],[20,8],[40,42],[20,5],[2,5],[53,-2],[74,-51],[32,7],[14,9],[27,27],[98,41],[9,9],[6,13],[36,52],[14,7],[29,6],[14,9],[21,25],[23,10],[17,21],[13,-2],[30,-25],[47,-12],[9,1],[90,42],[-1,13],[3,6],[22,3],[8,5],[9,9],[7,11],[-59,82],[-17,13],[-78,10],[-21,-4],[-38,-26],[-58,-12],[-43,14],[-156,-36],[-157,-36],[-22,3],[-47,-15],[-15,11],[-19,24],[-5,10],[-3,17],[2,9],[5,9],[9,19],[1,5],[-4,4],[-1,5],[-3,12],[5,-2],[4,2],[3,5],[3,8],[-41,-7],[-24,4],[-12,-3],[-18,-26],[-11,-4],[-78,-5],[-34,-18],[-11,-3],[-9,-5],[-16,-24],[-9,-5],[-11,-2],[-28,-18],[-35,0],[3,7],[3,6],[3,5],[1,9],[-3,6],[-17,14],[1,4],[-1,3],[4,13],[9,7],[10,2],[35,-8],[5,4],[9,13],[117,44],[43,-6],[6,3],[9,13],[5,5],[9,2],[26,-2],[11,3],[19,14],[20,8],[16,24],[9,5],[0,7],[-19,3],[-8,6],[-3,4]],[[3576,4096],[43,-44],[23,-15],[23,-9],[123,-104],[91,-14],[29,14],[129,-2],[11,7],[8,14],[3,16],[5,34],[3,14],[-1,14],[2,10],[3,10],[1,14],[-1,13],[-2,15],[-2,13]],[[100,673],[12,-14],[-4,-3],[-4,-4],[-7,-13],[12,-11],[15,11],[13,23],[13,31],[-12,1],[-27,-11],[-11,-10]],[[182,844],[-1,1],[-1,0],[0,2],[2,4],[-6,11],[-9,-7],[-9,-16],[-6,-15],[18,-35],[10,-5],[3,8],[-2,13],[-9,12],[13,13],[-2,3],[0,4],[0,3],[-1,4]],[[1470,1707],[-6,5],[-32,4],[-21,11],[-27,-4],[-12,-9],[-12,-14],[2,-22],[3,-14],[5,-10],[21,-17],[11,-6],[12,-3],[11,3],[22,19],[15,5],[7,7],[4,10],[-1,15],[4,5],[0,6],[-2,6],[-4,3]],[[3754,3227],[-28,-7],[-16,-8],[-12,-13],[18,-39],[23,-20],[74,-9],[13,6],[6,18],[-1,13],[-11,45],[-15,14],[-17,4],[-34,-4]],[[2746,4049],[-6,-1],[-5,-2],[-5,-5],[-5,-6],[9,-11],[3,-2],[0,-7],[-7,1],[-14,10],[-6,2],[-7,-4],[-13,-16],[-8,-1],[6,-15],[2,-5],[-2,-3],[-4,-8],[-2,-3],[8,-6],[15,-5],[6,-12],[6,-7],[8,-3],[28,2],[10,7],[22,24],[-3,11],[1,8],[2,5],[10,10],[-8,6],[-19,2],[-7,10],[-7,18],[-3,5],[-5,1]],[[2094,4096],[-6,-7],[-11,-10],[-7,-14],[6,-23],[19,-17],[3,-10],[-3,-10],[-7,-8],[-32,-26],[-9,-12],[-3,-16],[7,-22],[18,-7],[127,24],[127,25],[127,24],[4,2],[3,6],[3,7],[3,5],[6,5],[5,-2],[5,-5],[6,-4],[127,6],[10,6],[18,18],[55,16],[24,21],[16,5],[16,-2],[11,-9],[9,-29],[2,-5],[17,0],[2,-2],[2,-4],[1,-5],[1,-2],[26,4],[13,7],[50,59],[14,5],[33,-2],[16,5],[4,3]],[[2746,4049],[5,-1],[3,-5],[7,-18],[7,-10],[19,-2],[8,-6],[-10,-10],[-2,-5],[-1,-8],[3,-11],[-22,-24],[-10,-7],[-28,-2],[-8,3],[-6,7],[-6,12],[-15,5],[-8,6],[2,3],[4,8],[2,3],[-2,5],[-6,15],[8,1],[13,16],[7,4],[6,-2],[14,-10],[7,-1],[0,7],[-3,2],[-9,11],[5,6],[5,5],[5,2],[6,1]],[[3754,3227],[34,4],[17,-4],[15,-14],[11,-45],[1,-13],[-6,-18],[-13,-6],[-74,9],[-23,20],[-18,39],[12,13],[16,8],[28,7]],[[1470,1707],[4,-3],[2,-6],[0,-6],[-4,-5],[1,-15],[-4,-10],[-7,-7],[-15,-5],[-22,-19],[-11,-3],[-12,3],[-11,6],[-21,17],[-5,10],[-3,14],[-2,22],[12,14],[12,9],[27,4],[21,-11],[32,-4],[6,-5]],[[2094,4096],[858,0],[-4,-3],[-16,-5],[-33,2],[-14,-5],[-50,-59],[-13,-7],[-26,-4],[-1,2],[-1,5],[-2,4],[-2,2],[-17,0],[-2,5],[-9,29],[-11,9],[-16,2],[-16,-5],[-24,-21],[-55,-16],[-18,-18],[-10,-6],[-127,-6],[-6,4],[-5,5],[-5,2],[-6,-5],[-3,-5],[-3,-7],[-3,-6],[-4,-2],[-127,-24],[-127,-25],[-127,-24],[-18,7],[-7,22],[3,16],[9,12],[32,26],[7,8],[3,10],[-3,10],[-19,17],[-6,23],[7,14],[11,10],[6,7]],[[4096,3599],[0,-139],[-2,0],[-16,2],[-4,-8],[-2,-25],[-6,-6],[-56,8],[-9,-5],[-6,-14],[-8,7],[1,8],[2,5],[2,4],[3,3],[-10,0],[-18,8],[-10,0],[-5,-4],[-6,-7],[-4,-10],[-2,-11],[5,-14],[11,-7],[32,-6],[6,-4],[3,-6],[-2,-3],[-10,-11],[-9,9],[-31,5],[-7,6],[-13,28],[-13,15],[-12,2],[-11,-9],[-9,-16],[18,-26],[2,-11],[-3,-9],[-7,-3],[-48,10],[-16,-3],[-14,-18],[4,-1],[8,-5],[99,-13],[15,-19],[6,-3],[3,-6],[-2,-15],[-4,-7],[-27,-25],[-12,-4],[-27,8],[-26,18],[-11,15],[-19,37],[-13,14],[-14,8],[-12,-2],[-8,-7],[1,-5],[5,-2],[8,-1],[5,-3],[7,-14],[10,-12],[7,-20],[6,-21],[1,-12],[3,-9],[-3,-2],[-35,10],[-21,-12],[-82,-17],[-109,23],[8,-10],[75,-28],[8,-11],[6,-17],[3,-19],[3,-14],[8,-11],[17,-13],[0,-7],[-14,-8],[-28,-3],[-13,-9],[0,-6],[29,-1],[11,-7],[-10,-27],[-15,-18],[-45,-34],[-46,23],[-3,11],[-2,16],[-4,15],[-7,13],[-7,3],[-6,-7],[-2,-19],[-5,-9],[-10,-1],[-70,28],[-18,16],[-10,4],[-7,-6],[53,-46],[24,-2],[10,-7],[6,-11],[5,-15],[3,-17],[1,-16],[-2,-5],[-2,-6],[-8,-2],[-18,3],[3,-12],[2,-5],[3,-4],[-6,-7],[0,-6],[6,-3],[9,-8],[6,-2],[-6,-11],[-9,0],[-45,25],[-3,5],[-28,-5],[-9,5],[9,-13],[-1,-17],[-8,-17],[-18,-31],[-11,-7],[-12,0],[-12,10],[0,7],[15,6],[-7,6],[-33,-6],[-29,14],[-8,8],[-2,5],[-3,18],[-4,4],[-10,-1],[-2,-4],[1,-9],[-2,-6],[-1,-3],[-1,-2],[-3,-2],[2,-7],[13,-18],[15,-10],[12,-17],[10,-37],[-6,0],[-13,-6],[-13,-10],[-16,-1],[-7,-4],[0,-7],[11,-6],[32,6],[8,-3],[4,-7],[-1,-11],[-7,-13],[-14,-12],[-51,-2],[0,7],[3,1],[2,2],[1,2],[2,2],[0,7],[-9,-3],[-32,6],[-16,14],[-46,21],[-9,-4],[0,7],[-6,-8],[-27,-13],[-7,-8],[-1,-5],[1,-7],[5,-14],[-22,3],[-6,-3],[-2,-12],[4,-6],[73,-2],[-2,0],[18,-4],[9,-9],[6,-15],[-4,-7],[-1,-8],[0,-9],[2,-10],[-11,-7],[-24,-3],[-10,-10],[6,-7],[7,-5],[7,-3],[7,0],[-13,-23],[-25,1],[-24,13],[-15,16],[1,6],[-3,0],[-8,-6],[-17,-7],[12,-16],[19,-38],[11,-14],[-5,-18],[-6,-8],[-19,-1],[0,-8],[3,0],[0,-6],[-12,4],[-13,11],[-6,14],[8,12],[-48,1],[-39,31],[-12,3],[-13,-8],[37,-44],[2,-14],[-12,-12],[-27,-12],[14,-11],[43,5],[13,-9],[7,-13],[-2,-13],[-13,-6],[-55,6],[-24,-6],[0,-4],[-4,-18],[-2,-6],[11,-8],[33,-5],[7,-6],[-3,-14],[-14,-25],[-15,-6],[-45,18],[-11,-15],[17,-15],[-4,-3],[-9,-3],[-4,-3],[-5,-2],[-5,1],[-2,-2],[4,-8],[0,-7],[-37,-41],[-44,-9],[-10,6],[-7,6],[-17,-8],[-7,2],[-6,4],[-15,2],[-6,-3],[-4,-3],[-2,-3],[-6,-11],[-2,-8],[2,-6],[2,-5],[2,-5],[2,-5],[3,-1],[3,-4],[0,-10],[-2,-5],[-4,-2],[-4,-1],[-3,1],[0,-7],[8,0],[-7,-20],[-15,-16],[-33,-20],[-13,-1],[-5,2],[-4,6],[-7,12],[-4,3],[-10,-2],[-26,-22],[-14,-4],[-12,4],[-11,9],[-3,15],[9,20],[-19,4],[-37,-68],[-26,16],[-14,-6],[-14,-11],[-7,-10],[0,-10],[2,-20],[-1,-4],[-5,-2],[-9,-9],[-3,-2],[-31,13],[-7,10],[-8,7],[-24,-4],[-17,7],[-10,-2],[-5,-9],[8,-16],[20,-14],[9,-10],[6,-17],[-7,-4],[-14,4],[-14,-9],[-51,4],[-27,12],[0,7],[5,3],[7,11],[4,7],[-35,0],[-10,-10],[-9,-19],[-9,-15],[-24,9],[-9,-9],[-3,-13],[56,-26],[-10,-15],[-41,-3],[-14,-9],[-10,11],[-27,15],[-11,18],[-6,22],[-2,20],[-5,13],[-11,3],[-16,-8],[0,-14],[3,-18],[-3,-25],[0,-10],[6,-25],[-1,-13],[-5,-3],[-4,6],[-7,14],[-1,-2],[-5,-8],[-4,-12],[-4,-9],[-6,-3],[-6,4],[-16,19],[-19,30],[-16,7],[-33,2],[4,-7],[12,-8],[6,-6],[4,-7],[11,-27],[0,-7],[-15,-15],[-55,22],[-22,0],[4,-25],[-4,-10],[-8,-1],[-7,2],[-10,-1],[-8,-6],[-7,-8],[-7,-6],[0,-7],[2,-2],[5,-4],[3,0],[-8,-17],[-12,-1],[-47,19],[-11,0],[-7,-8],[-2,-19],[-2,-25],[-35,31],[-11,3],[0,-18],[-10,3],[-37,33],[-7,10],[-7,8],[-9,1],[-8,-7],[-3,-12],[2,-15],[6,-14],[9,-10],[9,-4],[7,-7],[5,-20],[-15,-31],[-9,-12],[-9,-5],[-7,10],[-25,48],[-2,3],[-4,-6],[-14,-8],[-2,-6],[-3,-12],[-1,-30],[-4,-12],[-10,-3],[-23,17],[-9,-14],[9,-11],[20,-14],[6,-17],[0,-6],[-11,10],[-13,7],[-25,3],[-5,3],[-19,17],[-12,7],[-5,5],[-5,9],[2,10],[8,24],[-25,-6],[-6,2],[-12,9],[-16,7],[-3,10],[-1,14],[1,15],[-1,22],[-3,7],[-5,3],[-6,6],[-5,13],[-3,11],[-3,6],[-7,-2],[-8,-17],[-4,-4],[-12,-6],[-13,-2],[-7,-5],[-4,-11],[-2,-21],[-5,-13],[-9,-5],[-8,-9],[2,-24],[7,-11],[19,-22],[2,-8],[-2,-5],[-7,-5],[-9,-4],[-5,0],[-9,2],[-22,19],[-11,7],[-12,1],[-27,-5],[-11,-10],[6,-13],[10,-1],[20,8],[10,-3],[11,-9],[9,-13],[7,-17],[0,-4],[-1,-7],[1,-8],[2,-8],[3,-3],[6,-4],[2,-3],[21,-45],[-8,-8],[-9,-6],[-12,13],[-5,1],[-5,-3],[-4,-6],[-3,-7],[-4,-5],[-6,-2],[-18,9],[-6,-2],[-11,-10],[-5,-1],[-24,1],[-10,8],[-10,18],[-4,13],[-1,9],[1,23],[4,28],[0,16],[-3,7],[-20,2],[-78,34],[-53,-2],[8,-15],[109,-56],[7,-12],[5,-41],[4,-18],[2,-15],[-5,-13],[8,-7],[7,-8],[-12,-9],[-14,-2],[-14,6],[-10,12],[1,4],[1,2],[3,2],[-10,-4],[-18,-15],[-10,-3],[-15,0],[-4,2],[-7,10],[-2,2],[-14,8],[-5,0],[-13,-13],[-4,-2],[-18,8],[-9,1],[-8,-9],[3,-3],[7,-10],[-8,-12],[-29,9],[-6,-8],[-3,-5],[-7,6],[-11,16],[-5,0],[-3,0],[-1,-3],[-1,-9],[-4,0],[-7,6],[-7,2],[-18,18],[-79,41],[-16,14],[9,12],[11,4],[23,-3],[-11,13],[-14,4],[-14,-2],[-11,-8],[-4,-1],[-5,-6],[-2,-11],[3,-16],[6,-9],[17,-7],[7,-11],[-9,-10],[-12,-4],[-40,-1],[-8,6],[-9,16],[2,2],[0,1],[1,3],[-27,-5],[-3,5],[0,10],[-4,17],[-1,1],[0,13],[1,6],[4,15],[4,11],[3,4],[-1,4],[-6,9],[-5,4],[-5,0],[-4,3],[-3,13],[6,-1],[6,4],[4,7],[-1,11],[6,5],[7,-3],[7,-6],[27,-6],[10,2],[8,8],[-6,11],[-9,6],[-8,3],[-113,14],[-4,-2],[-9,-10],[-4,-2],[-8,0],[-8,4],[-6,10],[-2,17],[-4,10],[-15,22],[-4,13],[0,15],[1,11],[-1,10],[-8,12],[-17,9],[-4,9],[-1,22],[2,12],[8,28],[3,15],[-9,12],[-6,-1],[-6,-10],[-14,-44],[-7,-8],[-6,-4],[-21,24],[-7,11],[4,9],[7,32],[-12,20],[-3,7],[-2,11],[-2,20],[-1,10],[-5,15],[-14,36],[-6,11],[-12,5],[-10,-7],[-6,-18],[3,-27],[6,-15],[9,-12],[10,-7],[10,-1],[-8,-6],[-3,-28],[-9,-7],[-32,1],[-11,6],[26,-81],[15,-31],[19,-18],[41,-24],[22,3],[9,-11],[6,-19],[4,-19],[6,-13],[2,-18],[32,-84],[-7,-7],[-8,4],[-9,9],[-31,20],[-62,8],[-17,13],[-4,-3],[-1,-5],[1,-18],[-1,-8],[5,-8],[5,-4],[6,1],[11,16],[8,1],[15,-6],[49,-41],[-1,-3],[-4,-11],[34,7],[18,-4],[8,-20],[2,-13],[8,-19],[3,-12],[-1,-9],[-1,-7],[-1,-10],[3,-15],[-9,1],[-21,12],[-5,-2],[-12,-11],[-8,0],[3,-12],[5,-7],[12,-8],[-2,-12],[-4,-7],[-4,-6],[6,3],[11,1],[-3,-15],[-6,-8],[-4,-9],[1,-16],[5,-9],[15,-6],[5,-13],[-7,1],[-21,7],[2,-6],[2,-16],[1,-6],[-10,1],[-11,12],[-8,2],[-3,-25],[5,-5],[10,-16],[7,-17],[-5,-7],[-49,11],[-13,19],[-7,5],[-33,-14],[-36,0],[-8,-5],[-1,-10],[3,-14],[5,-12],[-13,-13],[-31,-10],[-14,-12],[4,-15],[-3,-11],[-6,-8],[-27,-20],[-2,-5],[-3,-7],[-3,-6],[-10,-5],[-8,-9],[-22,-9],[-9,-12],[-47,-4],[-28,16],[-10,1],[-10,-2],[-6,-6],[-2,-18],[3,-12],[7,-8],[8,-3],[21,-1],[10,-5],[6,-15],[-3,-3],[-10,-14],[-2,-7],[-2,-10],[-5,-4],[-5,-3],[-4,-4],[-16,-29],[-8,-11],[-9,-4],[-14,-1],[-4,1],[-15,19],[-5,2],[-10,-13],[2,-17],[9,-16],[9,-10],[-13,-19],[17,5],[8,-2],[3,-14],[-4,-14],[-8,-12],[-16,-11],[0,-7],[24,-16],[4,-5],[-2,-12],[-4,-5],[-6,-3],[-4,-4],[-7,-20],[-4,-8],[-7,-3],[-13,-2],[-5,4],[-3,12],[5,8],[-4,9],[-7,4],[-4,-10],[-3,-2],[-20,5],[1,-4],[1,-3],[0,-3],[1,-4],[-9,1],[-9,5],[-9,2],[-8,-8],[12,-14],[-1,-2],[0,-1],[0,-1],[-1,-2],[9,-6],[46,-8],[0,-7],[-5,0],[-15,-7],[0,-7],[8,-1],[7,-4],[3,-9],[-6,-13],[5,-14],[17,-14],[6,-14],[-44,-13],[-23,0],[-6,3],[-3,6],[-3,7],[-3,4],[-4,1],[-3,-3],[-21,-30],[-1,-5],[6,-7],[23,10],[7,-2],[20,-18],[-5,-23],[-6,-11],[0,-8],[11,-13],[-8,-15],[-3,-8],[-2,-11],[2,-8],[4,-8],[2,-8],[-3,-10],[-4,0],[-15,20],[-6,1],[-17,-1],[2,0],[-5,-2],[-4,-6],[-4,-9],[-2,-14],[-2,-9],[-6,-6],[-14,-4],[0,3562],[1976,0],[3,-4],[8,-6],[19,-3],[0,-7],[-9,-5],[-16,-24],[-20,-8],[-19,-14],[-11,-3],[-26,2],[-9,-2],[-5,-5],[-9,-13],[-6,-3],[-43,6],[-117,-44],[-9,-13],[-5,-4],[-35,8],[-10,-2],[-9,-7],[-4,-13],[1,-3],[-1,-4],[17,-14],[3,-6],[-1,-9],[-3,-5],[-3,-6],[-3,-7],[35,0],[28,18],[11,2],[9,5],[16,24],[9,5],[11,3],[34,18],[78,5],[11,4],[18,26],[12,3],[24,-4],[41,7],[-3,-8],[-3,-5],[-4,-2],[-5,2],[3,-12],[1,-5],[4,-4],[-1,-5],[-9,-19],[-5,-9],[-2,-9],[3,-17],[5,-10],[19,-24],[15,-11],[47,15],[17,-2],[5,-1],[157,36],[156,36],[43,-14],[58,12],[38,26],[21,4],[78,-10],[17,-13],[59,-82],[-7,-11],[-9,-9],[-8,-5],[-22,-3],[-3,-6],[1,-13],[-90,-42],[-9,-1],[-47,12],[-30,25],[-13,2],[-17,-21],[-23,-10],[-21,-25],[-14,-9],[-29,-6],[-14,-7],[-36,-52],[-6,-13],[-9,-9],[-98,-41],[-27,-27],[-14,-9],[-32,-7],[-55,39],[-19,12],[-53,2],[-2,-5],[-20,-5],[-40,-42],[-20,-8],[-34,14],[-6,-7],[2,-17],[9,-15],[9,-12],[7,-4],[25,7],[30,0],[50,20],[45,0],[8,-7],[9,-16],[9,-17],[12,-9],[8,-9],[4,-3],[3,0],[9,7],[26,4],[21,18],[76,21],[15,0],[11,-12],[1,-11],[0,-11],[-3,-23],[0,-13],[2,-8],[2,-6],[4,-7],[12,-9],[49,11],[11,7],[9,14],[35,97],[3,14],[-2,6],[-3,6],[-2,11],[2,11],[4,8],[2,9],[-3,13],[30,36],[10,5],[17,-7],[9,-1],[9,8],[25,40],[10,9],[14,3],[76,-9],[10,-7],[26,-32],[77,-14],[19,14],[14,14],[92,51],[28,30],[160,72],[11,12],[28,8],[20,14],[21,0],[12,-5],[4,-10],[-13,-19],[-14,-6],[-30,-2],[-13,-12],[44,0],[-5,-8],[-14,-13],[-3,-10],[-2,-3],[-3,-11],[-2,-11],[4,-16],[1,-3],[3,-4],[2,-2],[33,-1],[6,3],[3,6],[2,9],[3,9],[5,9],[45,48],[10,5],[11,-1],[15,-8],[13,-12],[6,-17],[1,-13],[2,-10],[4,-6],[5,-2],[5,4],[1,6],[0,6],[1,5],[14,6],[12,-8],[14,-12],[25,-12],[24,-23],[9,1],[6,-9],[31,-14],[3,-7],[1,-7],[0,-7],[1,-4],[3,-2],[12,2],[78,-14],[14,-11],[52,-12],[7,-7],[5,-12],[6,-7],[7,-4],[16,-2],[4,-4],[7,-10],[11,-5],[24,16],[14,-7],[8,-7],[30,-2],[9,-3],[16,-14],[9,-4],[144,0],[145,1],[97,1]],[[3576,4096],[491,0],[2,-13],[2,-15],[1,-13],[-1,-14],[-3,-10],[-2,-10],[1,-14],[-3,-14],[-5,-34],[-3,-16],[-8,-14],[-11,-7],[-129,2],[-29,-14],[-91,14],[-123,104],[-23,9],[-23,15],[-43,44]],[[0,475],[0,28],[8,-15],[-2,-3],[2,-4],[-8,-6]]]}