{"objects":{"water":{"type":"GeometryCollection","geometries":[{"type":"MultiPolygon","properties":{"source":"naturalearthdata.com","kind":"ocean","area":989871000000000,"sort_rank":200,"min_zoom":0,"id":1},"arcs":[[[0],[1],[2],[3],[4],[5],[6]]]},{"type":"MultiLineString","properties":{"source":"naturalearthdata.com","kind":"ocean","sort_rank":205,"boundary":true,"min_zoom":0,"id":411},"arcs":[[7],[8],[9],[10],[11],[12],[13],[14]]}]},"buildings":{"type":"GeometryCollection","geometries":[]},"places":{"type":"GeometryCollection","geometries":[]},"transit":{"type":"GeometryCollection","geometries":[]},"pois":{"type":"GeometryCollection","geometries":[]},"boundaries":{"type":"GeometryCollection","geometries":[]},"roads":{"type":"GeometryCollection","geometries":[]},"earth":{"type":"GeometryCollection","geometries":[{"type":"MultiPolygon","properties":{"sort_rank":10,"source":"naturalearthdata.com","min_zoom":0,"kind":"earth","area":26122094535451},"arcs":[[[15]],[[16]],[[17]],[[18]],[[19]],[[20]],[[21]],[[22]]]}]},"landuse":{"type":"GeometryCollection","geometries":[{"type":"MultiPolygon","properties":{"source":"naturalearthdata.com","kind":"urban_area","area":236906878030,"sort_rank":11,"min_zoom":4.0,"id":290},"arcs":[[[23]]]},{"type":"MultiPolygon","properties":{"kind":"nature_reserve","protect_class":"5","area":22861836673,"sort_rank":23,"source":"openstreetmap.org","min_zoom":4.0,"tier":2,"id":-6149195},"arcs":[[[24]]]},{"type":"MultiPolygon","properties":{"kind":"national_park","protect_class":"2","area":238416157980,"sort_rank":18,"source":"openstreetmap.org","min_zoom":3.0,"tier":1,"id":-9460113},"arcs":[[[25]]]},{"type":"MultiPolygon","properties":{"kind":"nature_reserve","protect_class":"4","area":261179315601,"sort_rank":23,"source":"openstreetmap.org","min_zoom":4.0,"tier":2,"id":-7512408},"arcs":[[[26]],[[27]]]},{"type":"MultiPolygon","properties":{"kind":"nature_reserve","protect_class":"6","area":198729231850,"sort_rank":23,"source":"openstreetmap.org","min_zoom":4.0,"tier":2,"id":-7512405},"arcs":[[[28]]]}]}},"type":"Topology","transform":{"translate":[-33.75,61.6063963714],"scale":[0.002746582,0.0011979649]},"arcs":[[[4096,1858],[0,-1858],[-4096,0],[0,4096],[4096,0],[0,-63],[-4,2],[-11,13],[-12,8],[-14,-4],[1,-9],[1,-3],[-9,-5],[-14,-16],[-9,-2],[-8,5],[-13,15],[-16,6],[-13,12],[-7,2],[-36,0],[18,-15],[6,-2],[6,-4],[1,-8],[-3,-7],[-8,2],[-2,4],[-3,10],[-2,3],[-3,1],[-40,-6],[3,-4],[2,-4],[3,-10],[-11,6],[-12,9],[-11,5],[-11,-8],[7,-13],[11,-12],[12,-8],[10,-1],[-8,-26],[-16,-3],[-17,7],[-14,-1],[-5,-8],[2,-5],[6,-6],[10,-12],[15,-8],[58,-14],[9,10],[3,2],[14,24],[6,7],[6,5],[13,5],[0,-6],[-5,-7],[-6,-11],[-2,-11],[4,-5],[15,2],[7,4],[29,29],[12,8],[16,3],[-18,-7],[-5,-5],[-1,-6],[-2,-16],[-1,-6],[-8,-9],[-3,-6],[1,-9],[3,-2],[17,-3],[21,2],[19,10],[14,14],[2,0],[0,-11],[-1,-1],[-5,-5],[-4,-6],[-6,-6],[-6,-1],[-2,-1],[8,-7],[15,-7],[1,0],[0,-14],[-4,-1],[-18,0],[4,-11],[1,-4],[3,-3],[-5,-5],[-5,2],[-10,9],[-2,3],[-1,4],[-2,4],[-4,1],[-10,0],[-38,11],[-12,1],[-54,-14],[-17,-10],[15,-37],[26,-25],[86,-35],[21,-20],[26,-12],[0,-98],[-1,3],[-5,8],[-8,-1],[0,-6],[-2,-17],[-25,-61],[-8,-32],[-5,-1],[-3,7],[4,15],[19,49],[-2,2],[0,4],[2,4],[3,8],[1,9],[2,18],[0,4],[-3,3],[-13,23],[-14,14],[-3,4],[-2,7],[-1,12],[-3,2],[-24,2],[-2,-1],[-3,-6],[-4,-14],[-3,-20],[-2,-22],[1,-18],[-12,-41],[-2,12],[3,20],[2,23],[-5,22],[-4,-2],[-5,-13],[-7,-21],[-6,-8],[-7,-3],[-14,-1],[12,8],[10,16],[9,19],[6,20],[-5,5],[-6,-4],[-6,-8],[-5,-5],[0,2],[2,4],[-5,20],[-3,6],[-4,3],[-4,-3],[-3,-6],[-1,-7],[-2,-7],[-8,-11],[-19,-23],[-8,-12],[-3,0],[4,8],[16,29],[2,2],[6,11],[2,6],[0,8],[-2,13],[0,12],[-1,5],[-7,9],[-5,10],[-3,5],[-4,2],[-7,-3],[-18,-26],[-3,18],[2,12],[-6,16],[-10,12],[-7,6],[-11,2],[-37,26],[-57,15],[-8,-4],[-1,-11],[-6,-5],[-15,0],[-2,-2],[-4,-1],[-6,-6],[-5,-8],[-4,-6],[0,-7],[9,-6],[35,1],[8,-4],[14,-22],[9,-8],[-32,25],[-24,4],[-32,-3],[-12,-9],[12,-16],[22,-18],[11,-15],[4,-3],[9,-1],[16,-8],[9,-2],[7,-5],[11,-27],[6,-8],[0,-6],[-7,3],[-6,8],[-5,11],[-1,13],[-13,-7],[-20,5],[-66,37],[-19,4],[-15,-5],[-5,-10],[-2,-13],[0,-26],[3,-7],[15,-19],[17,-15],[8,-3],[4,-8],[10,-5],[20,-26],[9,-6],[37,-8],[17,-15],[10,-5],[30,-3],[9,-11],[31,-9],[-13,-6],[-14,5],[-26,18],[-15,0],[-45,17],[-23,-6],[-7,1],[-6,5],[-12,13],[-7,4],[-27,6],[-21,12],[-7,0],[-15,-17],[-2,-25],[8,-28],[12,-22],[21,-23],[5,-8],[4,-4],[20,7],[12,-12],[20,-7],[98,-2],[15,13],[12,5],[20,3],[-5,-6],[-18,-12],[0,-5],[4,0],[2,-1],[4,-5],[-7,-6],[-8,1],[-16,5],[-7,-1],[-10,-9],[-29,-3],[-6,4],[-5,2],[-23,-10],[-3,-4],[3,-9],[7,-10],[5,-6],[14,-9],[20,-6],[43,4],[-5,-5],[-6,-1],[-5,1],[-6,-1],[-17,-11],[-6,0],[3,-8],[1,-2],[3,-2],[0,-5],[-8,-3],[-20,5],[-4,-8],[-6,7],[-1,4],[-15,-20],[-9,-6],[-6,4],[3,12],[4,9],[1,9],[-3,15],[-3,4],[-10,8],[-6,12],[-4,4],[-153,82],[-16,1],[-15,-13],[3,-10],[1,-10],[-1,-10],[2,-11],[15,-29],[13,-17],[8,-8],[16,-6],[19,-12],[16,-5],[11,-8],[9,-11],[7,-13],[-11,4],[-36,20],[-55,11],[7,-12],[11,-15],[10,-17],[18,-19],[7,-3],[6,-9],[5,-10],[6,-7],[7,-4],[9,-2],[16,1],[-20,-11],[-11,0],[-11,5],[-6,8],[-6,9],[-6,8],[-25,7],[-14,8],[-20,25],[-7,3],[-10,2],[-35,20],[-10,2],[-5,-2],[-6,-8],[-11,-7],[-2,-13],[0,-15],[-2,-13],[-6,-7],[-22,-13],[-4,-6],[-4,-8],[-8,-8],[-16,-9],[8,-14],[13,-2],[104,10],[56,-22],[9,-13],[4,12],[8,1],[7,-8],[-1,-15],[-3,3],[-3,2],[-7,0],[4,-4],[4,-6],[2,-6],[-2,-7],[0,-6],[14,-10],[17,-1],[67,17],[14,23],[3,3],[2,1],[2,3],[0,10],[11,-6],[49,10],[20,15],[10,4],[-2,4],[-2,1],[-1,1],[4,3],[1,2],[3,0],[2,0],[4,-7],[4,-6],[6,-3],[6,-1],[10,-4],[24,-3],[6,2],[5,4],[8,13],[5,5],[0,6],[-7,11],[0,18],[6,17],[10,6],[0,-6],[-1,-12],[11,-10],[20,-10],[10,6],[22,5],[8,9],[1,8],[2,27],[1,5],[4,-3],[2,-8],[2,-11],[2,-9],[7,-5],[10,8],[7,16],[2,19],[13,-8],[6,-7],[4,-9],[-10,-4],[-16,-22],[-9,-8],[0,-6],[9,-1],[3,1],[0,-8],[4,-1],[12,4],[5,-2],[4,-3],[2,-6],[-2,-7],[0,-5],[7,-1],[6,-3],[7,-1],[5,5],[-10,64],[-4,10],[-3,18],[0,5],[2,5],[2,1],[6,0],[10,-6],[3,0],[2,3],[1,1],[4,-4],[-9,-16],[-2,-14],[1,-14],[9,-26],[3,-6],[2,-4],[5,0],[4,3],[3,6],[2,22],[3,-1],[7,-16],[6,-8],[4,0],[4,6],[7,15],[2,6],[0,7],[-6,18],[0,9],[0,9],[0,4],[4,8],[5,-10],[7,-30],[4,-14],[1,-10],[-2,-10],[1,-14],[1,-5],[0,-246],[-9,-11],[-6,-12],[-4,-12],[17,7],[2,-1],[0,-9],[-5,-4],[-10,-4],[-6,-3],[7,-8],[10,-4],[4,0],[0,-62],[-2,-1],[-2,2],[-2,0],[-1,-2],[1,-3],[-2,-6],[1,-1],[5,6],[1,0],[1,0],[0,-19],[-17,0],[-6,-3],[-1,-11],[-7,0],[-6,-4],[-10,-13],[9,-15],[4,-6],[5,-2],[0,-6],[-6,3],[-16,15],[-13,5],[-3,7],[-2,16],[-5,-5],[-7,-2],[-6,0],[-4,1],[4,5],[11,6],[5,7],[-1,3],[0,1],[1,7],[-6,4],[-7,2],[3,2],[2,3],[-15,-3],[-27,-28],[-15,-3],[0,-6],[26,3],[6,-3],[-22,-15],[-22,-5],[-7,-6],[-6,-8],[-9,14],[-9,9],[-11,-1],[-10,-13],[-2,-5],[-2,-11],[-2,-5],[-3,-2],[-7,-1],[-2,-2],[-4,-8],[-2,-9],[1,-11],[2,-12],[-20,29],[3,7],[2,5],[3,3],[4,1],[-1,8],[-1,4],[10,7],[5,6],[2,10],[-29,5],[-16,-3],[-10,-13],[-1,-12],[2,-12],[3,-11],[1,-8],[-2,-9],[-5,-8],[-7,-3],[-6,6],[-6,-9],[-2,6],[0,12],[-1,8],[-5,0],[-2,-6],[-4,-4],[-4,3],[2,15],[-5,4],[-15,-1],[1,-4],[1,-3],[1,-2],[2,-2],[0,-7],[-33,6],[-15,-5],[-13,-20],[-4,-4],[-15,1],[-3,-4],[-7,-11],[-3,-2],[-40,7],[-30,19],[-7,1],[-40,-11],[-7,-5],[-13,-15],[-7,-3],[-8,7],[-2,-6],[10,-36],[6,-14],[6,-13],[16,-24],[2,-8],[1,-14],[4,-4],[6,-2],[5,-8],[26,-15],[8,1],[16,9],[8,2],[27,1],[10,8],[6,19],[2,17],[11,14],[14,7],[6,-2],[-5,-1],[-4,-2],[-4,-4],[43,-12],[4,1],[4,2],[4,4],[2,3],[7,11],[0,3],[35,8],[20,-2],[21,-22],[51,-3],[43,0],[46,-4],[-3,0],[11,-2],[17,-15],[10,-1],[0,6],[-20,12],[-5,6],[38,0],[3,-3],[5,-6],[4,-7],[1,-5],[-3,-3],[-5,-1],[-8,1],[8,-6],[34,6],[-7,5],[-3,1],[0,6],[6,3],[11,12],[5,2],[12,-3],[0,-689],[-7,0],[-9,3],[-6,9],[6,0],[-5,21],[-9,20],[-10,15],[-13,9],[-11,13],[-5,2],[-5,-3],[-3,-6],[-3,-7],[1,-7],[0,-8],[0,-17],[0,-10],[-2,-6],[-5,-16],[2,-16],[6,-11],[8,-6],[7,-2],[9,6],[3,0],[2,-8],[-3,-3],[-16,0],[-3,-7],[-7,-30],[-6,-9],[4,-7],[4,-3],[3,-4],[2,-9],[-1,-10],[-2,-5],[-3,-6],[-2,-8],[4,-3],[5,-11],[5,-2],[3,1],[2,4],[2,3],[2,3],[8,3],[35,-4],[4,1],[4,3],[5,5]],[[4060,2939],[-4,-4],[-1,-1],[-2,0],[0,-4],[2,0],[2,-3],[3,0],[-1,-3],[-3,-1],[-2,-2],[2,-1],[4,2],[4,3],[1,1],[-1,1],[1,2],[0,4],[-2,2],[-3,4]],[[4079,2945],[-2,0],[-1,2],[-1,-3],[-1,-1],[-1,-1],[-1,-2],[0,1],[-1,2],[-1,0],[-3,1],[0,-5],[3,-3],[1,-2],[3,0],[0,1],[0,3],[2,1],[2,-1],[1,2],[3,3],[0,4],[-2,0],[-1,-2]],[[4034,2963],[0,-2],[-2,-2],[-1,-1],[-1,-2],[-2,1],[2,-6],[3,1],[1,2],[2,2],[3,1],[0,5],[-2,1],[-3,0]],[[4056,2985],[-3,2],[-13,-12],[-3,-6],[1,-3],[7,2],[1,2],[-2,2],[0,2],[5,5],[2,2],[5,2],[0,2]],[[3979,3147],[0,-8],[3,5],[3,2],[1,5],[-2,-1],[-5,-3]],[[4048,3201],[2,7],[-5,-3],[-2,1],[-1,-2],[-2,-3],[2,-3],[6,3]],[[4096,1858],[-5,-5],[-4,-3],[-4,-1],[-35,4],[-8,-3],[-2,-3],[-2,-3],[-2,-4],[-3,-1],[-5,2],[-5,11],[-4,3],[2,8],[3,6],[2,5],[1,10],[-2,9],[-3,4],[-4,3],[-4,7],[6,9],[7,30],[3,7],[16,0],[3,3],[-2,8],[-3,0],[-9,-6],[-7,2],[-8,6],[-6,11],[-2,16],[5,16],[2,6],[0,10],[0,17],[0,8],[-1,7],[3,7],[3,6],[5,3],[5,-2],[11,-13],[13,-9],[10,-15],[9,-20],[5,-21],[-6,0],[6,-9],[9,-3],[7,0]],[[4096,2670],[-12,3],[-5,-2],[-11,-12],[-6,-3],[0,-6],[3,-1],[7,-5],[-34,-6],[-8,6],[8,-1],[5,1],[3,3],[-1,5],[-4,7],[-5,6],[-3,3],[-38,0],[5,-6],[20,-12],[0,-6],[-10,1],[-17,15],[-11,2],[3,0],[-46,4],[-43,0],[-51,3],[-21,22],[-20,2],[-35,-8],[0,-3],[-7,-11],[-2,-3],[-4,-4],[-4,-2],[-4,-1],[-43,12],[4,4],[4,2],[5,1],[-6,2],[-14,-7],[-11,-14],[-2,-17],[-6,-19],[-10,-8],[-27,-1],[-8,-2],[-16,-9],[-8,-1],[-26,15],[-5,8],[-6,2],[-4,4],[-1,14],[-2,8],[-16,24],[-6,13],[-6,14],[-10,36],[2,6],[8,-7],[7,3],[13,15],[7,5],[40,11],[7,-1],[30,-19],[40,-7],[3,2],[7,11],[3,4],[15,-1],[4,4],[13,20],[15,5],[33,-6],[0,7],[-2,2],[-1,2],[-1,3],[-1,4],[15,1],[5,-4],[-2,-15],[4,-3],[4,4],[2,6],[5,0],[1,-8],[0,-12],[2,-6],[6,9],[6,-6],[7,3],[5,8],[2,9],[-1,8],[-3,11],[-2,12],[1,12],[10,13],[16,3],[29,-5],[-2,-10],[-5,-6],[-10,-7],[1,-4],[1,-8],[-4,-1],[-3,-3],[-2,-5],[-3,-7],[20,-29],[-2,12],[-1,11],[2,9],[4,8],[2,2],[7,1],[3,2],[2,5],[2,11],[2,5],[10,13],[11,1],[9,-9],[9,-14],[6,8],[7,6],[22,5],[22,15],[-6,3],[-26,-3],[0,6],[15,3],[27,28],[15,3],[-2,-3],[-3,-2],[7,-2],[6,-4],[-1,-7],[0,-1],[1,-3],[-5,-7],[-11,-6],[-4,-5],[4,-1],[6,0],[7,2],[5,5],[2,-16],[3,-7],[13,-5],[16,-15],[6,-3],[0,6],[-5,2],[-4,6],[-9,15],[10,13],[6,4],[7,0],[1,11],[6,3],[17,0]],[[4096,2962],[-4,0],[-10,4],[-7,8],[6,3],[10,4],[5,4]],[[4096,2994],[-2,1],[-17,-7],[4,12],[6,12],[9,11]],[[4096,3269],[-1,5],[-1,14],[2,10],[-1,10],[-4,14],[-7,30],[-5,10],[-4,-8],[0,-4],[0,-9],[0,-9],[6,-18],[0,-7],[-2,-6],[-7,-15],[-4,-6],[-4,0],[-6,8],[-7,16],[-3,1],[-2,-22],[-3,-6],[-4,-3],[-5,0],[-2,4],[-3,6],[-9,26],[-1,14],[2,14],[9,16],[-4,4],[-1,-1],[-2,-3],[-3,0],[-10,6],[-6,0],[-2,-1],[-2,-5],[0,-5],[3,-18],[4,-10],[10,-64],[-5,-5],[-7,1],[-6,3],[-7,1],[0,5],[2,7],[-2,6],[-4,3],[-5,2],[-12,-4],[-4,1],[0,8],[-3,-1],[-9,1],[0,6],[9,8],[16,22],[10,4],[-4,9],[-6,7],[-13,8],[-2,-19],[-7,-16],[-10,-8],[-7,5],[-2,9],[-2,11],[-2,8],[-4,3],[-1,-5],[-2,-27],[-1,-8],[-8,-9],[-22,-5],[-10,-6],[-20,10],[-11,10],[1,12],[0,6],[-10,-6],[-6,-17],[0,-18],[7,-11],[0,-6],[-5,-5],[-8,-13],[-5,-4],[-6,-2],[-24,3],[-10,4],[-6,1],[-6,3],[-4,6],[-4,7],[-2,0],[-3,0],[-1,-2],[-4,-3],[1,-1],[2,-1],[2,-4],[-10,-4],[-20,-15],[-49,-10],[-11,6],[0,-10],[-2,-3],[-2,-1],[-3,-3],[-14,-23],[-67,-17],[-17,1],[-14,10],[0,6],[2,7],[-2,6],[-4,6],[-4,4],[7,0],[3,-2],[3,-3],[1,15],[-7,8],[-8,-1],[-4,-12],[-9,13],[-56,22],[-104,-10],[-13,2],[-8,14],[16,9],[8,8],[4,8],[4,6],[22,13],[6,7],[2,13],[0,15],[2,13],[11,7],[6,8],[5,2],[10,-2],[35,-20],[10,-2],[7,-3],[20,-25],[14,-8],[25,-7],[6,-8],[6,-9],[6,-8],[11,-5],[11,0],[20,11],[-16,-1],[-9,2],[-7,4],[-6,7],[-5,10],[-6,9],[-7,3],[-18,19],[-10,17],[-11,15],[-7,12],[55,-11],[36,-20],[11,-4],[-7,13],[-9,11],[-11,8],[-16,5],[-19,12],[-16,6],[-8,8],[-13,17],[-15,29],[-2,11],[1,10],[-1,10],[-3,10],[15,13],[16,-1],[153,-82],[4,-4],[6,-12],[10,-8],[3,-4],[3,-15],[-1,-9],[-4,-9],[-3,-12],[6,-4],[9,6],[15,20],[1,-4],[6,-7],[4,8],[20,-5],[8,3],[0,5],[-3,2],[-1,2],[-3,8],[6,0],[17,11],[6,1],[5,-1],[6,1],[5,5],[-43,-4],[-20,6],[-14,9],[-5,6],[-7,10],[-3,9],[3,4],[23,10],[5,-2],[6,-4],[29,3],[10,9],[7,1],[16,-5],[8,-1],[7,6],[-4,5],[-2,1],[-4,0],[0,5],[18,12],[5,6],[-20,-3],[-12,-5],[-15,-13],[-98,2],[-20,7],[-12,12],[-20,-7],[-4,4],[-5,8],[-21,23],[-12,22],[-8,28],[2,25],[15,17],[7,0],[21,-12],[27,-6],[7,-4],[12,-13],[6,-5],[7,-1],[23,6],[45,-17],[15,0],[26,-18],[14,-5],[13,6],[-31,9],[-9,11],[-30,3],[-10,5],[-17,15],[-37,8],[-9,6],[-20,26],[-10,5],[-4,8],[-8,3],[-17,15],[-15,19],[-3,7],[0,26],[2,13],[5,10],[15,5],[19,-4],[66,-37],[20,-5],[13,7],[1,-13],[5,-11],[6,-8],[7,-3],[0,6],[-6,8],[-11,27],[-7,5],[-9,2],[-16,8],[-9,1],[-4,3],[-11,15],[-22,18],[-12,16],[12,9],[32,3],[24,-4],[32,-25],[-9,8],[-14,22],[-8,4],[-35,-1],[-9,6],[0,7],[4,6],[5,8],[6,6],[4,1],[2,2],[15,0],[6,5],[1,11],[8,4],[57,-15],[37,-26],[11,-2],[7,-6],[10,-12],[6,-16],[-2,-12],[3,-18],[18,26],[7,3],[4,-2],[3,-5],[5,-10],[7,-9],[1,-5],[0,-12],[2,-13],[0,-8],[-2,-6],[-6,-11],[-2,-2],[-16,-29],[-4,-8],[3,0],[8,12],[19,23],[8,11],[2,7],[1,7],[3,6],[4,3],[4,-3],[3,-6],[5,-20],[-2,-4],[0,-2],[5,5],[6,8],[6,4],[5,-5],[-6,-20],[-9,-19],[-10,-16],[-12,-8],[14,1],[7,3],[6,8],[7,21],[5,13],[4,2],[5,-22],[-2,-23],[-3,-20],[2,-12],[12,41],[-1,18],[2,22],[3,20],[4,14],[3,6],[2,1],[24,-2],[3,-2],[1,-12],[2,-7],[3,-4],[14,-14],[13,-23],[3,-3],[0,-4],[-2,-18],[-1,-9],[-3,-8],[-2,-4],[0,-4],[2,-2],[-19,-49],[-4,-15],[3,-7],[5,1],[8,32],[25,61],[2,17],[0,6],[8,1],[5,-8],[1,-3]],[[4096,3734],[-26,12],[-21,20],[-86,35],[-26,25],[-15,37],[17,10],[54,14],[12,-1],[38,-11],[10,0],[4,-1],[2,-4],[1,-4],[2,-3],[10,-9],[5,-2],[5,5],[-3,3],[-1,4],[-4,11],[18,0],[4,1]],[[4096,3890],[-1,0],[-15,7],[-8,7],[2,1],[6,1],[6,6],[4,6],[5,5],[1,1]],[[4096,3935],[-2,0],[-14,-14],[-19,-10],[-21,-2],[-17,3],[-3,2],[-1,9],[3,6],[8,9],[1,6],[2,16],[1,6],[5,5],[18,7],[-16,-3],[-12,-8],[-29,-29],[-7,-4],[-15,-2],[-4,5],[2,11],[6,11],[5,7],[0,6],[-13,-5],[-6,-5],[-6,-7],[-14,-24],[-3,-2],[-9,-10],[-58,14],[-15,8],[-10,12],[-6,6],[-2,5],[5,8],[14,1],[17,-7],[16,3],[8,26],[-10,1],[-12,8],[-11,12],[-7,13],[11,8],[11,-5],[12,-9],[11,-6],[-3,10],[-2,4],[-3,4],[40,6],[3,-1],[2,-3],[3,-10],[2,-4],[8,-2],[3,7],[-1,8],[-6,4],[-6,2],[-18,15],[36,0],[7,-2],[13,-12],[16,-6],[13,-15],[8,-5],[9,2],[14,16],[9,5],[-1,3],[-1,9],[14,4],[12,-8],[11,-13],[4,-2]],[[4096,1981],[0,-123],[-5,-5],[-4,-3],[-4,-1],[-35,4],[-8,-3],[-2,-3],[-2,-3],[-2,-4],[-3,-1],[-5,2],[-5,11],[-4,3],[2,8],[3,6],[2,5],[1,10],[-2,9],[-3,4],[-4,3],[-4,7],[6,9],[7,30],[3,7],[16,0],[3,3],[-2,8],[-3,0],[-9,-6],[-7,2],[-8,6],[-6,11],[-2,16],[5,16],[2,6],[0,10],[0,17],[0,8],[-1,7],[3,7],[3,6],[5,3],[5,-2],[11,-13],[13,-9],[10,-15],[9,-20],[5,-21],[-6,0],[6,-9],[9,-3],[7,0]],[[4096,2876],[0,-206],[-12,3],[-5,-2],[-11,-12],[-6,-3],[0,-6],[3,-1],[7,-5],[-34,-6],[-8,6],[8,-1],[5,1],[3,3],[-1,5],[-4,7],[-5,6],[-3,3],[-38,0],[5,-6],[20,-12],[0,-6],[-10,1],[-17,15],[-11,2],[3,0],[-46,4],[-43,0],[-51,3],[-21,22],[-20,2],[-35,-8],[0,-3],[-7,-11],[-2,-3],[-4,-4],[-4,-2],[-4,-1],[-43,12],[4,4],[4,2],[5,1],[-6,2],[-14,-7],[-11,-14],[-2,-17],[-6,-19],[-10,-8],[-27,-1],[-8,-2],[-16,-9],[-8,-1],[-26,15],[-5,8],[-6,2],[-4,4],[-1,14],[-2,8],[-16,24],[-6,13],[-6,14],[-10,36],[2,6],[8,-7],[7,3],[13,15],[7,5],[40,11],[7,-1],[30,-19],[40,-7],[3,2],[7,11],[3,4],[15,-1],[4,4],[13,20],[15,5],[33,-6],[0,7],[-2,2],[-1,2],[-1,3],[-1,4],[15,1],[5,-4],[-2,-15],[4,-3],[4,4],[2,6],[5,0],[1,-8],[0,-12],[2,-6],[6,9],[6,-6],[7,3],[5,8],[2,9],[-1,8],[-3,11],[-2,12],[1,12],[10,13],[16,3],[29,-5],[-2,-10],[-5,-6],[-10,-7],[1,-4],[1,-8],[-4,-1],[-3,-3],[-2,-5],[-3,-7],[20,-29],[-2,12],[-1,11],[2,9],[4,8],[2,2],[7,1],[3,2],[2,5],[2,11],[2,5],[10,13],[11,1],[9,-9],[9,-14],[6,8],[7,6],[22,5],[22,15],[-6,3],[-26,-3],[0,6],[15,3],[27,28],[15,3],[-2,-3],[-3,-2],[7,-2],[6,-4],[-1,-7],[0,-1],[1,-3],[-5,-7],[-11,-6],[-4,-5],[4,-1],[6,0],[7,2],[5,5],[2,-16],[3,-7],[13,-5],[16,-15],[6,-3],[0,6],[-5,2],[-4,6],[-9,15],[10,13],[6,4],[7,0],[1,11],[6,3],[17,0]],[[4096,2985],[0,-23],[-4,0],[-10,4],[-7,8],[6,3],[10,4],[5,4]],[[4096,3023],[0,-29],[-2,1],[-17,-7],[4,12],[6,12],[9,11]],[[4096,3636],[0,-367],[-1,5],[-1,14],[2,10],[-1,10],[-4,14],[-7,30],[-5,10],[-4,-8],[0,-4],[0,-9],[0,-9],[6,-18],[0,-7],[-2,-6],[-7,-15],[-4,-6],[-4,0],[-6,8],[-7,16],[-3,1],[-2,-22],[-3,-6],[-4,-3],[-5,0],[-2,4],[-3,6],[-9,26],[-1,14],[2,14],[9,16],[-4,4],[-1,-1],[-2,-3],[-3,0],[-10,6],[-6,0],[-2,-1],[-2,-5],[0,-5],[3,-18],[4,-10],[10,-64],[-5,-5],[-7,1],[-6,3],[-7,1],[0,5],[2,7],[-2,6],[-4,3],[-5,2],[-12,-4],[-4,1],[0,8],[-3,-1],[-9,1],[0,6],[9,8],[16,22],[10,4],[-4,9],[-6,7],[-13,8],[-2,-19],[-7,-16],[-10,-8],[-7,5],[-2,9],[-2,11],[-2,8],[-4,3],[-1,-5],[-2,-27],[-1,-8],[-8,-9],[-22,-5],[-10,-6],[-20,10],[-11,10],[1,12],[0,6],[-10,-6],[-6,-17],[0,-18],[7,-11],[0,-6],[-5,-5],[-8,-13],[-5,-4],[-6,-2],[-24,3],[-10,4],[-6,1],[-6,3],[-4,6],[-4,7],[-2,0],[-3,0],[-1,-2],[-4,-3],[1,-1],[2,-1],[2,-4],[-10,-4],[-20,-15],[-49,-10],[-11,6],[0,-10],[-2,-3],[-2,-1],[-3,-3],[-14,-23],[-67,-17],[-17,1],[-14,10],[0,6],[2,7],[-2,6],[-4,6],[-4,4],[7,0],[3,-2],[3,-3],[1,15],[-7,8],[-8,-1],[-4,-12],[-9,13],[-56,22],[-104,-10],[-13,2],[-8,14],[16,9],[8,8],[4,8],[4,6],[22,13],[6,7],[2,13],[0,15],[2,13],[11,7],[6,8],[5,2],[10,-2],[35,-20],[10,-2],[7,-3],[20,-25],[14,-8],[25,-7],[6,-8],[6,-9],[6,-8],[11,-5],[11,0],[20,11],[-16,-1],[-9,2],[-7,4],[-6,7],[-5,10],[-6,9],[-7,3],[-18,19],[-10,17],[-11,15],[-7,12],[55,-11],[36,-20],[11,-4],[-7,13],[-9,11],[-11,8],[-16,5],[-19,12],[-16,6],[-8,8],[-13,17],[-15,29],[-2,11],[1,10],[-1,10],[-3,10],[15,13],[16,-1],[153,-82],[4,-4],[6,-12],[10,-8],[3,-4],[3,-15],[-1,-9],[-4,-9],[-3,-12],[6,-4],[9,6],[15,20],[1,-4],[6,-7],[4,8],[20,-5],[8,3],[0,5],[-3,2],[-1,2],[-3,8],[6,0],[17,11],[6,1],[5,-1],[6,1],[5,5],[-43,-4],[-20,6],[-14,9],[-5,6],[-7,10],[-3,9],[3,4],[23,10],[5,-2],[6,-4],[29,3],[10,9],[7,1],[16,-5],[8,-1],[7,6],[-4,5],[-2,1],[-4,0],[0,5],[18,12],[5,6],[-20,-3],[-12,-5],[-15,-13],[-98,2],[-20,7],[-12,12],[-20,-7],[-4,4],[-5,8],[-21,23],[-12,22],[-8,28],[2,25],[15,17],[7,0],[21,-12],[27,-6],[7,-4],[12,-13],[6,-5],[7,-1],[23,6],[45,-17],[15,0],[26,-18],[14,-5],[13,6],[-31,9],[-9,11],[-30,3],[-10,5],[-17,15],[-37,8],[-9,6],[-20,26],[-10,5],[-4,8],[-8,3],[-17,15],[-15,19],[-3,7],[0,26],[2,13],[5,10],[15,5],[19,-4],[66,-37],[20,-5],[13,7],[1,-13],[5,-11],[6,-8],[7,-3],[0,6],[-6,8],[-11,27],[-7,5],[-9,2],[-16,8],[-9,1],[-4,3],[-11,15],[-22,18],[-12,16],[12,9],[32,3],[24,-4],[32,-25],[-9,8],[-14,22],[-8,4],[-35,-1],[-9,6],[0,7],[4,6],[5,8],[6,6],[4,1],[2,2],[15,0],[6,5],[1,11],[8,4],[57,-15],[37,-26],[11,-2],[7,-6],[10,-12],[6,-16],[-2,-12],[3,-18],[18,26],[7,3],[4,-2],[3,-5],[5,-10],[7,-9],[1,-5],[0,-12],[2,-13],[0,-8],[-2,-6],[-6,-11],[-2,-2],[-16,-29],[-4,-8],[3,0],[8,12],[19,23],[8,11],[2,7],[1,7],[3,6],[4,3],[4,-3],[3,-6],[5,-20],[-2,-4],[0,-2],[5,5],[6,8],[6,4],[5,-5],[-6,-20],[-9,-19],[-10,-16],[-12,-8],[14,1],[7,3],[6,8],[7,21],[5,13],[4,2],[5,-22],[-2,-23],[-3,-20],[2,-12],[12,41],[-1,18],[2,22],[3,20],[4,14],[3,6],[2,1],[24,-2],[3,-2],[1,-12],[2,-7],[3,-4],[14,-14],[13,-23],[3,-3],[0,-4],[-2,-18],[-1,-9],[-3,-8],[-2,-4],[0,-4],[2,-2],[-19,-49],[-4,-15],[3,-7],[5,1],[8,32],[25,61],[2,17],[0,6],[8,1],[5,-8],[1,-3]],[[4096,3876],[0,-142],[-26,12],[-21,20],[-86,35],[-26,25],[-15,37],[17,10],[54,14],[12,-1],[38,-11],[10,0],[4,-1],[2,-4],[1,-4],[2,-3],[10,-9],[5,-2],[5,5],[-3,3],[-1,4],[-4,11],[18,0],[4,1]],[[4096,3924],[0,-34],[-1,0],[-15,7],[-8,7],[2,1],[6,1],[6,6],[4,6],[5,5],[1,1]],[[4096,4033],[0,-98],[-2,0],[-14,-14],[-19,-10],[-21,-2],[-17,3],[-3,2],[-1,9],[3,6],[8,9],[1,6],[2,16],[1,6],[5,5],[18,7],[-16,-3],[-12,-8],[-29,-29],[-7,-4],[-15,-2],[-4,5],[2,11],[6,11],[5,7],[0,6],[-13,-5],[-6,-5],[-6,-7],[-14,-24],[-3,-2],[-9,-10],[-58,14],[-15,8],[-10,12],[-6,6],[-2,5],[5,8],[14,1],[17,-7],[16,3],[8,26],[-10,1],[-12,8],[-11,12],[-7,13],[11,8],[11,-5],[12,-9],[11,-6],[-3,10],[-2,4],[-3,4],[40,6],[3,-1],[2,-3],[3,-10],[2,-4],[8,-2],[3,7],[-1,8],[-6,4],[-6,2],[-18,15],[36,0],[7,-2],[13,-12],[16,-6],[13,-15],[8,-5],[9,2],[14,16],[9,5],[-1,3],[-1,9],[14,4],[12,-8],[11,-13],[4,-2]],[[4035,2037],[11,19],[35,-55],[-35,-40],[-19,12],[8,64]],[[4096,2963],[0,-86],[-11,-1],[-33,-36],[18,-29],[-5,-3],[-31,50],[-28,-10],[29,25],[-11,17],[-25,-16],[18,14],[-2,12],[0,1],[-54,-41],[1,-1],[40,1],[-7,-14],[-50,-26],[-37,16],[-15,-31],[24,-15],[-46,14],[11,-44],[-27,28],[28,47],[0,1],[-34,6],[-16,-72],[-31,0],[0,22],[-11,-13],[-6,30],[-1,0],[-87,-47],[92,67],[25,-19],[-16,26],[110,77],[63,116],[-171,168],[-143,-12],[29,38],[91,24],[-12,20],[69,-28],[28,84],[1,-31],[51,-7],[23,62],[12,-43],[19,54],[29,-23],[-36,-60],[55,-27],[-16,112],[16,-15],[20,19],[-17,-41],[25,-54],[1,0],[7,85],[14,-75],[18,12],[-4,80],[16,-75],[0,-280],[-22,-27],[1,0],[20,11],[1,0],[0,-19],[-22,-7],[22,-11]],[[3533,2733],[47,32],[40,-72],[25,6],[1,-87],[-27,-6],[-22,33],[-16,-15],[-48,109]],[[4096,3912],[0,-25],[-25,3],[25,22]],[[4096,4028],[0,-86],[-3,3],[-27,-40],[-46,12],[37,56],[-1,0],[-82,-46],[18,45],[0,1],[-66,-59],[-84,45],[59,6],[5,25],[-42,36],[66,4],[8,29],[88,-45],[29,42],[41,-28]],[[3804,3342],[99,80],[22,54],[21,-101],[-80,-81],[-38,-2],[-24,50]]]}