{"objects":{"water":{"type":"GeometryCollection","geometries":[{"type":"MultiPolygon","properties":{"source":"naturalearthdata.com","kind":"ocean","area":990044000000000,"sort_rank":200,"min_zoom":0,"id":1},"arcs":[[[0],[1]],[[2]]]},{"type":"LineString","properties":{"source":"naturalearthdata.com","kind":"ocean","sort_rank":205,"boundary":true,"min_zoom":0,"id":127},"arcs":[3]},{"type":"MultiLineString","properties":{"source":"naturalearthdata.com","kind":"ocean","sort_rank":205,"boundary":true,"min_zoom":0,"id":128},"arcs":[[4],[5],[6],[7]]},{"type":"LineString","properties":{"source":"naturalearthdata.com","kind":"ocean","sort_rank":205,"boundary":true,"min_zoom":0,"id":655},"arcs":[8]}]},"buildings":{"type":"GeometryCollection","geometries":[]},"places":{"type":"GeometryCollection","geometries":[]},"transit":{"type":"GeometryCollection","geometries":[]},"pois":{"type":"GeometryCollection","geometries":[]},"boundaries":{"type":"GeometryCollection","geometries":[]},"roads":{"type":"GeometryCollection","geometries":[]},"earth":{"type":"GeometryCollection","geometries":[{"type":"MultiPolygon","properties":{"sort_rank":10,"source":"naturalearthdata.com","kind":"earth","min_zoom":4.0,"area":34679318797},"arcs":[[[9]]]},{"type":"MultiPolygon","properties":{"sort_rank":10,"source":"naturalearthdata.com","min_zoom":0,"kind":"earth","area":158482837729342},"arcs":[[[10]],[[11]],[[12]],[[13]]]}]},"landuse":{"type":"GeometryCollection","geometries":[{"type":"MultiPolygon","properties":{"source":"openstreetmap.org","kind":"park","area":1814913481256,"tier":2,"min_zoom":4.0,"id":40984064,"sort_rank":24},"arcs":[[[14]],[[15]]]},{"type":"MultiPolygon","properties":{"kind":"nature_reserve","protect_class":"1","area":3380599052966,"sort_rank":23,"source":"openstreetmap.org","min_zoom":4.0,"tier":2,"id":-9349959},"arcs":[[[16]]]}]}},"type":"Topology","transform":{"translate":[0.0,79.1713346408],"scale":[0.0054931641,0.0008557008]},"arcs":[[[4096,267],[0,-267],[-541,0],[-7,5],[-17,-5],[-69,0],[-7,9],[-18,65],[-20,30],[-17,2],[8,23],[16,25],[3,39],[1,56],[-3,49],[-5,40],[-7,32],[-30,98],[-34,39],[-12,6],[-11,-11],[-74,-191],[-36,-60],[9,52],[3,59],[-8,61],[8,42],[23,77],[18,81],[-22,112],[-28,66],[-19,33],[-65,65],[-46,21],[-8,-18],[-6,-32],[-10,-13],[-9,2],[-48,133],[-25,38],[-26,-4],[-27,-49],[-7,-62],[8,-82],[-26,-57],[-20,-119],[-4,-29],[-2,-31],[5,-111],[6,-79],[28,-207],[30,-200],[-75,0],[-3,3],[-19,71],[-40,201],[-35,162],[-36,152],[-40,106],[-43,38],[-39,-85],[-37,-125],[-25,-39],[-4,-55],[-1,-66],[2,-62],[6,-54],[-5,-45],[-13,-5],[-23,42],[-21,62],[-21,33],[-31,16],[-9,12],[-9,110],[-21,15],[-120,-22],[88,135],[134,36],[24,43],[2,11],[1,37],[-2,27],[-40,52],[-107,-34],[-64,-66],[-28,-3],[-58,50],[-12,-21],[5,-56],[8,-43],[-15,7],[-19,22],[-73,97],[-65,-25],[-17,-17],[-12,-75],[-6,-4],[-18,50],[-34,43],[-11,2],[-11,-12],[-11,-35],[0,-29],[13,-50],[10,-58],[-13,-70],[-3,-30],[3,-41],[17,-67],[10,-56],[7,-76],[9,-53],[24,-84],[11,-72],[-2033,0],[0,4096],[4096,0],[0,-2649],[-9,-9],[-6,-42],[5,-67],[0,-138],[-13,-118],[-15,-47],[-18,12],[-54,85],[-21,8],[-15,23],[-8,70],[-19,28],[-100,-5],[-19,14],[-37,56],[-39,86],[-22,34],[-46,34],[-46,48],[-22,8],[-21,-18],[14,-70],[15,-58],[6,-31],[-1,-37],[-9,-79],[-34,27],[-44,85],[-11,15],[-16,-5],[-4,-35],[7,-45],[29,-91],[34,-26],[-36,-55],[-36,26],[-33,43],[-33,22],[-126,-27],[-31,-32],[38,-58],[39,-40],[94,-27],[-24,-47],[-24,-35],[-62,-43],[6,-49],[7,-33],[19,-41],[54,-74],[39,-29],[84,-11],[43,2],[47,18],[41,41],[62,-5],[59,-30],[-18,-49],[-22,-19],[-13,-68],[-56,0],[-31,9],[-36,-8],[-13,-18],[-13,-31],[41,-67],[41,-52],[50,-31],[65,-25],[9,-38],[10,-13],[191,-20],[107,22]],[[3412,1320],[-41,55],[-41,12],[-16,-31],[-8,-51],[66,-50],[40,65]],[[2172,0],[-68,0],[11,40],[-7,91],[18,9],[55,2],[19,-30],[-13,-63],[-15,-49]],[[4096,1447],[-9,-9],[-6,-42],[5,-67],[0,-138],[-13,-118],[-15,-47],[-18,12],[-54,85],[-21,8],[-15,23],[-8,70],[-19,28],[-100,-5],[-19,14],[-37,56],[-39,86],[-22,34],[-46,34],[-46,48],[-22,8],[-21,-18],[14,-70],[15,-58],[6,-31],[-1,-37],[-9,-79],[-34,27],[-44,85],[-11,15],[-16,-5],[-4,-35],[7,-45],[29,-91],[34,-26],[-36,-55],[-36,26],[-33,43],[-33,22],[-126,-27],[-31,-32],[38,-58],[39,-40],[94,-27],[-24,-47],[-24,-35],[-62,-43],[6,-49],[7,-33],[19,-41],[54,-74],[39,-29],[84,-11],[43,2],[47,18],[41,41],[62,-5],[59,-30],[-18,-49],[-22,-19],[-13,-68],[-56,0],[-31,9],[-36,-8],[-13,-18],[-13,-31],[41,-67],[41,-52],[50,-31],[65,-25],[9,-38],[10,-13],[191,-20],[107,22]],[[3555,0],[-7,5],[-17,-5]],[[3462,0],[-7,9],[-18,65],[-20,30],[-17,2],[8,23],[16,25],[3,39],[1,56],[-3,49],[-5,40],[-7,32],[-30,98],[-34,39],[-12,6],[-11,-11],[-74,-191],[-36,-60],[9,52],[3,59],[-8,61],[8,42],[23,77],[18,81],[-22,112],[-28,66],[-19,33],[-65,65],[-46,21],[-8,-18],[-6,-32],[-10,-13],[-9,2],[-48,133],[-25,38],[-26,-4],[-27,-49],[-7,-62],[8,-82],[-26,-57],[-20,-119],[-4,-29],[-2,-31],[5,-111],[6,-79],[28,-207],[30,-200]],[[2873,0],[-3,3],[-19,71],[-40,201],[-35,162],[-36,152],[-40,106],[-43,38],[-39,-85],[-37,-125],[-25,-39],[-4,-55],[-1,-66],[2,-62],[6,-54],[-5,-45],[-13,-5],[-23,42],[-21,62],[-21,33],[-31,16],[-9,12],[-9,110],[-21,15],[-120,-22],[88,135],[134,36],[24,43],[2,11],[1,37],[-2,27],[-40,52],[-107,-34],[-64,-66],[-28,-3],[-58,50],[-12,-21],[5,-56],[8,-43],[-15,7],[-19,22],[-73,97],[-65,-25],[-17,-17],[-12,-75],[-6,-4],[-18,50],[-34,43],[-11,2],[-11,-12],[-11,-35],[0,-29],[13,-50],[10,-58],[-13,-70],[-3,-30],[3,-41],[17,-67],[10,-56],[7,-76],[9,-53],[24,-84],[11,-72]],[[2104,0],[11,40],[-7,91],[18,9],[55,2],[19,-30],[-13,-63],[-15,-49]],[[3372,1255],[40,65],[-41,55],[-41,12],[-16,-31],[-8,-51],[66,-50]],[[3412,1320],[-40,-65],[-66,50],[8,51],[16,31],[41,-12],[41,-55]],[[4096,1447],[0,-1180],[-107,-22],[-191,20],[-10,13],[-9,38],[-65,25],[-50,31],[-41,52],[-41,67],[13,31],[13,18],[36,8],[31,-9],[56,0],[13,68],[22,19],[18,49],[-59,30],[-62,5],[-41,-41],[-47,-18],[-43,-2],[-84,11],[-39,29],[-54,74],[-19,41],[-7,33],[-6,49],[62,43],[24,35],[24,47],[-94,27],[-39,40],[-38,58],[31,32],[126,27],[33,-22],[33,-43],[36,-26],[36,55],[-34,26],[-29,91],[-7,45],[4,35],[16,5],[11,-15],[44,-85],[34,-27],[9,79],[1,37],[-6,31],[-15,58],[-14,70],[21,18],[22,-8],[46,-48],[46,-34],[22,-34],[39,-86],[37,-56],[19,-14],[100,5],[19,-28],[8,-70],[15,-23],[21,-8],[54,-85],[18,-12],[15,47],[13,118],[0,138],[-5,67],[6,42],[9,9]],[[2104,0],[-71,0],[-11,72],[-24,84],[-9,53],[-7,76],[-10,56],[-17,67],[-3,41],[3,30],[13,70],[-10,58],[-13,50],[0,29],[11,35],[11,12],[11,-2],[34,-43],[18,-50],[6,4],[12,75],[17,17],[65,25],[73,-97],[19,-22],[15,-7],[-8,43],[-5,56],[12,21],[58,-50],[28,3],[64,66],[107,34],[40,-52],[2,-27],[-1,-37],[-2,-11],[-24,-43],[-134,-36],[-88,-135],[120,22],[21,-15],[9,-110],[9,-12],[31,-16],[21,-33],[21,-62],[23,-42],[13,5],[5,45],[-6,54],[-2,62],[1,66],[4,55],[25,39],[37,125],[39,85],[43,-38],[40,-106],[36,-152],[35,-162],[40,-201],[19,-71],[3,-3],[-701,0],[15,49],[13,63],[-19,30],[-55,-2],[-18,-9],[7,-91],[-11,-40]],[[3462,0],[-514,0],[-30,200],[-28,207],[-6,79],[-5,111],[2,31],[4,29],[20,119],[26,57],[-8,82],[7,62],[27,49],[26,4],[25,-38],[48,-133],[9,-2],[10,13],[6,32],[8,18],[46,-21],[65,-65],[19,-33],[28,-66],[22,-112],[-18,-81],[-23,-77],[-8,-42],[8,-61],[-3,-59],[-9,-52],[36,60],[74,191],[11,11],[12,-6],[34,-39],[30,-98],[7,-32],[5,-40],[3,-49],[-1,-56],[-3,-39],[-16,-25],[-8,-23],[17,-2],[20,-30],[18,-65],[7,-9]],[[3555,0],[-24,0],[17,5],[7,-5]],[[2995,0],[-205,0],[-22,233],[149,14],[55,-56],[23,-191]],[[2376,0],[-561,0],[-73,389],[-23,312],[58,160],[254,210],[101,22],[157,-67],[104,19],[136,167],[202,44],[0,-156],[-250,-676],[73,-234],[-28,-64],[-150,-126]],[[4096,1911],[0,-1911],[-792,0],[-128,125],[-118,727],[0,485],[51,147],[298,352],[122,253],[73,57],[83,23],[142,-35],[269,-223]]]}