{"objects":{"water":{"type":"GeometryCollection","geometries":[{"type":"MultiPolygon","properties":{"source":"naturalearthdata.com","kind":"ocean","area":990044000000000,"sort_rank":200,"min_zoom":0,"id":1},"arcs":[[[0],[1],[2]],[[3]],[[4]]]},{"type":"MultiLineString","properties":{"source":"naturalearthdata.com","kind":"ocean","sort_rank":205,"boundary":true,"min_zoom":0,"id":34},"arcs":[[5],[6]]},{"type":"MultiLineString","properties":{"source":"naturalearthdata.com","kind":"ocean","sort_rank":205,"boundary":true,"min_zoom":0,"id":128},"arcs":[[7],[8],[9],[10],[11]]},{"type":"LineString","properties":{"source":"naturalearthdata.com","kind":"ocean","sort_rank":205,"boundary":true,"min_zoom":0,"id":656},"arcs":[12]},{"type":"LineString","properties":{"source":"naturalearthdata.com","kind":"ocean","sort_rank":205,"boundary":true,"min_zoom":0,"id":657},"arcs":[13]}]},"buildings":{"type":"GeometryCollection","geometries":[]},"places":{"type":"GeometryCollection","geometries":[]},"transit":{"type":"GeometryCollection","geometries":[]},"pois":{"type":"GeometryCollection","geometries":[]},"boundaries":{"type":"GeometryCollection","geometries":[]},"roads":{"type":"GeometryCollection","geometries":[]},"earth":{"type":"GeometryCollection","geometries":[{"type":"MultiPolygon","properties":{"sort_rank":10,"source":"naturalearthdata.com","min_zoom":3.0,"kind":"earth","area":331560690158},"arcs":[[[14]],[[15]]]},{"type":"MultiPolygon","properties":{"sort_rank":10,"source":"naturalearthdata.com","min_zoom":1.0,"kind":"earth","area":836420259990},"arcs":[[[16]],[[17]]]},{"type":"MultiPolygon","properties":{"sort_rank":10,"source":"naturalearthdata.com","min_zoom":0,"kind":"earth","area":158482837729342},"arcs":[[[18]],[[19]]]}]},"landuse":{"type":"GeometryCollection","geometries":[{"type":"MultiPolygon","properties":{"source":"openstreetmap.org","kind":"park","area":1814913481256,"tier":2,"min_zoom":4.0,"id":40984064,"sort_rank":24},"arcs":[[[20]],[[21]],[[22]],[[23]],[[24]],[[25]]]},{"type":"MultiPolygon","properties":{"kind":"nature_reserve","protect_class":"1","area":3380599052966,"sort_rank":23,"source":"openstreetmap.org","min_zoom":4.0,"tier":2,"id":-9349959},"arcs":[[[26]]]},{"type":"MultiPolygon","properties":{"kind":"protected_area","protect_class":"4","area":62398229531,"sort_rank":17,"source":"openstreetmap.org","min_zoom":4.0,"tier":2,"id":-5734843},"arcs":[[[27]]]}]}},"type":"Topology","transform":{"translate":[0.0,74.0195433115],"scale":[0.0054931641,0.0012577616]},"arcs":[[[4096,2598],[0,-2598],[-4096,0],[0,4096],[2033,0],[7,-33],[24,-16],[33,33],[7,16],[68,0],[-7,-15],[2,-32],[4,-28],[10,-41],[12,-34],[7,-6],[31,0],[22,-7],[5,-10],[-15,-31],[-8,-8],[-133,62],[-16,-8],[-17,-18],[45,-53],[45,-41],[-19,-16],[-2,-36],[5,-40],[17,-33],[18,-26],[32,-29],[21,-8],[33,-89],[42,-78],[28,-27],[9,-16],[8,-24],[43,-50],[92,6],[46,17],[37,3],[23,31],[23,40],[25,26],[25,17],[-17,38],[-21,24],[7,39],[8,31],[-1,40],[-7,36],[20,23],[20,13],[10,0],[9,-12],[8,-32],[10,-21],[23,-7],[22,27],[16,54],[17,39],[12,-8],[1,-40],[-8,-46],[-15,-44],[-2,-15],[5,-28],[14,-53],[11,-11],[48,-2],[48,18],[38,36],[53,79],[15,15],[46,5],[-15,-40],[-46,-87],[16,-43],[35,-34],[15,-7],[33,2],[33,13],[-31,-38],[-41,-15],[-114,2],[-50,-11],[-17,-9],[-23,-23],[1,-27],[7,-29],[-33,4],[-32,-10],[-63,-55],[-136,-64],[11,-52],[-48,49],[-20,15],[-20,-1],[-10,-8],[-10,-13],[-7,-24],[7,-86],[6,-29],[8,-24],[31,-45],[23,-20],[94,-4],[44,10],[45,24],[45,38],[44,10],[44,-18],[43,0],[87,26],[57,25],[11,-10],[10,-45],[12,-35],[-76,1],[-75,-13],[-234,-75],[-41,-130],[-18,10],[-20,27],[-20,7],[-55,-13],[-9,-15],[-5,-29],[1,-50],[9,-34],[17,-54],[19,-42],[21,-38],[22,-28],[46,-29],[70,-62],[77,-158],[84,-100],[21,-17],[21,-30],[20,-45],[21,-28],[43,-24],[43,22],[23,42],[-5,48],[-10,47],[0,26],[30,66],[19,59],[-11,33],[-6,31],[35,85],[17,55],[33,138],[41,78],[53,8],[16,12],[13,45],[12,82],[7,89],[7,118],[-2,38],[2,28],[24,18],[25,-6],[20,1],[32,32],[2,40],[-9,40],[5,41],[13,67],[17,48],[42,80],[43,66],[7,28],[4,9],[17,11],[112,16],[62,23],[67,3],[27,19],[27,32],[-7,26],[-7,18],[-41,46],[-67,43],[-40,59],[49,62],[-29,38],[-28,18],[-53,13],[-9,-17],[0,-38],[-40,-17],[-26,73],[-41,19],[541,0],[0,-757],[-9,-3],[-27,10],[-17,143],[-30,134],[-54,-3],[-25,18],[-28,2],[-75,-33],[-124,-33],[-25,-29],[27,-53],[34,6],[-6,-74],[47,-59],[11,-68],[34,-85],[32,-43],[81,-65],[-8,-6],[-33,-83],[-17,-32],[-15,-48],[-9,-73],[-60,-43],[10,-84],[22,-15],[147,43],[36,5],[36,22],[26,33],[10,1],[9,-5],[0,-94],[-10,-14],[8,-55],[-4,-23],[-7,-12],[13,-23]],[[3506,365],[-14,31],[-58,-3],[-12,-22],[22,-60],[33,-47],[22,31],[10,53],[-3,17]],[[2140,3426],[38,-83],[28,7],[-11,58],[-23,55],[-8,27],[-11,21],[-38,31],[-35,59],[-30,-6],[-2,55],[-17,24],[-14,36],[13,31],[-5,23],[-30,74],[-34,32],[-39,13],[0,-52],[13,-67],[29,-53],[9,-34],[52,-144],[14,-17],[31,-2],[39,-41],[31,-47]],[[3462,4096],[69,0],[-56,-11],[-13,11]],[[2873,4096],[75,0],[11,-47],[16,-108],[-9,4],[-79,142],[-14,9]],[[4096,3339],[-9,-3],[-27,10],[-17,143],[-30,134],[-54,-3],[-25,18],[-28,2],[-75,-33],[-124,-33],[-25,-29],[27,-53],[34,6],[-6,-74],[47,-59],[11,-68],[34,-85],[32,-43],[81,-65],[-8,-6],[-33,-83],[-17,-32],[-15,-48],[-9,-73],[-60,-43],[10,-84],[22,-15],[147,43],[36,5],[36,22],[26,33],[10,1],[9,-5]],[[4096,2725],[-10,-14],[8,-55],[-4,-23],[-7,-12],[13,-23]],[[3773,3699],[67,3],[27,19],[27,32],[-7,26],[-7,18],[-41,46],[-67,43],[-40,59],[49,62],[-29,38],[-28,18],[-53,13],[-9,-17],[0,-38],[-40,-17],[-26,73],[-41,19]],[[3531,4096],[-56,-11],[-13,11]],[[2948,4096],[11,-47],[16,-108],[-9,4],[-79,142],[-14,9]],[[2033,4096],[7,-33],[24,-16],[33,33],[7,16]],[[2172,4096],[-7,-15],[2,-32],[4,-28],[10,-41],[12,-34],[7,-6],[31,0],[22,-7],[5,-10],[-15,-31],[-8,-8],[-133,62],[-16,-8],[-17,-18],[45,-53],[45,-41],[-19,-16],[-2,-36],[5,-40],[17,-33],[18,-26],[32,-29],[21,-8],[33,-89],[42,-78],[28,-27],[9,-16],[8,-24],[43,-50],[92,6],[46,17],[37,3],[23,31],[23,40],[25,26],[25,17],[-17,38],[-21,24],[7,39],[8,31],[-1,40],[-7,36],[20,23],[20,13],[10,0],[9,-12],[8,-32],[10,-21],[23,-7],[22,27],[16,54],[17,39],[12,-8],[1,-40],[-8,-46],[-15,-44],[-2,-15],[5,-28],[14,-53],[11,-11],[48,-2],[48,18],[38,36],[53,79],[15,15],[46,5],[-15,-40],[-46,-87],[16,-43],[35,-34],[15,-7],[33,2],[33,13],[-31,-38],[-41,-15],[-114,2],[-50,-11],[-17,-9],[-23,-23],[1,-27],[7,-29],[-33,4],[-32,-10],[-63,-55],[-136,-64],[11,-52],[-48,49],[-20,15],[-20,-1],[-10,-8],[-10,-13],[-7,-24],[7,-86],[6,-29],[8,-24],[31,-45],[23,-20],[94,-4],[44,10],[45,24],[45,38],[44,10],[44,-18],[43,0],[87,26],[57,25],[11,-10],[10,-45],[12,-35],[-76,1],[-75,-13],[-234,-75],[-41,-130],[-18,10],[-20,27],[-20,7],[-55,-13],[-9,-15],[-5,-29],[1,-50],[9,-34],[17,-54],[19,-42],[21,-38],[22,-28],[46,-29],[70,-62],[77,-158],[84,-100],[21,-17],[21,-30],[20,-45],[21,-28],[43,-24],[43,22],[23,42],[-5,48],[-10,47],[0,26],[30,66],[19,59],[-11,33],[-6,31],[35,85],[17,55],[33,138],[41,78],[53,8],[16,12],[13,45],[12,82],[7,89],[7,118],[-2,38],[2,28],[24,18],[25,-6],[20,1],[32,32],[2,40],[-9,40],[5,41],[13,67],[17,48],[42,80],[43,66],[7,28],[4,9],[17,11],[112,16],[62,23]],[[2172,3463],[-8,27],[-11,21],[-38,31],[-35,59],[-30,-6],[-2,55],[-17,24],[-14,36],[13,31],[-5,23],[-30,74],[-34,32],[-39,13],[0,-52],[13,-67],[29,-53],[9,-34],[52,-144],[14,-17],[31,-2],[39,-41],[31,-47],[38,-83],[28,7],[-11,58],[-23,55]],[[3434,393],[-12,-22],[22,-60],[33,-47],[22,31],[10,53],[-3,17],[-14,31],[-58,-3]],[[3499,295],[-22,-31],[-33,47],[-22,60],[12,22],[58,3],[14,-31],[3,-17],[-10,-53]],[[2048,3650],[2,-55],[30,6],[35,-59],[38,-31],[11,-21],[8,-27],[23,-55],[11,-58],[-28,-7],[-38,83],[-31,47],[-39,41],[-31,2],[-14,17],[-52,144],[-9,34],[-29,53],[-13,67],[0,52],[39,-13],[34,-32],[30,-74],[5,-23],[-13,-31],[14,-36],[17,-24]],[[4096,2725],[0,-127],[-13,23],[7,12],[4,23],[-8,55],[10,14]],[[4096,3339],[0,-520],[-9,5],[-10,-1],[-26,-33],[-36,-22],[-36,-5],[-147,-43],[-22,15],[-10,84],[60,43],[9,73],[15,48],[17,32],[33,83],[8,6],[-81,65],[-32,43],[-34,85],[-11,68],[-47,59],[6,74],[-34,-6],[-27,53],[25,29],[124,33],[75,33],[28,-2],[25,-18],[54,3],[30,-134],[17,-143],[27,-10],[9,3]],[[3531,4096],[24,0],[41,-19],[26,-73],[40,17],[0,38],[9,17],[53,-13],[28,-18],[29,-38],[-49,-62],[40,-59],[67,-43],[41,-46],[7,-18],[7,-26],[-27,-32],[-27,-19],[-67,-3],[-62,-23],[-112,-16],[-17,-11],[-4,-9],[-7,-28],[-43,-66],[-42,-80],[-17,-48],[-13,-67],[-5,-41],[9,-40],[-2,-40],[-32,-32],[-20,-1],[-25,6],[-24,-18],[-2,-28],[2,-38],[-7,-118],[-7,-89],[-12,-82],[-13,-45],[-16,-12],[-53,-8],[-41,-78],[-33,-138],[-17,-55],[-35,-85],[6,-31],[11,-33],[-19,-59],[-30,-66],[0,-26],[10,-47],[5,-48],[-23,-42],[-43,-22],[-43,24],[-21,28],[-20,45],[-21,30],[-21,17],[-84,100],[-77,158],[-70,62],[-46,29],[-22,28],[-21,38],[-19,42],[-17,54],[-9,34],[-1,50],[5,29],[9,15],[55,13],[20,-7],[20,-27],[18,-10],[41,130],[234,75],[75,13],[76,-1],[-12,35],[-10,45],[-11,10],[-57,-25],[-87,-26],[-43,0],[-44,18],[-44,-10],[-45,-38],[-45,-24],[-44,-10],[-94,4],[-23,20],[-31,45],[-8,24],[-6,29],[-7,86],[7,24],[10,13],[10,8],[20,1],[20,-15],[48,-49],[-11,52],[136,64],[63,55],[32,10],[33,-4],[-7,29],[-1,27],[23,23],[17,9],[50,11],[114,-2],[41,15],[31,38],[-33,-13],[-33,-2],[-15,7],[-35,34],[-16,43],[46,87],[15,40],[-46,-5],[-15,-15],[-53,-79],[-38,-36],[-48,-18],[-48,2],[-11,11],[-14,53],[-5,28],[2,15],[15,44],[8,46],[-1,40],[-12,8],[-17,-39],[-16,-54],[-22,-27],[-23,7],[-10,21],[-8,32],[-9,12],[-10,0],[-20,-13],[-20,-23],[7,-36],[1,-40],[-8,-31],[-7,-39],[21,-24],[17,-38],[-25,-17],[-25,-26],[-23,-40],[-23,-31],[-37,-3],[-46,-17],[-92,-6],[-43,50],[-8,24],[-9,16],[-28,27],[-42,78],[-33,89],[-21,8],[-32,29],[-18,26],[-17,33],[-5,40],[2,36],[19,16],[-45,41],[-45,53],[17,18],[16,8],[133,-62],[8,8],[15,31],[-5,10],[-22,7],[-31,0],[-7,6],[-12,34],[-10,41],[-4,28],[-2,32],[7,15],[701,0],[14,-9],[79,-142],[9,-4],[-16,108],[-11,47],[514,0],[13,-11],[56,11]],[[2033,4096],[71,0],[-7,-16],[-33,-33],[-24,16],[-7,33]],[[2346,2807],[122,73],[414,-79],[61,-60],[165,-51],[105,10],[145,-76],[-104,-652],[-101,-151],[-140,-53],[-130,80],[-295,462],[-143,152],[-80,195],[-19,150]],[[2965,3528],[82,149],[180,-56],[71,-249],[-180,-20],[-62,37],[-16,44],[27,38],[-102,57]],[[2463,3125],[1,16],[95,-12],[44,-85],[73,64],[95,22],[0,35],[131,50],[183,32],[23,-50],[-113,-29],[-136,-133],[-84,0],[-147,-82],[-58,16],[-26,-42],[-58,25],[16,55],[-33,29],[-6,89]],[[2790,4096],[205,0],[42,-236],[-76,-13],[-83,112],[-75,44],[-13,93]],[[2315,3426],[77,28],[128,-13],[20,338],[181,94],[112,19],[59,-51],[21,-100],[-34,-78],[64,-69],[-37,-43],[-89,-23],[-316,-218],[-108,21],[-40,-19],[-38,114]],[[1815,4096],[561,0],[-102,-58],[-309,-75],[98,-135],[0,-106],[121,-159],[98,-240],[-4,-158],[-133,6],[-72,27],[-211,237],[-129,304],[-18,139],[17,64],[90,132],[-7,22]],[[3304,4096],[792,0],[0,-1924],[-21,-23],[-75,-39],[-115,6],[-84,73],[-80,346],[-49,78],[-80,58],[-19,176],[67,409],[0,346],[218,94],[32,0],[-586,400]],[[3276,359],[56,139],[147,55],[108,-58],[56,-151],[-47,-173],[-68,-62],[-63,-17],[-99,58],[-90,209]]]}