{"objects":{"water":{"type":"GeometryCollection","geometries":[{"type":"MultiPolygon","properties":{"source":"naturalearthdata.com","kind":"ocean","area":990044000000000,"sort_rank":200,"min_zoom":0,"id":1},"arcs":[[[0]]]},{"type":"Point","properties":{"name:ia":"Oceano Arctic","label_placement":true,"name:pt":"Oceano \u00c1rtico","collision_rank":301,"name:ms":"Lautan Artik","name:ar":"\u0627\u0644\u0645\u062d\u064a\u0637 \u0627\u0644\u0645\u062a\u062c\u0645\u062f \u0627\u0644\u0634\u0645\u0627\u0644\u064a","name:cs":"Severn\u00ed ledov\u00fd oce\u00e1n","alt_name:eo":"Norda Oceano","name:io":"Arktika oceano","min_zoom":1.0,"name:it":"Mare glaciale artico","name:tl":"Karagatang Artiko","name:sv":"Norra ishavet","name:ru":"\u0421\u0435\u0432\u0435\u0440\u043d\u044b\u0439 \u041b\u0435\u0434\u043e\u0432\u0438\u0442\u044b\u0439 \u043e\u043a\u0435\u0430\u043d","name:pl":"Ocean Arktyczny","id":305639710,"name:mk":"\u0421\u0435\u0432\u0435\u0440\u0435\u043d \u041b\u0435\u0434\u0435\u043d \u041e\u043a\u0435\u0430\u043d","name:vo":"Nol\u00fcdapovean","name:fa":"\u0627\u0642\u06cc\u0627\u0646\u0648\u0633 \u0645\u0646\u062c\u0645\u062f \u0634\u0645\u0627\u0644\u06cc","sort_rank":200,"name:fi":"Pohjoinen j\u00e4\u00e4meri","name:de":"Arktischer Ozean","source":"openstreetmap.org","name:fr":"Oc\u00e9an Arctique","name:zh":"\u5317\u51b0\u6d0b","name:ku":"Okyan\u00fbsa Arkt\u00eek","name:sl":"Arkti\u010dni ocean","name:nl":"Noordelijke IJszee","name:ja":"\u5317\u6975\u6d77","name:lt":"Piet\u0173 vandenynas","name:no":"Nordishavet","kind":"ocean","name:br":"Meurvor Arktikel","name:sk":"Severn\u00fd \u013eadov\u00fd oce\u00e1n","name:uk":"\u041f\u0456\u0432\u043d\u0456\u0447\u043d\u0438\u0439 \u041b\u044c\u043e\u0434\u043e\u0432\u0438\u0442\u0438\u0439 \u043e\u043a\u0435\u0430\u043d","name:be":"\u041f\u0430\u045e\u043d\u043e\u0447\u043d\u044b \u041b\u0435\u0434\u0430\u0432\u0456\u0442\u044b \u0430\u043a\u0456\u044f\u043d","name:hr":"Arkti\u010dki ocean","name:eo":"Arkta Oceano","name:en":"Arctic Ocean","name":"Arctic Ocean","name:mg":"Ranomasimbe Avaratra","wikidata_id":"Q788","alt_name:ku":"Derya Cemsera Bakur, Derya Cemed\u00eaya Bakur","name:es":"Oc\u00e9ano \u00c1rtico"},"coordinates":[1820,558]}]},"buildings":{"type":"GeometryCollection","geometries":[]},"places":{"type":"GeometryCollection","geometries":[]},"transit":{"type":"GeometryCollection","geometries":[]},"pois":{"type":"GeometryCollection","geometries":[]},"boundaries":{"type":"GeometryCollection","geometries":[]},"roads":{"type":"GeometryCollection","geometries":[]},"earth":{"type":"GeometryCollection","geometries":[]},"landuse":{"type":"GeometryCollection","geometries":[]}},"type":"Topology","transform":{"translate":[-180.0,82.6762849783],"scale":[0.0054931641,0.0005797958]},"arcs":[[[4096,4096],[0,-4096],[-4096,0],[0,558],[0,1725],[0,1725],[0,88],[4096,0]]]}