{"objects":{"water":{"type":"GeometryCollection","geometries":[{"type":"Polygon","properties":{"source":"naturalearthdata.com","kind":"ocean","area":990044000000000,"sort_rank":200,"min_zoom":0,"id":1},"arcs":[[0],[1],[2]]},{"type":"LineString","properties":{"source":"naturalearthdata.com","kind":"ocean","sort_rank":205,"boundary":true,"min_zoom":0,"id":436},"arcs":[3]},{"type":"LineString","properties":{"source":"naturalearthdata.com","kind":"ocean","sort_rank":205,"boundary":true,"min_zoom":0,"id":437},"arcs":[4]}]},"buildings":{"type":"GeometryCollection","geometries":[]},"places":{"type":"GeometryCollection","geometries":[]},"transit":{"type":"GeometryCollection","geometries":[]},"pois":{"type":"GeometryCollection","geometries":[]},"boundaries":{"type":"GeometryCollection","geometries":[]},"roads":{"type":"GeometryCollection","geometries":[]},"earth":{"type":"GeometryCollection","geometries":[{"type":"MultiPolygon","properties":{"sort_rank":10,"source":"naturalearthdata.com","kind":"earth","min_zoom":2.0,"area":437295020042},"arcs":[[[5]]]},{"type":"MultiPolygon","properties":{"sort_rank":10,"source":"naturalearthdata.com","kind":"earth","min_zoom":4.0,"area":7877484944},"arcs":[[[6]]]}]},"landuse":{"type":"GeometryCollection","geometries":[]}},"type":"Topology","transform":{"translate":[-180.0,-55.7765730187],"scale":[0.0054931641,0.0036124695]},"arcs":[[[0,0],[0,215],[0,277],[0,277],[0,276],[0,277],[0,277],[0,277],[0,277],[0,277],[0,276],[0,277],[0,277],[0,277],[0,277],[0,276],[0,6],[4096,0],[0,-4096],[-4096,0]],[[706,3186],[-6,12],[-14,-4],[3,-10],[-1,-16],[8,3],[10,15]],[[667,3253],[-9,20],[-10,0],[-11,26],[11,12],[-3,3],[-11,6],[3,4],[17,2],[6,-8],[-1,-21],[19,28],[11,0],[7,7],[-71,6],[-18,-13],[-17,2],[-16,-18],[7,-3],[32,4],[14,-9],[6,-14],[-7,-14],[-13,-15],[1,-8],[5,-20],[5,-2],[10,0],[12,11],[21,8],[0,6]],[[678,3325],[11,0],[7,7],[-71,6],[-18,-13],[-17,2],[-16,-18],[7,-3],[32,4],[14,-9],[6,-14],[-7,-14],[-13,-15],[1,-8],[5,-20],[5,-2],[10,0],[12,11],[21,8],[0,6],[-9,20],[-10,0],[-11,26],[11,12],[-3,3],[-11,6],[3,4],[17,2],[6,-8],[-1,-21],[19,28]],[[686,3194],[3,-10],[-1,-16],[8,3],[10,15],[-6,12],[-14,-4]],[[696,3332],[-7,-7],[-11,0],[-19,-28],[1,21],[-6,8],[-17,-2],[-3,-4],[11,-6],[3,-3],[-11,-12],[11,-26],[10,0],[9,-20],[0,-6],[-21,-8],[-12,-11],[-10,0],[-5,2],[-5,20],[-1,8],[13,15],[7,14],[-6,14],[-14,9],[-32,-4],[-7,3],[16,18],[17,-2],[18,13],[71,-6]],[[696,3171],[-8,-3],[1,16],[-3,10],[14,4],[6,-12],[-10,-15]]]}