{"objects":{"water":{"type":"GeometryCollection","geometries":[{"type":"Polygon","properties":{"source":"naturalearthdata.com","kind":"ocean","area":990044000000000,"sort_rank":200,"min_zoom":0,"id":1},"arcs":[[0]]},{"type":"LineString","properties":{"source":"naturalearthdata.com","kind":"ocean","sort_rank":205,"boundary":true,"min_zoom":0,"id":120},"arcs":[1]},{"type":"LineString","properties":{"source":"naturalearthdata.com","kind":"ocean","sort_rank":205,"boundary":true,"min_zoom":0,"id":1386},"arcs":[2]}]},"buildings":{"type":"GeometryCollection","geometries":[]},"places":{"type":"GeometryCollection","geometries":[]},"transit":{"type":"GeometryCollection","geometries":[]},"pois":{"type":"GeometryCollection","geometries":[]},"boundaries":{"type":"GeometryCollection","geometries":[]},"roads":{"type":"GeometryCollection","geometries":[]},"earth":{"type":"GeometryCollection","geometries":[{"type":"MultiPolygon","properties":{"sort_rank":10,"source":"naturalearthdata.com","min_zoom":1.0,"kind":"earth","area":1204687205844},"arcs":[[[3]]]},{"type":"MultiPolygon","properties":{"sort_rank":10,"source":"naturalearthdata.com","min_zoom":0,"kind":"earth","area":130720926000100},"arcs":[[[4]]]}]},"landuse":{"type":"GeometryCollection","geometries":[]}},"type":"Topology","transform":{"translate":[-180.0,-79.1713346408],"scale":[0.0054931641,0.0012577616]},"arcs":[[[4096,1554],[-62,109],[-30,-9],[-38,-53],[-6,-156],[3,-114],[-22,-93],[-27,-130],[17,-88],[22,-50],[80,-97],[63,-61],[0,-812],[-568,0],[-26,32],[-95,99],[-65,84],[-94,85],[-42,27],[-42,15],[-46,13],[-46,5],[-24,-3],[-16,-46],[-57,-60],[-29,-58],[-56,-53],[-14,-44],[-8,-69],[-2,-27],[-2866,0],[0,136],[0,795],[0,795],[0,795],[0,795],[0,780],[4096,0],[0,-2542]],[[3528,0],[-26,32],[-95,99],[-65,84],[-94,85],[-42,27],[-42,15],[-46,13],[-46,5],[-24,-3],[-16,-46],[-57,-60],[-29,-58],[-56,-53],[-14,-44],[-8,-69],[-2,-27]],[[4096,812],[-63,61],[-80,97],[-22,50],[-17,88],[27,130],[22,93],[-3,114],[6,156],[38,53],[30,9],[62,-109]],[[3528,0],[-662,0],[2,27],[8,69],[14,44],[56,53],[29,58],[57,60],[16,46],[24,3],[46,-5],[46,-13],[42,-15],[42,-27],[94,-85],[65,-84],[95,-99],[26,-32]],[[4096,1554],[0,-742],[-63,61],[-80,97],[-22,50],[-17,88],[27,130],[22,93],[-3,114],[6,156],[38,53],[30,9],[62,-109]]]}