{"objects":{"water":{"type":"GeometryCollection","geometries":[{"type":"MultiPolygon","properties":{"source":"naturalearthdata.com","kind":"ocean","area":990044000000000,"sort_rank":200,"min_zoom":0,"id":1},"arcs":[[[0]]]},{"type":"LineString","properties":{"source":"naturalearthdata.com","kind":"ocean","sort_rank":205,"boundary":true,"min_zoom":0,"id":806},"arcs":[1]},{"type":"MultiLineString","properties":{"source":"naturalearthdata.com","kind":"ocean","sort_rank":205,"boundary":true,"min_zoom":0,"id":808},"arcs":[[2],[3]]},{"type":"LineString","properties":{"source":"naturalearthdata.com","kind":"ocean","sort_rank":205,"boundary":true,"min_zoom":0,"id":1423},"arcs":[4]},{"type":"Point","properties":{"name:ia":"Oceano Pacific Nord","label_placement":true,"collision_rank":398,"name:id":"Samudra Pasifik Utara","name:ms":"Lautan Pasifik Utara","name:ar":"\u0634\u0645\u0627\u0644 \u0627\u0644\u0645\u062d\u064a\u0637 \u0627\u0644\u0647\u0627\u062f\u064a","name:cs":"Severn\u00ed Tich\u00fd oce\u00e1n","name:is":"Nor\u00f0ur-Kyrrahaf","alt_name:cs":"Severn\u00ed Pacifik","name:ru":"\u0421\u0435\u0432\u0435\u0440\u043d\u044b\u0439 \u0422\u0438\u0445\u0438\u0439 \u043e\u043a\u0435\u0430\u043d","name:vi":"B\u1eafc Th\u00e1i B\u00ecnh D\u01b0\u01a1ng","name:pl":"P\u00f3\u0142nocny Ocean Spokojny","id":305640027,"name:fa":"\u0627\u0642\u06cc\u0627\u0646\u0648\u0633 \u0622\u0631\u0627\u0645 \u0634\u0645\u0627\u0644\u06cc","sort_rank":200,"name:de":"Nordpazifischer Ozean","source":"openstreetmap.org","name:fr":"Oc\u00e9an Pacifique nord","name:zh":"\u5317\u592a\u5e73\u6d0b","name:sl":"Severni Tihi ocean","name:sk":"Severn\u00fd Tich\u00fd oce\u00e1n","name:ja":"\u5317\u592a\u5e73\u6d0b","name:lt":"\u0160iaur\u0117s Ramusis vandenynas","alt_name:de":"Nordpazifik","kind":"sea","name:be":"\u041f\u0430\u045e\u043d\u043e\u0447\u043d\u044b \u0426\u0456\u0445\u0456 \u0430\u043a\u0456\u044f\u043d","name:hu":"\u00c9szaki-Csendes-\u00f3ce\u00e1n","name:hr":"Sjeverni Tihi ocean","name:el":"\u0392\u03cc\u03c1\u03b5\u03b9\u03bf\u03c2 \u0395\u03b9\u03c1\u03b7\u03bd\u03b9\u03ba\u03cc\u03c2 \u03a9\u03ba\u03b5\u03b1\u03bd\u03cc\u03c2","name:eo":"Norda Pacifiko","name:en":"North Pacific Ocean","name":"North Pacific Ocean","min_zoom":3.0,"wikidata_id":"Q62475166","name:es":"Oc\u00e9ano Pac\u00edfico Norte"},"coordinates":[1820,1734]}]},"buildings":{"type":"GeometryCollection","geometries":[]},"places":{"type":"GeometryCollection","geometries":[]},"transit":{"type":"GeometryCollection","geometries":[]},"pois":{"type":"GeometryCollection","geometries":[]},"boundaries":{"type":"GeometryCollection","geometries":[]},"roads":{"type":"GeometryCollection","geometries":[]},"earth":{"type":"GeometryCollection","geometries":[{"type":"MultiPolygon","properties":{"sort_rank":10,"source":"naturalearthdata.com","min_zoom":1.5,"kind":"earth","area":466505341662},"arcs":[[[5]]]},{"type":"MultiPolygon","properties":{"sort_rank":10,"source":"naturalearthdata.com","min_zoom":3.0,"kind":"earth","area":261709008765},"arcs":[[[6]]]}]},"landuse":{"type":"GeometryCollection","geometries":[{"type":"MultiPolygon","properties":{"kind":"nature_reserve","protect_class":"4","area":816430041478,"sort_rank":23,"source":"openstreetmap.org","min_zoom":4.0,"tier":2,"id":-8890494},"arcs":[[[7]]]}]}},"type":"Topology","transform":{"translate":[-180.0,21.9430455334],"scale":[0.0054931641,0.0046476691]},"arcs":[[[0,4096],[4096,0],[0,-4096],[-340,0],[4,7],[3,16],[5,12],[-1,10],[-8,14],[-42,1],[-26,-18],[-12,-21],[8,-11],[18,-8],[2,-2],[-80,0],[0,3],[5,10],[-9,3],[-12,-16],[-3611,0],[0,12],[0,215],[0,216],[0,215],[0,215],[0,215],[0,215],[0,215],[0,216],[0,215],[0,215],[0,215],[0,215],[0,215],[0,216],[0,215],[0,215],[0,215],[0,215],[0,211]],[[3627,0],[0,3],[5,10],[-9,3],[-12,-16]],[[3717,60],[-26,-18],[-12,-21],[8,-11],[18,-8],[2,-2]],[[3756,0],[4,7],[3,16],[5,12],[-1,10],[-8,14],[-42,1]],[[482,1350],[-3,1],[-4,-3],[0,-3],[4,1],[1,2],[2,2]],[[3756,0],[-49,0],[-2,2],[-18,8],[-8,11],[12,21],[26,18],[42,-1],[8,-14],[1,-10],[-5,-12],[-3,-16],[-4,-7]],[[3627,0],[-16,0],[12,16],[9,-3],[-5,-10],[0,-3]],[[132,1394],[47,123],[115,56],[556,-145],[331,-373],[364,-56],[206,-75],[504,-97],[283,-238],[806,-178],[93,-86],[10,-142],[-61,-89],[-96,-34],[-851,158],[-324,270],[-439,85],[-190,71],[-469,73],[-379,424],[-407,90],[-72,66],[-27,97]]]}