{"objects":{"water":{"type":"GeometryCollection","geometries":[{"type":"MultiPolygon","properties":{"source":"naturalearthdata.com","kind":"ocean","area":990044000000000,"sort_rank":200,"min_zoom":0,"id":1},"arcs":[[[0],[1],[2]]]},{"type":"LineString","properties":{"source":"naturalearthdata.com","kind":"ocean","sort_rank":205,"boundary":true,"min_zoom":0,"id":382},"arcs":[3]},{"type":"LineString","properties":{"source":"naturalearthdata.com","kind":"ocean","sort_rank":205,"boundary":true,"min_zoom":0,"id":391},"arcs":[4]},{"type":"MultiLineString","properties":{"source":"naturalearthdata.com","kind":"ocean","sort_rank":205,"boundary":true,"min_zoom":0,"id":806},"arcs":[[5],[6]]},{"type":"LineString","properties":{"source":"naturalearthdata.com","kind":"ocean","sort_rank":205,"boundary":true,"min_zoom":0,"id":807},"arcs":[7]},{"type":"LineString","properties":{"source":"naturalearthdata.com","kind":"ocean","sort_rank":205,"boundary":true,"min_zoom":0,"id":808},"arcs":[8]}]},"buildings":{"type":"GeometryCollection","geometries":[]},"places":{"type":"GeometryCollection","geometries":[{"type":"Point","properties":{"name:pt":"Hava\u00ed","name:short":"HI","name:id":"Hawaii","name:ms":"Hawaii","name:ko":"\ud558\uc640\uc774 \uc8fc","name:cs":"Havaj","name:io":"Havayi","min_zoom":3.5,"collision_rank":385,"name:ru":"\u0413\u0430\u0432\u0430\u0439\u0438","name:pl":"Hawaje","name:ta":"\u0bb9\u0bb5\u0bbe\u0baf\u0bcd","id":316949921,"source":"openstreetmap.org","kind_detail":"state","name":"Hawaii","alt_name:vi":"H\u1ea1 Uy Di","name:fr":"Hawa\u00ef","name:fy":"Hawa\u00ef","name:zh":"\u590f\u5a01\u5937\u5dde","name:sl":"Havaji","name:sk":"Havaj","name:lt":"Havajai","name:hi":"\u0939\u0935\u093e\u0908","max_zoom":7.5,"name:he":"\u05d4\u05d5\u05d5\u05d0\u05d9","kind":"region","name:uk":"\u0413\u0430\u0432\u0430\u0457","name:be":"\u0413\u0430\u0432\u0430\u0456","name:hu":"Hawaii","population":1419561,"name:eo":"Havajo","name:en":"Hawaii","population_rank":12,"name:ku":"Hawaii","wikidata_id":"Q782","name:nl":"Hawa\u00ef","name:es":"Haw\u00e1i"},"coordinates":[4009,3960]},{"type":"Point","properties":{"name:pt":"Honolulu","collision_rank":343,"name:nl":"Honolulu","name:id":"Honolulu","name":"Honolulu","name:hi":"\u0939\u094b\u0928\u094b\u0932\u0942\u0932\u0942","name:tr":"Honolulu","name:sv":"Honolulu","name:ar":"\u0647\u0648\u0646\u0648\u0644\u0648\u0644\u0648","min_zoom":4.0,"name:it":"Honolulu","name:vi":"Honolulu","name:ru":"\u0413\u043e\u043d\u043e\u043b\u0443\u043b\u0443","name:pl":"Honolulu","name:hu":"Honolulu","id":7107,"name:ja":"\u30db\u30ce\u30eb\u30eb","name:el":"\u03a7\u03bf\u03bd\u03bf\u03bb\u03bf\u03c5\u03bb\u03bf\u03cd","kind":"locality","name:en":"Honolulu","population_rank":11,"source":"naturalearthdata.com","region_capital":true,"name:bn":"\u09b9\u09a8\u09c1\u09b2\u09c1\u09b2\u09c1","name:de":"Honolulu","name:ko":"\ud638\ub180\ub8f0\ub8e8","name:fr":"Honolulu","wikidata_id":"Q18094","population":786000,"name:zh":"\u6a80\u9999\u5c71","name:es":"Honolulu"},"coordinates":[4030,3978]}]},"transit":{"type":"GeometryCollection","geometries":[]},"pois":{"type":"GeometryCollection","geometries":[]},"boundaries":{"type":"GeometryCollection","geometries":[]},"roads":{"type":"GeometryCollection","geometries":[]},"earth":{"type":"GeometryCollection","geometries":[{"type":"MultiPolygon","properties":{"sort_rank":10,"source":"naturalearthdata.com","min_zoom":1.5,"kind":"earth","area":466505341662},"arcs":[[[9]]]},{"type":"MultiPolygon","properties":{"sort_rank":10,"source":"naturalearthdata.com","kind":"earth","min_zoom":4.0,"area":12382735697},"arcs":[[[10]]]},{"type":"MultiPolygon","properties":{"sort_rank":10,"source":"naturalearthdata.com","min_zoom":1.0,"kind":"earth","area":712934014635},"arcs":[[[11]]]},{"type":"MultiPolygon","properties":{"sort_rank":10,"source":"naturalearthdata.com","min_zoom":3.0,"kind":"earth","area":261709008765},"arcs":[[[12]],[[13]]]}]},"landuse":{"type":"GeometryCollection","geometries":[{"type":"MultiPolygon","properties":{"source":"naturalearthdata.com","kind":"urban_area","area":322773632569,"sort_rank":11,"min_zoom":4.0,"id":290},"arcs":[[[14]]]}]}},"type":"Topology","transform":{"translate":[-180.0,-0.0],"scale":[0.0054931641,0.0053571889]},"arcs":[[[4096,344],[0,-344],[-4096,0],[0,187],[0,186],[0,187],[0,187],[0,186],[0,187],[0,187],[0,186],[0,187],[0,187],[0,186],[0,187],[0,187],[0,186],[0,187],[0,187],[0,186],[0,187],[0,187],[0,186],[0,187],[0,176],[3611,0],[-10,-9],[-4,-10],[1,-7],[6,-1],[4,8],[5,7],[13,5],[1,7],[80,0],[5,-6],[18,-2],[9,-4],[16,10],[1,2],[340,0],[0,-3745],[-1,1],[-5,8],[-8,-5],[14,-11]],[[3776,717],[-15,15],[-5,-1],[-4,-3],[-4,-5],[6,-5],[1,6],[3,0],[5,-3],[4,-5],[-1,-2],[-8,-2],[4,-3],[11,0],[3,8]],[[4059,3991],[-3,14],[-8,-1],[-6,1],[-6,3],[-5,8],[1,7],[-20,28],[-11,-2],[-18,-17],[-28,-3],[7,-10],[-1,-8],[19,-21],[5,-11],[6,-1],[17,1],[-6,10],[7,2],[2,-3],[2,-7],[10,3],[9,-10],[10,-4],[19,2],[10,5],[-3,5],[-9,9]],[[4096,351],[-1,1],[-5,8],[-8,-5],[14,-11]],[[3748,723],[6,-5],[1,6],[3,0],[5,-3],[4,-5],[-1,-2],[-8,-2],[4,-3],[11,0],[3,8],[-15,15],[-5,-1],[-4,-3],[-4,-5]],[[3601,4087],[-4,-10],[1,-7],[6,-1],[4,8],[5,7],[13,5],[1,7]],[[3611,4096],[-10,-9]],[[4036,4008],[-5,8],[1,7],[-20,28],[-11,-2],[-18,-17],[-28,-3],[7,-10],[-1,-8],[19,-21],[5,-11],[6,-1],[17,1],[-6,10],[7,2],[2,-3],[2,-7],[10,3],[9,-10],[10,-4],[19,2],[10,5],[-3,5],[-9,9],[-3,14],[-8,-1],[-6,1],[-6,3]],[[3707,4096],[5,-6],[18,-2],[9,-4],[16,10],[1,2]],[[3707,4096],[49,0],[-1,-2],[-16,-10],[-9,4],[-18,2],[-5,6]],[[3761,732],[15,-15],[-3,-8],[-11,0],[-4,3],[8,2],[1,2],[-4,5],[-5,3],[-3,0],[-1,-6],[-6,5],[4,5],[4,3],[5,1]],[[4042,4005],[6,-1],[8,1],[3,-14],[9,-9],[3,-5],[-10,-5],[-19,-2],[-10,4],[-9,10],[-10,-3],[-2,7],[-2,3],[-7,-2],[6,-10],[-17,-1],[-6,1],[-5,11],[-19,21],[1,8],[-7,10],[28,3],[18,17],[11,2],[20,-28],[-1,-7],[5,-8],[6,-3]],[[4096,351],[0,-7],[-14,11],[8,5],[5,-8],[1,-1]],[[3611,4096],[16,0],[-1,-7],[-13,-5],[-5,-7],[-4,-8],[-6,1],[-1,7],[4,10],[10,9]],[[4057,3974],[-44,7],[-5,13],[10,3],[39,-23]]]}