{"objects":{"water":{"type":"GeometryCollection","geometries":[{"type":"MultiPolygon","properties":{"source":"naturalearthdata.com","kind":"ocean","area":989871000000000,"sort_rank":200,"min_zoom":0,"id":1},"arcs":[[[0],[1],[2],[3],[4],[5],[6],[7],[8],[9]]]},{"type":"LineString","properties":{"source":"naturalearthdata.com","kind":"ocean","sort_rank":205,"boundary":true,"min_zoom":0,"id":1808},"arcs":[10]},{"type":"LineString","properties":{"source":"naturalearthdata.com","kind":"ocean","sort_rank":205,"boundary":true,"min_zoom":0,"id":1809},"arcs":[11]},{"type":"LineString","properties":{"source":"naturalearthdata.com","kind":"ocean","sort_rank":205,"boundary":true,"min_zoom":0,"id":1810},"arcs":[12]},{"type":"LineString","properties":{"source":"naturalearthdata.com","kind":"ocean","sort_rank":205,"boundary":true,"min_zoom":0,"id":1811},"arcs":[13]},{"type":"LineString","properties":{"source":"naturalearthdata.com","kind":"ocean","sort_rank":205,"boundary":true,"min_zoom":0,"id":1812},"arcs":[14]},{"type":"LineString","properties":{"source":"naturalearthdata.com","kind":"ocean","sort_rank":205,"boundary":true,"min_zoom":0,"id":1813},"arcs":[15]},{"type":"LineString","properties":{"source":"naturalearthdata.com","kind":"ocean","sort_rank":205,"boundary":true,"min_zoom":0,"id":1814},"arcs":[16]},{"type":"LineString","properties":{"source":"naturalearthdata.com","kind":"ocean","sort_rank":205,"boundary":true,"min_zoom":0,"id":1815},"arcs":[17]},{"type":"LineString","properties":{"source":"naturalearthdata.com","kind":"ocean","sort_rank":205,"boundary":true,"min_zoom":0,"id":1816},"arcs":[18]}]},"buildings":{"type":"GeometryCollection","geometries":[]},"places":{"type":"GeometryCollection","geometries":[]},"transit":{"type":"GeometryCollection","geometries":[]},"pois":{"type":"GeometryCollection","geometries":[]},"boundaries":{"type":"GeometryCollection","geometries":[]},"roads":{"type":"GeometryCollection","geometries":[]},"earth":{"type":"GeometryCollection","geometries":[{"type":"MultiPolygon","properties":{"sort_rank":10,"source":"naturalearthdata.com","kind":"earth","min_zoom":2.0,"area":81316714394},"arcs":[[[19]]]},{"type":"MultiPolygon","properties":{"sort_rank":10,"source":"naturalearthdata.com","kind":"earth","min_zoom":4.0,"area":7777054921},"arcs":[[[20]]]},{"type":"MultiPolygon","properties":{"sort_rank":10,"source":"naturalearthdata.com","min_zoom":3.0,"kind":"earth","area":43052408803},"arcs":[[[21]],[[22]],[[23]],[[24]]]}]},"landuse":{"type":"GeometryCollection","geometries":[{"type":"MultiPolygon","properties":{"kind":"nature_reserve","protect_class":"1","area":353838078782,"sort_rank":23,"source":"openstreetmap.org","min_zoom":4.0,"tier":2,"id":-5576397},"arcs":[[[25]]]}]}},"type":"Topology","transform":{"translate":[168.75,48.9224992638],"scale":[0.002746582,0.0016733579]},"arcs":[[[4096,0],[-4096,0],[0,4096],[4096,0],[0,-108],[0,-298],[0,-298],[0,-298],[0,-298],[0,-298],[0,-298],[0,-298],[0,-298],[0,-298],[0,-298],[0,-298],[0,-298],[0,-298],[0,-114]],[[3878,1486],[-8,-4],[-36,-2],[0,3],[2,2],[1,2],[1,3],[1,2],[-13,-3],[-7,2],[-4,13],[-9,14],[-3,5],[-4,1],[-16,2],[-6,3],[-23,20],[-15,21],[-4,4],[-1,1],[-3,9],[-2,2],[-2,1],[-7,0],[-2,1],[-4,2],[-3,1],[-3,2],[-1,7],[-1,4],[-3,3],[-12,5],[-6,1],[-6,-1],[-5,-2],[-4,7],[-6,5],[-5,-1],[-5,-7],[-6,10],[-18,2],[-14,9],[-5,-2],[-11,-11],[19,-13],[4,-5],[7,-9],[5,-4],[7,-1],[10,0],[1,-7],[6,0],[14,3],[12,-3],[26,-13],[6,-4],[11,-12],[9,-8],[5,-5],[2,-6],[2,-5],[1,-3],[6,-6],[7,-8],[62,-38],[-4,-6],[-1,-5],[1,-5],[2,-6],[5,-2],[6,2],[6,4],[5,2],[3,0],[6,-3],[3,-1],[2,1],[3,5],[2,2],[10,4],[5,0],[5,-4],[-1,-1],[-1,-3],[6,0],[12,4],[7,0],[-5,6],[-21,17]],[[3460,1737],[-3,1],[-3,0],[-2,1],[-2,3],[4,-9],[9,-8],[9,-6],[6,-2],[3,-2],[7,-11],[4,-3],[6,-1],[9,3],[5,-2],[-17,23],[-6,5],[-7,4],[-15,2],[-7,2]],[[3562,1832],[-3,1],[-1,0],[-1,3],[-5,-3],[-6,-1],[-4,-1],[-2,-6],[-1,-9],[-3,-6],[-1,-4],[2,-7],[2,-4],[12,-14],[5,-4],[8,0],[7,3],[6,3],[-2,3],[5,7],[5,4],[3,5],[-1,9],[-4,9],[-6,5],[-15,7]],[[4016,1819],[-11,4],[-6,3],[-5,6],[-10,12],[-3,3],[-3,1],[-2,3],[-2,5],[-6,0],[-2,1],[-2,3],[-6,-8],[-8,-6],[-9,-4],[-6,-2],[-11,-13],[-4,-1],[-7,0],[-4,-3],[3,-4],[2,-4],[1,-6],[1,-6],[-1,-2],[-2,-6],[0,-6],[9,-4],[10,-9],[3,-4],[3,-1],[28,-7],[10,2],[11,5],[8,10],[9,6],[3,6],[-2,8],[1,2],[4,4],[4,6],[2,6]],[[3238,1914],[-10,3],[-8,-3],[-15,-13],[1,-11],[-10,-30],[-4,-20],[-3,-4],[-9,-4],[-2,-1],[-9,1],[-3,-1],[-8,-4],[-13,-1],[-6,-2],[-5,-7],[-6,-14],[-5,-6],[-4,-2],[-8,-2],[-26,-18],[5,-6],[17,-12],[3,-5],[2,-4],[3,-6],[4,-5],[3,-1],[2,4],[2,3],[7,34],[4,10],[10,5],[7,6],[21,5],[-2,-8],[5,-8],[3,2],[3,6],[4,4],[6,0],[6,-3],[6,-4],[4,-6],[2,5],[3,3],[5,5],[4,-4],[3,1],[0,5],[1,8],[-2,2],[-13,0],[-7,9],[3,7],[5,5],[-4,8],[22,14],[6,6],[2,5],[1,10],[2,6],[2,3],[7,5],[3,4],[-2,9],[-5,4],[-10,8]],[[2597,2065],[6,-17],[11,-6],[12,3],[10,8],[-6,4],[-13,4],[-8,4],[-12,0]],[[1835,2139],[-8,5],[-11,0],[-39,-6],[-2,0],[-2,-1],[-4,-4],[-2,-6],[-1,-3],[-3,-2],[-6,0],[-3,-1],[-8,-11],[-6,-5],[-7,-2],[-7,0],[-8,3],[-5,0],[-9,-4],[-8,-6],[-5,-6],[-2,-10],[5,-4],[36,-6],[38,6],[8,-1],[0,-10],[2,-2],[4,-2],[4,-1],[5,1],[0,-4],[-1,-2],[-1,-2],[0,-1],[-1,-3],[30,6],[0,9],[-2,11],[-2,10],[-2,7],[-5,16],[6,13],[22,18]],[[1947,2266],[31,-4],[-7,8],[-18,12],[-6,-3],[-5,-6],[-1,-5],[6,-2]],[[1685,2335],[15,1],[5,4],[3,12],[-14,-4],[-19,1],[-18,4],[-14,7],[12,8],[5,5],[5,5],[0,9],[-8,5],[-16,5],[-3,6],[-10,-4],[-20,-14],[0,6],[-2,3],[-3,0],[-5,-1],[12,13],[5,8],[0,3],[-4,3],[-11,11],[-6,3],[-37,-1],[-7,-2],[-14,-10],[-4,4],[-9,0],[-4,1],[-2,2],[-1,4],[-1,4],[-3,1],[-44,9],[-7,-1],[-6,-5],[-6,-3],[-25,5],[-31,-18],[-7,-11],[-2,4],[-27,-24],[5,-4],[11,1],[5,-3],[5,-2],[21,8],[12,1],[5,-2],[3,-7],[-9,-20],[-4,-5],[5,-2],[25,6],[13,-1],[5,1],[11,7],[4,1],[5,-2],[-1,-6],[-7,-16],[-3,-17],[-2,-7],[-5,-5],[0,-4],[5,-2],[9,-5],[5,-1],[2,2],[2,8],[2,2],[3,-1],[4,-6],[2,-1],[9,3],[5,1],[5,-4],[1,-5],[1,-7],[-1,-6],[-1,-3],[13,-3],[14,14],[12,18],[12,8],[3,2],[8,5],[4,1],[2,-2],[6,-14],[7,-9],[6,0],[6,3],[9,2],[0,4],[-5,4],[2,8],[3,0],[0,-4],[2,0],[5,10],[5,6],[7,2],[8,-1],[7,-4],[5,-5],[9,-11],[1,5],[5,4],[15,2]],[[3878,1486],[-8,-4],[-36,-2],[0,3],[2,2],[1,2],[1,3],[1,2],[-13,-3],[-7,2],[-4,13],[-9,14],[-3,5],[-4,1],[-16,2],[-6,3],[-23,20],[-15,21],[-4,4],[-1,1],[-3,9],[-2,2],[-2,1],[-7,0],[-2,1],[-4,2],[-3,1],[-3,2],[-1,7],[-1,4],[-3,3],[-12,5],[-6,1],[-6,-1],[-5,-2],[-4,7],[-6,5],[-5,-1],[-5,-7],[-6,10],[-18,2],[-14,9],[-5,-2],[-11,-11],[19,-13],[4,-5],[7,-9],[5,-4],[7,-1],[10,0],[1,-7],[6,0],[14,3],[12,-3],[26,-13],[6,-4],[11,-12],[9,-8],[5,-5],[2,-6],[2,-5],[1,-3],[6,-6],[7,-8],[62,-38],[-4,-6],[-1,-5],[1,-5],[2,-6],[5,-2],[6,2],[6,4],[5,2],[3,0],[6,-3],[3,-1],[2,1],[3,5],[2,2],[10,4],[5,0],[5,-4],[-1,-1],[-1,-3],[6,0],[12,4],[7,0],[-5,6],[-21,17]],[[3460,1737],[-3,1],[-3,0],[-2,1],[-2,3],[4,-9],[9,-8],[9,-6],[6,-2],[3,-2],[7,-11],[4,-3],[6,-1],[9,3],[5,-2],[-17,23],[-6,5],[-7,4],[-15,2],[-7,2]],[[3562,1832],[-3,1],[-1,0],[-1,3],[-5,-3],[-6,-1],[-4,-1],[-2,-6],[-1,-9],[-3,-6],[-1,-4],[2,-7],[2,-4],[12,-14],[5,-4],[8,0],[7,3],[6,3],[-2,3],[5,7],[5,4],[3,5],[-1,9],[-4,9],[-6,5],[-15,7]],[[4016,1819],[-11,4],[-6,3],[-5,6],[-10,12],[-3,3],[-3,1],[-2,3],[-2,5],[-6,0],[-2,1],[-2,3],[-6,-8],[-8,-6],[-9,-4],[-6,-2],[-11,-13],[-4,-1],[-7,0],[-4,-3],[3,-4],[2,-4],[1,-6],[1,-6],[-1,-2],[-2,-6],[0,-6],[9,-4],[10,-9],[3,-4],[3,-1],[28,-7],[10,2],[11,5],[8,10],[9,6],[3,6],[-2,8],[1,2],[4,4],[4,6],[2,6]],[[3238,1914],[-10,3],[-8,-3],[-15,-13],[1,-11],[-10,-30],[-4,-20],[-3,-4],[-9,-4],[-2,-1],[-9,1],[-3,-1],[-8,-4],[-13,-1],[-6,-2],[-5,-7],[-6,-14],[-5,-6],[-4,-2],[-8,-2],[-26,-18],[5,-6],[17,-12],[3,-5],[2,-4],[3,-6],[4,-5],[3,-1],[2,4],[2,3],[7,34],[4,10],[10,5],[7,6],[21,5],[-2,-8],[5,-8],[3,2],[3,6],[4,4],[6,0],[6,-3],[6,-4],[4,-6],[2,5],[3,3],[5,5],[4,-4],[3,1],[0,5],[1,8],[-2,2],[-13,0],[-7,9],[3,7],[5,5],[-4,8],[22,14],[6,6],[2,5],[1,10],[2,6],[2,3],[7,5],[3,4],[-2,9],[-5,4],[-10,8]],[[2597,2065],[6,-17],[11,-6],[12,3],[10,8],[-6,4],[-13,4],[-8,4],[-12,0]],[[1835,2139],[-8,5],[-11,0],[-39,-6],[-2,0],[-2,-1],[-4,-4],[-2,-6],[-1,-3],[-3,-2],[-6,0],[-3,-1],[-8,-11],[-6,-5],[-7,-2],[-7,0],[-8,3],[-5,0],[-9,-4],[-8,-6],[-5,-6],[-2,-10],[5,-4],[36,-6],[38,6],[8,-1],[0,-10],[2,-2],[4,-2],[4,-1],[5,1],[0,-4],[-1,-2],[-1,-2],[0,-1],[-1,-3],[30,6],[0,9],[-2,11],[-2,10],[-2,7],[-5,16],[6,13],[22,18]],[[1947,2266],[31,-4],[-7,8],[-18,12],[-6,-3],[-5,-6],[-1,-5],[6,-2]],[[1685,2335],[15,1],[5,4],[3,12],[-14,-4],[-19,1],[-18,4],[-14,7],[12,8],[5,5],[5,5],[0,9],[-8,5],[-16,5],[-3,6],[-10,-4],[-20,-14],[0,6],[-2,3],[-3,0],[-5,-1],[12,13],[5,8],[0,3],[-4,3],[-11,11],[-6,3],[-37,-1],[-7,-2],[-14,-10],[-4,4],[-9,0],[-4,1],[-2,2],[-1,4],[-1,4],[-3,1],[-44,9],[-7,-1],[-6,-5],[-6,-3],[-25,5],[-31,-18],[-7,-11],[-2,4],[-27,-24],[5,-4],[11,1],[5,-3],[5,-2],[21,8],[12,1],[5,-2],[3,-7],[-9,-20],[-4,-5],[5,-2],[25,6],[13,-1],[5,1],[11,7],[4,1],[5,-2],[-1,-6],[-7,-16],[-3,-17],[-2,-7],[-5,-5],[0,-4],[5,-2],[9,-5],[5,-1],[2,2],[2,8],[2,2],[3,-1],[4,-6],[2,-1],[9,3],[5,1],[5,-4],[1,-5],[1,-7],[-1,-6],[-1,-3],[13,-3],[14,14],[12,18],[12,8],[3,2],[8,5],[4,1],[2,-2],[6,-14],[7,-9],[6,0],[6,3],[9,2],[0,4],[-5,4],[2,8],[3,0],[0,-4],[2,0],[5,10],[5,6],[7,2],[8,-1],[7,-4],[5,-5],[9,-11],[1,5],[5,4],[15,2]],[[1685,2335],[-15,-2],[-5,-4],[-1,-5],[-9,11],[-5,5],[-7,4],[-8,1],[-7,-2],[-5,-6],[-5,-10],[-2,0],[0,4],[-3,0],[-2,-8],[5,-4],[0,-4],[-9,-2],[-6,-3],[-6,0],[-7,9],[-6,14],[-2,2],[-4,-1],[-8,-5],[-3,-2],[-12,-8],[-12,-18],[-14,-14],[-13,3],[1,3],[1,6],[-1,7],[-1,5],[-5,4],[-5,-1],[-9,-3],[-2,1],[-4,6],[-3,1],[-2,-2],[-2,-8],[-2,-2],[-5,1],[-9,5],[-5,2],[0,4],[5,5],[2,7],[3,17],[7,16],[1,6],[-5,2],[-4,-1],[-11,-7],[-5,-1],[-13,1],[-25,-6],[-5,2],[4,5],[9,20],[-3,7],[-5,2],[-12,-1],[-21,-8],[-5,2],[-5,3],[-11,-1],[-5,4],[27,24],[2,-4],[7,11],[31,18],[25,-5],[6,3],[6,5],[7,1],[44,-9],[3,-1],[1,-4],[1,-4],[2,-2],[4,-1],[9,0],[4,-4],[14,10],[7,2],[37,1],[6,-3],[11,-11],[4,-3],[0,-3],[-5,-8],[-12,-13],[5,1],[3,0],[2,-3],[0,-6],[20,14],[10,4],[3,-6],[16,-5],[8,-5],[0,-9],[-5,-5],[-5,-5],[-12,-8],[14,-7],[18,-4],[19,-1],[14,4],[-3,-12],[-5,-4],[-15,-1]],[[3562,1832],[15,-7],[6,-5],[4,-9],[1,-9],[-3,-5],[-5,-4],[-5,-7],[2,-3],[-6,-3],[-7,-3],[-8,0],[-5,4],[-12,14],[-2,4],[-2,7],[1,4],[3,6],[1,9],[2,6],[4,1],[6,1],[5,3],[1,-3],[1,0],[3,-1]],[[3878,1486],[21,-17],[5,-6],[-7,0],[-12,-4],[-6,0],[1,3],[1,1],[-5,4],[-5,0],[-10,-4],[-2,-2],[-3,-5],[-2,-1],[-3,1],[-6,3],[-3,0],[-5,-2],[-6,-4],[-6,-2],[-5,2],[-2,6],[-1,5],[1,5],[4,6],[-62,38],[-7,8],[-6,6],[-1,3],[-2,5],[-2,6],[-5,5],[-9,8],[-11,12],[-6,4],[-26,13],[-12,3],[-14,-3],[-6,0],[-1,7],[-10,0],[-7,1],[-5,4],[-7,9],[-4,5],[-19,13],[11,11],[5,2],[14,-9],[18,-2],[6,-10],[5,7],[5,1],[6,-5],[4,-7],[5,2],[6,1],[6,-1],[12,-5],[3,-3],[1,-4],[1,-7],[3,-2],[3,-1],[4,-2],[2,-1],[7,0],[2,-1],[2,-2],[3,-9],[1,-1],[4,-4],[15,-21],[23,-20],[6,-3],[16,-2],[4,-1],[3,-5],[9,-14],[4,-13],[7,-2],[13,3],[-1,-2],[-1,-3],[-1,-2],[-2,-2],[0,-3],[36,2],[8,4]],[[4016,1819],[-2,-6],[-4,-6],[-4,-4],[-1,-2],[2,-8],[-3,-6],[-9,-6],[-8,-10],[-11,-5],[-10,-2],[-28,7],[-3,1],[-3,4],[-10,9],[-9,4],[0,6],[2,6],[1,2],[-1,6],[-1,6],[-2,4],[-3,4],[4,3],[7,0],[4,1],[11,13],[6,2],[9,4],[8,6],[6,8],[2,-3],[2,-1],[6,0],[2,-5],[2,-3],[3,-1],[3,-3],[10,-12],[5,-6],[6,-3],[11,-4]],[[3238,1914],[10,-8],[5,-4],[2,-9],[-3,-4],[-7,-5],[-2,-3],[-2,-6],[-1,-10],[-2,-5],[-6,-6],[-22,-14],[4,-8],[-5,-5],[-3,-7],[7,-9],[13,0],[2,-2],[-1,-8],[0,-5],[-3,-1],[-4,4],[-5,-5],[-3,-3],[-2,-5],[-4,6],[-6,4],[-6,3],[-6,0],[-4,-4],[-3,-6],[-3,-2],[-5,8],[2,8],[-21,-5],[-7,-6],[-10,-5],[-4,-10],[-7,-34],[-2,-3],[-2,-4],[-3,1],[-4,5],[-3,6],[-2,4],[-3,5],[-17,12],[-5,6],[26,18],[8,2],[4,2],[5,6],[6,14],[5,7],[6,2],[13,1],[8,4],[3,1],[9,-1],[2,1],[9,4],[3,4],[4,20],[10,30],[-1,11],[15,13],[8,3],[10,-3]],[[1835,2139],[-22,-18],[-6,-13],[5,-16],[2,-7],[2,-10],[2,-11],[0,-9],[-30,-6],[1,3],[0,1],[1,2],[1,2],[0,4],[-5,-1],[-4,1],[-4,2],[-2,2],[0,10],[-8,1],[-38,-6],[-36,6],[-5,4],[2,10],[5,6],[8,6],[9,4],[5,0],[8,-3],[7,0],[7,2],[6,5],[8,11],[3,1],[6,0],[3,2],[1,3],[2,6],[4,4],[2,1],[2,0],[39,6],[11,0],[8,-5]],[[0,3149],[0,381],[59,-91],[17,-118],[-33,-117],[-43,-55]]]}