{"objects":{"water":{"type":"GeometryCollection","geometries":[{"type":"MultiPolygon","properties":{"source":"naturalearthdata.com","kind":"ocean","area":989871000000000,"sort_rank":200,"min_zoom":0,"id":1},"arcs":[[[0]]]},{"type":"LineString","properties":{"source":"naturalearthdata.com","kind":"ocean","sort_rank":205,"boundary":true,"min_zoom":0,"id":3329},"arcs":[1]}]},"buildings":{"type":"GeometryCollection","geometries":[]},"places":{"type":"GeometryCollection","geometries":[]},"transit":{"type":"GeometryCollection","geometries":[]},"pois":{"type":"GeometryCollection","geometries":[]},"boundaries":{"type":"GeometryCollection","geometries":[]},"roads":{"type":"GeometryCollection","geometries":[]},"earth":{"type":"GeometryCollection","geometries":[]},"landuse":{"type":"GeometryCollection","geometries":[]}},"type":"Topology","transform":{"translate":[168.75,11.1784018737],"scale":[0.002746582,0.0026280868]},"arcs":[[[4096,0],[-4096,0],[0,4096],[4096,0],[0,-96],[0,-190],[0,-190],[0,-190],[0,-189],[0,-190],[0,-190],[0,-189],[0,-190],[0,-190],[0,-190],[0,-189],[0,-190],[0,-190],[0,-190],[0,-189],[0,-190],[0,-190],[0,-189],[0,-190],[0,-190],[0,-190],[0,-15]],[[95,1306],[-5,-4],[-4,-5],[4,2],[4,4],[2,3],[-1,0]]]}