{"objects":{"water":{"type":"GeometryCollection","geometries":[{"type":"MultiPolygon","properties":{"source":"naturalearthdata.com","kind":"ocean","area":989871000000000,"sort_rank":200,"min_zoom":0,"id":1},"arcs":[[[0]]]},{"type":"Point","properties":{"label_placement":true,"kind":"sea","name:en":"Fiji Sea","name:sk":"Fid\u017eijsk\u00e9 more","name":"Fi\u011dia Maro","sort_rank":200,"name:cs":"Fid\u017eijsk\u00e9 mo\u0159e","name:eo":"Fi\u011dia Maro","source":"openstreetmap.org","min_zoom":3.0,"collision_rank":398,"wikidata_id":"Q2355931","name:pl":"Morze Fid\u017ci","alt_name:sk":"More Fid\u017ei","id":4788145058},"coordinates":[3186,2797]}]},"buildings":{"type":"GeometryCollection","geometries":[]},"places":{"type":"GeometryCollection","geometries":[]},"transit":{"type":"GeometryCollection","geometries":[]},"pois":{"type":"GeometryCollection","geometries":[]},"boundaries":{"type":"GeometryCollection","geometries":[]},"roads":{"type":"GeometryCollection","geometries":[]},"earth":{"type":"GeometryCollection","geometries":[]},"landuse":{"type":"GeometryCollection","geometries":[{"type":"MultiPolygon","properties":{"kind":"nature_reserve","protect_class":"4","area":2458853875607,"sort_rank":23,"operator":"Parks Australia","source":"openstreetmap.org","min_zoom":4.0,"tier":2,"id":-8448061},"arcs":[[[1]]]},{"type":"MultiPolygon","properties":{"kind":"nature_reserve","protect_class":"2","area":762121086789,"sort_rank":23,"operator":"Parks Australia","source":"openstreetmap.org","min_zoom":4.0,"tier":2,"id":-8601871},"arcs":[[[2]]]}]}},"type":"Topology","transform":{"translate":[168.75,-31.952162238],"scale":[0.002746582,0.002443632]},"arcs":[[[4096,0],[-4096,0],[0,4096],[4096,0],[0,-100],[0,-204],[0,-204],[0,-205],[0,-204],[0,-204],[0,-204],[0,-204],[0,-204],[0,-204],[0,-204],[0,-204],[0,-204],[0,-204],[0,-204],[0,-204],[0,-204],[0,-204],[0,-204],[0,-204],[0,-119]],[[251,0],[-251,0],[0,2499],[79,-11],[0,-1362],[510,0],[0,-907],[-338,-219]],[[0,1781],[0,718],[79,-11],[0,-707],[-79,0]]]}