{"objects":{"water":{"type":"GeometryCollection","geometries":[{"type":"MultiPolygon","properties":{"source":"naturalearthdata.com","kind":"ocean","area":989871000000000,"sort_rank":200,"min_zoom":0,"id":1},"arcs":[[[0],[1]],[[2]]]},{"type":"LineString","properties":{"source":"naturalearthdata.com","kind":"ocean","sort_rank":205,"boundary":true,"min_zoom":0,"id":3053},"arcs":[3]},{"type":"MultiLineString","properties":{"source":"naturalearthdata.com","kind":"ocean","sort_rank":205,"boundary":true,"min_zoom":0,"id":3517},"arcs":[[4],[5],[6]]}]},"buildings":{"type":"GeometryCollection","geometries":[]},"places":{"type":"GeometryCollection","geometries":[]},"transit":{"type":"GeometryCollection","geometries":[]},"pois":{"type":"GeometryCollection","geometries":[]},"boundaries":{"type":"GeometryCollection","geometries":[]},"roads":{"type":"GeometryCollection","geometries":[]},"earth":{"type":"GeometryCollection","geometries":[{"type":"MultiPolygon","properties":{"sort_rank":10,"source":"naturalearthdata.com","min_zoom":0,"kind":"earth","area":83319317895524},"arcs":[[[7]],[[8]]]},{"type":"MultiPolygon","properties":{"sort_rank":10,"source":"naturalearthdata.com","min_zoom":3.0,"kind":"earth","area":23048990680},"arcs":[[[9]]]}]},"landuse":{"type":"GeometryCollection","geometries":[]}},"type":"Topology","transform":{"translate":[168.75,-74.0195433115],"scale":[0.002746582,0.0008317698]},"arcs":[[[0,3349],[0,747],[4096,0],[0,-529],[0,-599],[0,-600],[0,-599],[0,-600],[0,-599],[0,-570],[-4096,0],[0,1077],[2,0],[14,1],[8,5],[13,19],[33,18],[12,-4],[11,-23],[-14,-3],[-4,-3],[-2,-5],[-1,-14],[-1,-5],[-12,-15],[-9,-18],[-3,-19],[3,-18],[9,-19],[-2,-4],[-3,-9],[-2,-4],[7,-16],[8,-5],[18,3],[-1,-31],[10,-8],[24,5],[51,-12],[13,34],[0,69],[-11,70],[-17,36],[34,29],[25,3],[4,-4],[5,-13],[3,-10],[4,-8],[4,-6],[4,0],[56,23],[10,13],[9,19],[9,25],[-20,39],[3,5],[6,12],[2,5],[-8,37],[9,8],[26,42],[5,10],[3,13],[4,33],[2,8],[14,18],[33,63],[31,77],[-18,29],[-75,56],[-19,1],[-19,-8],[-19,-16],[-9,-3],[-10,6],[-18,22],[-7,11],[0,8],[1,9],[-3,17],[-3,10],[-14,27],[-17,22],[-140,-7],[-18,9],[-43,51],[0,194],[137,-136],[67,-5],[30,27],[14,-7],[43,-51],[4,-2],[3,3],[5,13],[3,4],[9,-4],[7,-11],[15,-31],[4,-8],[5,-4],[10,-5],[47,2],[8,-4],[16,-17],[18,-6],[28,-33],[18,-14],[19,-7],[19,3],[19,15],[6,17],[4,30],[5,60],[1,34],[1,15],[3,13],[8,17],[3,11],[0,10],[-3,15],[-2,14],[-3,34],[-2,11],[-4,1],[-4,4],[-3,47],[-6,9],[-8,-2],[-46,-40],[-7,-13],[-13,-34],[-6,-11],[-38,-29],[-21,-5],[-10,20],[4,20],[45,108],[7,23],[-7,-4],[-10,13],[-5,0],[-6,-3],[-5,6],[-5,8],[-5,7],[-26,6],[-5,6],[-5,9],[-4,5],[-6,-1],[2,29],[9,13],[21,3],[9,5],[17,22],[9,8],[14,-3],[5,2],[5,10],[1,8],[1,10],[3,14],[14,24],[1,12],[-1,13],[1,10],[2,7],[5,6],[-18,26],[3,11],[1,12],[0,14],[-2,14],[12,-5],[22,-24],[11,8],[9,21],[9,24],[7,27],[6,32],[-9,14],[-33,9],[42,72],[17,61],[12,24],[10,-18],[5,-19],[6,-14],[14,-17],[3,-8],[0,-11],[2,-11],[19,-16],[30,-51],[-3,-10],[-4,-7],[-4,-3],[-4,1],[4,-38],[3,-15],[6,-10],[4,-1],[6,4],[5,7],[2,12],[7,24],[12,9],[26,3],[11,9],[29,55],[23,32],[10,21],[8,32],[-7,0],[-8,7],[-8,10],[-6,12],[-4,15],[-4,19],[0,17],[7,11],[-10,5],[-9,9],[-8,16],[-8,26],[7,12],[2,3],[-54,23],[3,6],[7,22],[-37,101],[-14,27],[-6,15],[-16,68],[-12,38],[-20,50],[-10,40],[-6,19],[-3,5],[-7,1],[-4,9],[-14,58],[-7,8],[-9,-3],[-8,-10],[-3,-14],[5,-45],[3,-18],[5,-19],[20,-49],[5,-22],[18,-123],[-19,-26],[-17,-33],[5,-19],[-7,-5],[-3,-16],[1,-18],[7,-11],[-7,-12],[-9,-10],[-8,-6],[-8,-1],[-23,21],[-9,-2],[-7,4],[-7,14],[-6,18],[-7,16],[-13,25],[-4,17],[1,21],[-27,-17],[-5,3],[-4,8],[-3,10],[-29,49],[-11,14],[-15,2],[-48,-17],[-13,0],[-13,6],[-4,6],[-9,18],[-6,5],[2,10],[3,9],[3,8],[3,6],[-11,0],[-17,25],[-9,6],[-10,0],[-7,5],[-7,12],[-21,52],[-6,7],[-32,12],[-4,6],[-3,12],[-2,11],[-2,6],[-5,-2],[-9,-18],[-4,-3],[-5,3],[-4,6],[-8,15],[-8,12],[-93,59],[6,43],[-8,3],[-2,4]],[[441,607],[-24,52],[-12,36],[-4,30],[-12,19],[-1,30],[-1,33],[-7,25],[-15,9],[-17,-7],[-12,-19],[-1,-27],[-12,-26],[0,-12],[5,-14],[10,-17],[-4,-11],[-46,-80],[-30,-69],[18,-16],[36,-13],[6,-5],[5,-7],[3,-10],[2,-11],[0,-12],[-1,-16],[7,-2],[62,23],[6,6],[4,11],[2,10],[0,16],[-2,13],[-2,3],[21,23],[10,14],[6,21]],[[0,1106],[0,28],[1,-1],[3,-24],[-4,-3]],[[441,607],[-24,52],[-12,36],[-4,30],[-12,19],[-1,30],[-1,33],[-7,25],[-15,9],[-17,-7],[-12,-19],[-1,-27],[-12,-26],[0,-12],[5,-14],[10,-17],[-4,-11],[-46,-80],[-30,-69],[18,-16],[36,-13],[6,-5],[5,-7],[3,-10],[2,-11],[0,-12],[-1,-16],[7,-2],[62,23],[6,6],[4,11],[2,10],[0,16],[-2,13],[-2,3],[21,23],[10,14],[6,21]],[[0,1134],[1,-1],[3,-24],[-4,-3]],[[0,1077],[2,0],[14,1],[8,5],[13,19],[33,18],[12,-4],[11,-23],[-14,-3],[-4,-3],[-2,-5],[-1,-14],[-1,-5],[-12,-15],[-9,-18],[-3,-19],[3,-18],[9,-19],[-2,-4],[-3,-9],[-2,-4],[7,-16],[8,-5],[18,3],[-1,-31],[10,-8],[24,5],[51,-12],[13,34],[0,69],[-11,70],[-17,36],[34,29],[25,3],[4,-4],[5,-13],[3,-10],[4,-8],[4,-6],[4,0],[56,23],[10,13],[9,19],[9,25],[-20,39],[3,5],[6,12],[2,5],[-8,37],[9,8],[26,42],[5,10],[3,13],[4,33],[2,8],[14,18],[33,63],[31,77],[-18,29],[-75,56],[-19,1],[-19,-8],[-19,-16],[-9,-3],[-10,6],[-18,22],[-7,11],[0,8],[1,9],[-3,17],[-3,10],[-14,27],[-17,22],[-140,-7],[-18,9],[-43,51]],[[0,1981],[137,-136],[67,-5],[30,27],[14,-7],[43,-51],[4,-2],[3,3],[5,13],[3,4],[9,-4],[7,-11],[15,-31],[4,-8],[5,-4],[10,-5],[47,2],[8,-4],[16,-17],[18,-6],[28,-33],[18,-14],[19,-7],[19,3],[19,15],[6,17],[4,30],[5,60],[1,34],[1,15],[3,13],[8,17],[3,11],[0,10],[-3,15],[-2,14],[-3,34],[-2,11],[-4,1],[-4,4],[-3,47],[-6,9],[-8,-2],[-46,-40],[-7,-13],[-13,-34],[-6,-11],[-38,-29],[-21,-5],[-10,20],[4,20],[45,108],[7,23],[-7,-4],[-10,13],[-5,0],[-6,-3],[-5,6],[-5,8],[-5,7],[-26,6],[-5,6],[-5,9],[-4,5],[-6,-1],[2,29],[9,13],[21,3],[9,5],[17,22],[9,8],[14,-3],[5,2],[5,10],[1,8],[1,10],[3,14],[14,24],[1,12],[-1,13],[1,10],[2,7],[5,6],[-18,26],[3,11],[1,12],[0,14],[-2,14],[12,-5],[22,-24],[11,8],[9,21],[9,24],[7,27],[6,32],[-9,14],[-33,9],[42,72],[17,61],[12,24],[10,-18],[5,-19],[6,-14],[14,-17],[3,-8],[0,-11],[2,-11],[19,-16],[30,-51],[-3,-10],[-4,-7],[-4,-3],[-4,1],[4,-38],[3,-15],[6,-10],[4,-1],[6,4],[5,7],[2,12],[7,24],[12,9],[26,3],[11,9],[29,55],[23,32],[10,21],[8,32],[-7,0],[-8,7],[-8,10],[-6,12],[-4,15],[-4,19],[0,17],[7,11],[-10,5],[-9,9],[-8,16],[-8,26],[7,12],[2,3],[-54,23],[3,6],[7,22],[-37,101],[-14,27],[-6,15],[-16,68],[-12,38],[-20,50],[-10,40],[-6,19],[-3,5],[-7,1],[-4,9],[-14,58],[-7,8],[-9,-3],[-8,-10],[-3,-14],[5,-45],[3,-18],[5,-19],[20,-49],[5,-22],[18,-123],[-19,-26],[-17,-33],[5,-19],[-7,-5],[-3,-16],[1,-18],[7,-11],[-7,-12],[-9,-10],[-8,-6],[-8,-1],[-23,21],[-9,-2],[-7,4],[-7,14],[-6,18],[-7,16],[-13,25],[-4,17],[1,21],[-27,-17],[-5,3],[-4,8],[-3,10],[-29,49],[-11,14],[-15,2],[-48,-17],[-13,0],[-13,6],[-4,6],[-9,18],[-6,5],[2,10],[3,9],[3,8],[3,6],[-11,0],[-17,25],[-9,6],[-10,0],[-7,5],[-7,12],[-21,52],[-6,7],[-32,12],[-4,6],[-3,12],[-2,11],[-2,6],[-5,-2],[-9,-18],[-4,-3],[-5,3],[-4,6],[-8,15],[-8,12],[-93,59],[6,43],[-8,3],[-2,4]],[[0,3349],[2,-4],[8,-3],[-6,-43],[93,-59],[8,-12],[8,-15],[4,-6],[5,-3],[4,3],[9,18],[5,2],[2,-6],[2,-11],[3,-12],[4,-6],[32,-12],[6,-7],[21,-52],[7,-12],[7,-5],[10,0],[9,-6],[17,-25],[11,0],[-3,-6],[-3,-8],[-3,-9],[-2,-10],[6,-5],[9,-18],[4,-6],[13,-6],[13,0],[48,17],[15,-2],[11,-14],[29,-49],[3,-10],[4,-8],[5,-3],[27,17],[-1,-21],[4,-17],[13,-25],[7,-16],[6,-18],[7,-14],[7,-4],[9,2],[23,-21],[8,1],[8,6],[9,10],[7,12],[-7,11],[-1,18],[3,16],[7,5],[-5,19],[17,33],[19,26],[-18,123],[-5,22],[-20,49],[-5,19],[-3,18],[-5,45],[3,14],[8,10],[9,3],[7,-8],[14,-58],[4,-9],[7,-1],[3,-5],[6,-19],[10,-40],[20,-50],[12,-38],[16,-68],[6,-15],[14,-27],[37,-101],[-7,-22],[-3,-6],[54,-23],[-2,-3],[-7,-12],[8,-26],[8,-16],[9,-9],[10,-5],[-7,-11],[0,-17],[4,-19],[4,-15],[6,-12],[8,-10],[8,-7],[7,0],[-8,-32],[-10,-21],[-23,-32],[-29,-55],[-11,-9],[-26,-3],[-12,-9],[-7,-24],[-2,-12],[-5,-7],[-6,-4],[-4,1],[-6,10],[-3,15],[-4,38],[4,-1],[4,3],[4,7],[3,10],[-30,51],[-19,16],[-2,11],[0,11],[-3,8],[-14,17],[-6,14],[-5,19],[-10,18],[-12,-24],[-17,-61],[-42,-72],[33,-9],[9,-14],[-6,-32],[-7,-27],[-9,-24],[-9,-21],[-11,-8],[-22,24],[-12,5],[2,-14],[0,-14],[-1,-12],[-3,-11],[18,-26],[-5,-6],[-2,-7],[-1,-10],[1,-13],[-1,-12],[-14,-24],[-3,-14],[-1,-10],[-1,-8],[-5,-10],[-5,-2],[-14,3],[-9,-8],[-17,-22],[-9,-5],[-21,-3],[-9,-13],[-2,-29],[6,1],[4,-5],[5,-9],[5,-6],[26,-6],[5,-7],[5,-8],[5,-6],[6,3],[5,0],[10,-13],[7,4],[-7,-23],[-45,-108],[-4,-20],[10,-20],[21,5],[38,29],[6,11],[13,34],[7,13],[46,40],[8,2],[6,-9],[3,-47],[4,-4],[4,-1],[2,-11],[3,-34],[2,-14],[3,-15],[0,-10],[-3,-11],[-8,-17],[-3,-13],[-1,-15],[-1,-34],[-5,-60],[-4,-30],[-6,-17],[-19,-15],[-19,-3],[-19,7],[-18,14],[-28,33],[-18,6],[-16,17],[-8,4],[-47,-2],[-10,5],[-5,4],[-4,8],[-15,31],[-7,11],[-9,4],[-3,-4],[-5,-13],[-3,-3],[-4,2],[-43,51],[-14,7],[-30,-27],[-67,5],[-137,136],[0,1368]],[[0,1787],[43,-51],[18,-9],[140,7],[17,-22],[14,-27],[3,-10],[3,-17],[-1,-9],[0,-8],[7,-11],[18,-22],[10,-6],[9,3],[19,16],[19,8],[19,-1],[75,-56],[18,-29],[-31,-77],[-33,-63],[-14,-18],[-2,-8],[-4,-33],[-3,-13],[-5,-10],[-26,-42],[-9,-8],[8,-37],[-2,-5],[-6,-12],[-3,-5],[20,-39],[-9,-25],[-9,-19],[-10,-13],[-56,-23],[-4,0],[-4,6],[-4,8],[-3,10],[-5,13],[-4,4],[-25,-3],[-34,-29],[17,-36],[11,-70],[0,-69],[-13,-34],[-51,12],[-24,-5],[-10,8],[1,31],[-18,-3],[-8,5],[-7,16],[2,4],[3,9],[2,4],[-9,19],[-3,18],[3,19],[9,18],[12,15],[1,5],[1,14],[2,5],[4,3],[14,3],[-11,23],[-12,4],[-33,-18],[-13,-19],[-8,-5],[-14,-1],[-2,0],[0,29],[4,3],[-3,24],[-1,1],[0,653]],[[441,607],[-6,-21],[-10,-14],[-21,-23],[2,-3],[2,-13],[0,-16],[-2,-10],[-4,-11],[-6,-6],[-62,-23],[-7,2],[1,16],[0,12],[-2,11],[-3,10],[-5,7],[-6,5],[-36,13],[-18,16],[30,69],[46,80],[4,11],[-10,17],[-5,14],[0,12],[12,26],[1,27],[12,19],[17,7],[15,-9],[7,-25],[1,-33],[1,-30],[12,-19],[4,-30],[12,-36],[24,-52]]]}