{"objects":{"water":{"type":"GeometryCollection","geometries":[{"type":"MultiPolygon","properties":{"source":"naturalearthdata.com","kind":"ocean","area":989871000000000,"sort_rank":200,"min_zoom":0,"id":1},"arcs":[[[0]]]},{"type":"MultiLineString","properties":{"source":"naturalearthdata.com","kind":"ocean","sort_rank":205,"boundary":true,"min_zoom":0,"id":3030},"arcs":[[1],[2]]}]},"buildings":{"type":"GeometryCollection","geometries":[]},"places":{"type":"GeometryCollection","geometries":[]},"transit":{"type":"GeometryCollection","geometries":[]},"pois":{"type":"GeometryCollection","geometries":[]},"boundaries":{"type":"GeometryCollection","geometries":[]},"roads":{"type":"GeometryCollection","geometries":[]},"earth":{"type":"GeometryCollection","geometries":[{"type":"Polygon","properties":{"sort_rank":10,"source":"naturalearthdata.com","kind":"earth","min_zoom":1.0,"id":4507},"arcs":[[3]]}]},"landuse":{"type":"GeometryCollection","geometries":[]}},"type":"Topology","transform":{"translate":[168.75,-79.1713346408],"scale":[0.002746582,0.0005689742]},"arcs":[[[0,3102],[0,994],[4096,0],[0,-343],[0,-876],[0,-877],[0,-876],[0,-876],[0,-248],[-4096,0],[0,2665],[45,26],[14,17],[50,107],[98,57],[17,27],[-2,42],[-7,32],[-11,25],[-13,19],[-48,40],[-143,45]],[[191,3017],[-48,40],[-143,45]],[[0,2665],[45,26],[14,17],[50,107],[98,57],[17,27],[-2,42],[-7,32],[-11,25],[-13,19]],[[191,3017],[13,-19],[11,-25],[7,-32],[2,-42],[-17,-27],[-98,-57],[-50,-107],[-14,-17],[-45,-26],[0,437],[143,-45],[48,-40]]]}