{"objects":{"water":{"type":"GeometryCollection","geometries":[{"type":"MultiPolygon","properties":{"source":"naturalearthdata.com","kind":"ocean","area":989871000000000,"sort_rank":200,"min_zoom":0,"id":1},"arcs":[[[0]]]},{"type":"MultiLineString","properties":{"source":"naturalearthdata.com","kind":"ocean","sort_rank":205,"boundary":true,"min_zoom":0,"id":3517},"arcs":[[1],[2],[3]]}]},"buildings":{"type":"GeometryCollection","geometries":[]},"places":{"type":"GeometryCollection","geometries":[]},"transit":{"type":"GeometryCollection","geometries":[]},"pois":{"type":"GeometryCollection","geometries":[]},"boundaries":{"type":"GeometryCollection","geometries":[]},"roads":{"type":"GeometryCollection","geometries":[]},"earth":{"type":"GeometryCollection","geometries":[{"type":"MultiPolygon","properties":{"sort_rank":10,"source":"naturalearthdata.com","min_zoom":0,"kind":"earth","area":83319317895524},"arcs":[[[4]],[[5]],[[6]]]}]},"landuse":{"type":"GeometryCollection","geometries":[]}},"type":"Topology","transform":{"translate":[168.75,-83.9792594989],"scale":[0.002746582,0.000318109]},"arcs":[[[0,2797],[0,1299],[4096,0],[0,-1079],[0,-1567],[0,-1450],[-1450,0],[-124,56],[-106,-56],[-44,0],[-28,68],[-10,1],[79,92],[24,78],[-117,107],[-54,122],[-123,-54],[-123,-54],[-122,-54],[-4,9],[-9,36],[-6,11],[-10,9],[-5,-5],[-13,-34],[-155,-14],[-43,68],[142,205],[15,87],[-37,45],[-76,-38],[-38,27],[2,16],[2,34],[1,15],[-33,62],[-149,140],[-165,-30],[-98,-128],[-35,4],[-32,91],[25,30],[11,24],[12,38],[-65,45],[18,17],[8,18],[8,41],[-62,31],[-21,58],[-11,19],[-135,95],[-120,-42],[-9,22],[16,49],[-18,2],[-9,11],[-8,25],[91,8],[91,8],[28,32],[27,59],[-8,17],[-27,17],[-35,60],[-45,22],[-24,56],[-139,70],[-21,-10],[-3,-14],[0,-27],[-1,-27],[-4,-12],[-104,-34],[-3,-11],[-6,-55],[-4,-19],[-3,-6],[-66,24],[-34,65],[-15,46],[1,15],[4,33],[2,13],[-5,-2],[-5,9],[-4,17],[-3,27],[15,26],[-172,112],[-4,-14],[-7,-61],[-5,-18],[16,-51],[-6,2],[-5,-12],[-4,-24],[-4,-35],[-6,-32],[-6,-10],[-28,9],[-25,43],[-12,37],[5,44],[12,73],[6,44],[-5,18],[-2,29],[-2,28],[-3,22],[-4,9],[-132,-94],[-99,-72],[0,624],[5,0],[12,24],[11,39],[12,73],[3,7],[-23,119],[-12,46],[-8,12]],[[2646,0],[-124,56],[-106,-56]],[[2372,0],[-28,68],[-10,1],[79,92],[24,78],[-117,107],[-54,122],[-123,-54],[-123,-54],[-122,-54],[-4,9],[-9,36],[-6,11],[-10,9],[-5,-5],[-13,-34],[-155,-14],[-43,68],[142,205],[15,87],[-37,45],[-76,-38],[-38,27],[2,16],[2,34],[1,15],[-33,62],[-149,140],[-165,-30],[-98,-128],[-35,4],[-32,91],[25,30],[11,24],[12,38],[-65,45],[18,17],[8,18],[8,41],[-62,31],[-21,58],[-11,19],[-135,95],[-120,-42],[-9,22],[16,49],[-18,2],[-9,11],[-8,25],[91,8],[91,8],[28,32],[27,59],[-8,17],[-27,17],[-35,60],[-45,22],[-24,56],[-139,70],[-21,-10],[-3,-14],[0,-27],[-1,-27],[-4,-12],[-104,-34],[-3,-11],[-6,-55],[-4,-19],[-3,-6],[-66,24],[-34,65],[-15,46],[1,15],[4,33],[2,13],[-5,-2],[-5,9],[-4,17],[-3,27],[15,26],[-172,112],[-4,-14],[-7,-61],[-5,-18],[16,-51],[-6,2],[-5,-12],[-4,-24],[-4,-35],[-6,-32],[-6,-10],[-28,9],[-25,43],[-12,37],[5,44],[12,73],[6,44],[-5,18],[-2,29],[-2,28],[-3,22],[-4,9],[-132,-94],[-99,-72]],[[0,2477],[5,0],[12,24],[11,39],[12,73],[3,7],[-23,119],[-12,46],[-8,12]],[[0,2797],[8,-12],[12,-46],[23,-119],[-3,-7],[-12,-73],[-11,-39],[-12,-24],[-5,0],[0,320]],[[0,1853],[99,72],[132,94],[4,-9],[3,-22],[2,-28],[2,-29],[5,-18],[-6,-44],[-12,-73],[-5,-44],[12,-37],[25,-43],[28,-9],[6,10],[6,32],[4,35],[4,24],[5,12],[6,-2],[-16,51],[5,18],[7,61],[4,14],[172,-112],[-15,-26],[3,-27],[4,-17],[5,-9],[5,2],[-2,-13],[-4,-33],[-1,-15],[15,-46],[34,-65],[66,-24],[3,6],[4,19],[6,55],[3,11],[104,34],[4,12],[1,27],[0,27],[3,14],[21,10],[139,-70],[24,-56],[45,-22],[35,-60],[27,-17],[8,-17],[-27,-59],[-28,-32],[-91,-8],[-91,-8],[8,-25],[9,-11],[18,-2],[-16,-49],[9,-22],[120,42],[135,-95],[11,-19],[21,-58],[62,-31],[-8,-41],[-8,-18],[-18,-17],[65,-45],[-12,-38],[-11,-24],[-25,-30],[32,-91],[35,-4],[98,128],[165,30],[149,-140],[33,-62],[-1,-15],[-2,-34],[-2,-16],[38,-27],[76,38],[37,-45],[-15,-87],[-142,-205],[43,-68],[155,14],[13,34],[5,5],[10,-9],[6,-11],[9,-36],[4,-9],[122,54],[30,13],[93,41],[123,54],[54,-122],[117,-107],[-24,-78],[-79,-92],[10,-1],[28,-68],[-2372,0],[0,1853]],[[2416,0],[106,56],[124,-56],[-230,0]]]}