{"objects":{"water":{"type":"GeometryCollection","geometries":[{"type":"MultiPolygon","properties":{"source":"naturalearthdata.com","kind":"ocean","area":989871000000000,"sort_rank":200,"min_zoom":0,"id":1},"arcs":[[[0]],[[1]]]},{"type":"MultiLineString","properties":{"source":"naturalearthdata.com","kind":"ocean","sort_rank":205,"boundary":true,"min_zoom":0,"id":3517},"arcs":[[2],[3]]}]},"buildings":{"type":"GeometryCollection","geometries":[]},"places":{"type":"GeometryCollection","geometries":[]},"transit":{"type":"GeometryCollection","geometries":[]},"pois":{"type":"GeometryCollection","geometries":[]},"boundaries":{"type":"GeometryCollection","geometries":[]},"roads":{"type":"GeometryCollection","geometries":[]},"earth":{"type":"GeometryCollection","geometries":[{"type":"Polygon","properties":{"sort_rank":10,"source":"naturalearthdata.com","min_zoom":0,"kind":"earth","area":83319317895524},"arcs":[[4]]}]},"landuse":{"type":"GeometryCollection","geometries":[]}},"type":"Topology","transform":{"translate":[168.75,-85.0511287798],"scale":[0.002746582,0.0002616868]},"arcs":[[[2646,4096],[1450,0],[0,-143],[0,-1284],[-110,82],[-35,76],[34,29],[34,76],[-14,56],[-144,275],[-177,53],[-32,46],[-78,-48],[-31,18],[-27,91],[44,130],[-45,14],[-68,-103],[-7,8],[-15,76],[-10,25],[-94,45],[-94,46],[-20,47],[21,25],[-29,60],[-169,92],[-170,92],[-169,92],[-45,24]],[[2372,4096],[44,0],[-31,-20],[-12,16],[-1,4]],[[4096,2669],[-110,82],[-35,76],[34,29],[34,76],[-14,56],[-144,275],[-177,53],[-32,46],[-78,-48],[-31,18],[-27,91],[44,130],[-45,14],[-68,-103],[-7,8],[-15,76],[-10,25],[-94,45],[-94,46],[-20,47],[21,25],[-29,60],[-169,92],[-170,92],[-169,92],[-45,24]],[[2416,4096],[-31,-20],[-12,16],[-1,4]],[[2372,4096],[1,-4],[12,-16],[31,20],[230,0],[45,-24],[169,-92],[170,-92],[169,-92],[29,-60],[-21,-25],[20,-47],[94,-46],[94,-45],[10,-25],[15,-76],[7,-8],[68,103],[45,-14],[-44,-130],[27,-91],[31,-18],[78,48],[32,-46],[177,-53],[144,-275],[14,-56],[-34,-76],[-34,-29],[35,-76],[110,-82],[0,-3],[0,-618],[0,-1906],[0,-142],[-2046,0],[-2050,0],[0,4096],[2372,0]]]}