{"objects":{"water":{"type":"GeometryCollection","geometries":[{"type":"MultiPolygon","properties":{"source":"naturalearthdata.com","kind":"ocean","area":989871000000000,"sort_rank":200,"min_zoom":0,"id":1},"arcs":[[[0]]]},{"type":"LineString","properties":{"source":"naturalearthdata.com","kind":"ocean","sort_rank":205,"boundary":true,"min_zoom":0,"id":4017},"arcs":[1]}]},"buildings":{"type":"GeometryCollection","geometries":[]},"places":{"type":"GeometryCollection","geometries":[]},"transit":{"type":"GeometryCollection","geometries":[]},"pois":{"type":"GeometryCollection","geometries":[]},"boundaries":{"type":"GeometryCollection","geometries":[]},"roads":{"type":"GeometryCollection","geometries":[]},"earth":{"type":"GeometryCollection","geometries":[{"type":"MultiPolygon","properties":{"sort_rank":10,"source":"naturalearthdata.com","kind":"earth","min_zoom":2.0,"area":127836867867},"arcs":[[[2]]]}]},"landuse":{"type":"GeometryCollection","geometries":[{"type":"MultiPolygon","properties":{"kind":"nature_reserve","protect_class":"1","area":473449578101,"sort_rank":23,"source":"openstreetmap.org","min_zoom":4.0,"tier":2,"id":-7008278},"arcs":[[[3]]]}]}},"type":"Topology","transform":{"translate":[168.75,70.612614238],"scale":[0.002746582,0.0008317698]},"arcs":[[[4096,0],[-4096,0],[0,4096],[4096,0],[0,-570],[0,-599],[0,-600],[0,-599],[0,-600],[0,-17],[-55,-23],[6,-12],[0,-11],[-5,-7],[-6,-3],[-15,2],[-8,-2],[-7,-7],[2,-5],[3,-13],[-24,-13],[-50,-8],[-23,-24],[-22,-48],[-18,-10],[-75,-96],[-102,-80],[-18,-30],[0,1],[2,2],[1,-1],[2,-5],[-8,-31],[-9,-19],[-45,-63],[-11,-20],[-12,-36],[-3,-10],[-2,-12],[1,-16],[12,-61],[4,-10],[5,-12],[4,-15],[3,-16],[5,-17],[9,-41],[2,-15],[14,-47],[2,-10],[0,-26],[2,-10],[14,5],[109,84],[31,2],[32,-1],[54,-7],[78,1],[51,46],[21,35],[3,22],[46,39],[0,-457]],[[4096,1111],[-55,-23],[6,-12],[0,-11],[-5,-7],[-6,-3],[-15,2],[-8,-2],[-7,-7],[2,-5],[3,-13],[-24,-13],[-50,-8],[-23,-24],[-22,-48],[-18,-10],[-75,-96],[-102,-80],[-18,-30],[-2,-3],[2,3],[0,1],[2,2],[1,-1],[2,-5],[-8,-31],[-9,-19],[-45,-63],[-11,-20],[-12,-36],[-3,-10],[-2,-12],[1,-16],[12,-61],[4,-10],[5,-12],[4,-15],[3,-16],[5,-17],[9,-41],[2,-15],[14,-47],[2,-10],[0,-26],[2,-10],[14,5],[109,84],[31,2],[32,-1],[54,-7],[78,1],[51,46],[21,35],[3,22],[46,39]],[[3679,721],[18,30],[102,80],[75,96],[18,10],[22,48],[23,24],[50,8],[24,13],[-3,13],[-2,5],[7,7],[8,2],[15,-2],[6,3],[5,7],[0,11],[-6,12],[55,23],[0,-582],[0,-72],[-46,-39],[-3,-22],[-21,-35],[-51,-46],[-78,-1],[-54,7],[-32,1],[-31,-2],[-109,-84],[-14,-5],[-2,10],[0,26],[-2,10],[-14,47],[-2,15],[-9,41],[-5,17],[-3,16],[-4,15],[-5,12],[-4,10],[-12,61],[-1,16],[2,12],[3,10],[12,36],[11,20],[45,63],[9,19],[8,31],[-2,5],[-1,1],[-2,-2],[0,-1]],[[3768,0],[-244,0],[-9,5],[-56,72],[-83,434],[16,138],[130,236],[384,398],[190,92],[0,-1251],[-130,-76],[-131,-3],[-67,-45]]]}