{"objects":{"water":{"type":"GeometryCollection","geometries":[{"type":"MultiPolygon","properties":{"source":"naturalearthdata.com","kind":"ocean","area":989871000000000,"sort_rank":200,"min_zoom":0,"id":1},"arcs":[[[0]]]},{"type":"LineString","properties":{"source":"naturalearthdata.com","kind":"ocean","sort_rank":205,"boundary":true,"min_zoom":0,"id":252},"arcs":[1]}]},"buildings":{"type":"GeometryCollection","geometries":[]},"places":{"type":"GeometryCollection","geometries":[{"type":"Point","properties":{"name:pt":"Eureka","collision_rank":356,"name:nl":"Eureka","name:id":"Eureka","name":"Eureka","name:hi":"\u092f\u0942\u0930\u0947\u0915\u093e","name:tr":"Eureka","name:sv":"Eureka","name:ar":"\u0625\u0648\u0631\u064a\u0643\u0627\u060c \u0647\u0648\u0645\u0628\u0648\u0644\u062f\u062a\u060c \u0643\u0627\u0644\u064a\u0641\u0648\u0631\u0646\u064a\u0627","min_zoom":5.0,"name:it":"Eureka","name:vi":"Eureka","name:ru":"\u042e\u0440\u0438\u043a\u0430","name:pl":"Eureka","name:hu":"Eureka","id":6221,"name:ja":"\u30e6\u30fc\u30ec\u30ab","name:el":"\u0393\u03b9\u03bf\u03c5\u03c1\u03af\u03ba\u03b1","kind":"locality","name:en":"Eureka","population_rank":7,"source":"naturalearthdata.com","name:bn":"\u0987\u0989\u09b0\u09c7\u0995\u09be","name:de":"Eureka","name:ko":"\uc720\ub9ac\uce74","name:fr":"Eureka","wikidata_id":"Q488702","population":42398,"name:zh":"\u5c24\u91cc\u5361","name:es":"Eureka"},"coordinates":[3951,4015]}]},"transit":{"type":"GeometryCollection","geometries":[]},"pois":{"type":"GeometryCollection","geometries":[]},"boundaries":{"type":"GeometryCollection","geometries":[]},"roads":{"type":"GeometryCollection","geometries":[{"type":"LineString","properties":{"kind":"highway","collision_rank":411,"network":"US:US","sort_rank":383,"kind_detail":"motorway","source":"naturalearthdata.com","min_zoom":5.1,"shield_text":"101","id":212},"arcs":[2]},{"type":"LineString","properties":{"kind":"highway","collision_rank":411,"network":"US:US","sort_rank":383,"kind_detail":"motorway","source":"naturalearthdata.com","min_zoom":5.1,"shield_text":"101","id":1562},"arcs":[3]},{"type":"LineString","properties":{"kind":"highway","collision_rank":411,"network":"US:US","sort_rank":383,"kind_detail":"motorway","source":"naturalearthdata.com","min_zoom":5.1,"shield_text":"101","id":1858},"arcs":[4]}]},"earth":{"type":"GeometryCollection","geometries":[{"type":"MultiPolygon","properties":{"sort_rank":10,"source":"naturalearthdata.com","min_zoom":0,"kind":"earth","area":35497367916453},"arcs":[[[5]]]}]},"landuse":{"type":"GeometryCollection","geometries":[{"type":"MultiPolygon","properties":{"kind":"nature_reserve","protect_class":"4","area":42124693194,"sort_rank":23,"operator":"National Oceanic and Atmospheric Administration","source":"openstreetmap.org","min_zoom":4.0,"tier":2,"id":-9064770},"arcs":[[[6]]]},{"type":"MultiPolygon","properties":{"kind":"forest","protect_class":"6","area":910135157395,"sort_rank":31,"operator":"United States Forest Service","source":"openstreetmap.org","min_zoom":4.0,"tier":2,"id":-1447414},"arcs":[[[7]]]}]}},"type":"Topology","transform":{"translate":[-135.0,31.952162238],"scale":[0.002746582,0.0022040371]},"arcs":[[[4096,3277],[0,-3277],[-4096,0],[0,4096],[3961,0],[-5,-20],[-15,-40],[-15,-28],[-6,-9],[4,-4],[8,13],[2,7],[4,6],[5,6],[1,7],[4,4],[1,4],[1,1],[5,0],[2,-2],[2,-2],[3,-1],[3,1],[3,2],[3,-2],[3,-3],[1,-2],[-2,-8],[-8,-5],[-4,-3],[-6,0],[-3,1],[-7,-2],[-4,-1],[-3,-2],[-2,-4],[-1,-8],[-2,-2],[-1,-3],[1,-3],[-2,-4],[-4,-2],[-2,-2],[1,-3],[-2,-4],[3,-6],[0,-3],[-3,-2],[-1,-1],[1,-2],[-1,-2],[-3,2],[-5,1],[-5,2],[1,4],[4,10],[6,10],[-3,4],[-5,-11],[-8,-16],[-7,-11],[-5,-10],[-1,-3],[1,-2],[1,-2],[-2,-1],[-1,-1],[-2,-1],[0,-1],[-1,-5],[-10,-18],[-3,-7],[-5,-12],[-5,-12],[0,-5],[-1,-7],[-3,-8],[-5,-10],[4,-13],[12,-17],[0,-15],[6,-12],[-4,-17],[-1,-9],[7,-9],[6,-2],[3,-6],[23,-18],[13,-9],[13,-16],[17,-6],[8,-4],[10,-13],[3,-8],[0,-11],[1,-4],[3,-3],[2,1],[2,0],[5,-2],[4,-3],[4,-5],[8,-11],[8,-6],[8,-18],[9,-7],[9,-19],[10,-10],[9,-5],[4,-12],[2,-11],[0,-10],[3,-9],[0,-7],[2,-4],[6,-2],[2,-5],[2,-4],[2,-7],[0,-5],[2,-5],[0,-27],[6,-15],[0,-8],[-3,-7],[-8,-18],[-6,-21],[-2,-17],[-1,-27],[7,-10],[-1,-9],[4,-3],[-2,-9],[4,-4],[5,-22],[4,-12],[6,-9]],[[3961,4096],[-5,-20],[-15,-40],[-15,-28],[-6,-9],[4,-4],[8,13],[2,7],[4,6],[5,6],[1,7],[4,4],[1,4],[1,1],[5,0],[2,-2],[2,-2],[3,-1],[3,1],[3,2],[3,-2],[3,-3],[1,-2],[-2,-8],[-8,-5],[-4,-3],[-6,0],[-3,1],[-7,-2],[-4,-1],[-3,-2],[-2,-4],[-1,-8],[-2,-2],[-1,-3],[1,-3],[-2,-4],[-4,-2],[-2,-2],[1,-3],[-2,-4],[3,-6],[0,-3],[-3,-2],[-1,-1],[1,-2],[-1,-2],[-3,2],[-5,1],[-5,2],[1,4],[4,10],[6,10],[-3,4],[-5,-11],[-8,-16],[-7,-11],[-5,-10],[-1,-3],[1,-2],[1,-2],[-2,-1],[-1,-1],[-2,-1],[0,-1],[-1,-5],[-10,-18],[-3,-7],[-5,-12],[-5,-12],[0,-5],[-1,-7],[-3,-8],[-5,-10],[4,-13],[12,-17],[0,-15],[6,-12],[-4,-17],[-1,-9],[7,-9],[6,-2],[3,-6],[23,-18],[13,-9],[13,-16],[17,-6],[8,-4],[10,-13],[3,-8],[0,-11],[1,-4],[3,-3],[2,1],[2,0],[5,-2],[4,-3],[4,-5],[8,-11],[8,-6],[8,-18],[9,-7],[9,-19],[10,-10],[9,-5],[4,-12],[2,-11],[0,-10],[3,-9],[0,-7],[2,-4],[6,-2],[2,-5],[2,-4],[2,-7],[0,-5],[2,-5],[0,-27],[6,-15],[0,-8],[-3,-7],[-8,-18],[-6,-21],[-2,-17],[-1,-27],[7,-10],[-1,-9],[4,-3],[-2,-9],[4,-4],[5,-22],[4,-12],[6,-9]],[[4005,3851],[-13,1],[-21,13],[-5,13],[-15,9],[-2,11],[4,11],[-2,10],[-5,3],[-5,7],[-13,6],[4,42],[7,21],[10,13],[22,7],[6,9],[4,16],[1,9],[-2,4],[-9,13]],[[3972,4068],[-9,5],[-2,15],[1,8]],[[4096,3608],[-13,19],[-5,13],[5,34],[0,20],[-8,19],[12,10],[0,10],[-8,17],[-8,-2],[-4,4],[-1,4],[1,9],[-7,3],[-2,3],[-8,3],[-6,10],[0,3],[-12,11],[-4,9],[3,10],[-4,13],[-14,9],[-4,8],[-3,3]],[[3961,4096],[135,0],[0,-819],[-6,9],[-4,12],[-5,22],[-4,4],[2,9],[-4,3],[1,9],[-7,10],[1,27],[2,17],[6,21],[8,18],[3,7],[0,8],[-6,15],[0,27],[-2,5],[0,5],[-2,7],[-2,4],[-2,5],[-6,2],[-2,4],[0,7],[-3,9],[0,10],[-2,11],[-4,12],[-9,5],[-10,10],[-9,19],[-9,7],[-8,18],[-8,6],[-8,11],[-4,5],[-4,3],[-5,2],[-2,0],[-2,-1],[-3,3],[-1,4],[0,11],[-3,8],[-10,13],[-8,4],[-17,6],[-13,16],[-13,9],[-23,18],[-3,6],[-6,2],[-7,9],[1,9],[4,17],[-6,12],[0,15],[-12,17],[-4,13],[5,10],[3,8],[1,7],[0,5],[5,12],[5,12],[3,7],[10,18],[1,5],[0,1],[2,1],[1,1],[2,1],[-1,2],[-1,2],[1,3],[5,10],[7,11],[8,16],[5,11],[3,-4],[-6,-10],[-4,-10],[-1,-4],[5,-2],[5,-1],[3,-2],[1,2],[-1,2],[1,1],[3,2],[0,3],[-3,6],[2,4],[-1,3],[2,2],[4,2],[2,4],[-1,3],[1,3],[2,2],[1,8],[2,4],[3,2],[4,1],[7,2],[3,-1],[6,0],[4,3],[8,5],[2,8],[-1,2],[-3,3],[-3,2],[-3,-2],[-3,-1],[-3,1],[-2,2],[-2,2],[-5,0],[-1,-1],[-1,-4],[-4,-4],[-1,-7],[-5,-6],[-4,-6],[-2,-7],[-8,-13],[-4,4],[6,9],[15,28],[15,40],[5,20]],[[4096,3198],[0,-560],[-1,0],[-90,242],[-121,318],[212,0]],[[4096,3971],[0,-6],[-11,6],[11,0]]]}