{"objects":{"water":{"type":"GeometryCollection","geometries":[{"type":"Polygon","properties":{"name:pt":null,"collision_rank":400,"name:nl":"Colville Lake","name:id":null,"name:hi":null,"name:tr":null,"name:ar":null,"min_zoom":4.7,"name:it":null,"name:vi":null,"name:ru":"\u041a\u043e\u043b\u0432\u0438\u043b\u043b","name:sv":"Colville Lake","name:pl":null,"name:hu":null,"id":86,"name:ja":null,"name:el":null,"kind":"lake","name:en":"Colville Lake","name":"Colville Lake","area":2752450000,"sort_rank":204,"name:bn":null,"name:de":"Colville Lake","name:ko":null,"name:fr":"Colville Lake","source":"naturalearthdata.com","wikidata_id":"Q1112986","name:zh":"\u79d1\u723e\u7dad\u723e\u6e56","name:es":"Lago Colville"},"arcs":[[8]]},{"type":"MultiPolygon","properties":{"source":"naturalearthdata.com","kind":"ocean","area":989871000000000,"sort_rank":200,"min_zoom":0,"id":1},"arcs":[[[9],[10],[11]]]},{"type":"MultiPolygon","properties":{"sort_rank":204,"source":"naturalearthdata.com","kind":"lake","min_zoom":4.7,"area":4516997532},"arcs":[[[12]],[[13]]]},{"type":"MultiPolygon","properties":{"sort_rank":204,"source":"naturalearthdata.com","kind":"lake","min_zoom":5.7,"area":17226862204},"arcs":[[[14]],[[15]]]},{"type":"LineString","properties":{"source":"naturalearthdata.com","kind":"lake","area":3152180000,"sort_rank":367,"boundary":true,"min_zoom":5.7,"id":251},"arcs":[16]},{"type":"LineString","properties":{"source":"naturalearthdata.com","min_zoom":4.7,"area":2752450000,"sort_rank":367,"boundary":true,"id":86,"kind":"lake"},"arcs":[17]},{"type":"LineString","properties":{"source":"naturalearthdata.com","kind":"lake","area":2552980000,"sort_rank":367,"boundary":true,"min_zoom":4.7,"id":85},"arcs":[18]},{"type":"LineString","properties":{"source":"naturalearthdata.com","kind":"lake","area":2235790000,"sort_rank":367,"boundary":true,"min_zoom":5.7,"id":197},"arcs":[19]},{"type":"LineString","properties":{"source":"naturalearthdata.com","kind":"lake","area":1964020000,"sort_rank":367,"boundary":true,"min_zoom":4.7,"id":75},"arcs":[20]},{"type":"LineString","properties":{"source":"naturalearthdata.com","kind":"ocean","sort_rank":205,"boundary":true,"min_zoom":0,"id":454},"arcs":[21]},{"type":"LineString","properties":{"source":"naturalearthdata.com","kind":"ocean","sort_rank":205,"boundary":true,"min_zoom":0,"id":470},"arcs":[22]},{"type":"LineString","properties":{"source":"naturalearthdata.com","kind":"ocean","sort_rank":205,"boundary":true,"min_zoom":0,"id":482},"arcs":[23]},{"type":"LineString","properties":{"source":"naturalearthdata.com","kind":"ocean","sort_rank":205,"boundary":true,"min_zoom":0,"id":483},"arcs":[24]},{"type":"Point","properties":{"label_placement":true,"collision_rank":398,"name:sk":"Beaufortovo more","name:lt":"Boforto j\u016bra","name:ar":"\u0628\u062d\u0631 \u0628\u064a\u0648\u0641\u0648\u0631\u062a","name:cs":"Beaufortovo mo\u0159e","kind":"sea","name:br":"Mor Beaufort","min_zoom":3.0,"name:sl":"Beaufortovo morje","name:it":"Mare di Beaufort","name:uk":"\u041c\u043e\u0440\u0435 \u0411\u043e\u0444\u043e\u0440\u0442\u0430","name:ru":"\u041c\u043e\u0440\u0435 \u0411\u043e\u0444\u043e\u0440\u0442\u0430","name:sv":"Beauforthavet","name:pl":"Morze Beauforta","name:hu":"Beaufort-tenger","name:hr":"Beaufortovo more","id":305639712,"name:fa":"\u062f\u0631\u06cc\u0627\u06cc \u0628\u0648\u0641\u0648\u0631\u062a","name:eo":"Beaufort-maro","name:en":"Beaufort Sea","name":"Beaufort Sea","sort_rank":200,"name:fi":"Beaufortinmeri","name:de":"Beaufortsee","source":"openstreetmap.org","name:fr":"Mer de Beaufort","wikidata_id":"Q131274","name:be":"\u041c\u043e\u0440\u0430 \u0411\u0430\u0444\u043e\u0440\u0442\u0430","name:zh":"\u6ce2\u5f17\u7279\u6d77","name:es":"Mar de Beaufort"},"coordinates":[0,3484]}]},"buildings":{"type":"GeometryCollection","geometries":[]},"places":{"type":"GeometryCollection","geometries":[]},"transit":{"type":"GeometryCollection","geometries":[]},"pois":{"type":"GeometryCollection","geometries":[]},"boundaries":{"type":"GeometryCollection","geometries":[{"type":"MultiLineString","properties":{"sort_rank":256,"kind_detail":"4","kind":"region","min_zoom":2.0,"source":"naturalearthdata.com"},"arcs":[[0],[1],[2],[3],[4],[5],[6],[7]]}]},"roads":{"type":"GeometryCollection","geometries":[]},"earth":{"type":"GeometryCollection","geometries":[{"type":"MultiPolygon","properties":{"sort_rank":10,"source":"naturalearthdata.com","kind":"earth","min_zoom":5.0,"area":12275035991},"arcs":[[[25]],[[26]]]},{"type":"MultiPolygon","properties":{"sort_rank":10,"source":"naturalearthdata.com","min_zoom":0,"kind":"earth","area":13131386715102},"arcs":[[[27]]]}]},"landuse":{"type":"GeometryCollection","geometries":[]}},"type":"Topology","transform":{"translate":[-135.0,66.5132604431],"scale":[0.002746582,0.0010008188]},"arcs":[[[128,490],[-43,0],[-43,0]],[[42,490],[-42,0]],[[390,490],[-34,0],[-33,0]],[[323,490],[-34,0],[-34,0],[-42,0],[-43,0],[-42,0]],[[390,469],[20,4],[16,17]],[[426,490],[-36,0]],[[353,473],[17,-2],[20,-2]],[[477,0],[-1,6],[7,17],[14,12],[13,11],[3,10],[-7,10],[-8,4],[-9,3],[-8,4],[-5,8],[-2,7],[-1,9],[-3,11],[-6,10],[-6,3],[-6,2],[-6,6],[-2,10],[2,7],[5,7],[2,10],[-6,15],[-12,16],[-11,14],[1,15],[7,8],[7,6],[5,10],[5,16],[1,18],[-2,10],[-5,7],[-6,6],[-7,9],[-2,8],[-2,10],[-4,14],[-3,5],[-3,3],[-4,2],[-3,3],[-2,4],[-1,5],[-1,6],[-1,5],[-13,17],[-13,9],[-15,7],[-14,8],[-4,3],[-7,5],[-6,7],[-1,12],[4,11],[6,7],[7,4],[5,1]],[[3370,810],[8,6],[9,1],[-15,-46],[-6,-9],[5,-25],[0,-27],[-5,-25],[-7,-19],[-6,-8],[-5,-3],[-5,-6],[-5,-14],[-3,-10],[-1,-11],[2,-10],[5,-6],[-4,-18],[-6,-12],[-14,-15],[-11,-4],[-27,6],[-13,-14],[-17,1],[-17,-13],[-9,-1],[-9,4],[-6,10],[-1,15],[-4,3],[-2,7],[-2,6],[-2,4],[-18,14],[9,9],[10,5],[21,0],[0,6],[-3,1],[-7,6],[2,21],[3,11],[5,10],[-23,22],[-9,5],[-3,-2],[-3,-5],[-2,-1],[-2,8],[-1,12],[3,6],[4,2],[21,4],[76,42],[36,6],[8,6],[8,6],[16,3],[7,12],[7,14],[8,10]],[[2518,4096],[1578,0],[0,-1236],[-1,0],[-18,-9],[2,15],[-4,6],[-7,0],[-6,-2],[-3,-3],[-4,-8],[-3,-2],[-4,1],[-27,14],[-2,5],[-1,5],[0,3],[-7,4],[-5,-1],[-5,-7],[-3,-17],[7,-16],[2,-11],[-4,-7],[-6,2],[-6,10],[-8,22],[2,14],[-14,-35],[-24,-10],[-61,6],[-7,3],[-13,10],[-15,-1],[-6,3],[-22,26],[-8,12],[9,7],[29,-1],[-6,22],[-2,12],[0,14],[4,12],[13,22],[18,20],[27,21],[11,14],[6,23],[2,22],[3,20],[9,17],[41,33],[13,16],[-1,1],[-4,4],[-2,1],[3,16],[2,5],[-5,2],[-3,7],[-2,7],[-2,4],[-46,3],[-11,-5],[-9,-15],[-11,-11],[-15,-3],[-14,6],[-10,15],[-8,5],[-24,-3],[-10,15],[7,15],[3,8],[-1,8],[-3,12],[-2,11],[2,7],[7,1],[0,17],[7,19],[10,17],[8,9],[-5,1],[-5,3],[-4,4],[-4,5],[2,11],[1,7],[-4,3],[-8,4],[-8,9],[-3,9],[8,4],[9,-2],[4,2],[4,8],[1,6],[2,9],[0,8],[-2,4],[-19,3],[-19,11],[6,4],[7,1],[7,3],[2,9],[3,7],[14,-1],[6,4],[-8,7],[-17,0],[-8,7],[11,11],[22,-6],[10,5],[3,8],[4,14],[3,15],[0,14],[-4,12],[-7,12],[-7,8],[-7,3],[-5,5],[6,11],[16,18],[-9,15],[-12,0],[-24,-8],[-5,2],[-6,9],[-6,3],[-5,-2],[-8,-10],[-4,-2],[-25,6],[-12,-2],[-10,-14],[-2,-2],[-3,-1],[-2,-2],[-1,-6],[0,-6],[1,-4],[1,-1],[7,6],[6,0],[5,-2],[5,-6],[-10,-11],[-5,-3],[-5,-1],[0,-6],[10,0],[32,21],[11,3],[31,-10],[-4,-12],[-7,-4],[-9,0],[-7,-5],[8,-9],[9,-4],[9,2],[9,8],[8,4],[6,-7],[11,-28],[-13,-9],[-14,12],[-13,7],[-13,-24],[13,0],[-7,-18],[-11,-4],[-8,7],[1,15],[-13,28],[-7,10],[-7,4],[-41,-15],[-6,-6],[-3,-1],[-2,3],[-2,9],[-1,2],[-5,-1],[-4,-4],[-3,-5],[-3,-4],[-20,-6],[-4,-3],[-7,-8],[-4,-3],[0,-7],[37,7],[-14,-13],[-20,-6],[-20,2],[-16,10],[7,10],[8,1],[7,4],[3,23],[-1,10],[-3,5],[-4,2],[-4,0],[-2,-2],[-3,-15],[-3,-7],[-8,-9],[-26,-15],[-13,-20],[-12,-8],[-3,-6],[7,-17],[1,-13],[-4,-12],[-9,-13],[4,-13],[4,1],[4,7],[5,5],[7,-1],[6,-3],[6,-1],[7,5],[-5,10],[-2,3],[-3,2],[5,9],[9,5],[8,0],[7,-1],[-1,9],[-1,4],[11,14],[6,5],[6,2],[6,-1],[10,-11],[6,-2],[3,2],[1,5],[1,6],[2,4],[3,3],[33,0],[7,-6],[-12,-8],[-11,-13],[8,-8],[13,-7],[12,-2],[10,4],[5,12],[8,29],[7,7],[6,-3],[6,-10],[5,-13],[3,-12],[-4,-12],[-7,-4],[-8,3],[-5,6],[-5,-4],[-69,-33],[-6,-7],[-6,-10],[-17,-38],[-18,-21],[2,-9],[1,-13],[-2,-12],[-2,-10],[-12,-18],[0,-1],[0,-2],[-1,-2],[-4,-1],[-30,0],[-4,4],[2,24],[-3,13],[2,16],[-5,2],[-8,-5],[-6,-7],[-23,-34],[4,-1],[2,-2],[5,-10],[-3,-7],[8,-20],[6,-3],[18,9],[12,-3],[23,-14],[55,-7],[19,-12],[19,-26],[-11,4],[-4,-6],[-1,-13],[-5,-22],[-6,-12],[-8,-13],[-7,-3],[-3,15],[0,13],[-1,9],[-2,9],[-5,13],[-1,8],[1,9],[-1,7],[-23,14],[-13,4],[-4,-1],[-2,-4],[-1,-4],[1,-5],[0,-5],[-2,-3],[-4,-2],[-10,3],[-5,-1],[-33,-34],[-12,-1],[-26,9],[-12,-8],[-4,-10],[-14,-44],[2,-3],[2,-3],[2,-1],[2,-1],[0,-4],[1,-1],[7,-2],[-4,-11],[-6,-4],[-13,2],[8,-10],[62,-8],[10,-9],[-15,-11],[-1,-9],[-4,-5],[-4,-3],[-3,0],[0,-7],[2,0],[7,-6],[-2,-8],[12,-19],[32,-13],[13,-15],[-24,2],[-23,11],[-17,19],[-8,6],[-7,-4],[2,-3],[5,-8],[2,-3],[0,-7],[-46,7],[-12,5],[-5,-1],[-9,-17],[-2,-4],[1,-5],[4,-5],[0,-7],[-15,4],[-15,-4],[0,-3],[1,-4],[0,-3],[1,-4],[-4,-12],[-10,-17],[-3,-12],[3,-1],[4,2],[4,4],[3,6],[3,4],[13,-1],[27,20],[59,19],[6,-5],[-2,-3],[-1,-4],[-1,-3],[-1,-4],[10,-6],[5,-1],[5,0],[-2,14],[10,7],[39,0],[-3,-4],[-2,-2],[-3,-1],[-4,0],[0,-7],[22,0],[-15,-11],[-4,-9],[2,-4],[5,-7],[2,-3],[-3,-10],[-3,-11],[-4,-10],[-6,-4],[-98,13],[-10,15],[-3,-6],[-2,-7],[6,-14],[16,-6],[8,-8],[-3,-6],[7,-11],[3,-3],[-3,-10],[-12,-20],[-5,-4],[-9,1],[-52,33],[0,3],[-2,6],[-2,7],[-2,4],[-13,1],[-5,3],[-3,5],[-1,5],[-2,4],[-4,3],[-10,1],[-23,-8],[-11,-1],[-48,28],[-70,69],[-10,17],[-6,7],[-12,5],[-7,6],[-6,8],[-5,8],[-6,15],[-135,181],[-12,24],[-9,13],[-4,10],[-2,9],[-3,16],[-16,59],[-13,38],[-1,13],[4,10],[11,13],[-6,7],[-2,8],[-2,26],[8,0],[-3,4],[-6,3],[-11,10],[-14,9],[-6,8],[-3,7],[-3,6],[-4,21],[-6,20],[-23,45],[-24,72],[-21,44],[-4,15],[-4,13],[-20,29],[-14,28],[-78,95],[-93,95],[-83,67],[-14,19],[-5,4],[-4,2],[-4,0],[-2,-3],[0,-4],[0,-4],[-1,-3],[-24,-20],[-16,-22],[-16,-41],[-12,-49],[-1,-46],[8,-20],[13,-6],[29,5],[44,22],[13,-7],[-8,-9],[-11,-37],[-8,1],[-10,8],[-28,10],[-10,-1],[3,-12],[4,-13],[5,-10],[5,-6],[2,-19],[10,-13],[58,-22],[47,-9],[59,-11],[13,-11],[11,-18],[-26,15],[-84,-29],[-25,1],[-13,-5],[-26,-23],[-43,7],[-5,-4],[-11,-14],[-5,-3],[-14,-3],[-7,-5],[-6,-8],[-10,-10],[-24,-11],[-9,-14],[-3,-19],[1,-18],[4,-16],[1,-15],[2,-9],[4,-5],[4,-5],[3,-5],[1,-9],[1,-16],[1,-10],[-2,-4],[-1,-6],[-1,-5],[-1,-5],[1,-1],[4,-5],[-10,-13],[-33,-15],[-63,-66],[-14,-20],[-21,-40],[-15,-15],[-15,-26],[-9,-10],[-9,-6],[-30,-4],[-11,-5],[-10,-10],[-2,-14],[6,-12],[14,-19],[-8,-5],[-10,-4],[-9,1],[-18,13],[-28,2],[-7,2],[-5,7],[-2,11],[6,32],[2,11],[0,10],[1,9],[-15,55],[22,16],[66,-3],[-2,12],[-2,8],[-5,18],[0,11],[5,8],[11,9],[5,21],[1,25],[2,13],[12,-15],[-10,21],[-14,2],[-15,-14],[-11,-22],[-9,-31],[-3,-10],[-5,-11],[-15,-20],[-14,-14],[-120,-19],[-21,-12],[-26,2],[-9,-2],[-35,-36],[-72,-33],[-20,-2],[-77,-42],[-63,-10],[-15,-7],[4,-5],[4,-2],[3,-1],[4,1],[0,-6],[-7,-4],[-5,-9],[-3,-10],[-5,-12],[-5,-6],[-11,-10],[-5,-8],[-3,-12],[2,-8],[3,-7],[0,-10],[-4,-7],[-13,-11],[-5,-7],[-10,-18],[-79,-88],[29,8],[9,-1],[-5,-29],[-10,-14],[-23,-11],[-5,-5],[-10,-14],[-7,-3],[-5,-4],[1,-11],[5,-11],[4,-7],[-8,-14],[-18,-12],[-28,-50],[-3,-13],[1,-16],[4,-17],[3,-17],[-2,-15],[-6,-20],[1,-13],[9,-26],[-4,1],[-8,5],[-3,2],[-3,-2],[-3,-4],[-3,-3],[-4,1],[-3,6],[-2,7],[-2,22],[3,6],[3,9],[-1,8],[-4,4],[-2,5],[3,10],[6,16],[3,15],[-1,12],[1,11],[22,40],[5,16],[4,19],[3,21],[-1,19],[-3,11],[-9,-3],[-8,-13],[-10,-22],[-8,-25],[-4,-19],[-2,-5],[-4,7],[-5,12],[-1,10],[3,13],[6,7],[6,3],[5,5],[10,34],[2,3],[2,7],[3,6],[4,8],[1,13],[0,13],[0,9],[-4,34],[-1,16],[1,14],[0,8],[-1,7],[-5,9],[-6,3],[-3,-9],[-1,-12],[-1,-6],[-2,-5],[3,-11],[5,-18],[2,-11],[0,-3],[-2,-4],[-18,-69],[-2,-20],[-4,-16],[-9,-18],[-11,-16],[-8,-7],[3,10],[10,20],[3,9],[1,17],[1,8],[5,16],[5,18],[3,19],[1,19],[-1,38],[-7,31],[-9,26],[-10,21],[6,8],[1,12],[-2,13],[-5,9],[-8,1],[-11,-4],[-9,-10],[-5,-15],[3,-12],[5,-9],[7,-5],[5,-2],[5,-4],[7,-19],[4,-4],[5,-3],[3,-8],[2,-11],[3,-26],[-1,-8],[-4,-28],[-2,-6],[-1,-8],[-1,-14],[-1,-10],[-7,-23],[-3,-9],[-4,-7],[-4,-6],[-3,2],[0,14],[2,10],[8,14],[2,11],[0,8],[-4,10],[-1,6],[1,6],[1,9],[3,46],[-1,11],[-2,3],[-3,1],[-4,3],[-2,0],[-2,-1],[-2,0],[-1,4],[0,3],[-1,3],[-1,2],[-1,2],[-11,15],[-3,6],[-5,18],[-3,7],[-5,3],[-5,-3],[0,-7],[3,-8],[6,-26],[26,-46],[-2,-13],[-1,-15],[3,-13],[5,-7],[-2,-4],[-4,-11],[-2,-4],[2,-8],[0,-5],[-2,-8],[0,-4],[1,-5],[1,-3],[1,-2],[-2,-5],[-2,-1],[-2,0],[-2,-2],[-7,-13],[-6,-3],[-8,0],[-8,-3],[-7,-8],[-16,-33],[-8,-8],[-17,-11],[-8,-9],[3,17],[5,9],[12,12],[15,27],[30,18],[6,5],[3,13],[1,11],[-4,44],[-5,29],[-6,21],[-8,-4],[1,-14],[8,-56],[2,-22],[-7,13],[-12,55],[-2,5],[-3,9],[-3,4],[-4,-8],[-3,-7],[-1,-8],[0,-8],[3,-8],[0,-7],[-4,4],[-5,3],[-4,0],[-5,0],[7,-34],[-12,2],[-3,-9],[0,-17],[-5,-24],[-8,-14],[-14,-14],[-14,-9],[-8,3],[10,8],[6,6],[4,7],[0,10],[-3,20],[0,11],[8,20],[11,8],[4,6],[-10,17],[-8,6],[-25,4],[-18,13],[-7,1],[-13,-3],[-9,-9],[-1,-15],[11,-20],[-43,6],[-8,-3],[-16,-10],[-8,-1],[2,8],[-10,5],[-13,-6],[-24,-20],[7,-8],[15,13],[8,-2],[10,-7],[2,-3],[2,-6],[-1,-11],[1,-7],[3,1],[35,25],[7,2],[6,-4],[-16,-29],[-18,-51],[-6,-10],[-13,-13],[-2,-4],[-2,-5],[-3,-4],[-5,-1],[-7,4],[1,7],[6,10],[5,14],[-9,-5],[-12,-25],[-7,-5],[1,-15],[-4,-9],[-7,-4],[-6,1],[-11,-2],[-21,-21],[-11,2],[-1,2],[0,5],[0,4],[-2,3],[-3,1],[-3,0],[-4,-2],[-2,-2],[-4,-6],[-2,-7],[1,-8],[2,-10],[-13,-51],[-4,-10],[-8,-6],[1,11],[7,29],[5,15],[2,8],[-3,7],[-3,2],[-5,-3],[-5,-4],[-4,-5],[-9,-24],[-3,-4],[-6,2],[-17,12],[6,1],[8,4],[5,6],[-1,10],[1,15],[-5,6],[-7,-3],[-6,-8],[-2,-9],[-3,-28],[-1,-11],[-4,-28],[-12,-18],[-24,-18],[1,9],[1,5],[3,5],[3,7],[2,2],[2,0],[2,1],[1,8],[0,7],[1,3],[1,3],[1,11],[5,51],[-3,12],[-6,-9],[-6,-19],[-3,-15],[1,-1],[1,-6],[1,-8],[-2,-9],[-5,-13],[-6,-10],[-9,-9],[-16,-2],[-9,-7],[-25,-33],[-6,-5],[-47,0],[-17,-8],[-9,-10],[-4,-16],[11,1],[4,-4],[2,-10],[-11,-11],[-3,-24],[6,-23],[11,-11],[13,-4],[16,-11],[15,-15],[8,-18],[-31,10],[-18,0],[-8,-16],[6,-14],[13,-11],[15,-8],[11,-2],[-6,-12],[-6,0],[-7,3],[-6,-4],[-5,-14],[3,-8],[6,-4],[17,-2],[16,3],[11,11],[-3,20],[6,8],[7,5],[6,2],[6,-1],[18,-13],[9,-2],[10,8],[-35,21],[11,13],[20,-14],[37,-40],[-1,-7],[-1,-4],[-3,-10],[-3,-2],[-2,-5],[-8,1],[-6,-2],[-3,-6],[-1,-17],[-5,-9],[-11,0],[-70,32],[-14,-6],[0,-6],[12,-15],[1,-14],[-6,-5],[-16,22],[-19,10],[-16,23],[-13,11],[-14,6],[-8,-5],[-1,-13],[4,-17],[9,-24],[-12,-1],[-27,23],[-13,-9],[1,-3],[1,-10],[-10,0],[-5,2],[-5,5],[3,6],[-4,4],[-8,1],[-3,3],[-2,4],[-4,12],[-2,4],[-10,14],[-6,4],[-6,3],[-7,-1],[-21,-13],[-21,-3],[-6,-4],[10,-12],[3,-6],[4,-10],[-5,-5],[-2,-1],[0,-7],[11,-10],[21,11],[11,-5],[31,-24],[6,-13],[-10,-1],[-9,5],[-8,8],[-7,12],[-6,4],[-4,-12],[2,-15],[12,-8],[6,-1],[6,-2],[5,-5],[5,-6],[3,-7],[1,-6],[1,-5],[53,-16],[0,7],[-13,7],[24,-2],[10,-6],[9,-13],[0,-7],[-13,5],[-40,-5],[-39,21],[-13,0],[-1,14],[-8,9],[-26,7],[-4,5],[-4,7],[-5,6],[-25,13],[-15,15],[-7,11],[-5,15],[-3,25],[5,7],[8,1],[10,8],[-5,6],[-4,8],[-3,9],[-3,12],[30,21],[9,-2],[1,-9],[-6,-8],[-9,-2],[2,-11],[5,-8],[5,-6],[5,-2],[7,1],[5,8],[8,18],[6,6],[12,8],[5,7],[3,7],[7,27],[-11,13],[-4,7],[6,4],[5,2],[3,4],[3,11],[0,3],[-4,11],[-1,6],[1,4],[2,8],[0,5],[2,12],[6,7],[7,4],[5,1],[8,-1],[5,0],[3,5],[1,4],[0,6],[1,5],[2,3],[6,0],[16,-15],[6,-2],[14,2],[6,6],[9,19],[5,-1],[2,-8],[-2,-11],[-7,-18],[7,-17],[3,-4],[-3,-23],[6,-14],[8,-4],[3,10],[0,13],[-2,16],[-4,14],[-3,9],[3,32],[2,9],[5,8],[12,12],[5,8],[-15,-3],[-8,2],[-4,7],[0,11],[4,8],[5,6],[4,6],[14,37],[3,17],[-8,4],[7,15],[11,6],[9,7],[0,20],[19,6],[19,1],[4,3],[9,18],[4,6],[14,3],[8,0],[6,-3],[10,-23],[4,-37],[0,-39],[3,-31],[4,14],[2,32],[2,16],[-4,13],[6,7],[9,4],[4,6],[-1,18],[-1,12],[-1,11],[3,11],[17,6],[2,-2],[3,-7],[2,-8],[1,-6],[2,-15],[6,-15],[7,-8],[5,7],[-2,11],[-9,29],[-2,11],[4,8],[81,46],[13,24],[-5,9],[-18,19],[4,5],[4,2],[10,0],[-5,10],[0,11],[3,9],[15,7],[3,7],[-3,10],[-8,8],[24,45],[10,9],[9,1],[15,-3],[9,2],[25,21],[24,12],[12,-1],[11,-11],[8,-18],[4,-4],[3,9],[1,9],[-2,10],[-2,8],[-2,6],[31,-6],[4,1],[7,4],[3,1],[4,-1],[7,-5],[4,0],[8,4],[15,15],[7,1],[3,-2],[4,-10],[3,-2],[23,0],[-2,6],[-2,16],[-1,6],[31,-2],[14,6],[13,20],[7,6],[29,-3],[6,4],[4,6],[4,1],[4,-11],[0,-10],[-1,-6],[-1,-7],[4,-10],[7,-8],[13,-7],[13,-19],[5,5],[4,9],[7,7],[9,13],[9,6],[3,7],[-3,7],[4,12],[12,23],[5,23],[7,7],[36,7],[29,16],[5,7],[2,10],[3,18],[-1,1],[-2,8],[0,8],[7,7],[6,14],[4,3],[17,-3],[3,7],[3,5],[4,4],[14,3],[6,8],[14,24],[6,9],[8,8],[7,1],[1,-11],[11,1],[27,20],[30,9],[130,87],[16,16],[40,19],[13,18],[18,12],[7,9],[-5,6],[-17,8],[5,6],[7,2],[13,-1],[5,2],[4,4],[8,11],[5,12],[6,20],[2,21],[-5,13],[-6,-8],[-6,-21],[-6,-14],[-9,11],[-2,16],[3,8],[6,8],[7,13],[-6,6],[-12,-5],[-7,6],[3,7],[-11,6],[-21,-5],[-11,5],[5,2],[3,7],[7,19],[-2,3],[-3,10],[-3,9],[-5,4],[-5,2],[-4,-1],[2,17],[-1,12],[-4,7],[-7,-1],[0,6],[2,0],[0,7],[-10,-5],[-10,-9],[-4,-13],[7,-14],[-6,-4],[-14,4],[-4,-3],[-3,-11],[-3,-9],[-4,-4],[-6,0],[0,-7],[4,-1],[4,-2],[4,-5],[3,-6],[-20,-28],[-7,-20],[2,-27],[-3,-1],[-10,-7],[1,-6],[1,-3],[1,-4],[-17,-9],[-18,-5],[-4,4],[6,9],[15,14],[-7,5],[-8,-2],[-29,-18],[-15,-4],[5,11],[2,11],[-1,8],[-6,4],[-4,-5],[-15,-37],[-7,-12],[-7,-7],[-2,9],[1,12],[3,11],[8,22],[-8,0],[-16,-16],[-8,-5],[-26,-4],[-7,4],[4,8],[14,13],[-9,0],[-4,4],[-2,10],[2,20],[-10,-5],[-12,30],[-8,-4],[3,-10],[-2,-9],[-5,-6],[-6,-2],[-17,6],[-8,-1],[-7,-13],[15,-6],[-5,-14],[-9,-1],[-8,9],[-3,20],[5,19],[9,9],[11,6],[7,7],[-19,2],[-10,-4],[-6,-12],[1,-10],[-8,-10],[-10,-5],[-7,1],[-8,5],[-5,-6],[-2,-12],[3,-15],[-2,-11],[-10,-12],[-12,-8],[-7,1],[-2,11],[4,13],[10,23],[-5,6],[-5,1],[-5,-4],[-5,-9],[2,-10],[-4,-3],[-13,-1],[-13,-12],[-6,-2],[-6,-6],[-5,-11],[-5,-7],[-6,7],[1,6],[4,5],[4,7],[0,13],[-5,-11],[-13,-16],[-23,-43],[-6,-6],[8,-2],[18,9],[9,-7],[-7,-9],[-19,-9],[-4,-12],[-2,-20],[-5,-16],[-11,-29],[-6,-29],[-4,-13],[-5,-6],[-18,5],[-7,-5],[-7,-21],[3,1],[9,-1],[-2,-11],[-10,-30],[-8,9],[-3,8],[-1,11],[0,9],[6,13],[1,8],[-2,18],[-6,17],[-6,15],[-6,9],[-12,7],[-25,1],[-11,9],[-7,2],[-7,-10],[-5,-18],[-3,-19],[3,1],[5,-1],[2,0],[-11,-18],[-61,-20],[-30,-31],[-17,-9],[-6,-9],[3,-16],[-6,-13],[-17,-21],[-7,-7],[-33,1],[-15,-23],[-11,-7],[-36,-13],[-8,-9],[1,-10],[-7,-21],[-11,0],[-21,16],[-2,8],[-2,3],[-2,0],[-5,-5],[-3,-1],[-20,6],[4,3],[2,4],[3,7],[1,7],[-70,0],[0,7],[13,1],[32,6],[28,20],[10,0],[-8,4],[-12,-2],[-12,-5],[-18,-15],[-56,-9],[-7,-28],[-7,-20],[-5,-2],[-4,-5],[-4,-6],[-2,-8],[9,-5],[9,-1],[3,2],[5,10],[3,2],[12,5],[8,5],[9,14],[6,2],[6,-3],[2,-10],[-1,-12],[-3,-8],[-4,-6],[-4,-8],[40,31],[7,-7],[-6,-25],[-13,-13],[-53,-15],[-8,1],[-20,19],[-23,6],[-6,-3],[-7,-11],[-6,-6],[-28,3],[2,6],[3,5],[2,5],[3,4],[-42,0],[-21,-26],[-11,-20],[-5,-23],[10,-13],[3,-11],[-2,-13],[-8,-19],[-1,-11],[5,-8],[-6,-9],[-4,-11],[-3,-10],[-9,-4],[-7,-6],[-2,-13],[1,-16],[3,-13],[-4,0],[-4,2],[-3,3],[-3,5],[-2,0],[-39,-31],[-3,-4],[-2,-5],[-2,-3],[-4,-1],[-4,2],[-4,8],[-4,3],[-75,4],[-61,-18],[-14,-11],[-9,-22],[6,-6],[6,-8],[-7,-9],[-8,-4],[-17,-1],[0,5],[2,11],[0,5],[-5,-3],[-10,-9],[-5,-2],[-15,0],[-5,-4],[-5,-9],[-1,-7],[0,-10],[-5,-15],[-8,-10],[-17,-4],[-17,-13],[-44,-7],[-15,-11],[-13,-19],[-10,-28],[-4,-28],[-4,-11],[-6,-9],[-5,-2],[-9,-1],[-4,-3],[3,19],[6,8],[2,4],[2,9],[0,9],[-1,4],[0,5],[1,10],[2,10],[3,8],[4,7],[4,2],[5,4],[1,10],[1,9],[3,4],[4,4],[8,14],[5,3],[24,0],[4,47],[22,39],[67,68],[10,16],[11,24],[2,0],[1,2],[1,9],[-1,5],[-3,14],[-1,5],[2,10],[9,3],[4,11],[-4,2],[-3,4],[-3,6],[-3,9],[2,2],[1,4],[-6,1],[-5,-3],[-4,-6],[-2,-12],[2,0],[5,-5],[2,-2],[-7,-6],[-15,-1],[-8,-7],[2,-3],[4,-8],[2,-2],[-9,-9],[-11,-3],[-10,1],[-7,4],[-3,4],[-2,4],[-3,3],[-5,3],[-20,0],[10,9],[5,7],[2,11],[-11,4],[-10,-5],[-10,-8],[-11,-4],[-4,3],[-8,13],[-4,3],[-3,5],[-2,19],[-3,4],[-7,-5],[-8,-8],[-5,-2],[2,15],[6,18],[8,11],[18,12],[0,8],[-9,3],[-7,12],[-5,14],[-7,12],[-11,1],[-29,-10],[-7,9],[5,3],[4,5],[2,7],[2,12],[0,15],[-4,1],[-5,-2],[-11,4],[-13,-9],[-7,-3],[-7,3],[-6,6],[-6,4],[-6,-5],[21,-41],[11,-25],[1,-20],[-8,-32],[-5,-14],[-9,-9],[-7,-13],[-2,-5],[8,-19],[-6,-1],[-9,-6],[-5,-1],[-5,3],[-8,9],[-5,2],[-4,-7],[-3,-16],[0,-15],[7,-3],[-1,-3],[-4,-11],[11,-16],[6,-4],[6,7],[-1,3],[-4,10],[14,22],[18,-1],[12,-19],[-3,-32],[-18,-22],[-21,7],[-39,32],[-39,-5],[-12,5],[-1,4],[-2,7],[-2,6],[-5,3],[-1,-14],[-3,-6],[-16,11],[-11,-4],[-21,-14],[-10,3],[-8,3],[0,1130],[2445,0],[-12,-41],[-10,-27],[28,22],[9,5],[-1,5],[-2,6],[-1,3],[5,14],[7,-2],[13,-19],[8,-4],[10,1],[6,9],[-2,22],[4,-5],[4,0],[4,4],[3,7]],[[390,3062],[0,8],[36,8],[6,12],[-14,0],[-1,2],[-1,5],[-1,4],[0,3],[-10,7],[-5,0],[-28,-23],[-7,-10],[-5,-2],[-2,-6],[-1,-3],[0,-5],[25,-14],[8,1],[15,7],[-15,6]],[[3656,3651],[-7,3],[-39,-5],[-7,-8],[-6,-13],[-1,-18],[7,-4],[7,-3],[7,2],[6,5],[-17,14],[10,6],[22,-10],[8,11],[-2,0],[2,8],[3,6],[3,4],[4,2]],[[3131,340],[-13,82],[-1,14],[3,22],[6,21],[16,30],[12,9],[14,0],[14,-7],[12,-13],[6,-1],[9,1],[7,-2],[3,-12],[1,-6],[17,-63],[3,-20],[-5,-9],[-5,4],[-13,11],[-5,-2],[-3,-9],[-1,-25],[-5,-26],[1,-16],[4,-14],[2,-9],[3,-6],[7,-8],[3,-6],[0,-9],[-5,0],[-7,3],[-7,6],[-4,7],[-4,5],[-5,-6],[-1,-9],[4,-17],[-2,-8],[-5,-4],[-3,-1],[-2,-2],[-8,-14],[-4,-2],[-4,3],[-4,9],[-3,11],[-4,7],[-8,10],[-10,5],[-3,2],[-1,5],[-1,13],[-1,2],[-4,4],[1,9],[2,11],[2,8],[-1,12]],[[3244,810],[-29,-30],[-48,-12],[-23,-23],[-11,-6],[-51,-1],[-5,3],[0,11],[3,8],[4,8],[3,8],[1,12],[1,11],[0,22],[2,13],[3,12],[4,9],[1,7],[-2,16],[-6,4],[-8,0],[-6,3],[-4,8],[-6,20],[-5,7],[9,13],[21,-1],[5,8],[-6,12],[-4,5],[-5,4],[-6,2],[-3,-1],[-2,-5],[-4,-6],[-10,-6],[-10,6],[-17,24],[12,6],[26,-9],[9,16],[-7,1],[-7,5],[-3,11],[2,17],[-5,-2],[-4,-7],[-6,-19],[-11,27],[-23,18],[-43,17],[7,8],[8,-2],[15,-12],[8,0],[14,11],[8,2],[28,-8],[9,5],[12,13],[3,-1],[-3,-16],[23,-15],[11,-18],[9,-22],[4,-18],[9,-17],[2,-9],[2,-16],[4,-14],[7,-9],[7,-5],[8,1],[17,16],[7,3],[5,-4],[7,-9],[6,-12],[2,-12],[-9,-30],[-22,3],[-23,12],[-16,-3],[7,-18],[9,-15],[22,-21],[17,-10],[18,-4],[24,7],[8,-7]],[[3605,222],[-7,-1],[-28,-21],[-5,3],[-4,29],[-5,4],[-13,-1],[-24,14],[-14,-8],[-5,4],[-9,18],[-7,7],[-18,11],[-14,3],[-4,3],[-2,7],[26,60],[7,8],[19,6],[8,10],[-8,10],[-8,15],[-5,18],[-1,22],[5,30],[12,15],[14,6],[11,1],[-2,-7],[30,-20],[2,2],[5,3],[4,0],[0,-9],[-3,-6],[-13,-11],[0,-9],[-1,-6],[-3,-3],[-4,-3],[16,-3],[14,-12],[14,-17],[22,-43],[39,-48],[16,-30],[5,-4],[2,-4],[-1,-7],[-2,-13],[0,-10],[2,-5],[3,-3],[19,-36],[4,-4],[4,-5],[9,-22],[4,-7],[0,-8],[-32,24],[-15,21],[-1,24],[-4,1],[-4,-1],[-3,-2],[-4,-5],[4,-8],[1,-9],[-2,-4],[-12,9],[-3,-6],[-3,-16],[-4,-15],[-4,-4],[-5,9],[-7,18],[-3,8],[-4,5],[3,7],[1,9],[-1,8],[-4,4]],[[3729,1043],[45,-28],[3,-10],[-8,-39],[-3,-5],[-4,-3],[-1,-7],[-1,-7],[-2,-4],[-5,-1],[-5,2],[-25,17],[-7,-1],[-8,-10],[-14,-38],[-6,-10],[-22,-14],[-5,-13],[9,-5],[10,-1],[9,-5],[7,-17],[-3,-6],[-9,8],[-21,4],[-10,8],[-7,1],[-2,9],[-1,12],[-2,12],[-8,11],[-10,7],[-20,3],[-13,6],[-13,18],[-9,27],[4,34],[12,24],[57,54],[5,-1],[2,-15],[0,-10],[0,-5],[3,-2],[10,-2],[17,-12],[-1,10],[-1,4],[53,0]],[[3605,222],[-7,-1],[-28,-21],[-5,3],[-4,29],[-5,4],[-13,-1],[-24,14],[-14,-8],[-5,4],[-9,18],[-7,7],[-18,11],[-14,3],[-4,3],[-2,7],[26,60],[7,8],[19,6],[8,10],[-8,10],[-8,15],[-5,18],[-1,22],[5,30],[12,15],[14,6],[11,1],[-2,-7],[30,-20],[2,2],[5,3],[4,0],[0,-9],[-3,-6],[-13,-11],[0,-9],[-1,-6],[-3,-3],[-4,-3],[16,-3],[14,-12],[14,-17],[22,-43],[39,-48],[16,-30],[5,-4],[2,-4],[-1,-7],[-2,-13],[0,-10],[2,-5],[3,-3],[19,-36],[4,-4],[4,-5],[9,-22],[4,-7],[0,-8],[-32,24],[-15,21],[-1,24],[-4,1],[-4,-1],[-3,-2],[-4,-5],[4,-8],[1,-9],[-2,-4],[-12,9],[-3,-6],[-3,-16],[-4,-15],[-4,-4],[-5,9],[-7,18],[-3,8],[-4,5],[3,7],[1,9],[-1,8],[-4,4]],[[3370,810],[8,6],[9,1],[-15,-46],[-6,-9],[5,-25],[0,-27],[-5,-25],[-7,-19],[-6,-8],[-5,-3],[-5,-6],[-5,-14],[-3,-10],[-1,-11],[2,-10],[5,-6],[-4,-18],[-6,-12],[-14,-15],[-11,-4],[-27,6],[-13,-14],[-17,1],[-17,-13],[-9,-1],[-9,4],[-6,10],[-1,15],[-4,3],[-2,7],[-2,6],[-2,4],[-18,14],[9,9],[10,5],[21,0],[0,6],[-3,1],[-7,6],[2,21],[3,11],[5,10],[-23,22],[-9,5],[-3,-2],[-3,-5],[-2,-1],[-2,8],[-1,12],[3,6],[4,2],[21,4],[76,42],[36,6],[8,6],[8,6],[16,3],[7,12],[7,14],[8,10]],[[3244,810],[-29,-30],[-48,-12],[-23,-23],[-11,-6],[-51,-1],[-5,3],[0,11],[3,8],[4,8],[3,8],[1,12],[1,11],[0,22],[2,13],[3,12],[4,9],[1,7],[-2,16],[-6,4],[-8,0],[-6,3],[-4,8],[-6,20],[-5,7],[9,13],[21,-1],[5,8],[-6,12],[-4,5],[-5,4],[-6,2],[-3,-1],[-2,-5],[-4,-6],[-10,-6],[-10,6],[-17,24],[12,6],[26,-9],[9,16],[-7,1],[-7,5],[-3,11],[2,17],[-5,-2],[-4,-7],[-6,-19],[-11,27],[-23,18],[-43,17],[7,8],[8,-2],[15,-12],[8,0],[14,11],[8,2],[28,-8],[9,5],[12,13],[3,-1],[-3,-16],[23,-15],[11,-18],[9,-22],[4,-18],[9,-17],[2,-9],[2,-16],[4,-14],[7,-9],[7,-5],[8,1],[17,16],[7,3],[5,-4],[7,-9],[6,-12],[2,-12],[-9,-30],[-22,3],[-23,12],[-16,-3],[7,-18],[9,-15],[22,-21],[17,-10],[18,-4],[24,7],[8,-7]],[[3729,1043],[45,-28],[3,-10],[-8,-39],[-3,-5],[-4,-3],[-1,-7],[-1,-7],[-2,-4],[-5,-1],[-5,2],[-25,17],[-7,-1],[-8,-10],[-14,-38],[-6,-10],[-22,-14],[-5,-13],[9,-5],[10,-1],[9,-5],[7,-17],[-3,-6],[-9,8],[-21,4],[-10,8],[-7,1],[-2,9],[-1,12],[-2,12],[-8,11],[-10,7],[-20,3],[-13,6],[-13,18],[-9,27],[4,34],[12,24],[57,54],[5,-1],[2,-15],[0,-10],[0,-5],[3,-2],[10,-2],[17,-12],[-1,10],[-1,4],[53,0]],[[3131,340],[-13,82],[-1,14],[3,22],[6,21],[16,30],[12,9],[14,0],[14,-7],[12,-13],[6,-1],[9,1],[7,-2],[3,-12],[1,-6],[17,-63],[3,-20],[-5,-9],[-5,4],[-13,11],[-5,-2],[-3,-9],[-1,-25],[-5,-26],[1,-16],[4,-14],[2,-9],[3,-6],[7,-8],[3,-6],[0,-9],[-5,0],[-7,3],[-7,6],[-4,7],[-4,5],[-5,-6],[-1,-9],[4,-17],[-2,-8],[-5,-4],[-3,-1],[-2,-2],[-8,-14],[-4,-2],[-4,3],[-4,9],[-3,11],[-4,7],[-8,10],[-10,5],[-3,2],[-1,5],[-1,13],[-1,2],[-4,4],[1,9],[2,11],[2,8],[-1,12]],[[390,3062],[0,8],[36,8],[6,12],[-14,0],[-1,2],[-1,5],[-1,4],[0,3],[-10,7],[-5,0],[-28,-23],[-7,-10],[-5,-2],[-2,-6],[-1,-3],[0,-5],[25,-14],[8,1],[15,7],[-15,6]],[[3656,3651],[-7,3],[-39,-5],[-7,-8],[-6,-13],[-1,-18],[7,-4],[7,-3],[7,2],[6,5],[-17,14],[10,6],[22,-10],[8,11],[-2,0],[2,8],[3,6],[3,4],[4,2]],[[0,2966],[8,-3],[10,-3],[21,14],[11,4],[16,-11],[3,6],[1,14],[5,-3],[2,-6],[2,-7],[1,-4],[12,-5],[39,5],[39,-32],[21,-7],[18,22],[3,32],[-12,19],[-18,1],[-14,-22],[4,-10],[1,-3],[-6,-7],[-6,4],[-11,16],[4,11],[1,3],[-7,3],[0,15],[3,16],[4,7],[5,-2],[8,-9],[5,-3],[5,1],[9,6],[6,1],[-8,19],[2,5],[7,13],[9,9],[5,14],[8,32],[-1,20],[-11,25],[-21,41],[6,5],[6,-4],[6,-6],[7,-3],[7,3],[13,9],[11,-4],[5,2],[4,-1],[0,-15],[-2,-12],[-2,-7],[-4,-5],[-5,-3],[7,-9],[29,10],[11,-1],[7,-12],[5,-14],[7,-12],[9,-3],[0,-8],[-18,-12],[-8,-11],[-6,-18],[-2,-15],[5,2],[8,8],[7,5],[3,-4],[2,-19],[3,-5],[4,-3],[8,-13],[4,-3],[11,4],[10,8],[10,5],[11,-4],[-2,-11],[-5,-7],[-10,-9],[20,0],[5,-3],[3,-3],[2,-4],[3,-4],[7,-4],[10,-1],[11,3],[9,9],[-2,2],[-4,8],[-2,3],[8,7],[15,1],[7,6],[-2,2],[-5,5],[-2,0],[2,12],[4,6],[5,3],[6,-1],[-1,-4],[-2,-2],[3,-9],[3,-6],[3,-4],[4,-2],[-4,-11],[-9,-3],[-2,-10],[1,-5],[3,-14],[1,-5],[-1,-9],[-1,-2],[-2,0],[-11,-24],[-10,-16],[-67,-68],[-22,-39],[-4,-47],[-24,0],[-5,-3],[-8,-14],[-4,-4],[-3,-4],[-1,-9],[-1,-10],[-5,-4],[-4,-2],[-4,-7],[-3,-8],[-2,-10],[-1,-10],[0,-5],[1,-4],[0,-9],[-2,-9],[-2,-4],[-6,-8],[-3,-19],[4,3],[9,1],[5,2],[6,9],[4,11],[4,28],[10,28],[13,19],[15,11],[44,7],[17,13],[17,4],[8,10],[5,15],[0,10],[1,7],[5,9],[5,4],[15,0],[5,2],[10,9],[5,3],[0,-5],[-2,-11],[0,-5],[17,1],[8,4],[7,9],[-6,8],[-6,6],[9,22],[14,11],[61,18],[75,-4],[4,-3],[4,-8],[4,-2],[4,1],[2,3],[2,5],[3,4],[39,31],[2,0],[3,-5],[3,-3],[4,-2],[4,0],[-3,13],[-1,16],[2,13],[7,6],[9,4],[3,10],[4,11],[6,9],[-5,8],[1,11],[8,19],[2,13],[-3,11],[-10,13],[5,23],[11,20],[21,26],[42,0],[-3,-4],[-2,-5],[-3,-5],[-2,-6],[28,-3],[6,6],[7,11],[6,3],[23,-6],[20,-19],[8,-1],[53,15],[13,13],[6,25],[-7,7],[-40,-31],[4,8],[4,6],[3,8],[1,12],[-2,10],[-6,3],[-6,-2],[-9,-14],[-8,-5],[-12,-5],[-3,-2],[-5,-10],[-3,-2],[-9,1],[-9,5],[2,8],[4,6],[4,5],[5,2],[7,20],[7,28],[56,9],[18,15],[12,5],[12,2],[8,-4],[-10,0],[-28,-20],[-32,-6],[-13,-1],[0,-7],[70,0],[-1,-7],[-3,-7],[-2,-4],[-4,-3],[20,-6],[3,1],[5,5],[2,0],[2,-3],[2,-8],[21,-16],[11,0],[7,21],[-1,10],[8,9],[36,13],[11,7],[15,23],[33,-1],[7,7],[17,21],[6,13],[-3,16],[6,9],[17,9],[30,31],[61,20],[11,18],[-2,0],[-5,1],[-3,-1],[3,19],[5,18],[7,10],[7,-2],[11,-9],[25,-1],[12,-7],[6,-9],[6,-15],[6,-17],[2,-18],[-1,-8],[-6,-13],[0,-9],[1,-11],[3,-8],[8,-9],[10,30],[2,11],[-9,1],[-3,-1],[7,21],[7,5],[18,-5],[5,6],[4,13],[6,29],[11,29],[5,16],[2,20],[4,12],[19,9],[7,9],[-9,7],[-18,-9],[-8,2],[6,6],[23,43],[13,16],[5,11],[0,-13],[-4,-7],[-4,-5],[-1,-6],[6,-7],[5,7],[5,11],[6,6],[6,2],[13,12],[13,1],[4,3],[-2,10],[5,9],[5,4],[5,-1],[5,-6],[-10,-23],[-4,-13],[2,-11],[7,-1],[12,8],[10,12],[2,11],[-3,15],[2,12],[5,6],[8,-5],[7,-1],[10,5],[8,10],[-1,10],[6,12],[10,4],[19,-2],[-7,-7],[-11,-6],[-9,-9],[-5,-19],[3,-20],[8,-9],[9,1],[5,14],[-15,6],[7,13],[8,1],[17,-6],[6,2],[5,6],[2,9],[-3,10],[8,4],[12,-30],[10,5],[-2,-20],[2,-10],[4,-4],[9,0],[-14,-13],[-4,-8],[7,-4],[26,4],[8,5],[16,16],[8,0],[-8,-22],[-3,-11],[-1,-12],[2,-9],[7,7],[7,12],[15,37],[4,5],[6,-4],[1,-8],[-2,-11],[-5,-11],[15,4],[29,18],[8,2],[7,-5],[-15,-14],[-6,-9],[4,-4],[18,5],[17,9],[-1,4],[-1,3],[-1,6],[10,7],[3,1],[-2,27],[7,20],[20,28],[-3,6],[-4,5],[-4,2],[-4,1],[0,7],[6,0],[4,4],[3,9],[3,11],[4,3],[14,-4],[6,4],[-7,14],[4,13],[10,9],[10,5],[0,-7],[-2,0],[0,-6],[7,1],[4,-7],[1,-12],[-2,-17],[4,1],[5,-2],[5,-4],[3,-9],[3,-10],[2,-3],[-7,-19],[-3,-7],[-5,-2],[11,-5],[21,5],[11,-6],[-3,-7],[7,-6],[12,5],[6,-6],[-7,-13],[-6,-8],[-3,-8],[2,-16],[9,-11],[6,14],[6,21],[6,8],[5,-13],[-2,-21],[-6,-20],[-5,-12],[-8,-11],[-4,-4],[-5,-2],[-13,1],[-7,-2],[-5,-6],[17,-8],[5,-6],[-7,-9],[-18,-12],[-13,-18],[-40,-19],[-16,-16],[-130,-87],[-30,-9],[-27,-20],[-11,-1],[-1,11],[-7,-1],[-8,-8],[-6,-9],[-14,-24],[-6,-8],[-14,-3],[-4,-4],[-3,-5],[-3,-7],[-17,3],[-4,-3],[-6,-14],[-7,-7],[0,-8],[2,-8],[1,-1],[-3,-18],[-2,-10],[-5,-7],[-29,-16],[-36,-7],[-7,-7],[-5,-23],[-12,-23],[-4,-12],[3,-7],[-3,-7],[-9,-6],[-9,-13],[-7,-7],[-4,-9],[-5,-5],[-13,19],[-13,7],[-7,8],[-4,10],[1,7],[1,6],[0,10],[-4,11],[-4,-1],[-4,-6],[-6,-4],[-29,3],[-7,-6],[-13,-20],[-14,-6],[-31,2],[1,-6],[2,-16],[2,-6],[-23,0],[-3,2],[-4,10],[-3,2],[-7,-1],[-15,-15],[-8,-4],[-4,0],[-7,5],[-4,1],[-3,-1],[-7,-4],[-4,-1],[-31,6],[2,-6],[2,-8],[2,-10],[-1,-9],[-3,-9],[-4,4],[-8,18],[-11,11],[-12,1],[-24,-12],[-25,-21],[-9,-2],[-15,3],[-9,-1],[-10,-9],[-24,-45],[8,-8],[3,-10],[-3,-7],[-15,-7],[-3,-9],[0,-11],[5,-10],[-10,0],[-4,-2],[-4,-5],[18,-19],[5,-9],[-13,-24],[-81,-46],[-4,-8],[2,-11],[9,-29],[2,-11],[-5,-7],[-7,8],[-6,15],[-2,15],[-1,6],[-2,8],[-3,7],[-2,2],[-17,-6],[-3,-11],[1,-11],[1,-12],[1,-18],[-4,-6],[-9,-4],[-6,-7],[4,-13],[-2,-16],[-2,-32],[-4,-14],[-3,31],[0,39],[-4,37],[-10,23],[-6,3],[-8,0],[-14,-3],[-4,-6],[-9,-18],[-4,-3],[-19,-1],[-19,-6],[0,-20],[-9,-7],[-11,-6],[-7,-15],[8,-4],[-3,-17],[-14,-37],[-4,-6],[-5,-6],[-4,-8],[0,-11],[4,-7],[8,-2],[15,3],[-5,-8],[-12,-12],[-5,-8],[-2,-9],[-3,-32],[3,-9],[4,-14],[2,-16],[0,-13],[-3,-10],[-8,4],[-6,14],[3,23],[-3,4],[-7,17],[7,18],[2,11],[-2,8],[-5,1],[-9,-19],[-6,-6],[-14,-2],[-6,2],[-16,15],[-6,0],[-2,-3],[-1,-5],[0,-6],[-1,-4],[-3,-5],[-5,0],[-8,1],[-5,-1],[-7,-4],[-6,-7],[-2,-12],[0,-5],[-2,-8],[-1,-4],[1,-6],[4,-11],[0,-3],[-3,-11],[-3,-4],[-5,-2],[-6,-4],[4,-7],[11,-13],[-7,-27],[-3,-7],[-5,-7],[-12,-8],[-6,-6],[-8,-18],[-5,-8],[-7,-1],[-5,2],[-5,6],[-5,8],[-2,11],[9,2],[6,8],[-1,9],[-9,2],[-30,-21],[3,-12],[3,-9],[4,-8],[5,-6],[-10,-8],[-8,-1],[-5,-7],[3,-25],[5,-15],[7,-11],[15,-15],[25,-13],[5,-6],[4,-7],[4,-5],[26,-7],[8,-9],[1,-14],[13,0],[39,-21],[40,5],[13,-5],[0,7],[-9,13],[-10,6],[-24,2],[13,-7],[0,-7],[-53,16],[-1,5],[-1,6],[-3,7],[-5,6],[-5,5],[-6,2],[-6,1],[-12,8],[-2,15],[4,12],[6,-4],[7,-12],[8,-8],[9,-5],[10,1],[-6,13],[-31,24],[-11,5],[-21,-11],[-11,10],[0,7],[2,1],[5,5],[-4,10],[-3,6],[-10,12],[6,4],[21,3],[21,13],[7,1],[6,-3],[6,-4],[10,-14],[2,-4],[4,-12],[2,-4],[3,-3],[8,-1],[4,-4],[-3,-6],[5,-5],[5,-2],[10,0],[-1,10],[-1,3],[13,9],[27,-23],[12,1],[-9,24],[-4,17],[1,13],[8,5],[14,-6],[13,-11],[16,-23],[19,-10],[16,-22],[6,5],[-1,14],[-12,15],[0,6],[14,6],[70,-32],[11,0],[5,9],[1,17],[3,6],[6,2],[8,-1],[2,5],[3,2],[3,10],[1,4],[1,7],[-37,40],[-20,14],[-11,-13],[35,-21],[-10,-8],[-9,2],[-18,13],[-6,1],[-6,-2],[-7,-5],[-6,-8],[3,-20],[-11,-11],[-16,-3],[-17,2],[-6,4],[-3,8],[5,14],[6,4],[7,-3],[6,0],[6,12],[-11,2],[-15,8],[-13,11],[-6,14],[8,16],[18,0],[31,-10],[-8,18],[-15,15],[-16,11],[-13,4],[-11,11],[-6,23],[3,24],[11,11],[-2,10],[-4,4],[-11,-1],[4,16],[9,10],[17,8],[47,0],[6,5],[25,33],[9,7],[16,2],[9,9],[6,10],[5,13],[2,9],[-1,8],[-1,6],[-1,1],[3,15],[6,19],[6,9],[3,-12],[-5,-51],[-1,-11],[-1,-3],[-1,-3],[0,-7],[-1,-8],[-2,-1],[-2,0],[-2,-2],[-3,-7],[-3,-5],[-1,-5],[-1,-9],[24,18],[12,18],[4,28],[1,11],[3,28],[2,9],[6,8],[7,3],[5,-6],[-1,-15],[1,-10],[-5,-6],[-8,-4],[-6,-1],[17,-12],[6,-2],[3,4],[9,24],[4,5],[5,4],[5,3],[3,-2],[3,-7],[-2,-8],[-5,-15],[-7,-29],[-1,-11],[8,6],[4,10],[13,51],[-2,10],[-1,8],[2,7],[4,6],[2,2],[4,2],[3,0],[3,-1],[2,-3],[0,-4],[0,-5],[1,-2],[11,-2],[21,21],[11,2],[6,-1],[7,4],[4,9],[-1,15],[7,5],[12,25],[9,5],[-5,-14],[-6,-10],[-1,-7],[7,-4],[5,1],[3,4],[2,5],[2,4],[13,13],[6,10],[18,51],[16,29],[-6,4],[-7,-2],[-35,-25],[-3,-1],[-1,7],[1,11],[-2,6],[-2,3],[-10,7],[-8,2],[-15,-13],[-7,8],[24,20],[13,6],[10,-5],[-2,-8],[8,1],[16,10],[8,3],[43,-6],[-11,20],[1,15],[9,9],[13,3],[7,-1],[18,-13],[25,-4],[8,-6],[10,-17],[-4,-6],[-11,-8],[-8,-20],[0,-11],[3,-20],[0,-10],[-4,-7],[-6,-6],[-10,-8],[8,-3],[14,9],[14,14],[8,14],[5,24],[0,17],[3,9],[12,-2],[-7,34],[5,0],[4,0],[5,-3],[4,-4],[0,7],[-3,8],[0,8],[1,8],[3,7],[4,8],[3,-4],[3,-9],[2,-5],[12,-55],[7,-13],[-2,22],[-8,56],[-1,14],[8,4],[6,-21],[5,-29],[4,-44],[-1,-11],[-3,-13],[-6,-5],[-30,-18],[-15,-27],[-12,-12],[-5,-9],[-3,-17],[8,9],[17,11],[8,8],[16,33],[7,8],[8,3],[8,0],[6,3],[7,13],[2,2],[2,0],[2,1],[2,5],[-1,2],[-1,3],[-1,5],[0,4],[2,8],[0,5],[-2,8],[2,4],[4,11],[2,4],[-5,7],[-3,13],[1,15],[2,13],[-26,46],[-6,26],[-3,8],[0,7],[5,3],[5,-3],[3,-7],[5,-18],[3,-6],[11,-15],[1,-2],[1,-2],[1,-3],[0,-3],[1,-4],[2,0],[2,1],[2,0],[4,-3],[3,-1],[2,-3],[1,-11],[-3,-46],[-1,-9],[-1,-6],[1,-6],[4,-10],[0,-8],[-2,-11],[-8,-14],[-2,-10],[0,-14],[3,-2],[4,6],[4,7],[3,9],[7,23],[1,10],[1,14],[1,8],[2,6],[4,28],[1,8],[-3,26],[-2,11],[-3,8],[-5,3],[-4,4],[-7,19],[-5,4],[-5,2],[-7,5],[-5,9],[-3,12],[5,15],[9,10],[11,4],[8,-1],[5,-9],[2,-13],[-1,-12],[-6,-8],[10,-21],[9,-26],[7,-31],[1,-38],[-1,-19],[-3,-19],[-5,-18],[-5,-16],[-1,-8],[-1,-17],[-3,-9],[-10,-20],[-3,-10],[8,7],[11,16],[9,18],[4,16],[2,20],[18,69],[2,4],[0,3],[-2,11],[-5,18],[-3,11],[2,5],[1,6],[1,12],[3,9],[6,-3],[5,-9],[1,-7],[0,-8],[-1,-14],[1,-16],[4,-34],[0,-9],[0,-13],[-1,-13],[-4,-8],[-3,-6],[-2,-7],[-2,-3],[-10,-34],[-5,-5],[-6,-3],[-6,-7],[-3,-13],[1,-10],[5,-12],[4,-7],[2,5],[4,19],[8,25],[10,22],[8,13],[9,3],[3,-11],[1,-19],[-3,-21],[-4,-19],[-5,-16],[-22,-40],[-1,-11],[1,-12],[-3,-15],[-6,-16],[-3,-10],[2,-5],[4,-4],[1,-8],[-3,-9],[-3,-6],[2,-22],[2,-7],[3,-6],[4,-1],[3,3],[3,4],[3,2],[3,-2],[8,-5],[4,-1],[-9,26],[-1,13],[6,20],[2,15],[-3,17],[-4,17],[-1,16],[3,13],[28,50],[18,12],[8,14],[-4,7],[-5,11],[-1,11],[5,4],[7,3],[10,14],[5,5],[23,11],[10,14],[5,29],[-9,1],[-29,-8],[79,88],[10,18],[5,7],[13,11],[4,7],[0,10],[-3,7],[-2,8],[3,12],[5,8],[11,10],[5,6],[5,12],[3,10],[5,9],[7,4],[0,6],[-4,-1],[-3,1],[-4,2],[-4,5],[15,7],[63,10],[77,42],[20,2],[72,33],[35,36],[9,2],[26,-2],[21,12],[120,19],[14,14],[15,20],[5,11],[3,10],[9,31],[11,22],[15,14],[14,-2],[10,-21],[-12,15],[-2,-13],[-1,-25],[-5,-21],[-11,-9],[-5,-8],[0,-11],[5,-18],[2,-8],[2,-12],[-66,3],[-22,-16],[15,-55],[-1,-9],[0,-10],[-2,-11],[-6,-32],[2,-11],[5,-7],[7,-2],[28,-2],[18,-13],[9,-1],[10,4],[8,5],[-14,19],[-6,12],[2,14],[10,10],[11,5],[30,4],[9,6],[9,10],[15,26],[15,15],[21,40],[14,20],[63,66],[33,15],[10,13],[-4,5],[-1,1],[1,5],[1,5],[1,6],[2,4],[-1,10],[-1,16],[-1,9],[-3,5],[-4,5],[-4,5],[-2,9],[-1,15],[-4,16],[-1,18],[3,19],[9,14],[24,11],[10,10],[6,8],[7,5],[14,3],[5,3],[11,14],[5,4],[43,-7],[26,23],[13,5],[25,-1],[84,29],[26,-15],[-11,18],[-13,11],[-59,11],[-47,9],[-58,22],[-10,13],[-2,19],[-5,6],[-5,10],[-4,13],[-3,12],[10,1],[28,-10],[10,-8],[8,-1],[11,37],[8,9],[-13,7],[-44,-22],[-29,-5],[-13,6],[-8,20],[1,46],[12,49],[16,41],[16,22],[24,20],[1,3],[0,4],[0,4],[2,3],[4,0],[4,-2],[5,-4],[14,-19],[83,-67],[93,-95],[78,-95],[14,-28],[20,-29],[4,-13],[4,-15],[21,-44],[24,-72],[23,-45],[6,-20],[4,-21],[3,-6],[3,-7],[6,-8],[14,-9],[11,-10],[6,-3],[3,-4],[-8,0],[2,-26],[2,-8],[6,-7],[-11,-13],[-4,-10],[1,-13],[13,-38],[16,-59],[3,-16],[2,-9],[4,-10],[9,-13],[12,-24],[135,-181],[6,-15],[5,-8],[6,-8],[7,-6],[12,-5],[6,-7],[10,-17],[70,-69],[48,-28],[11,1],[23,8],[10,-1],[4,-3],[2,-4],[1,-5],[3,-5],[5,-3],[13,-1],[2,-4],[2,-7],[2,-6],[0,-3],[52,-33],[9,-1],[5,4],[12,20],[3,10],[-3,3],[-7,11],[3,6],[-8,8],[-16,6],[-6,14],[2,7],[3,6],[10,-15],[98,-13],[6,4],[4,10],[3,11],[3,10],[-2,3],[-5,7],[-2,4],[4,9],[15,11],[-22,0],[0,7],[4,0],[3,1],[2,2],[3,4],[-39,0],[-10,-7],[2,-14],[-5,0],[-5,1],[-10,6],[1,4],[1,3],[1,4],[2,3],[-6,5],[-59,-19],[-27,-20],[-13,1],[-3,-4],[-3,-6],[-4,-4],[-4,-2],[-3,1],[3,12],[10,17],[4,12],[-1,4],[0,3],[-1,4],[0,3],[15,4],[15,-4],[0,7],[-4,5],[-1,5],[2,4],[9,17],[5,1],[12,-5],[46,-7],[0,7],[-2,3],[-5,8],[-2,3],[7,4],[8,-6],[17,-19],[23,-11],[24,-2],[-13,15],[-32,13],[-12,19],[2,8],[-7,6],[-2,0],[0,7],[3,0],[4,3],[4,5],[1,9],[15,11],[-10,9],[-62,8],[-8,10],[13,-2],[6,4],[4,11],[-7,2],[-1,1],[0,4],[-2,1],[-2,1],[-2,3],[-2,3],[14,44],[4,10],[12,8],[26,-9],[12,1],[33,34],[5,1],[10,-3],[4,2],[2,3],[0,5],[-1,5],[1,4],[2,4],[4,1],[13,-4],[23,-14],[1,-7],[-1,-9],[1,-8],[5,-13],[2,-9],[1,-9],[0,-13],[3,-15],[7,3],[8,13],[6,12],[5,22],[1,13],[4,6],[11,-4],[-19,26],[-19,12],[-55,7],[-23,14],[-12,3],[-18,-9],[-6,3],[-8,20],[3,7],[-5,10],[-2,2],[-4,1],[23,34],[6,7],[8,5],[5,-2],[-2,-16],[3,-13],[-2,-24],[4,-4],[30,0],[4,1],[1,2],[0,2],[0,1],[12,18],[2,10],[2,12],[-1,13],[-2,9],[18,21],[17,38],[6,10],[6,7],[69,33],[5,4],[5,-6],[8,-3],[7,4],[4,12],[-3,12],[-5,13],[-6,10],[-6,3],[-7,-7],[-8,-29],[-5,-12],[-10,-4],[-12,2],[-13,7],[-8,8],[11,13],[12,8],[-7,6],[-33,0],[-3,-3],[-2,-4],[-1,-6],[-1,-5],[-3,-2],[-6,2],[-10,11],[-6,1],[-6,-2],[-6,-5],[-11,-14],[1,-4],[1,-9],[-7,1],[-8,0],[-9,-5],[-5,-9],[3,-2],[2,-3],[5,-10],[-7,-5],[-6,1],[-6,3],[-7,1],[-5,-5],[-4,-7],[-4,-1],[-4,13],[9,13],[4,12],[-1,13],[-7,17],[3,6],[12,8],[13,20],[26,15],[8,9],[3,7],[3,15],[2,2],[4,0],[4,-2],[3,-5],[1,-10],[-3,-23],[-7,-4],[-8,-1],[-7,-10],[16,-10],[20,-2],[20,6],[14,13],[-37,-7],[0,7],[4,3],[7,8],[4,3],[20,6],[3,4],[3,5],[4,4],[5,1],[1,-2],[2,-9],[2,-3],[3,1],[6,6],[41,15],[7,-4],[7,-10],[13,-28],[-1,-15],[8,-7],[11,4],[7,18],[-13,0],[13,24],[13,-7],[14,-12],[13,9],[-11,28],[-6,7],[-8,-4],[-9,-8],[-9,-2],[-9,4],[-8,9],[7,5],[9,0],[7,4],[4,12],[-31,10],[-11,-3],[-32,-21],[-10,0],[0,6],[5,1],[5,3],[10,11],[-5,6],[-5,2],[-6,0],[-7,-6],[-1,1],[-1,4],[0,6],[1,6],[2,2],[3,1],[2,2],[10,14],[12,2],[25,-6],[4,2],[8,10],[5,2],[6,-3],[6,-9],[5,-2],[24,8],[12,0],[9,-15],[-16,-18],[-6,-11],[5,-5],[7,-3],[7,-8],[7,-12],[4,-12],[0,-14],[-3,-15],[-4,-14],[-3,-8],[-10,-5],[-22,6],[-11,-11],[8,-7],[17,0],[8,-7],[-6,-4],[-14,1],[-3,-7],[-2,-9],[-7,-3],[-7,-1],[-6,-4],[19,-11],[19,-3],[2,-4],[0,-8],[-2,-9],[-1,-6],[-4,-8],[-4,-2],[-9,2],[-8,-4],[3,-9],[8,-9],[8,-4],[4,-3],[-1,-7],[-2,-11],[4,-5],[4,-4],[5,-3],[5,-1],[-8,-9],[-10,-17],[-7,-19],[0,-17],[-7,-1],[-2,-7],[2,-11],[3,-12],[1,-8],[-3,-8],[-7,-15],[10,-15],[24,3],[8,-5],[10,-15],[14,-6],[15,3],[11,11],[9,15],[11,5],[46,-3],[2,-4],[2,-7],[3,-7],[5,-2],[-2,-5],[-3,-16],[2,-1],[4,-4],[1,-1],[-13,-16],[-41,-33],[-9,-17],[-3,-20],[-2,-22],[-6,-23],[-11,-14],[-27,-21],[-18,-20],[-13,-22],[-4,-12],[0,-14],[2,-12],[6,-22],[-29,1],[-9,-7],[8,-12],[22,-26],[6,-3],[15,1],[13,-10],[7,-3],[61,-6],[24,10],[14,35],[-2,-14],[8,-22],[6,-10],[6,-2],[4,7],[-2,11],[-7,16],[3,17],[5,7],[5,1],[7,-4],[0,-3],[1,-5],[2,-5],[27,-14],[4,-1],[3,2],[4,8],[3,3],[6,2],[7,0],[4,-6],[-2,-15],[18,9],[1,0]],[[2445,4096],[-12,-41],[-10,-27],[28,22],[9,5],[-1,5],[-2,6],[-1,3],[5,14],[7,-2],[13,-19],[8,-4],[10,1],[6,9],[-2,22],[4,-5],[4,0],[4,4],[3,7]],[[2445,4096],[73,0],[-3,-7],[-4,-4],[-4,0],[-4,5],[2,-22],[-6,-9],[-10,-1],[-8,4],[-13,19],[-7,2],[-5,-14],[1,-3],[2,-6],[1,-5],[-9,-5],[-28,-22],[10,27],[12,41]],[[390,3062],[15,-6],[-15,-7],[-8,-1],[-25,14],[0,5],[1,3],[2,6],[5,2],[7,10],[28,23],[5,0],[10,-7],[0,-3],[1,-4],[1,-5],[1,-2],[14,0],[-6,-12],[-36,-8],[0,-8]],[[4096,2860],[0,-2860],[-3873,0],[-223,0],[0,2966],[8,-3],[10,-3],[21,14],[11,4],[16,-11],[3,6],[1,14],[5,-3],[2,-6],[2,-7],[1,-4],[12,-5],[39,5],[39,-32],[21,-7],[18,22],[3,32],[-12,19],[-18,1],[-14,-22],[4,-10],[1,-3],[-6,-7],[-6,4],[-11,16],[4,11],[1,3],[-7,3],[0,15],[3,16],[4,7],[5,-2],[8,-9],[5,-3],[5,1],[9,6],[6,1],[-8,19],[2,5],[7,13],[9,9],[5,14],[8,32],[-1,20],[-11,25],[-21,41],[6,5],[6,-4],[6,-6],[7,-3],[7,3],[8,6],[5,3],[11,-4],[5,2],[4,-1],[0,-15],[-2,-12],[-2,-7],[-4,-5],[-5,-3],[7,-9],[29,10],[11,-1],[7,-12],[5,-14],[7,-12],[9,-3],[0,-8],[-18,-12],[-8,-11],[-6,-18],[-2,-15],[5,2],[8,8],[7,5],[3,-4],[2,-19],[3,-5],[4,-3],[8,-13],[4,-3],[11,4],[10,8],[10,5],[11,-4],[-2,-11],[-5,-7],[-10,-9],[20,0],[5,-3],[3,-3],[2,-4],[3,-4],[7,-4],[10,-1],[11,3],[9,9],[-2,2],[-4,8],[-2,3],[8,7],[15,1],[7,6],[-2,2],[-5,5],[-2,0],[2,12],[4,6],[5,3],[6,-1],[-1,-4],[-2,-2],[3,-9],[3,-6],[3,-4],[4,-2],[-4,-11],[-9,-3],[-2,-10],[1,-5],[3,-14],[1,-5],[-1,-9],[-1,-2],[-2,0],[-11,-24],[-10,-16],[-67,-68],[-22,-39],[-4,-47],[-24,0],[-5,-3],[-8,-14],[-4,-4],[-3,-4],[-1,-9],[-1,-10],[-5,-4],[-4,-2],[-4,-7],[-3,-8],[-2,-10],[-1,-10],[0,-5],[1,-4],[0,-9],[-2,-9],[-2,-4],[-6,-8],[-3,-19],[4,3],[9,1],[5,2],[6,9],[4,11],[4,28],[10,28],[13,19],[15,11],[44,7],[17,13],[17,4],[8,10],[5,15],[0,10],[1,7],[5,9],[5,4],[15,0],[5,2],[10,9],[5,3],[0,-5],[-2,-11],[0,-5],[17,1],[8,4],[7,9],[-6,8],[-6,6],[9,22],[14,11],[61,18],[75,-4],[4,-3],[4,-8],[4,-2],[4,1],[2,3],[2,5],[3,4],[39,31],[2,0],[3,-5],[3,-3],[4,-2],[4,0],[-3,13],[-1,16],[2,13],[7,6],[9,4],[3,10],[4,11],[6,9],[-5,8],[1,11],[8,19],[2,13],[-3,11],[-10,13],[5,23],[11,20],[21,26],[42,0],[-3,-4],[-2,-5],[-3,-5],[-2,-6],[28,-3],[6,6],[7,11],[6,3],[23,-6],[20,-19],[8,-1],[53,15],[13,13],[6,25],[-7,7],[-40,-31],[4,8],[4,6],[3,8],[1,12],[-2,10],[-6,3],[-6,-2],[-9,-14],[-8,-5],[-12,-5],[-3,-2],[-5,-10],[-3,-2],[-9,1],[-9,5],[2,8],[4,6],[4,5],[5,2],[7,20],[7,28],[56,9],[18,15],[12,5],[12,2],[8,-4],[-10,0],[-28,-20],[-32,-6],[-13,-1],[0,-7],[70,0],[-1,-7],[-3,-7],[-2,-4],[-4,-3],[20,-6],[3,1],[5,5],[2,0],[2,-3],[2,-8],[21,-16],[11,0],[7,21],[-1,10],[8,9],[36,13],[11,7],[15,23],[33,-1],[7,7],[17,21],[6,13],[-3,16],[6,9],[17,9],[30,31],[61,20],[11,18],[-2,0],[-5,1],[-3,-1],[3,19],[5,18],[7,10],[7,-2],[11,-9],[25,-1],[12,-7],[6,-9],[6,-15],[6,-17],[2,-18],[-1,-8],[-6,-13],[0,-9],[1,-11],[3,-8],[8,-9],[10,30],[2,11],[-9,1],[-3,-1],[7,21],[7,5],[18,-5],[5,6],[4,13],[6,29],[11,29],[5,16],[2,20],[4,12],[19,9],[7,9],[-9,7],[-18,-9],[-8,2],[6,6],[23,43],[13,16],[5,11],[0,-13],[-4,-7],[-4,-5],[-1,-6],[6,-7],[5,7],[5,11],[6,6],[6,2],[13,12],[13,1],[4,3],[-2,10],[5,9],[5,4],[5,-1],[5,-6],[-10,-23],[-4,-13],[2,-11],[7,-1],[12,8],[10,12],[2,11],[-3,15],[2,12],[5,6],[8,-5],[7,-1],[10,5],[8,10],[-1,10],[6,12],[10,4],[19,-2],[-7,-7],[-11,-6],[-9,-9],[-5,-19],[3,-20],[8,-9],[9,1],[5,14],[-15,6],[7,13],[8,1],[17,-6],[6,2],[5,6],[2,9],[-3,10],[8,4],[12,-30],[10,5],[-2,-20],[2,-10],[4,-4],[9,0],[-14,-13],[-4,-8],[7,-4],[26,4],[8,5],[16,16],[8,0],[-8,-22],[-3,-11],[-1,-12],[2,-9],[7,7],[7,12],[15,37],[4,5],[6,-4],[1,-8],[-2,-11],[-5,-11],[15,4],[29,18],[8,2],[7,-5],[-15,-14],[-6,-9],[4,-4],[18,5],[17,9],[-1,4],[-1,3],[-1,6],[10,7],[3,1],[-2,27],[7,20],[20,28],[-3,6],[-4,5],[-4,2],[-4,1],[0,7],[6,0],[4,4],[3,9],[3,11],[4,3],[14,-4],[6,4],[-7,14],[4,13],[10,9],[10,5],[0,-7],[-2,0],[0,-6],[7,1],[4,-7],[1,-12],[-2,-17],[4,1],[5,-2],[5,-4],[3,-9],[3,-10],[2,-3],[-7,-19],[-3,-7],[-5,-2],[11,-5],[21,5],[11,-6],[-3,-7],[7,-6],[12,5],[6,-6],[-7,-13],[-6,-8],[-3,-8],[2,-16],[9,-11],[6,14],[6,21],[6,8],[5,-13],[-2,-21],[-6,-20],[-5,-12],[-8,-11],[-4,-4],[-5,-2],[-13,1],[-7,-2],[-5,-6],[17,-8],[5,-6],[-7,-9],[-18,-12],[-13,-18],[-40,-19],[-16,-16],[-130,-87],[-30,-9],[-27,-20],[-11,-1],[-1,11],[-7,-1],[-8,-8],[-6,-9],[-14,-24],[-6,-8],[-14,-3],[-4,-4],[-3,-5],[-3,-7],[-17,3],[-4,-3],[-6,-14],[-7,-7],[0,-8],[2,-8],[1,-1],[-3,-18],[-2,-10],[-5,-7],[-29,-16],[-36,-7],[-7,-7],[-5,-23],[-12,-23],[-4,-12],[3,-7],[-3,-7],[-9,-6],[-9,-13],[-7,-7],[-4,-9],[-5,-5],[-13,19],[-13,7],[-7,8],[-4,10],[1,7],[1,6],[0,10],[-4,11],[-4,-1],[-4,-6],[-6,-4],[-29,3],[-7,-6],[-13,-20],[-14,-6],[-31,2],[1,-6],[2,-16],[2,-6],[-23,0],[-3,2],[-4,10],[-3,2],[-7,-1],[-15,-15],[-8,-4],[-4,0],[-7,5],[-4,1],[-3,-1],[-7,-4],[-4,-1],[-31,6],[2,-6],[2,-8],[2,-10],[-1,-9],[-3,-9],[-4,4],[-8,18],[-11,11],[-12,1],[-24,-12],[-25,-21],[-9,-2],[-15,3],[-9,-1],[-10,-9],[-24,-45],[8,-8],[3,-10],[-3,-7],[-15,-7],[-3,-9],[0,-11],[5,-10],[-10,0],[-4,-2],[-4,-5],[18,-19],[5,-9],[-13,-24],[-81,-46],[-4,-8],[2,-11],[9,-29],[2,-11],[-5,-7],[-7,8],[-6,15],[-2,15],[-1,6],[-2,8],[-3,7],[-2,2],[-17,-6],[-3,-11],[1,-11],[1,-12],[1,-18],[-4,-6],[-9,-4],[-6,-7],[4,-13],[-2,-16],[-2,-32],[-4,-14],[-3,31],[0,39],[-4,37],[-10,23],[-6,3],[-8,0],[-14,-3],[-4,-6],[-9,-18],[-4,-3],[-19,-1],[-19,-6],[0,-20],[-9,-7],[-11,-6],[-7,-15],[8,-4],[-3,-17],[-14,-37],[-4,-6],[-5,-6],[-4,-8],[0,-11],[4,-7],[8,-2],[15,3],[-5,-8],[-12,-12],[-5,-8],[-2,-9],[-3,-32],[3,-9],[4,-14],[2,-16],[0,-13],[-3,-10],[-8,4],[-6,14],[3,23],[-3,4],[-7,17],[7,18],[2,11],[-2,8],[-5,1],[-9,-19],[-6,-6],[-14,-2],[-6,2],[-16,15],[-6,0],[-2,-3],[-1,-5],[0,-6],[-1,-4],[-3,-5],[-5,0],[-8,1],[-5,-1],[-7,-4],[-6,-7],[-2,-12],[0,-5],[-2,-8],[-1,-4],[1,-6],[4,-11],[0,-3],[-3,-11],[-3,-4],[-5,-2],[-6,-4],[4,-7],[11,-13],[-7,-27],[-3,-7],[-5,-7],[-12,-8],[-6,-6],[-8,-18],[-5,-8],[-7,-1],[-5,2],[-5,6],[-5,8],[-2,11],[9,2],[6,8],[-1,9],[-9,2],[-30,-21],[3,-12],[3,-9],[4,-8],[5,-6],[-10,-8],[-8,-1],[-5,-7],[3,-25],[5,-15],[7,-11],[15,-15],[25,-13],[5,-6],[4,-7],[4,-5],[26,-7],[8,-9],[1,-14],[13,0],[39,-21],[40,5],[13,-5],[0,7],[-9,13],[-10,6],[-24,2],[13,-7],[0,-7],[-53,16],[-1,5],[-1,6],[-3,7],[-5,6],[-5,5],[-6,2],[-6,1],[-12,8],[-2,15],[4,12],[6,-4],[7,-12],[8,-8],[9,-5],[10,1],[-6,13],[-31,24],[-11,5],[-21,-11],[-11,10],[0,7],[2,1],[5,5],[-4,10],[-3,6],[-10,12],[6,4],[21,3],[21,13],[7,1],[6,-3],[6,-4],[10,-14],[2,-4],[4,-12],[2,-4],[3,-3],[8,-1],[4,-4],[-3,-6],[5,-5],[5,-2],[10,0],[-1,10],[-1,3],[13,9],[27,-23],[12,1],[-9,24],[-4,17],[1,13],[8,5],[14,-6],[13,-11],[16,-23],[19,-10],[16,-22],[6,5],[-1,14],[-12,15],[0,6],[14,6],[70,-32],[11,0],[5,9],[1,17],[3,6],[6,2],[8,-1],[2,5],[3,2],[3,10],[1,4],[1,7],[-37,40],[-20,14],[-11,-13],[35,-21],[-10,-8],[-9,2],[-18,13],[-6,1],[-6,-2],[-7,-5],[-6,-8],[3,-20],[-11,-11],[-16,-3],[-17,2],[-6,4],[-3,8],[5,14],[6,4],[7,-3],[6,0],[6,12],[-11,2],[-15,8],[-13,11],[-6,14],[8,16],[18,0],[31,-10],[-8,18],[-15,15],[-16,11],[-13,4],[-11,11],[-6,23],[3,24],[11,11],[-2,10],[-4,4],[-11,-1],[4,16],[9,10],[17,8],[47,0],[6,5],[25,33],[9,7],[16,2],[9,9],[6,10],[5,13],[2,9],[-1,8],[-1,6],[-1,1],[3,15],[6,19],[6,9],[3,-12],[-5,-51],[-1,-11],[-1,-3],[-1,-3],[0,-7],[-1,-8],[-2,-1],[-2,0],[-2,-2],[-3,-7],[-3,-5],[-1,-5],[-1,-9],[24,18],[12,18],[4,28],[1,11],[3,28],[2,9],[6,8],[7,3],[5,-6],[-1,-15],[1,-10],[-5,-6],[-8,-4],[-6,-1],[17,-12],[6,-2],[3,4],[9,24],[4,5],[5,4],[5,3],[3,-2],[3,-7],[-2,-8],[-5,-15],[-7,-29],[-1,-11],[8,6],[4,10],[13,51],[-2,10],[-1,8],[2,7],[4,6],[2,2],[4,2],[3,0],[3,-1],[2,-3],[0,-4],[0,-5],[1,-2],[11,-2],[21,21],[11,2],[6,-1],[7,4],[4,9],[-1,15],[7,5],[12,25],[9,5],[-5,-14],[-6,-10],[-1,-7],[7,-4],[5,1],[3,4],[2,5],[2,4],[13,13],[6,10],[18,51],[16,29],[-6,4],[-7,-2],[-35,-25],[-3,-1],[-1,7],[1,11],[-2,6],[-2,3],[-10,7],[-8,2],[-15,-13],[-7,8],[24,20],[13,6],[10,-5],[-2,-8],[8,1],[16,10],[8,3],[43,-6],[-11,20],[1,15],[9,9],[13,3],[7,-1],[18,-13],[25,-4],[8,-6],[10,-17],[-4,-6],[-11,-8],[-8,-20],[0,-11],[3,-20],[0,-10],[-4,-7],[-6,-6],[-10,-8],[8,-3],[14,9],[14,14],[8,14],[5,24],[0,17],[3,9],[12,-2],[-7,34],[5,0],[4,0],[5,-3],[4,-4],[0,7],[-3,8],[0,8],[1,8],[3,7],[4,8],[3,-4],[3,-9],[2,-5],[12,-55],[7,-13],[-2,22],[-8,56],[-1,14],[8,4],[6,-21],[5,-29],[4,-44],[-1,-11],[-3,-13],[-6,-5],[-30,-18],[-15,-27],[-12,-12],[-5,-9],[-3,-17],[8,9],[17,11],[8,8],[16,33],[7,8],[8,3],[8,0],[6,3],[7,13],[2,2],[2,0],[2,1],[2,5],[-1,2],[-1,3],[-1,5],[0,4],[2,8],[0,5],[-2,8],[2,4],[4,11],[2,4],[-5,7],[-3,13],[1,15],[2,13],[-26,46],[-6,26],[-3,8],[0,7],[5,3],[5,-3],[3,-7],[5,-18],[3,-6],[11,-15],[1,-2],[1,-2],[1,-3],[0,-3],[1,-4],[2,0],[2,1],[2,0],[4,-3],[3,-1],[2,-3],[1,-11],[-3,-46],[-1,-9],[-1,-6],[1,-6],[4,-10],[0,-8],[-2,-11],[-8,-14],[-2,-10],[0,-14],[3,-2],[4,6],[4,7],[3,9],[7,23],[1,10],[1,14],[1,8],[2,6],[4,28],[1,8],[-3,26],[-2,11],[-3,8],[-5,3],[-4,4],[-7,19],[-5,4],[-5,2],[-7,5],[-5,9],[-3,12],[5,15],[9,10],[11,4],[8,-1],[5,-9],[2,-13],[-1,-12],[-6,-8],[10,-21],[9,-26],[7,-31],[1,-38],[-1,-19],[-3,-19],[-5,-18],[-5,-16],[-1,-8],[-1,-17],[-3,-9],[-10,-20],[-3,-10],[8,7],[11,16],[9,18],[4,16],[2,20],[18,69],[2,4],[0,3],[-2,11],[-5,18],[-3,11],[2,5],[1,6],[1,12],[3,9],[6,-3],[5,-9],[1,-7],[0,-8],[-1,-14],[1,-16],[4,-34],[0,-9],[0,-13],[-1,-13],[-4,-8],[-3,-6],[-2,-7],[-2,-3],[-10,-34],[-5,-5],[-6,-3],[-6,-7],[-3,-13],[1,-10],[5,-12],[4,-7],[2,5],[4,19],[8,25],[10,22],[8,13],[9,3],[3,-11],[1,-19],[-3,-21],[-4,-19],[-5,-16],[-22,-40],[-1,-11],[1,-12],[-3,-15],[-6,-16],[-3,-10],[2,-5],[4,-4],[1,-8],[-3,-9],[-3,-6],[2,-22],[2,-7],[3,-6],[4,-1],[3,3],[3,4],[3,2],[3,-2],[8,-5],[4,-1],[-9,26],[-1,13],[6,20],[2,15],[-3,17],[-4,17],[-1,16],[3,13],[28,50],[18,12],[8,14],[-4,7],[-5,11],[-1,11],[5,4],[7,3],[10,14],[5,5],[23,11],[10,14],[5,29],[-9,1],[-29,-8],[79,88],[10,18],[5,7],[13,11],[4,7],[0,10],[-3,7],[-2,8],[3,12],[5,8],[11,10],[5,6],[5,12],[3,10],[5,9],[7,4],[0,6],[-4,-1],[-3,1],[-4,2],[-4,5],[15,7],[63,10],[77,42],[20,2],[72,33],[35,36],[9,2],[26,-2],[21,12],[120,19],[14,14],[15,20],[5,11],[3,10],[9,31],[11,22],[15,14],[14,-2],[10,-21],[-12,15],[-2,-13],[-1,-25],[-5,-21],[-11,-9],[-5,-8],[0,-11],[5,-18],[2,-8],[2,-12],[-66,3],[-22,-16],[15,-55],[-1,-9],[0,-10],[-2,-11],[-6,-32],[2,-11],[5,-7],[7,-2],[28,-2],[18,-13],[9,-1],[10,4],[8,5],[-14,19],[-6,12],[2,14],[10,10],[11,5],[30,4],[9,6],[9,10],[15,26],[15,15],[21,40],[14,20],[63,66],[33,15],[10,13],[-4,5],[-1,1],[1,5],[1,5],[1,6],[2,4],[-1,10],[-1,16],[-1,9],[-3,5],[-4,5],[-4,5],[-2,9],[-1,15],[-4,16],[-1,18],[3,19],[9,14],[24,11],[10,10],[6,8],[7,5],[14,3],[5,3],[11,14],[5,4],[43,-7],[26,23],[13,5],[25,-1],[84,29],[26,-15],[-11,18],[-13,11],[-59,11],[-47,9],[-58,22],[-10,13],[-2,19],[-5,6],[-5,10],[-4,13],[-3,12],[10,1],[28,-10],[10,-8],[8,-1],[11,37],[8,9],[-13,7],[-44,-22],[-29,-5],[-13,6],[-8,20],[1,46],[12,49],[16,41],[16,22],[24,20],[1,3],[0,4],[0,4],[2,3],[4,0],[4,-2],[5,-4],[14,-19],[83,-67],[93,-95],[78,-95],[14,-28],[20,-29],[4,-13],[4,-15],[21,-44],[24,-72],[23,-45],[6,-20],[4,-21],[3,-6],[3,-7],[6,-8],[14,-9],[11,-10],[6,-3],[3,-4],[-8,0],[2,-26],[2,-8],[6,-7],[-11,-13],[-4,-10],[1,-13],[13,-38],[16,-59],[3,-16],[2,-9],[4,-10],[9,-13],[12,-24],[135,-181],[6,-15],[5,-8],[6,-8],[7,-6],[12,-5],[6,-7],[10,-17],[70,-69],[48,-28],[11,1],[23,8],[10,-1],[4,-3],[2,-4],[1,-5],[3,-5],[5,-3],[13,-1],[2,-4],[2,-7],[2,-6],[0,-3],[52,-33],[9,-1],[5,4],[12,20],[3,10],[-3,3],[-7,11],[3,6],[-8,8],[-16,6],[-6,14],[2,7],[3,6],[10,-15],[98,-13],[6,4],[4,10],[3,11],[3,10],[-2,3],[-5,7],[-2,4],[4,9],[15,11],[-22,0],[0,7],[4,0],[3,1],[2,2],[3,4],[-39,0],[-10,-7],[2,-14],[-5,0],[-5,1],[-10,6],[1,4],[1,3],[1,4],[2,3],[-6,5],[-59,-19],[-27,-20],[-13,1],[-3,-4],[-3,-6],[-4,-4],[-4,-2],[-3,1],[3,12],[10,17],[4,12],[-1,4],[0,3],[-1,4],[0,3],[15,4],[15,-4],[0,7],[-4,5],[-1,5],[2,4],[9,17],[5,1],[12,-5],[46,-7],[0,7],[-2,3],[-5,8],[-2,3],[7,4],[8,-6],[17,-19],[23,-11],[24,-2],[-13,15],[-32,13],[-12,19],[2,8],[-7,6],[-2,0],[0,7],[3,0],[4,3],[4,5],[1,9],[15,11],[-10,9],[-62,8],[-8,10],[13,-2],[6,4],[4,11],[-7,2],[-1,1],[0,4],[-2,1],[-2,1],[-2,3],[-2,3],[14,44],[4,10],[12,8],[26,-9],[12,1],[33,34],[5,1],[10,-3],[4,2],[2,3],[0,5],[-1,5],[1,4],[2,4],[4,1],[13,-4],[23,-14],[1,-7],[-1,-9],[1,-8],[5,-13],[2,-9],[1,-9],[0,-13],[3,-15],[7,3],[8,13],[6,12],[5,22],[1,13],[4,6],[11,-4],[-19,26],[-19,12],[-55,7],[-23,14],[-12,3],[-18,-9],[-6,3],[-8,20],[3,7],[-5,10],[-2,2],[-4,1],[23,34],[6,7],[8,5],[5,-2],[-2,-16],[3,-13],[-2,-24],[4,-4],[30,0],[4,1],[1,2],[0,2],[0,1],[12,18],[2,10],[2,12],[-1,13],[-2,9],[18,21],[17,38],[6,10],[6,7],[69,33],[5,4],[5,-6],[8,-3],[7,4],[4,12],[-3,12],[-5,13],[-6,10],[-6,3],[-7,-7],[-8,-29],[-5,-12],[-10,-4],[-12,2],[-13,7],[-8,8],[11,13],[12,8],[-7,6],[-33,0],[-3,-3],[-2,-4],[-1,-6],[-1,-5],[-3,-2],[-6,2],[-10,11],[-6,1],[-6,-2],[-6,-5],[-11,-14],[1,-4],[1,-9],[-7,1],[-8,0],[-9,-5],[-5,-9],[3,-2],[2,-3],[5,-10],[-7,-5],[-6,1],[-6,3],[-7,1],[-5,-5],[-4,-7],[-4,-1],[-4,13],[9,13],[4,12],[-1,13],[-7,17],[3,6],[12,8],[13,20],[26,15],[8,9],[3,7],[3,15],[2,2],[4,0],[4,-2],[3,-5],[1,-10],[-3,-23],[-7,-4],[-8,-1],[-7,-10],[16,-10],[20,-2],[20,6],[14,13],[-37,-7],[0,7],[4,3],[7,8],[4,3],[20,6],[3,4],[3,5],[4,4],[5,1],[1,-2],[2,-9],[2,-3],[3,1],[6,6],[41,15],[7,-4],[7,-10],[13,-28],[-1,-15],[8,-7],[11,4],[7,18],[-13,0],[13,24],[13,-7],[14,-12],[13,9],[-11,28],[-6,7],[-8,-4],[-9,-8],[-9,-2],[-9,4],[-8,9],[7,5],[9,0],[7,4],[4,12],[-31,10],[-11,-3],[-32,-21],[-10,0],[0,6],[5,1],[5,3],[10,11],[-5,6],[-5,2],[-6,0],[-7,-6],[-1,1],[-1,4],[0,6],[1,6],[2,2],[3,1],[2,2],[10,14],[12,2],[25,-6],[4,2],[8,10],[5,2],[6,-3],[6,-9],[5,-2],[24,8],[12,0],[9,-15],[-16,-18],[-6,-11],[5,-5],[7,-3],[7,-8],[7,-12],[4,-12],[0,-14],[-3,-15],[-4,-14],[-3,-8],[-10,-5],[-22,6],[-11,-11],[8,-7],[17,0],[8,-7],[-6,-4],[-14,1],[-3,-7],[-2,-9],[-7,-3],[-7,-1],[-6,-4],[19,-11],[19,-3],[2,-4],[0,-8],[-2,-9],[-1,-6],[-4,-8],[-4,-2],[-9,2],[-8,-4],[3,-9],[8,-9],[8,-4],[4,-3],[-1,-7],[-2,-11],[4,-5],[4,-4],[5,-3],[5,-1],[-8,-9],[-10,-17],[-7,-19],[0,-17],[-7,-1],[-2,-7],[2,-11],[3,-12],[1,-8],[-3,-8],[-7,-15],[10,-15],[24,3],[8,-5],[10,-15],[14,-6],[15,3],[11,11],[9,15],[11,5],[46,-3],[2,-4],[2,-7],[3,-7],[5,-2],[-2,-5],[-3,-16],[2,-1],[4,-4],[1,-1],[-13,-16],[-41,-33],[-9,-17],[-3,-20],[-2,-22],[-6,-23],[-11,-14],[-27,-21],[-18,-20],[-13,-22],[-4,-12],[0,-14],[2,-12],[6,-22],[-29,1],[-9,-7],[8,-12],[22,-26],[6,-3],[15,1],[13,-10],[7,-3],[61,-6],[24,10],[14,35],[-2,-14],[8,-22],[6,-10],[6,-2],[4,7],[-2,11],[-7,16],[3,17],[5,7],[5,1],[7,-4],[0,-3],[1,-5],[2,-5],[27,-14],[4,-1],[3,2],[4,8],[3,3],[6,2],[7,0],[4,-6],[-2,-15],[18,9],[1,0]]]}