{"objects":{"water":{"type":"GeometryCollection","geometries":[{"type":"MultiPolygon","properties":{"source":"naturalearthdata.com","kind":"ocean","area":989871000000000,"sort_rank":200,"min_zoom":0,"id":1},"arcs":[[[0]]]},{"type":"LineString","properties":{"source":"naturalearthdata.com","kind":"ocean","sort_rank":205,"boundary":true,"min_zoom":0,"id":3517},"arcs":[1]}]},"buildings":{"type":"GeometryCollection","geometries":[]},"places":{"type":"GeometryCollection","geometries":[]},"transit":{"type":"GeometryCollection","geometries":[]},"pois":{"type":"GeometryCollection","geometries":[]},"boundaries":{"type":"GeometryCollection","geometries":[]},"roads":{"type":"GeometryCollection","geometries":[]},"earth":{"type":"GeometryCollection","geometries":[{"type":"MultiPolygon","properties":{"sort_rank":10,"source":"naturalearthdata.com","min_zoom":0,"kind":"earth","area":11905472224618},"arcs":[[[2]]]}]},"landuse":{"type":"GeometryCollection","geometries":[]}},"type":"Topology","transform":{"translate":[112.5,-66.5132604431],"scale":[0.002746582,0.0011979649]},"arcs":[[[0,547],[0,3549],[4096,0],[0,-4096],[-3127,0],[-3,6],[-8,15],[-6,8],[-10,1],[-17,-4],[-53,8],[-30,-19],[-17,1],[-33,13],[-128,-25],[10,26],[48,52],[-27,-4],[2,3],[4,9],[2,3],[-16,16],[8,10],[3,2],[-30,14],[-9,-5],[4,22],[6,14],[18,21],[5,13],[1,17],[1,14],[9,9],[-5,7],[-5,3],[-5,1],[-4,3],[-7,8],[-3,6],[-4,4],[-8,-1],[-10,7],[-13,38],[-11,7],[-12,-3],[-11,1],[-10,9],[-17,35],[-9,6],[-22,6],[-39,33],[-19,24],[-17,28],[-8,9],[-41,28],[-49,16],[-38,30],[-42,15],[-12,9],[-8,14],[-11,35],[-7,6],[-118,-27],[-41,-23],[-97,-27]],[[969,0],[-3,6],[-8,15],[-6,8],[-10,1],[-17,-4],[-53,8],[-30,-19],[-17,1],[-33,13],[-128,-25],[10,26],[48,52],[-27,-4],[2,3],[4,9],[2,3],[-16,16],[8,10],[3,2],[-30,14],[-9,-5],[4,22],[6,14],[18,21],[5,13],[1,17],[1,14],[9,9],[-5,7],[-5,3],[-5,1],[-4,3],[-7,8],[-3,6],[-4,4],[-8,-1],[-10,7],[-13,38],[-11,7],[-12,-3],[-11,1],[-10,9],[-17,35],[-9,6],[-22,6],[-39,33],[-19,24],[-17,28],[-8,9],[-41,28],[-49,16],[-38,30],[-42,15],[-12,9],[-8,14],[-11,35],[-7,6],[-118,-27],[-41,-23],[-97,-27]],[[0,0],[0,547],[97,27],[41,23],[118,27],[7,-6],[11,-35],[8,-14],[12,-9],[42,-15],[38,-30],[49,-16],[41,-28],[8,-9],[17,-28],[19,-24],[39,-33],[22,-6],[9,-6],[17,-35],[10,-9],[11,-1],[12,3],[11,-7],[13,-38],[10,-7],[8,1],[4,-4],[3,-6],[7,-8],[4,-3],[5,-1],[5,-3],[5,-7],[-9,-9],[-1,-14],[-1,-17],[-5,-13],[-18,-21],[-6,-14],[-4,-22],[9,5],[30,-14],[-3,-2],[-8,-10],[16,-16],[-2,-3],[-4,-9],[-2,-3],[27,4],[-48,-52],[-10,-26],[128,25],[33,-13],[17,-1],[30,19],[53,-8],[17,4],[10,-1],[6,-8],[8,-15],[3,-6],[-969,0]]]}