{"objects":{"water":{"type":"GeometryCollection","geometries":[{"type":"MultiPolygon","properties":{"source":"naturalearthdata.com","kind":"ocean","area":989871000000000,"sort_rank":200,"min_zoom":0,"id":1},"arcs":[[[0],[1],[2]]]},{"type":"LineString","properties":{"source":"naturalearthdata.com","kind":"ocean","sort_rank":205,"boundary":true,"min_zoom":0,"id":3073},"arcs":[3]},{"type":"LineString","properties":{"source":"naturalearthdata.com","kind":"ocean","sort_rank":205,"boundary":true,"min_zoom":0,"id":3074},"arcs":[4]},{"type":"LineString","properties":{"source":"naturalearthdata.com","kind":"ocean","sort_rank":205,"boundary":true,"min_zoom":0,"id":3517},"arcs":[5]}]},"buildings":{"type":"GeometryCollection","geometries":[]},"places":{"type":"GeometryCollection","geometries":[]},"transit":{"type":"GeometryCollection","geometries":[]},"pois":{"type":"GeometryCollection","geometries":[]},"boundaries":{"type":"GeometryCollection","geometries":[]},"roads":{"type":"GeometryCollection","geometries":[]},"earth":{"type":"GeometryCollection","geometries":[{"type":"Polygon","properties":{"sort_rank":10,"source":"naturalearthdata.com","min_zoom":0,"kind":"earth","area":83319317895524},"arcs":[[6]]},{"type":"MultiPolygon","properties":{"sort_rank":10,"source":"naturalearthdata.com","kind":"earth","min_zoom":5.0,"area":1924832617},"arcs":[[[7]],[[8]]]}]},"landuse":{"type":"GeometryCollection","geometries":[]}},"type":"Topology","transform":{"translate":[112.5,-70.612614238],"scale":[0.002746582,0.0010008188]},"arcs":[[[4096,4096],[0,-133],[-7,-4],[-6,-8],[-3,-7],[-1,-8],[-4,-11],[-10,-21],[-26,-32],[-13,-11],[-15,-6],[-69,3],[-43,16],[-21,2],[-99,-38],[-98,-39],[-33,0],[-10,-5],[-20,-17],[-70,-12],[-21,-11],[-38,-36],[-53,-26],[-11,-10],[-28,-40],[-10,-8],[4,-17],[7,0],[7,-2],[4,-24],[-4,3],[-9,-9],[-3,1],[-4,9],[-4,7],[-5,3],[-5,-2],[0,-5],[1,-13],[1,-5],[-11,-5],[-5,-4],[-6,-7],[-5,-6],[-9,3],[-5,-2],[-54,-42],[-40,4],[-133,-53],[-12,-1],[-21,12],[-10,-1],[-111,-76],[-23,-8],[-20,-17],[-103,-29],[-103,-30],[-47,-31],[-28,6],[-103,-47],[-11,-1],[-21,6],[-22,-1],[-9,-4],[-9,-6],[-16,-18],[-7,-5],[-6,-2],[-6,1],[-2,3],[-4,7],[-2,2],[-9,-1],[-29,-29],[-24,-10],[-12,-1],[-12,3],[26,40],[-26,7],[1,5],[2,11],[1,4],[-7,3],[-6,0],[-14,-6],[-5,4],[-17,38],[2,6],[4,13],[2,6],[-11,1],[-5,4],[-5,5],[147,67],[146,66],[146,67],[147,66],[38,35],[-16,33],[-18,10],[-122,-58],[-20,-21],[-106,-33],[-27,-30],[-58,-19],[-40,-32],[-11,-3],[-11,1],[-31,16],[-12,-3],[-83,-43],[-12,-1],[-3,-2],[0,-3],[1,-15],[-1,-3],[-4,-3],[-5,0],[-5,2],[-14,16],[-9,3],[-25,-6],[-11,-8],[-5,1],[-17,13],[-5,3],[-37,-7],[-7,-6],[-5,-7],[-4,-1],[-9,22],[-4,3],[-49,-23],[0,16],[-3,11],[-4,5],[-6,2],[39,45],[7,13],[7,18],[10,40],[-22,-15],[-165,-36],[-18,-19],[-49,-66],[-6,-4],[-6,1],[-4,5],[-2,10],[-2,10],[-2,10],[-9,11],[-21,10],[-6,10],[-9,22],[-9,-4],[-10,-13],[-11,-8],[-61,1],[-22,-7],[-29,-18],[-23,1],[-36,-15],[-40,9],[-11,14],[3,21],[15,40],[10,55],[4,31],[1,27],[-54,-40],[-38,-55],[-39,-37],[-19,-32],[-12,-12],[-51,-25],[-9,1],[-9,10],[-21,38],[-7,5],[-7,-9],[-12,-45],[-9,-15],[-10,-5],[-19,19],[-11,7],[-12,-1],[-6,-11],[-5,-30],[-6,-13],[-43,-26],[-10,4],[-4,18],[-4,22],[-8,-1],[-19,-19],[-19,-9],[-30,-2],[-22,-12],[-70,4],[-18,-14],[-17,-24],[-12,-33],[17,-22],[-16,-13],[-53,-2],[-92,-39],[-8,-8],[-5,-22],[-8,-7],[-31,-20],[-16,-3],[-16,11],[8,22],[24,51],[-116,-68],[-116,-67],[-48,-12],[-32,6],[-11,-2],[-22,-14],[-7,0],[-5,5],[-4,8],[-4,5],[-8,-2],[1,20],[4,12],[14,14],[6,9],[10,25],[7,9],[27,16],[12,17],[6,32],[-12,4],[-13,8],[23,20],[10,15],[36,80],[9,12],[134,68],[31,-8],[42,13],[61,46],[144,18],[82,50],[77,84],[35,59],[31,72],[-5,16],[-5,18],[-3,8],[-9,8],[-4,7],[-1,9],[1,8],[0,9],[-4,9],[-5,11],[-5,12],[4,31],[-11,28],[-19,21],[-60,34],[-30,4],[-31,23],[-26,7],[-8,7],[-4,5],[3127,0]],[[2973,3713],[-3,7],[-2,2],[-16,8],[-18,1],[-7,-3],[-6,-6],[-3,-7],[-5,-18],[-3,-7],[-5,-16],[0,-15],[5,-12],[7,-7],[7,1],[122,82],[-10,-1],[-35,-21],[-11,-2],[-8,2],[-2,1],[-2,2],[-3,5],[-2,4]],[[3141,3830],[-29,-9],[-37,-42],[-23,-16],[20,-10],[31,8],[32,20],[21,23],[10,19],[-1,8],[-24,-1]],[[2973,3713],[-3,7],[-2,2],[-16,8],[-18,1],[-7,-3],[-6,-6],[-3,-7],[-5,-18],[-3,-7],[-5,-16],[0,-15],[5,-12],[7,-7],[7,1],[122,82],[-10,-1],[-35,-21],[-11,-2],[-8,2],[-2,1],[-2,2],[-3,5],[-2,4]],[[3141,3830],[-29,-9],[-37,-42],[-23,-16],[20,-10],[31,8],[32,20],[21,23],[10,19],[-1,8],[-24,-1]],[[4096,3963],[-7,-4],[-6,-8],[-3,-7],[-1,-8],[-4,-11],[-10,-21],[-26,-32],[-13,-11],[-15,-6],[-69,3],[-43,16],[-21,2],[-99,-38],[-98,-39],[-33,0],[-10,-5],[-20,-17],[-70,-12],[-21,-11],[-38,-36],[-53,-26],[-11,-10],[-28,-40],[-10,-8],[4,-17],[7,0],[7,-2],[4,-24],[-4,3],[-9,-9],[-3,1],[-4,9],[-4,7],[-5,3],[-5,-2],[0,-5],[1,-13],[1,-5],[-11,-5],[-5,-4],[-6,-7],[-5,-6],[-9,3],[-5,-2],[-54,-42],[-40,4],[-133,-53],[-12,-1],[-21,12],[-10,-1],[-111,-76],[-23,-8],[-20,-17],[-103,-29],[-103,-30],[-47,-31],[-28,6],[-103,-47],[-11,-1],[-21,6],[-22,-1],[-9,-4],[-9,-6],[-16,-18],[-7,-5],[-6,-2],[-6,1],[-2,3],[-4,7],[-2,2],[-9,-1],[-29,-29],[-24,-10],[-12,-1],[-12,3],[26,40],[-26,7],[1,5],[2,11],[1,4],[-7,3],[-6,0],[-14,-6],[-5,4],[-17,38],[2,6],[4,13],[2,6],[-11,1],[-5,4],[-5,5],[147,67],[146,66],[146,67],[147,66],[38,35],[-16,33],[-18,10],[-122,-58],[-20,-21],[-106,-33],[-27,-30],[-58,-19],[-40,-32],[-11,-3],[-11,1],[-31,16],[-12,-3],[-83,-43],[-12,-1],[-3,-2],[0,-3],[1,-15],[-1,-3],[-4,-3],[-5,0],[-5,2],[-14,16],[-9,3],[-25,-6],[-11,-8],[-5,1],[-17,13],[-5,3],[-37,-7],[-7,-6],[-5,-7],[-4,-1],[-9,22],[-4,3],[-49,-23],[0,16],[-3,11],[-4,5],[-6,2],[39,45],[7,13],[7,18],[10,40],[-22,-15],[-165,-36],[-18,-19],[-49,-66],[-6,-4],[-6,1],[-4,5],[-2,10],[-2,10],[-2,10],[-9,11],[-21,10],[-6,10],[-9,22],[-9,-4],[-10,-13],[-11,-8],[-61,1],[-22,-7],[-29,-18],[-23,1],[-36,-15],[-40,9],[-11,14],[3,21],[15,40],[10,55],[4,31],[1,27],[-54,-40],[-38,-55],[-39,-37],[-19,-32],[-12,-12],[-51,-25],[-9,1],[-9,10],[-21,38],[-7,5],[-7,-9],[-12,-45],[-9,-15],[-10,-5],[-19,19],[-11,7],[-12,-1],[-6,-11],[-5,-30],[-6,-13],[-43,-26],[-10,4],[-4,18],[-4,22],[-8,-1],[-19,-19],[-19,-9],[-30,-2],[-22,-12],[-70,4],[-18,-14],[-17,-24],[-12,-33],[17,-22],[-16,-13],[-53,-2],[-92,-39],[-8,-8],[-5,-22],[-8,-7],[-31,-20],[-16,-3],[-16,11],[8,22],[24,51],[-116,-68],[-116,-67],[-48,-12],[-32,6],[-11,-2],[-22,-14],[-7,0],[-5,5],[-4,8],[-4,5],[-8,-2],[1,20],[4,12],[14,14],[6,9],[10,25],[7,9],[27,16],[12,17],[6,32],[-12,4],[-13,8],[23,20],[10,15],[36,80],[9,12],[134,68],[31,-8],[42,13],[61,46],[144,18],[82,50],[77,84],[35,59],[31,72],[-5,16],[-5,18],[-3,8],[-9,8],[-4,7],[-1,9],[1,8],[0,9],[-4,9],[-5,11],[-5,12],[4,31],[-11,28],[-19,21],[-60,34],[-30,4],[-31,23],[-26,7],[-8,7],[-4,5]],[[0,4096],[969,0],[4,-5],[8,-7],[26,-7],[31,-23],[30,-4],[60,-34],[19,-21],[11,-28],[-4,-31],[5,-12],[5,-11],[4,-9],[0,-9],[-1,-8],[1,-9],[4,-7],[9,-8],[3,-8],[5,-18],[5,-16],[-31,-72],[-35,-59],[-77,-84],[-82,-50],[-144,-18],[-61,-46],[-42,-13],[-31,8],[-134,-68],[-9,-12],[-36,-80],[-10,-15],[-23,-20],[13,-8],[12,-4],[-6,-32],[-12,-17],[-27,-16],[-7,-9],[-10,-25],[-6,-9],[-14,-14],[-4,-12],[-1,-20],[8,2],[4,-5],[4,-8],[5,-5],[7,0],[22,14],[11,2],[32,-6],[48,12],[116,67],[116,68],[-24,-51],[-8,-22],[16,-11],[16,3],[31,20],[8,7],[5,22],[8,8],[92,39],[53,2],[16,13],[-17,22],[12,33],[17,24],[18,14],[70,-4],[22,12],[30,2],[19,9],[19,19],[8,1],[4,-22],[4,-18],[10,-4],[43,26],[6,13],[5,30],[6,11],[12,1],[11,-7],[19,-19],[10,5],[9,15],[12,45],[7,9],[7,-5],[21,-38],[9,-10],[9,-1],[51,25],[12,12],[19,32],[39,37],[38,55],[54,40],[-1,-27],[-4,-31],[-10,-55],[-15,-40],[-3,-21],[11,-14],[40,-9],[36,15],[23,-1],[29,18],[22,7],[61,-1],[11,8],[10,13],[9,4],[9,-22],[6,-10],[21,-10],[9,-11],[2,-10],[2,-10],[2,-10],[4,-5],[6,-1],[6,4],[49,66],[18,19],[79,17],[86,19],[22,15],[-10,-40],[-7,-18],[-7,-13],[-39,-45],[6,-2],[4,-5],[3,-11],[0,-16],[49,23],[4,-3],[9,-22],[4,1],[5,7],[7,6],[37,7],[5,-3],[17,-13],[5,-1],[11,8],[25,6],[9,-3],[14,-16],[5,-2],[5,0],[4,3],[1,3],[-1,15],[0,3],[3,2],[12,1],[83,43],[12,3],[31,-16],[11,-1],[11,3],[40,32],[58,19],[27,30],[106,33],[20,21],[122,58],[18,-10],[16,-33],[-38,-35],[-147,-66],[-146,-67],[-146,-66],[-147,-67],[5,-5],[5,-4],[11,-1],[-2,-6],[-4,-13],[-2,-6],[17,-38],[5,-4],[14,6],[6,0],[7,-3],[-1,-4],[-2,-11],[-1,-5],[26,-7],[-26,-40],[12,-3],[12,1],[24,10],[29,29],[9,1],[2,-2],[4,-7],[2,-3],[6,-1],[6,2],[7,5],[16,18],[9,6],[9,4],[22,1],[21,-6],[11,1],[103,47],[28,-6],[47,31],[103,30],[103,29],[20,17],[23,8],[111,76],[10,1],[21,-12],[12,1],[133,53],[40,-4],[54,42],[5,2],[9,-3],[5,6],[6,7],[5,4],[11,5],[-1,5],[-1,13],[0,5],[5,2],[5,-3],[4,-7],[4,-9],[3,-1],[9,9],[4,-3],[-4,24],[-7,2],[-7,0],[-4,17],[10,8],[28,40],[11,10],[53,26],[38,36],[21,11],[70,12],[20,17],[10,5],[33,0],[98,39],[99,38],[21,-2],[43,-16],[69,-3],[15,6],[13,11],[26,32],[10,21],[4,11],[1,8],[3,7],[6,8],[7,4],[0,-3963],[-4096,0],[0,4096]],[[2973,3713],[2,-4],[3,-5],[2,-2],[2,-1],[8,-2],[11,2],[35,21],[10,1],[-122,-82],[-7,-1],[-7,7],[-5,12],[0,15],[5,16],[3,7],[5,18],[3,7],[6,6],[7,3],[18,-1],[16,-8],[2,-2],[3,-7]],[[3141,3830],[24,1],[1,-8],[-10,-19],[-21,-23],[-32,-20],[-31,-8],[-20,10],[23,16],[37,42],[29,9]]]}