{"objects":{"water":{"type":"GeometryCollection","geometries":[]},"buildings":{"type":"GeometryCollection","geometries":[]},"places":{"type":"GeometryCollection","geometries":[{"type":"Point","properties":{"name:pt":null,"collision_rank":365,"name:nl":"Zhigansk","name:id":null,"name":"Zhigansk","name:hi":null,"name:tr":null,"name:sv":null,"name:ar":"\u0632\u0647\u064a\u063a\u0627\u0646\u0633\u0643\u060c \u0633\u0627\u0647\u0627","min_zoom":5.0,"name:it":"\u017digansk","name:vi":null,"name:ru":"\u0416\u0438\u0433\u0430\u043d\u0441\u043a","name:pl":"\u017byga\u0144sk","name:hu":"Zsiganszk","id":6408,"name:ja":null,"name:el":null,"kind":"locality","name:en":"Zhigansk","population_rank":4,"source":"naturalearthdata.com","name:bn":null,"name:de":"Schigansk","name:ko":null,"name:fr":null,"wikidata_id":"Q2621673","population":3237,"name:zh":null,"name:es":null},"coordinates":[3958,256]}]},"transit":{"type":"GeometryCollection","geometries":[]},"pois":{"type":"GeometryCollection","geometries":[]},"boundaries":{"type":"GeometryCollection","geometries":[]},"roads":{"type":"GeometryCollection","geometries":[]},"earth":{"type":"GeometryCollection","geometries":[{"type":"MultiPolygon","properties":{"sort_rank":10,"source":"naturalearthdata.com","min_zoom":0,"kind":"earth","area":21804330306050},"arcs":[[[0]]]}]},"landuse":{"type":"GeometryCollection","geometries":[]}},"type":"Topology","transform":{"translate":[112.5,66.5132604431],"scale":[0.002746582,0.0010008188]},"arcs":[[[0,0],[0,4096],[4096,0],[0,-4096],[-2289,0],[-1807,0]]]}