{"objects":{"water":{"type":"GeometryCollection","geometries":[{"type":"MultiPolygon","properties":{"source":"naturalearthdata.com","kind":"ocean","area":989871000000000,"sort_rank":200,"min_zoom":0,"id":1},"arcs":[[[0]],[[1]]]},{"type":"MultiLineString","properties":{"source":"naturalearthdata.com","kind":"ocean","sort_rank":205,"boundary":true,"min_zoom":0,"id":2355},"arcs":[[2],[3],[4]]}]},"buildings":{"type":"GeometryCollection","geometries":[]},"places":{"type":"GeometryCollection","geometries":[]},"transit":{"type":"GeometryCollection","geometries":[]},"pois":{"type":"GeometryCollection","geometries":[]},"boundaries":{"type":"GeometryCollection","geometries":[]},"roads":{"type":"GeometryCollection","geometries":[]},"earth":{"type":"GeometryCollection","geometries":[{"type":"MultiPolygon","properties":{"sort_rank":10,"source":"naturalearthdata.com","min_zoom":3.0,"kind":"earth","area":62931509554},"arcs":[[[5]]]}]},"landuse":{"type":"GeometryCollection","geometries":[]}},"type":"Topology","transform":{"translate":[-157.5,-0.0],"scale":[0.002746582,0.002729102]},"arcs":[[[0,744],[0,3352],[4096,0],[0,-4096],[-4096,0],[0,675],[6,-6],[13,-9],[14,-7],[36,-11],[9,-1],[2,-1],[3,-5],[4,-2],[2,-3],[3,-2],[4,-2],[4,0],[4,2],[4,1],[3,2],[6,-1],[1,5],[-1,8],[-4,3],[-6,1],[-6,3],[-6,4],[-5,4],[-13,8],[-13,7],[-9,9],[1,17],[2,8],[2,4],[5,2],[2,3],[2,3],[0,4],[-4,0],[-23,6],[-14,11],[-19,5],[-8,0],[-1,-1]],[[0,683],[0,51],[4,-1],[2,2],[2,4],[4,-1],[4,-4],[2,-2],[2,-1],[13,-9],[11,-5],[6,-2],[3,-1],[1,-4],[-1,-2],[-1,-3],[-2,-2],[-4,-3],[-1,-2],[-2,-1],[-4,2],[-1,3],[1,4],[-1,3],[-4,3],[1,-7],[-2,-1],[-4,3],[-1,-3],[-1,-3],[1,-4],[5,-8],[1,-5],[-2,-3],[-4,2],[-3,3],[0,4],[-2,4],[-4,3],[1,-7],[-2,-2],[-4,0],[-5,1],[3,-4],[3,-3],[4,-1],[4,-3],[3,-4],[-2,0],[-8,3],[-8,0],[-5,1],[-1,2],[-2,3]],[[113,646],[-6,1],[-6,3],[-6,4],[-5,4],[-13,8],[-13,7],[-9,9],[1,17],[2,8],[2,4],[5,2],[2,3],[2,3],[0,4],[-4,0],[-23,6],[-14,11],[-19,5],[-8,0],[-1,-1]],[[0,734],[4,-1],[2,2],[2,4],[4,-1],[4,-4],[2,-2],[2,-1],[13,-9],[11,-5],[6,-2],[3,-1],[1,-4],[-1,-2],[-1,-3],[-2,-2],[-4,-3],[-1,-2],[-2,-1],[-4,2],[-1,3],[1,4],[-1,3],[-4,3],[1,-7],[-2,-1],[-4,3],[-1,-3],[-1,-3],[1,-4],[5,-8],[1,-5],[-2,-3],[-4,2],[-3,3],[0,4],[-2,4],[-4,3],[1,-7],[-2,-2],[-4,0],[-5,1],[3,-4],[3,-3],[4,-1],[4,-3],[3,-4],[-2,0],[-8,3],[-8,0],[-5,1],[-1,2],[-2,3]],[[0,675],[6,-6],[13,-9],[14,-7],[36,-11],[9,-1],[2,-1],[3,-5],[4,-2],[2,-3],[3,-2],[4,-2],[4,0],[4,2],[4,1],[3,2],[6,-1],[1,5],[-1,8],[-4,3]],[[0,734],[0,10],[1,1],[8,0],[19,-5],[14,-11],[23,-6],[4,0],[0,-4],[-2,-3],[-2,-3],[-5,-2],[-2,-4],[-2,-8],[-1,-17],[9,-9],[13,-7],[13,-8],[5,-4],[6,-4],[6,-3],[6,-1],[4,-3],[1,-8],[-1,-5],[-6,1],[-3,-2],[-4,-1],[-4,-2],[-4,0],[-4,2],[-3,2],[-2,3],[-4,2],[-3,5],[-2,1],[-9,1],[-36,11],[-14,7],[-13,9],[-6,6],[0,8],[2,-3],[1,-2],[5,-1],[8,0],[8,-3],[2,0],[-3,4],[-4,3],[-4,1],[-3,3],[-3,4],[5,-1],[4,0],[2,2],[-1,7],[4,-3],[2,-4],[0,-4],[3,-3],[4,-2],[2,3],[-1,5],[-5,8],[-1,4],[1,3],[1,3],[4,-3],[2,1],[-1,7],[4,-3],[1,-3],[-1,-4],[1,-3],[4,-2],[2,1],[1,2],[4,3],[2,2],[1,3],[1,2],[-1,4],[-3,1],[-6,2],[-11,5],[-13,9],[-2,1],[-2,2],[-4,4],[-4,1],[-2,-4],[-2,-2],[-4,1]]]}