{"objects":{"water":{"type":"GeometryCollection","geometries":[{"type":"Polygon","properties":{"source":"naturalearthdata.com","kind":"ocean","area":989871000000000,"sort_rank":200,"min_zoom":0,"id":1},"arcs":[[0],[1],[2]]},{"type":"LineString","properties":{"source":"naturalearthdata.com","kind":"ocean","sort_rank":205,"boundary":true,"min_zoom":0,"id":2215},"arcs":[3]},{"type":"LineString","properties":{"source":"naturalearthdata.com","kind":"ocean","sort_rank":205,"boundary":true,"min_zoom":0,"id":2243},"arcs":[4]}]},"buildings":{"type":"GeometryCollection","geometries":[]},"places":{"type":"GeometryCollection","geometries":[]},"transit":{"type":"GeometryCollection","geometries":[]},"pois":{"type":"GeometryCollection","geometries":[]},"boundaries":{"type":"GeometryCollection","geometries":[]},"roads":{"type":"GeometryCollection","geometries":[]},"earth":{"type":"GeometryCollection","geometries":[{"type":"MultiPolygon","properties":{"sort_rank":10,"source":"naturalearthdata.com","kind":"earth","min_zoom":4.0,"area":1764610689},"arcs":[[[5]]]}]},"landuse":{"type":"GeometryCollection","geometries":[]}},"type":"Topology","transform":{"translate":[-157.5,-11.1784018737],"scale":[0.002746582,0.002729102]},"arcs":[[[0,4096],[4096,0],[0,-4096],[-4096,0],[0,4096]],[[583,2038],[-3,2],[-3,1],[-3,0],[-4,0],[4,-8],[6,-2],[14,2],[3,2],[-2,3],[-5,3],[-7,-3]],[[906,2613],[-2,-1],[2,-4],[5,-3],[3,-2],[4,-2],[5,-5],[4,0],[-2,4],[0,4],[2,4],[3,3],[2,8],[-8,0],[-18,-6]],[[583,2038],[-3,2],[-3,1],[-3,0],[-4,0],[4,-8],[6,-2],[14,2],[3,2],[-2,3],[-5,3],[-7,-3]],[[906,2613],[-2,-1],[2,-4],[5,-3],[3,-2],[4,-2],[5,-5],[4,0],[-2,4],[0,4],[2,4],[3,3],[2,8],[-8,0],[-18,-6]],[[906,2613],[18,6],[8,0],[-2,-8],[-3,-3],[-2,-4],[0,-4],[2,-4],[-4,0],[-5,5],[-4,2],[-3,2],[-5,3],[-2,4],[2,1]]]}