{"objects":{"water":{"type":"GeometryCollection","geometries":[{"type":"Polygon","properties":{"source":"naturalearthdata.com","kind":"ocean","area":989871000000000,"sort_rank":200,"min_zoom":0,"id":1},"arcs":[[0],[1],[2],[3],[4],[5]]},{"type":"MultiLineString","properties":{"source":"naturalearthdata.com","kind":"ocean","sort_rank":205,"boundary":true,"min_zoom":0,"id":2},"arcs":[[6],[7]]},{"type":"LineString","properties":{"source":"naturalearthdata.com","kind":"ocean","sort_rank":205,"boundary":true,"min_zoom":0,"id":3035},"arcs":[8]},{"type":"MultiLineString","properties":{"source":"naturalearthdata.com","kind":"ocean","sort_rank":205,"boundary":true,"min_zoom":0,"id":3036},"arcs":[[9],[10]]},{"type":"LineString","properties":{"source":"naturalearthdata.com","kind":"ocean","sort_rank":205,"boundary":true,"min_zoom":0,"id":3037},"arcs":[11]},{"type":"LineString","properties":{"source":"naturalearthdata.com","kind":"ocean","sort_rank":205,"boundary":true,"min_zoom":0,"id":3038},"arcs":[12]},{"type":"LineString","properties":{"source":"naturalearthdata.com","kind":"ocean","sort_rank":205,"boundary":true,"min_zoom":0,"id":3039},"arcs":[13]},{"type":"LineString","properties":{"source":"naturalearthdata.com","kind":"ocean","sort_rank":205,"boundary":true,"min_zoom":0,"id":3040},"arcs":[14]},{"type":"LineString","properties":{"source":"naturalearthdata.com","kind":"ocean","sort_rank":205,"boundary":true,"min_zoom":0,"id":3041},"arcs":[15]}]},"buildings":{"type":"GeometryCollection","geometries":[]},"places":{"type":"GeometryCollection","geometries":[]},"transit":{"type":"GeometryCollection","geometries":[]},"pois":{"type":"GeometryCollection","geometries":[]},"boundaries":{"type":"GeometryCollection","geometries":[]},"roads":{"type":"GeometryCollection","geometries":[]},"earth":{"type":"GeometryCollection","geometries":[{"type":"MultiPolygon","properties":{"sort_rank":10,"source":"naturalearthdata.com","kind":"earth","min_zoom":4.0,"area":42360232494},"arcs":[[[16]],[[17]]]},{"type":"MultiPolygon","properties":{"sort_rank":10,"source":"naturalearthdata.com","min_zoom":3.0,"kind":"earth","area":99447052320},"arcs":[[[18]],[[19]],[[20]],[[21]],[[22]]]},{"type":"MultiPolygon","properties":{"sort_rank":10,"source":"naturalearthdata.com","min_zoom":0,"kind":"earth","area":53730332668114},"arcs":[[[23]],[[24]]]}]},"landuse":{"type":"GeometryCollection","geometries":[]}},"type":"Topology","transform":{"translate":[-157.5,-76.8408164144],"scale":[0.002746582,0.0006887874]},"arcs":[[[4096,1312],[-19,-41],[1,-10],[2,-23],[1,-10],[-31,-28],[1,-8],[2,-18],[2,-8],[-27,-18],[-12,-19],[-11,-35],[91,-105],[0,-383],[0,-1],[-52,49],[-9,21],[-18,55],[-10,16],[-10,-3],[-9,-16],[-9,-22],[-10,-6],[-59,68],[-71,20],[-77,60],[-18,24],[5,-2],[5,2],[5,5],[4,8],[-125,70],[-126,70],[-125,70],[-83,-3],[-60,-40],[-21,-26],[-15,-38],[0,-44],[16,-26],[38,-28],[-121,-54],[-58,-53],[-164,13],[-23,-10],[-22,-20],[-19,-35],[-10,-26],[-8,-30],[-2,-31],[9,-27],[18,-19],[144,-37],[144,-37],[144,-37],[94,59],[29,3],[27,22],[175,11],[174,11],[169,-144],[62,-23],[21,-15],[-8,-5],[-8,-12],[-13,-33],[7,-36],[12,-14],[27,1],[12,-5],[22,-23],[0,-283],[-211,0],[-88,25],[-12,-7],[-8,-16],[1,-2],[-611,0],[9,3],[4,5],[3,8],[6,22],[4,8],[5,5],[68,13],[42,-7],[21,11],[17,41],[-6,13],[-30,26],[-123,33],[-3,-1],[-3,-6],[-6,-14],[-3,-6],[-5,-3],[-92,17],[-93,16],[-16,-8],[-18,-18],[-32,-51],[123,-100],[28,-7],[-3067,0],[0,4096],[4096,0],[0,-2784]],[[2646,92],[29,15],[15,15],[12,27],[-7,8],[-3,5],[3,14],[1,8],[1,8],[-41,32],[-113,-17],[-114,-18],[-8,-12],[-6,-15],[-3,-16],[22,-43],[78,-39],[134,28]],[[3198,194],[51,2],[21,14],[18,25],[-1,1],[0,1],[1,1],[-125,94],[-67,7],[-55,-43],[4,-2],[70,-68],[56,-24],[6,2],[13,-4],[8,-6]],[[3557,271],[34,-18],[28,5],[-22,61],[-40,53],[-56,38],[-23,-2],[-21,-20],[2,-2],[2,-8],[3,-17],[-1,-2],[-1,-6],[0,-2],[95,-80]],[[3892,355],[4,12],[-6,11],[-48,22],[-8,-3],[4,6],[14,25],[-7,6],[-39,-15],[-7,0],[-7,6],[-12,23],[3,-2],[4,5],[4,8],[3,9],[-5,6],[-24,14],[-30,-1],[-10,-5],[-11,-12],[-7,-22],[21,-13],[-4,-9],[-3,-12],[7,-24],[-3,2],[-15,-13],[-11,-1],[-4,-4],[3,-5],[8,-20],[-3,1],[-5,-8],[-8,-18],[15,-13],[4,-8],[4,-10],[6,-23],[4,-9],[76,-64],[42,-17],[21,3],[19,20],[-29,24],[-17,22],[-11,7],[-3,7],[19,2],[7,4],[-42,31],[-5,9],[95,-32],[6,2],[16,13],[-3,2],[-3,7],[-7,18],[-7,17],[-8,10],[3,9]],[[3655,1079],[8,0],[41,-63],[-16,-2],[-10,-12],[-2,1],[8,-15],[112,-72],[15,-25],[-10,-11],[-6,-4],[-3,3],[8,-17],[91,-69],[19,-5],[19,8],[17,25],[-3,24],[-11,57],[-1,22],[-56,77],[-4,9],[-4,15],[-2,16],[-4,14],[-5,10],[-59,45],[-100,20],[-22,-9],[-12,-15],[-8,-27]],[[4096,1312],[-19,-41],[1,-10],[2,-23],[1,-10],[-31,-28],[1,-8],[2,-18],[2,-8],[-27,-18],[-12,-19],[-11,-35],[91,-105]],[[4096,606],[0,-1],[-52,49],[-9,21],[-18,55],[-10,16],[-10,-3],[-9,-16],[-9,-22],[-10,-6],[-59,68],[-71,20],[-77,60],[-18,24],[5,-2],[5,2],[5,5],[4,8],[-125,70],[-126,70],[-125,70],[-83,-3],[-60,-40],[-21,-26],[-15,-38],[0,-44],[16,-26],[38,-28],[-121,-54],[-58,-53],[-164,13],[-23,-10],[-22,-20],[-19,-35],[-10,-26],[-8,-30],[-2,-31],[9,-27],[18,-19],[144,-37],[144,-37],[144,-37],[94,59],[29,3],[27,22],[175,11],[174,11],[169,-144],[62,-23],[21,-15],[-8,-5],[-8,-12],[-13,-33],[7,-36],[12,-14],[27,1],[12,-5],[22,-23]],[[3885,0],[-88,25],[-12,-7],[-8,-16],[1,-2]],[[3266,64],[42,-7],[21,11],[17,41],[-6,13],[-30,26],[-123,33],[-3,-1],[-3,-6],[-6,-14],[-3,-6],[-5,-3],[-92,17],[-93,16],[-16,-8],[-18,-18],[-32,-51],[123,-100],[28,-7]],[[3167,0],[9,3],[4,5],[3,8],[6,22],[4,8],[5,5],[68,13]],[[2646,92],[29,15],[15,15],[12,27],[-7,8],[-3,5],[3,14],[1,8],[1,8],[-41,32],[-113,-17],[-114,-18],[-8,-12],[-6,-15],[-3,-16],[22,-43],[78,-39],[134,28]],[[3198,194],[51,2],[21,14],[18,25],[-1,1],[0,1],[1,1],[-125,94],[-67,7],[-55,-43],[4,-2],[70,-68],[56,-24],[6,2],[13,-4],[8,-6]],[[3557,271],[34,-18],[28,5],[-22,61],[-40,53],[-56,38],[-23,-2],[-21,-20],[2,-2],[2,-8],[3,-17],[-1,-2],[-1,-6],[0,-2],[95,-80]],[[3892,355],[4,12],[-6,11],[-48,22],[-8,-3],[4,6],[14,25],[-7,6],[-39,-15],[-7,0],[-7,6],[-12,23],[3,-2],[4,5],[4,8],[3,9],[-5,6],[-24,14],[-30,-1],[-10,-5],[-11,-12],[-7,-22],[21,-13],[-4,-9],[-3,-12],[7,-24],[-3,2],[-15,-13],[-11,-1],[-4,-4],[3,-5],[8,-20],[-3,1],[-5,-8],[-8,-18],[15,-13],[4,-8],[4,-10],[6,-23],[4,-9],[76,-64],[42,-17],[21,3],[19,20],[-29,24],[-17,22],[-11,7],[-3,7],[19,2],[7,4],[-42,31],[-5,9],[95,-32],[6,2],[16,13],[-3,2],[-3,7],[-7,18],[-7,17],[-8,10],[3,9]],[[3655,1079],[8,0],[41,-63],[-16,-2],[-10,-12],[-2,1],[8,-15],[112,-72],[15,-25],[-10,-11],[-6,-4],[-3,3],[8,-17],[91,-69],[19,-5],[19,8],[17,25],[-3,24],[-11,57],[-1,22],[-56,77],[-4,9],[-4,15],[-2,16],[-4,14],[-5,10],[-59,45],[-100,20],[-22,-9],[-12,-15],[-8,-27]],[[3198,194],[-8,6],[-13,4],[-6,-2],[-56,24],[-70,68],[-4,2],[55,43],[67,-7],[125,-94],[-1,-1],[0,-1],[1,-1],[-18,-25],[-21,-14],[-51,-2]],[[3557,271],[-95,80],[0,2],[1,6],[1,2],[-3,17],[-2,8],[-2,2],[21,20],[23,2],[56,-38],[40,-53],[22,-61],[-28,-5],[-34,18]],[[3885,0],[-107,0],[-1,2],[8,16],[12,7],[88,-25]],[[3655,1079],[8,27],[12,15],[22,9],[100,-20],[59,-45],[5,-10],[4,-14],[2,-16],[4,-15],[4,-9],[56,-77],[1,-22],[11,-57],[3,-24],[-17,-25],[-19,-8],[-19,5],[-91,69],[-8,17],[3,-3],[6,4],[10,11],[-15,25],[-112,72],[-8,15],[2,-1],[10,12],[16,2],[-41,63],[-8,0]],[[3167,0],[-100,0],[-28,7],[-123,100],[32,51],[18,18],[16,8],[93,-16],[92,-17],[5,3],[3,6],[6,14],[3,6],[3,1],[123,-33],[30,-26],[6,-13],[-17,-41],[-21,-11],[-42,7],[-68,-13],[-5,-5],[-4,-8],[-6,-22],[-3,-8],[-4,-5],[-9,-3]],[[2646,92],[-134,-28],[-78,39],[-22,43],[3,16],[6,15],[8,12],[114,18],[113,17],[41,-32],[-1,-8],[-1,-8],[-3,-14],[3,-5],[7,-8],[-12,-27],[-15,-15],[-29,-15]],[[3892,355],[-3,-9],[8,-10],[7,-17],[7,-18],[3,-7],[3,-2],[-16,-13],[-6,-2],[-95,32],[5,-9],[42,-31],[-7,-4],[-19,-2],[3,-7],[11,-7],[17,-22],[29,-24],[-19,-20],[-21,-3],[-42,17],[-76,64],[-4,9],[-6,23],[-4,10],[-4,8],[-15,13],[8,18],[5,8],[3,-1],[-8,20],[-3,5],[4,4],[11,1],[15,13],[3,-2],[-7,24],[3,12],[4,9],[-21,13],[7,22],[11,12],[10,5],[30,1],[24,-14],[5,-6],[-3,-9],[-4,-8],[-4,-5],[-3,2],[12,-23],[7,-6],[7,0],[39,15],[7,-6],[-14,-25],[-4,-6],[8,3],[48,-22],[6,-11],[-4,-12]],[[4096,606],[0,-323],[-22,23],[-12,5],[-27,-1],[-12,14],[-7,36],[13,33],[8,12],[8,5],[-21,15],[-62,23],[-169,144],[-174,-11],[-175,-11],[-27,-22],[-29,-3],[-94,-59],[-144,37],[-144,37],[-144,37],[-18,19],[-9,27],[2,31],[8,30],[10,26],[19,35],[22,20],[23,10],[164,-13],[58,53],[121,54],[-38,28],[-16,26],[0,44],[15,38],[21,26],[60,40],[83,3],[125,-70],[126,-70],[125,-70],[-4,-8],[-5,-5],[-5,-2],[-5,2],[18,-24],[77,-60],[71,-20],[59,-68],[10,6],[9,22],[9,16],[10,3],[10,-16],[18,-55],[9,-21],[52,-49],[0,1]],[[4096,1312],[0,-323],[-91,105],[11,35],[12,19],[27,18],[-2,8],[-2,18],[-1,8],[31,28],[-1,10],[-2,23],[-1,10],[19,41]]]}