{"objects":{"water":{"type":"GeometryCollection","geometries":[{"type":"Polygon","properties":{"source":"naturalearthdata.com","kind":"ocean","area":989871000000000,"sort_rank":200,"min_zoom":0,"id":1},"arcs":[[0],[1],[2]]},{"type":"MultiLineString","properties":{"source":"naturalearthdata.com","kind":"ocean","sort_rank":205,"boundary":true,"min_zoom":0,"id":2},"arcs":[[3],[4]]},{"type":"LineString","properties":{"source":"naturalearthdata.com","kind":"ocean","sort_rank":205,"boundary":true,"min_zoom":0,"id":3020},"arcs":[5]},{"type":"LineString","properties":{"source":"naturalearthdata.com","kind":"ocean","sort_rank":205,"boundary":true,"min_zoom":0,"id":3021},"arcs":[6]}]},"buildings":{"type":"GeometryCollection","geometries":[]},"places":{"type":"GeometryCollection","geometries":[]},"transit":{"type":"GeometryCollection","geometries":[]},"pois":{"type":"GeometryCollection","geometries":[]},"boundaries":{"type":"GeometryCollection","geometries":[]},"roads":{"type":"GeometryCollection","geometries":[]},"earth":{"type":"GeometryCollection","geometries":[{"type":"MultiPolygon","properties":{"sort_rank":10,"source":"naturalearthdata.com","min_zoom":3.0,"kind":"earth","area":99447052320},"arcs":[[[7]],[[8]]]},{"type":"MultiPolygon","properties":{"sort_rank":10,"source":"naturalearthdata.com","min_zoom":0,"kind":"earth","area":53730332668114},"arcs":[[[9]],[[10]]]}]},"landuse":{"type":"GeometryCollection","geometries":[]}},"type":"Topology","transform":{"translate":[-157.5,-81.0932138526],"scale":[0.002746582,0.0004692088]},"arcs":[[[1787,4096],[0,-2],[10,-6],[10,8],[203,0],[-46,-64],[42,-6],[-117,-69],[-37,-58],[35,-75],[19,-22],[18,-2],[170,135],[18,-10],[16,-34],[-15,-12],[-14,-3],[-8,-7],[-40,-76],[-50,-62],[178,-136],[179,-136],[178,-136],[32,-54],[164,-50],[165,-51],[164,-50],[19,-40],[-12,-36],[26,-43],[149,-67],[149,-66],[149,-66],[-62,-15],[20,-30],[-11,3],[-23,-27],[-11,-6],[-47,8],[30,-52],[173,-84],[-102,-32],[-12,-24],[119,2],[65,-54],[9,1],[10,7],[25,43],[38,10],[19,-7],[17,-18],[-41,-19],[9,-61],[-149,9],[-150,9],[-19,18],[13,25],[-59,0],[-19,22],[47,3],[13,33],[-173,7],[-68,49],[-107,7],[10,-20],[33,-7],[37,-40],[-13,0],[-6,-6],[-6,-12],[127,-26],[-30,-8],[-10,-15],[26,-11],[8,-16],[-23,-29],[-25,-9],[145,-19],[20,-18],[-129,9],[-130,9],[-16,-21],[123,-9],[123,-9],[124,-9],[20,-38],[-115,-5],[-115,-5],[20,-35],[154,-17],[154,-17],[20,-23],[-181,-22],[-180,-22],[-43,-46],[-50,-23],[-4,-6],[-2,-13],[-2,-24],[-2,-10],[-2,-5],[-140,30],[-139,30],[-140,31],[-140,30],[8,-46],[13,-27],[38,-46],[10,-29],[9,-39],[8,-50],[-125,-77],[-61,22],[-30,-10],[-28,-62],[47,-18],[24,-34],[13,-77],[-56,-31],[121,9],[34,-31],[32,-52],[72,-51],[17,-31],[-168,-5],[-168,-4],[61,-32],[-80,3],[-25,-38],[108,-1],[107,0],[13,-16],[-6,0],[-6,-6],[-6,-13],[-5,-21],[133,-86],[-68,1],[-19,-40],[32,-28],[104,1],[104,1],[15,-22],[-63,-35],[81,-8],[26,-24],[-82,-29],[17,-17],[120,-1],[121,-2],[10,-6],[37,-57],[100,-4],[99,-4],[31,-24],[-170,10],[-170,11],[-21,-35],[78,-39],[-116,-5],[-9,-9],[-16,-31],[-8,-2],[102,-19],[102,-18],[-105,-20],[-105,-20],[128,-19],[128,-19],[128,-19],[15,-53],[-16,-4],[-8,-7],[-8,-13],[99,-21],[33,-32],[-76,-13],[17,-20],[114,-26],[114,-27],[16,-28],[12,-56],[-13,-44],[-16,-27],[-178,-27],[-179,-27],[-178,-27],[-179,-27],[-178,-28],[-178,-27],[-179,-27],[-178,-27],[-179,-27],[-178,-27],[-179,-27],[-178,-27],[-179,-27],[-112,-17],[-1162,0],[0,4096],[1787,0]],[[1233,2251],[62,-4],[18,38],[-9,32],[-151,110],[-151,109],[-151,110],[-151,109],[-13,-5],[-13,-15],[-5,-13],[-1,-2],[68,-87],[168,-82],[-4,-41],[15,-30],[172,-74],[23,-36],[3,-11],[5,-27],[2,-12],[5,-10],[15,5],[22,-21],[-10,-18],[-9,-11],[90,-14]],[[648,2822],[-26,-2],[-12,-17],[-11,-41],[10,-39],[12,-10],[51,35],[14,18],[12,27],[-50,29]],[[1787,4096],[0,-2],[10,-6],[10,8]],[[2010,4096],[-46,-64],[42,-6],[-117,-69],[-37,-58],[35,-75],[19,-22],[18,-2],[170,135],[18,-10],[16,-34],[-15,-12],[-14,-3],[-8,-7],[-40,-76],[-50,-62],[178,-136],[179,-136],[178,-136],[32,-54],[164,-50],[165,-51],[164,-50],[19,-40],[-12,-36],[26,-43],[149,-67],[149,-66],[149,-66],[-62,-15],[20,-30],[-11,3],[-23,-27],[-11,-6],[-47,8],[30,-52],[173,-84],[-102,-32],[-12,-24],[119,2],[65,-54],[9,1],[10,7],[25,43],[38,10],[19,-7],[17,-18],[-41,-19],[9,-61],[-149,9],[-150,9],[-19,18],[13,25],[-59,0],[-19,22],[47,3],[13,33],[-173,7],[-68,49],[-107,7],[10,-20],[33,-7],[37,-40],[-13,0],[-6,-6],[-6,-12],[127,-26],[-30,-8],[-10,-15],[26,-11],[8,-16],[-23,-29],[-25,-9],[145,-19],[20,-18],[-129,9],[-130,9],[-16,-21],[123,-9],[123,-9],[124,-9],[20,-38],[-115,-5],[-115,-5],[20,-35],[154,-17],[154,-17],[20,-23],[-181,-22],[-180,-22],[-43,-46],[-50,-23],[-4,-6],[-2,-13],[-2,-24],[-2,-10],[-2,-5],[-140,30],[-139,30],[-140,31],[-140,30],[8,-46],[13,-27],[38,-46],[10,-29],[9,-39],[8,-50],[-125,-77],[-61,22],[-30,-10],[-28,-62],[47,-18],[24,-34],[13,-77],[-56,-31],[121,9],[34,-31],[32,-52],[72,-51],[17,-31],[-168,-5],[-168,-4],[61,-32],[-80,3],[-25,-38],[108,-1],[107,0],[13,-16],[-6,0],[-6,-6],[-6,-13],[-5,-21],[133,-86],[-68,1],[-19,-40],[32,-28],[104,1],[104,1],[15,-22],[-63,-35],[81,-8],[26,-24],[-82,-29],[17,-17],[120,-1],[121,-2],[10,-6],[37,-57],[100,-4],[99,-4],[31,-24],[-170,10],[-170,11],[-21,-35],[78,-39],[-116,-5],[-9,-9],[-16,-31],[-8,-2],[102,-19],[102,-18],[-105,-20],[-105,-20],[128,-19],[128,-19],[128,-19],[15,-53],[-16,-4],[-8,-7],[-8,-13],[99,-21],[33,-32],[-76,-13],[17,-20],[114,-26],[114,-27],[16,-28],[12,-56],[-13,-44],[-16,-27],[-178,-27],[-179,-27],[-178,-27],[-179,-27],[-178,-28],[-178,-27],[-179,-27],[-178,-27],[-179,-27],[-178,-27],[-179,-27],[-178,-27],[-179,-27],[-112,-17]],[[1233,2251],[62,-4],[18,38],[-9,32],[-151,110],[-151,109],[-151,110],[-151,109],[-13,-5],[-13,-15],[-5,-13],[-1,-2],[68,-87],[168,-82],[-4,-41],[15,-30],[172,-74],[23,-36],[3,-11],[5,-27],[2,-12],[5,-10],[15,5],[22,-21],[-10,-18],[-9,-11],[90,-14]],[[648,2822],[-26,-2],[-12,-17],[-11,-41],[10,-39],[12,-10],[51,35],[14,18],[12,27],[-50,29]],[[1233,2251],[-90,14],[9,11],[10,18],[-22,21],[-15,-5],[-5,10],[-2,12],[-5,27],[-3,11],[-23,36],[-172,74],[-15,30],[4,41],[-168,82],[-68,87],[1,2],[5,13],[13,15],[13,5],[151,-109],[151,-110],[151,-109],[151,-110],[9,-32],[-18,-38],[-62,4]],[[648,2822],[50,-29],[-12,-27],[-14,-18],[-51,-35],[-12,10],[-10,39],[11,41],[12,17],[26,2]],[[2010,4096],[2086,0],[0,-4096],[-2934,0],[112,17],[179,27],[178,27],[179,27],[178,27],[62,10],[117,17],[178,27],[179,27],[178,27],[178,28],[179,27],[178,27],[179,27],[178,27],[16,27],[13,44],[-12,56],[-16,28],[-114,27],[-114,26],[-17,20],[76,13],[-33,32],[-99,21],[8,13],[8,7],[16,4],[-15,53],[-128,19],[-128,19],[-128,19],[105,20],[105,20],[-102,18],[-102,19],[8,2],[16,31],[9,9],[116,5],[-78,39],[21,35],[170,-11],[170,-10],[-31,24],[-99,4],[-100,4],[-37,57],[-10,6],[-121,2],[-120,1],[-17,17],[82,29],[-26,24],[-81,8],[63,35],[-15,22],[-104,-1],[-104,-1],[-32,28],[19,40],[68,-1],[-133,86],[5,21],[6,13],[6,6],[6,0],[-13,16],[-107,0],[-108,1],[25,38],[80,-3],[-61,32],[168,4],[168,5],[-17,31],[-72,51],[-32,52],[-34,31],[-121,-9],[56,31],[-13,77],[-24,34],[-47,18],[28,62],[30,10],[61,-22],[125,77],[-8,50],[-9,39],[-10,29],[-38,46],[-13,27],[-8,46],[140,-30],[140,-31],[139,-30],[140,-30],[2,5],[2,10],[2,24],[2,13],[4,6],[50,23],[43,46],[180,22],[181,22],[-20,23],[-154,17],[-154,17],[-20,35],[115,5],[115,5],[-20,38],[-124,9],[-123,9],[-123,9],[16,21],[130,-9],[129,-9],[-20,18],[-145,19],[25,9],[23,29],[-8,16],[-26,11],[10,15],[30,8],[-127,26],[6,12],[6,6],[13,0],[-37,40],[-33,7],[-10,20],[107,-7],[68,-49],[173,-7],[-13,-33],[-47,-3],[19,-22],[59,0],[-13,-25],[19,-18],[150,-9],[149,-9],[-9,61],[41,19],[-17,18],[-19,7],[-38,-10],[-25,-43],[-10,-7],[-9,-1],[-65,54],[-119,-2],[12,24],[102,32],[-173,84],[-30,52],[47,-8],[11,6],[23,27],[11,-3],[-20,30],[62,15],[-149,66],[-149,66],[-149,67],[-26,43],[12,36],[-19,40],[-164,50],[-165,51],[-164,50],[-32,54],[-178,136],[-179,136],[-129,99],[-49,37],[49,61],[1,1],[40,76],[8,7],[14,3],[15,12],[-16,34],[-18,10],[-44,-35],[-126,-100],[-18,2],[-19,22],[-35,75],[37,58],[117,69],[-42,6],[46,64]],[[1787,4096],[20,0],[-1,0],[-9,-8],[-10,6],[0,2]]]}