{"objects":{"water":{"type":"GeometryCollection","geometries":[{"type":"MultiPolygon","properties":{"source":"naturalearthdata.com","kind":"ocean","area":989871000000000,"sort_rank":200,"min_zoom":0,"id":1},"arcs":[[[0]],[[1]]]},{"type":"MultiLineString","properties":{"source":"naturalearthdata.com","kind":"ocean","sort_rank":205,"boundary":true,"min_zoom":0,"id":2},"arcs":[[2],[3]]}]},"buildings":{"type":"GeometryCollection","geometries":[]},"places":{"type":"GeometryCollection","geometries":[]},"transit":{"type":"GeometryCollection","geometries":[]},"pois":{"type":"GeometryCollection","geometries":[]},"boundaries":{"type":"GeometryCollection","geometries":[]},"roads":{"type":"GeometryCollection","geometries":[]},"earth":{"type":"GeometryCollection","geometries":[{"type":"MultiPolygon","properties":{"sort_rank":10,"source":"naturalearthdata.com","min_zoom":0,"kind":"earth","area":53730332668114},"arcs":[[[4]]]}]},"landuse":{"type":"GeometryCollection","geometries":[]}},"type":"Topology","transform":{"translate":[-157.5,-83.9792594989],"scale":[0.002746582,0.000318109]},"arcs":[[[1342,4096],[-148,-129],[-153,-133],[-152,-133],[-9,-48],[-10,-144],[-9,-46],[-132,-245],[22,-164],[-56,-120],[-177,-38],[-176,-38],[-176,-37],[-166,-36],[0,1311],[1342,0]],[[0,2472],[173,-41],[39,-76],[-97,-176],[-98,-175],[-11,-36],[-6,-35],[0,539]],[[1342,4096],[-148,-129],[-153,-133],[-152,-133],[-9,-48],[-10,-144],[-9,-46],[-132,-245],[22,-164],[-56,-120],[-177,-38],[-176,-38],[-176,-37],[-166,-36]],[[0,2472],[173,-41],[39,-76],[-97,-176],[-98,-175],[-11,-36],[-6,-35]],[[1342,4096],[2754,0],[0,-4096],[-4096,0],[0,1933],[6,35],[11,36],[98,175],[97,176],[-39,76],[-173,41],[0,313],[166,36],[176,37],[176,38],[177,38],[56,120],[-22,164],[132,245],[9,46],[10,144],[9,48],[152,133],[153,133],[148,129]]]}