{"objects":{"water":{"type":"GeometryCollection","geometries":[{"type":"MultiPolygon","properties":{"source":"naturalearthdata.com","kind":"ocean","area":989871000000000,"sort_rank":200,"min_zoom":0,"id":1},"arcs":[[[0]],[[1]]]},{"type":"MultiLineString","properties":{"source":"naturalearthdata.com","kind":"ocean","sort_rank":205,"boundary":true,"min_zoom":0,"id":2},"arcs":[[2],[3]]}]},"buildings":{"type":"GeometryCollection","geometries":[]},"places":{"type":"GeometryCollection","geometries":[]},"transit":{"type":"GeometryCollection","geometries":[]},"pois":{"type":"GeometryCollection","geometries":[]},"boundaries":{"type":"GeometryCollection","geometries":[]},"roads":{"type":"GeometryCollection","geometries":[]},"earth":{"type":"GeometryCollection","geometries":[{"type":"MultiPolygon","properties":{"sort_rank":10,"source":"naturalearthdata.com","min_zoom":0,"kind":"earth","area":53730332668114},"arcs":[[[4]]]}]},"landuse":{"type":"GeometryCollection","geometries":[]}},"type":"Topology","transform":{"translate":[-157.5,-85.0511287798],"scale":[0.002746582,0.0002616868]},"arcs":[[[0,953],[11,-1],[166,-25],[167,-24],[166,-25],[166,-25],[20,-48],[-102,-77],[47,-20],[13,-51],[-148,-23],[116,-22],[15,-36],[-2,0],[-12,-16],[-163,21],[-163,20],[-163,21],[-134,17],[0,314]],[[0,535],[58,-61],[107,-115],[14,-45],[18,-119],[7,-26],[174,-152],[20,-17],[-398,0],[0,535]],[[0,953],[11,-1],[166,-25],[167,-24],[166,-25],[166,-25],[20,-48],[-102,-77],[47,-20],[13,-51],[-148,-23],[116,-22],[15,-36],[-2,0],[-12,-16],[-163,21],[-163,20],[-163,21],[-134,17]],[[0,535],[58,-61],[107,-115],[14,-45],[18,-119],[7,-26],[174,-152],[20,-17]],[[0,953],[0,3143],[4096,0],[0,-4096],[-2046,0],[-1652,0],[-20,17],[-174,152],[-7,26],[-18,119],[-14,45],[-107,115],[-58,61],[0,104],[134,-17],[163,-21],[163,-20],[163,-21],[12,16],[2,0],[-15,36],[-116,22],[148,23],[-13,51],[-47,20],[102,77],[-20,48],[-166,25],[-166,25],[-167,24],[-166,25],[-11,1]]]}