{"objects":{"water":{"type":"GeometryCollection","geometries":[{"type":"Polygon","properties":{"name:pt":null,"collision_rank":400,"name:nl":null,"name:id":null,"name:hi":null,"name:tr":null,"name:ar":null,"min_zoom":4.0,"name:it":null,"name:vi":null,"name:ru":"\u0422\u0435\u0448\u0435\u043a\u043f\u0443\u043a","name:sv":null,"name:pl":null,"name:hu":null,"id":56,"name:ja":null,"name:el":null,"kind":"lake","name:en":"Teshekpuk Lake","name":"Teshekpuk Lake","area":7853610000,"sort_rank":204,"name:bn":null,"name:de":null,"name:ko":null,"name:fr":"Teshekpuk Lake","source":"naturalearthdata.com","wikidata_id":"Q3518981","name:zh":null,"name:es":null},"arcs":[[0]]},{"type":"MultiPolygon","properties":{"source":"naturalearthdata.com","kind":"ocean","area":989871000000000,"sort_rank":200,"min_zoom":0,"id":1},"arcs":[[[1],[2]]]},{"type":"MultiLineString","properties":{"source":"naturalearthdata.com","min_zoom":4.0,"area":7853610000,"sort_rank":367,"boundary":true,"id":56,"kind":"lake"},"arcs":[[3],[4]]},{"type":"LineString","properties":{"source":"naturalearthdata.com","kind":"ocean","sort_rank":205,"boundary":true,"min_zoom":0,"id":477},"arcs":[5]},{"type":"LineString","properties":{"source":"naturalearthdata.com","kind":"ocean","sort_rank":205,"boundary":true,"min_zoom":0,"id":486},"arcs":[6]}]},"buildings":{"type":"GeometryCollection","geometries":[]},"places":{"type":"GeometryCollection","geometries":[{"type":"Point","properties":{"name:pt":"Prudhoe Bay","collision_rank":365,"name:nl":"Prudhoe Bay","name:id":null,"name":"Prudhoe Bay","name:hi":null,"name:tr":null,"name:sv":"Prudhoe Bay","name:ar":null,"min_zoom":5.0,"name:it":"Prudhoe Bay","name:vi":null,"name:ru":"\u041f\u0440\u0430\u0434\u0445\u043e-\u0411\u0435\u0439","name:pl":"Prudhoe Bay","name:hu":null,"id":6813,"name:ja":"\u30d7\u30eb\u30fc\u30c9\u30fc\u6e7e","name:el":null,"kind":"locality","name:en":"Prudhoe Bay","population_rank":4,"source":"naturalearthdata.com","name:bn":null,"name:de":"Prudhoe Bay","name:ko":null,"name:fr":"Prudhoe Bay","wikidata_id":"Q1013046","population":2500,"name:zh":"\u666e\u62c9\u5fb7\u970d\u7063","name:es":"Prudhoe Bay"},"coordinates":[3215,3776]}]},"transit":{"type":"GeometryCollection","geometries":[]},"pois":{"type":"GeometryCollection","geometries":[]},"boundaries":{"type":"GeometryCollection","geometries":[]},"roads":{"type":"GeometryCollection","geometries":[{"type":"LineString","properties":{"source":"naturalearthdata.com","kind":"major_road","sort_rank":380,"kind_detail":"primary","min_zoom":5.0,"id":1059},"arcs":[7]}]},"earth":{"type":"GeometryCollection","geometries":[{"type":"MultiPolygon","properties":{"sort_rank":10,"source":"naturalearthdata.com","kind":"earth","min_zoom":5.0,"area":12275035991},"arcs":[[[8]]]},{"type":"MultiPolygon","properties":{"sort_rank":10,"source":"naturalearthdata.com","min_zoom":0,"kind":"earth","area":13131386715102},"arcs":[[[9]]]}]},"landuse":{"type":"GeometryCollection","geometries":[{"type":"MultiPolygon","properties":{"kind":"nature_reserve","tier":2,"protect_class":"4","area":595568000000,"sort_rank":23,"source":"openstreetmap.org","min_zoom":4.0,"operator":"US Fish and Wildlife Service","id":-8537673},"arcs":[[[10],[11]],[[12]],[[13]]]},{"type":"MultiPolygon","properties":{"source":"openstreetmap.org","kind":"nature_reserve","area":565741688757,"tier":2,"min_zoom":4.0,"id":-8537784,"sort_rank":23},"arcs":[[[14]],[[15],[16]],[[17]],[[18]]]},{"type":"MultiPolygon","properties":{"source":"openstreetmap.org","kind":"park","area":253370693600,"tier":2,"min_zoom":4.0,"id":-7025660,"sort_rank":24},"arcs":[[[19]]]},{"type":"MultiPolygon","properties":{"kind":"nature_reserve","protect_class":"4","area":70557500000,"sort_rank":23,"source":"openstreetmap.org","min_zoom":4.0,"tier":2,"id":-9149275},"arcs":[[[20]]]},{"type":"Polygon","properties":{"kind":"protected_area","tier":2,"area":784254000000,"sort_rank":17,"source":"openstreetmap.org","min_zoom":4.0,"operator":"U.S. Bureau of Land Management","id":-8870643},"arcs":[[21]]}]}},"type":"Topology","transform":{"translate":[-157.5,66.5132604431],"scale":[0.002746582,0.0010008188]},"arcs":[[[1656,4069],[7,-7],[2,-10],[-3,-10],[-6,-7],[-9,1],[-7,6],[-6,2],[-7,-12],[-14,-16],[-19,-2],[-38,7],[-18,-2],[-35,-19],[-56,-49],[-16,-5],[-19,22],[-10,5],[-8,-7],[2,-2],[3,-4],[-7,-9],[-7,2],[-5,11],[1,17],[-5,5],[-17,11],[-5,-3],[0,-10],[2,-15],[5,-23],[-5,0],[-6,2],[-5,6],[-16,36],[-1,4],[-5,-2],[-8,-9],[-6,-2],[-4,3],[-11,27],[-5,4],[-5,-2],[-5,-4],[-5,-2],[-6,6],[-4,9],[-4,11],[-4,9],[-2,4],[-5,3],[-2,0],[-3,-6],[-2,-1],[-5,4],[-3,7],[-2,8],[-3,8],[5,9],[11,6],[2,9],[-1,3],[388,0],[3,-2],[11,-5],[9,-7],[-1,-13]],[[1875,4096],[2221,0],[0,-427],[-67,-3],[-112,10],[-39,1],[-10,-3],[-2,-15],[-88,-8],[-26,8],[-2,2],[-4,9],[-2,2],[-2,-1],[-3,-5],[-2,-1],[-66,21],[-95,10],[-38,16],[-9,8],[3,5],[2,5],[3,11],[-3,4],[-3,4],[-3,3],[-4,2],[3,12],[2,4],[3,4],[-8,10],[-8,7],[-8,4],[-8,1],[-27,-11],[-8,3],[2,8],[-6,6],[-5,-2],[-6,-3],[-5,-1],[-5,2],[-5,4],[-19,30],[-12,8],[-26,3],[-13,-5],[-30,-36],[-15,-6],[-48,6],[4,22],[-1,16],[-5,13],[-12,15],[-13,10],[-20,5],[-4,5],[-11,16],[-14,2],[-27,-8],[-11,4],[-28,23],[-5,-1],[-12,-12],[-5,1],[-3,4],[-3,6],[-4,9],[-9,11],[-10,9],[-110,42],[-8,-7],[5,-6],[-11,-9],[-39,9],[3,0],[3,2],[2,5],[2,6],[-9,12],[-10,0],[-19,-12],[-57,0],[-22,-13],[-10,-1],[-21,15],[-7,1],[-84,-70],[-48,0],[-48,-26],[-12,-2],[0,7],[17,46],[3,12],[-6,17],[-15,-5],[-16,-12],[-11,-3],[-3,8],[-2,10],[-2,9],[-5,7],[-5,1],[-10,-6],[-5,-2],[-3,1],[-7,5],[-4,1],[-63,-7],[2,-11],[5,-8],[10,-8],[-7,-4],[-17,9],[-8,1],[-2,-2],[-6,-8],[-2,-3],[-33,0],[-3,-2],[-5,-9],[-2,-2],[-72,-8],[-9,-8],[-2,-18],[3,-21],[8,-14],[0,-8],[-16,-4],[-8,4],[-13,20],[-13,10],[-6,8],[-8,9],[-20,0],[-17,12],[-103,-3],[-88,13],[13,32],[21,12],[35,10],[-21,7],[-8,8],[8,5],[16,-4],[7,9],[8,21],[5,6],[6,4],[-10,8],[-32,-8],[-44,13],[-178,-16],[-18,-10],[-10,-1],[-5,3],[-9,9],[-5,2],[-12,-3],[-4,3],[6,14],[12,10],[13,8],[10,2],[22,-11],[15,5],[91,-4],[21,-8],[12,4],[-10,20],[-19,5],[-36,-4],[-35,13]],[[3160,3953],[-27,27],[-10,5],[-8,-1],[-10,-7],[-8,-1],[-88,61],[-15,-1],[-10,-5],[-3,-3],[21,1],[22,-9],[65,-52],[13,-4],[11,6],[14,2],[33,-20],[0,1]],[[1656,4069],[7,-7],[2,-10],[-3,-10],[-6,-7],[-9,1],[-7,6],[-6,2],[-7,-12],[-14,-16],[-19,-2],[-38,7],[-18,-2],[-35,-19],[-56,-49],[-16,-5],[-19,22],[-10,5],[-8,-7],[2,-2],[3,-4],[-7,-9],[-7,2],[-5,11],[1,17],[-5,5],[-17,11],[-5,-3],[0,-10],[2,-15],[5,-23],[-5,0],[-6,2],[-5,6],[-16,36],[-1,4],[-5,-2],[-8,-9],[-6,-2],[-4,3],[-11,27],[-5,4],[-5,-2],[-5,-4],[-5,-2],[-6,6],[-4,9],[-4,11],[-4,9],[-2,4],[-5,3],[-2,0],[-3,-6],[-2,-1],[-5,4],[-3,7],[-2,8],[-3,8],[5,9],[11,6],[2,9],[-1,3]],[[1634,4096],[3,-2],[11,-5],[9,-7],[-1,-13]],[[3160,3953],[-27,27],[-10,5],[-8,-1],[-10,-7],[-8,-1],[-88,61],[-15,-1],[-10,-5],[-3,-3],[21,1],[22,-9],[65,-52],[13,-4],[11,6],[14,2],[33,-20],[0,1]],[[1875,4096],[35,-13],[36,4],[19,-5],[10,-20],[-12,-4],[-21,8],[-91,4],[-15,-5],[-22,11],[-10,-2],[-13,-8],[-12,-10],[-6,-14],[4,-3],[12,3],[5,-2],[9,-9],[5,-3],[10,1],[18,10],[178,16],[44,-13],[32,8],[10,-8],[-6,-4],[-5,-6],[-8,-21],[-7,-9],[-16,4],[-8,-5],[8,-8],[21,-7],[-35,-10],[-21,-12],[-13,-32],[88,-13],[103,3],[17,-12],[20,0],[8,-9],[6,-8],[13,-10],[13,-20],[8,-4],[16,4],[0,8],[-8,14],[-3,21],[2,18],[9,8],[72,8],[2,2],[5,9],[3,2],[33,0],[2,3],[6,8],[2,2],[8,-1],[17,-9],[7,4],[-10,8],[-5,8],[-2,11],[63,7],[4,-1],[7,-5],[3,-1],[5,2],[10,6],[5,-1],[5,-7],[2,-9],[2,-10],[3,-8],[11,3],[16,12],[15,5],[6,-17],[-3,-12],[-17,-46],[0,-7],[12,2],[48,26],[48,0],[84,70],[7,-1],[21,-15],[10,1],[22,13],[57,0],[19,12],[10,0],[9,-12],[-2,-6],[-2,-5],[-3,-2],[-3,0],[39,-9],[11,9],[-5,6],[8,7],[110,-42],[10,-9],[9,-11],[4,-9],[3,-6],[3,-4],[5,-1],[12,12],[5,1],[28,-23],[11,-4],[27,8],[14,-2],[11,-16],[4,-5],[20,-5],[13,-10],[12,-15],[5,-13],[1,-16],[-4,-22],[48,-6],[15,6],[30,36],[13,5],[26,-3],[12,-8],[19,-30],[5,-4],[5,-2],[5,1],[6,3],[5,2],[6,-6],[-2,-8],[8,-3],[27,11],[8,-1],[8,-4],[8,-7],[8,-10],[-3,-4],[-2,-4],[-3,-12],[4,-2],[3,-3],[3,-4],[3,-4],[-3,-11],[-2,-5],[-3,-5],[9,-8],[38,-16],[95,-10],[66,-21],[2,1],[3,5],[2,1],[2,-2],[4,-9],[2,-2],[26,-8],[88,8],[2,15],[10,3],[39,-1],[112,-10],[67,3]],[[3130,3776],[63,-19],[7,-10],[16,-30],[12,-5],[6,-12],[9,-9],[38,-12],[23,5],[5,-3],[1,-7],[-1,-16],[-6,-22],[-6,-18],[-16,-31],[-7,-40],[-4,-12],[-53,-71],[-31,-49],[-15,-57],[3,-68],[6,-19],[15,-34],[5,-23],[0,-19],[-3,-56],[1,-27],[4,-12],[18,-32],[26,-85],[5,-64],[-16,-28],[-23,0],[-27,-59],[-4,-15],[-1,-18],[9,-20],[1,-9],[-1,-14],[-15,-33],[-14,-59],[-14,-29],[1,-44],[9,-66],[-4,-55],[2,-21],[-4,-12],[-11,-16],[-2,-28],[4,-55],[14,-47],[-1,-30],[-5,-17],[-11,-24],[-13,-19],[-12,-12],[-97,-56],[-56,-23],[-45,16],[-7,-12],[-12,-7],[-7,-9],[-2,-12],[3,-15],[19,-51],[18,-67],[8,-14],[21,-25],[15,-34],[4,-25],[0,-10],[-7,-57],[-8,-28],[-19,-30],[-2,-10],[0,-31],[-2,-23],[-3,-22],[-7,-18],[-7,-12],[-18,-8],[-30,-63],[-12,-19],[-29,-24],[-15,-51],[-23,-43],[-3,-16],[-1,-17],[3,-59],[19,-64],[11,-63],[9,-26],[-1,-14],[-5,-10],[-18,-22],[-4,-13],[-2,-31],[-12,-14],[-5,-12],[-2,-14],[-1,-40],[-5,-17],[-44,-10],[-26,-21],[-15,-51],[-8,-48],[-23,-101],[-32,-43],[-29,-49],[-4,-15],[0,-14],[2,-11],[4,-12],[3,-40],[6,-15],[14,-23],[3,-12],[-1,-12],[-3,-14],[-24,-40],[-21,-19],[-23,-54],[-27,-14],[-15,-31],[-8,-10],[-23,-11],[-13,-35],[-3,-48],[11,-40],[2,-16],[-1,-33],[-3,-26],[-6,-22],[-5,-14],[-9,-12],[-17,-9],[-11,-28],[3,-21]],[[3160,3953],[0,-1],[-33,20],[-14,-2],[-11,-6],[-13,4],[-65,52],[-22,9],[-21,-1],[3,3],[10,5],[15,1],[88,-61],[8,1],[10,7],[8,1],[10,-5],[27,-27]],[[4096,3669],[0,-3669],[-3873,0],[-223,0],[0,4096],[1875,0],[35,-13],[36,4],[19,-5],[10,-20],[-12,-4],[-21,8],[-91,4],[-15,-5],[-22,11],[-10,-2],[-13,-8],[-12,-10],[-6,-14],[4,-3],[12,3],[5,-2],[9,-9],[5,-3],[10,1],[18,10],[178,16],[44,-13],[32,8],[10,-8],[-6,-4],[-5,-6],[-8,-21],[-7,-9],[-16,4],[-8,-5],[8,-8],[21,-7],[-35,-10],[-21,-12],[-13,-32],[88,-13],[103,3],[17,-12],[20,0],[8,-9],[6,-8],[13,-10],[13,-20],[8,-4],[16,4],[0,8],[-8,14],[-3,21],[2,18],[9,8],[72,8],[2,2],[5,9],[3,2],[33,0],[2,3],[6,8],[2,2],[8,-1],[17,-9],[7,4],[-10,8],[-5,8],[-2,11],[63,7],[4,-1],[7,-5],[3,-1],[5,2],[10,6],[5,-1],[5,-7],[2,-9],[2,-10],[3,-8],[11,3],[16,12],[15,5],[6,-17],[-3,-12],[-17,-46],[0,-7],[12,2],[48,26],[48,0],[84,70],[7,-1],[21,-15],[10,1],[22,13],[57,0],[19,12],[10,0],[9,-12],[-2,-6],[-2,-5],[-3,-2],[-3,0],[39,-9],[11,9],[-5,6],[8,7],[110,-42],[10,-9],[9,-11],[4,-9],[3,-6],[3,-4],[5,-1],[12,12],[5,1],[28,-23],[11,-4],[27,8],[14,-2],[11,-16],[4,-5],[20,-5],[13,-10],[12,-15],[5,-13],[1,-16],[-4,-22],[48,-6],[15,6],[30,36],[13,5],[26,-3],[12,-8],[19,-30],[5,-4],[5,-2],[5,1],[6,3],[5,2],[6,-6],[-2,-8],[8,-3],[27,11],[8,-1],[8,-4],[8,-7],[8,-10],[-3,-4],[-2,-4],[-3,-12],[4,-2],[3,-3],[3,-4],[3,-4],[-3,-11],[-2,-5],[-3,-5],[9,-8],[38,-16],[95,-10],[66,-21],[2,1],[3,5],[2,1],[2,-2],[4,-9],[2,-2],[26,-8],[88,8],[2,15],[10,3],[39,-1],[112,-10],[67,3]],[[2954,1975],[57,7],[0,29],[185,0],[0,173],[105,86],[0,260],[226,0],[0,86],[59,0],[0,87],[88,0],[0,86],[88,0],[0,43],[88,0],[0,-43],[246,0],[0,-1389],[-34,33],[-31,9],[-27,14],[-1,-1],[0,-75],[93,0],[0,-400],[-14,-19],[-42,3],[-92,-67],[-30,-74],[-85,-41],[4,425],[-221,0],[0,86],[-69,0],[-2,66],[-126,59],[-28,91],[35,78],[-12,45],[-38,12],[29,29],[-10,52],[-57,-20],[-39,46],[-225,-141],[-35,23],[-29,31],[15,260],[-57,0],[-14,51]],[[3238,2169],[0,-43],[86,0],[-1,43],[-85,0]],[[4096,2936],[-27,29],[27,215],[0,-244]],[[4096,3193],[-52,54],[-27,86],[38,98],[41,60],[0,-298]],[[4096,402],[0,-402],[-1381,0],[0,82],[28,14],[13,73],[40,14],[79,115],[-26,116],[65,0],[65,43],[35,-58],[86,15],[6,29],[61,7],[0,29],[46,0],[14,79],[53,-29],[402,0],[101,58],[91,-58],[89,-2],[82,-39],[51,-86]],[[0,947],[0,786],[56,10],[55,67],[74,-7],[26,-15],[-6,-79],[21,-20],[103,-2],[25,-31],[11,19],[103,-33],[25,15],[2,-77],[100,-53],[-52,-50],[1,-1],[48,37],[32,-10],[15,-41],[45,-10],[2,399],[127,0],[0,-42],[233,0],[-27,65],[38,-29],[346,21],[0,58],[43,0],[0,43],[214,0],[0,-86],[56,0],[0,-43],[33,0],[0,-72],[-43,-58],[0,-43],[127,0],[13,-29],[127,-29],[0,-22],[-84,8],[0,-29],[28,0],[-7,-36],[-63,0],[-28,35],[0,-71],[196,0],[0,43],[28,-15],[14,44],[28,0],[0,-72],[168,14],[0,29],[133,14],[7,47],[-56,25],[-101,-14],[-64,25],[25,119],[134,0],[11,-24],[-37,-78],[0,-1],[119,60],[140,-46],[50,8],[53,-34],[26,-63],[72,12],[47,-56],[-36,-134],[-24,-4],[0,-1],[19,-30],[-30,-88],[56,-95],[-19,-122],[-35,-68],[-70,34],[-45,-27],[9,-79],[-48,-85],[10,-51],[-61,-41],[-14,-61],[41,-30],[-35,-84],[-30,7],[-49,-38],[-125,6],[-22,-27],[-2,263],[63,0],[0,87],[-81,0],[0,173],[-82,0],[0,86],[-81,0],[0,-86],[-484,0],[0,-87],[35,0],[0,-130],[-143,11],[0,-86],[-122,0],[0,-87],[-67,0],[1,-86],[-45,0],[-24,-42],[-82,14],[-30,-35],[-73,5],[-28,89],[-28,-19],[-50,17],[21,144],[-424,0],[-19,29],[-50,1],[-38,143],[-31,-9],[-28,28],[-4,91],[-188,-52],[-2,91],[-12,31],[-1,0],[12,-45],[-40,-33],[-89,56],[-1,0],[0,-74],[-87,-52]],[[183,1104],[1,0],[35,56],[-1,1],[-28,-26],[-7,-31]],[[1762,1722],[68,159],[86,0],[18,-144],[123,-22],[0,-22],[28,0],[0,-43],[-91,36],[-7,-29],[70,-21],[0,-29],[-56,-14],[0,43],[-141,29],[0,28],[-98,0],[0,29]],[[1616,2140],[129,0],[0,-43],[85,0],[0,-130],[-142,0],[-28,87],[-44,0],[0,86]],[[183,1102],[38,61],[60,-40],[57,115],[5,32],[-35,15],[61,104],[4,65],[59,29],[105,-12],[55,42],[32,-10],[15,-41],[45,-10],[2,399],[127,0],[0,-42],[233,0],[-27,65],[38,-29],[346,21],[0,58],[43,0],[0,43],[214,0],[0,-86],[56,0],[0,-43],[33,0],[0,-72],[-43,-58],[0,-43],[127,0],[13,-29],[127,-29],[0,-22],[-84,8],[0,-29],[28,0],[-7,-36],[-63,0],[-28,35],[0,-71],[196,0],[0,43],[28,-15],[14,44],[28,0],[0,-72],[168,14],[0,29],[133,14],[7,47],[-56,25],[-101,-14],[-64,25],[25,119],[134,0],[11,-24],[-37,-78],[0,-1],[119,60],[140,-46],[50,8],[53,-34],[26,-63],[72,12],[47,-56],[-36,-134],[-24,-4],[0,-1],[19,-30],[-30,-88],[56,-95],[-19,-122],[-35,-68],[-70,34],[-45,-27],[9,-79],[-48,-85],[10,-51],[-61,-41],[-14,-61],[41,-30],[-35,-84],[-30,7],[-49,-38],[-125,6],[-22,-27],[-2,263],[63,0],[0,87],[-81,0],[0,173],[-82,0],[0,86],[-81,0],[0,-86],[-484,0],[0,-87],[35,0],[0,-130],[-143,11],[0,-86],[-122,0],[0,-87],[-67,0],[1,-86],[-45,0],[-24,-42],[-82,14],[-30,-35],[-73,5],[-28,89],[-28,-19],[-50,17],[21,144],[-424,0],[-19,29],[-50,1],[-38,143],[-31,-9],[-28,28],[-4,91],[-188,-52],[-2,91],[-15,40],[-20,-2]],[[0,0],[0,21],[172,0],[0,29],[118,0],[66,-15],[0,-35],[-356,0]],[[1848,4096],[0,-3],[196,-33],[26,-30],[38,9],[3,-59],[-77,-21],[-10,-29],[186,-20],[75,-63],[42,34],[16,-76],[-19,-19],[48,-84],[26,-1],[-15,-66],[-71,-48],[25,-21],[-23,-25],[-63,-16],[-52,53],[-40,-19],[-29,-102],[31,-66],[-5,-83],[46,-199],[-2,-108],[-48,-87],[-178,-46],[-182,-110],[-223,-87],[-41,-59],[-205,-64],[-27,-91],[-165,128],[-21,-23],[-84,15],[-193,-45],[-39,22],[-50,-15],[0,-25],[-35,2],[-15,-33],[40,-12],[-56,-21],[-26,19],[-12,-41],[-13,34],[-13,-26],[-69,7],[0,-890],[-54,33],[2,71],[-24,-15],[-104,33],[-11,-19],[-25,31],[-122,15],[4,85],[-26,16],[-75,7],[-52,-67],[-58,-9],[0,2362],[1848,0]]]}