{"objects":{"water":{"type":"GeometryCollection","geometries":[{"type":"Polygon","properties":{"source":"naturalearthdata.com","kind":"ocean","area":990044000000000,"sort_rank":200,"min_zoom":0,"id":1},"arcs":[[0]]},{"type":"LineString","properties":{"source":"naturalearthdata.com","kind":"ocean","sort_rank":205,"boundary":true,"min_zoom":0,"id":1386},"arcs":[1]}]},"buildings":{"type":"GeometryCollection","geometries":[]},"places":{"type":"GeometryCollection","geometries":[]},"transit":{"type":"GeometryCollection","geometries":[]},"pois":{"type":"GeometryCollection","geometries":[]},"boundaries":{"type":"GeometryCollection","geometries":[]},"roads":{"type":"GeometryCollection","geometries":[]},"earth":{"type":"GeometryCollection","geometries":[{"type":"MultiPolygon","properties":{"sort_rank":10,"source":"naturalearthdata.com","min_zoom":0,"kind":"earth","area":198841645716179},"arcs":[[[2]]]}]},"landuse":{"type":"GeometryCollection","geometries":[]}},"type":"Topology","transform":{"translate":[135.0,-66.5132604431],"scale":[0.0054931641,0.0026212616]},"arcs":[[[558,0],[-25,21],[-32,20],[-76,23],[-81,2],[-27,-26],[-34,-12],[-66,56],[-33,10],[-83,33],[-37,20],[-64,-71],[0,4020],[4096,0],[0,-4096],[-3538,0]],[[0,76],[64,71],[37,-20],[83,-33],[33,-10],[66,-56],[34,12],[27,26],[81,-2],[76,-23],[32,-20],[25,-21]],[[558,0],[-558,0],[0,76],[64,71],[37,-20],[83,-33],[33,-10],[66,-56],[34,12],[27,26],[81,-2],[76,-23],[32,-20],[25,-21]]]}