{"objects":{"water":{"type":"GeometryCollection","geometries":[{"type":"Polygon","properties":{"name:pt":null,"collision_rank":400,"name:nl":"Lake Mogotoyevo","name:id":null,"name:hi":null,"name:tr":null,"name:ar":null,"min_zoom":4.7,"name:it":"lago Mogotoevo","name:vi":null,"name:ru":"\u041c\u043e\u0433\u043e\u0442\u043e\u0435\u0432\u043e","name:sv":null,"name:pl":null,"name:hu":null,"id":141,"name:ja":null,"name:el":null,"kind":"lake","name:en":"Lake Mogotoyevo","name":"Ozero Mogotoyevo","area":2995250000,"sort_rank":204,"name:bn":null,"name:de":null,"name:ko":null,"name:fr":null,"source":"naturalearthdata.com","wikidata_id":"Q2639916","name:zh":"\u83ab\u6208\u6258\u8036\u6c83\u6e56","name:es":null},"arcs":[[0]]},{"type":"MultiPolygon","properties":{"source":"naturalearthdata.com","kind":"ocean","area":990044000000000,"sort_rank":200,"min_zoom":0,"id":1},"arcs":[[[1],[2],[3]]]},{"type":"Polygon","properties":{"name:pt":null,"collision_rank":400,"name:nl":null,"name:id":null,"name:hi":null,"name:tr":null,"name:ar":null,"min_zoom":4.7,"name:it":null,"name:vi":null,"name:ru":"\u0411\u0443\u0441\u0442\u0430\u0445","name:sv":null,"name:pl":null,"name:hu":null,"id":187,"name:ja":null,"name:el":null,"kind":"lake","name:en":"Lake Bustakh","name":"Ozero Bustakh","area":2421510000,"sort_rank":204,"name:bn":null,"name:de":null,"name:ko":null,"name:fr":null,"source":"naturalearthdata.com","wikidata_id":"Q2996806","name:zh":"\u5e03\u65af\u5854\u8d6b\u6e56","name:es":null},"arcs":[[4]]},{"type":"LineString","properties":{"source":"naturalearthdata.com","min_zoom":4.7,"area":2995250000,"sort_rank":367,"boundary":true,"id":141,"kind":"lake"},"arcs":[5]},{"type":"LineString","properties":{"source":"naturalearthdata.com","min_zoom":4.7,"area":2421510000,"sort_rank":367,"boundary":true,"id":187,"kind":"lake"},"arcs":[6]},{"type":"LineString","properties":{"source":"naturalearthdata.com","kind":"ocean","sort_rank":205,"boundary":true,"min_zoom":0,"id":43},"arcs":[7]},{"type":"LineString","properties":{"source":"naturalearthdata.com","kind":"ocean","sort_rank":205,"boundary":true,"min_zoom":0,"id":95},"arcs":[8]},{"type":"LineString","properties":{"source":"naturalearthdata.com","kind":"ocean","sort_rank":205,"boundary":true,"min_zoom":0,"id":684},"arcs":[9]},{"type":"LineString","properties":{"source":"naturalearthdata.com","kind":"ocean","sort_rank":205,"boundary":true,"min_zoom":0,"id":685},"arcs":[10]},{"type":"LineString","properties":{"source":"naturalearthdata.com","kind":"ocean","sort_rank":205,"boundary":true,"min_zoom":0,"id":1388},"arcs":[11]}]},"buildings":{"type":"GeometryCollection","geometries":[]},"places":{"type":"GeometryCollection","geometries":[]},"transit":{"type":"GeometryCollection","geometries":[]},"pois":{"type":"GeometryCollection","geometries":[]},"boundaries":{"type":"GeometryCollection","geometries":[]},"roads":{"type":"GeometryCollection","geometries":[]},"earth":{"type":"GeometryCollection","geometries":[{"type":"MultiPolygon","properties":{"sort_rank":10,"source":"naturalearthdata.com","kind":"earth","min_zoom":2.0,"area":650942670114},"arcs":[[[12]]]},{"type":"MultiPolygon","properties":{"sort_rank":10,"source":"naturalearthdata.com","min_zoom":3.0,"kind":"earth","area":331560690158},"arcs":[[[13]],[[14]]]},{"type":"MultiPolygon","properties":{"sort_rank":10,"source":"naturalearthdata.com","min_zoom":1.0,"kind":"earth","area":836420259990},"arcs":[[[15]]]},{"type":"MultiPolygon","properties":{"sort_rank":10,"source":"naturalearthdata.com","min_zoom":0,"kind":"earth","area":158482837729342},"arcs":[[[16]]]}]},"landuse":{"type":"GeometryCollection","geometries":[{"type":"MultiPolygon","properties":{"kind":"nature_reserve","protect_class":"7","area":476554318953,"sort_rank":23,"source":"openstreetmap.org","min_zoom":4.0,"tier":2,"id":-5637990},"arcs":[[[17]],[[18],[19]],[[20]],[[21]]]}]}},"type":"Topology","transform":{"translate":[135.0,66.5132604431],"scale":[0.0054931641,0.0018325886]},"arcs":[[[2607,3014],[-2,-16],[-11,-21],[-11,-26],[-14,-8],[-19,10],[-12,29],[-5,30],[3,26],[6,26],[4,13],[6,6],[11,-1],[14,-5],[12,-14],[11,-24],[7,-25]],[[1097,4096],[2999,0],[0,-1609],[-10,2],[-138,10],[-144,1],[-55,-31],[-103,-2],[-112,-33],[-113,-51],[-60,-1],[-121,-23],[-53,-1],[-136,81],[44,11],[17,11],[-61,106],[-32,38],[-80,47],[-32,4],[-27,-10],[-105,-52],[-27,-22],[53,61],[25,26],[26,38],[-6,24],[-6,11],[-98,-5],[-7,6],[-20,32],[-10,12],[-66,34],[-47,13],[-49,1],[-8,13],[5,16],[2,11],[15,18],[43,16],[109,9],[25,29],[-4,30],[-6,23],[-36,54],[-48,40],[-98,48],[-102,32],[-176,16],[-32,-7],[-24,-20],[-43,-51],[-96,-151],[-53,-62],[-49,-33],[-112,-28],[-21,6],[-15,25],[5,22],[10,21],[1,13],[-6,25],[3,14],[11,0],[27,-18],[25,-2],[63,28],[0,43],[-17,26],[9,60],[0,16],[9,10],[7,-2],[46,-43],[15,2],[17,-5],[-40,-105],[19,0],[53,49],[36,48],[37,62],[5,32],[-43,4],[-283,-23],[-104,-47],[-32,10],[-23,36],[35,4],[41,22],[35,42],[22,7],[57,-2],[46,-16],[140,-7],[4,50],[-31,16],[-68,14],[-41,25],[-52,15],[-115,22],[-48,18],[-114,16],[-30,14],[-265,12],[-98,37],[-38,38],[-92,18],[-18,0],[-6,-10],[-4,-16],[58,-69],[2,-47],[18,-24],[-68,-37],[-47,-14],[-154,2],[-24,-16],[-60,-75],[1,-36],[5,-55],[47,0],[13,24],[20,10],[95,-9],[9,-10],[-31,-16],[-31,-7],[-37,-82],[-51,-26],[35,-13],[31,-23],[-5,-100],[44,-78],[8,-36],[-64,-2],[-57,-24],[-20,0],[-37,61],[-41,40],[-20,3],[-26,-40],[-38,22],[-15,-3],[-21,-17],[-13,-22],[-10,-34],[-12,-18],[-2,-25],[19,-11],[14,-3],[39,-18],[-40,-10],[-11,-12],[-4,-13],[-30,-19],[10,-18],[13,-14],[4,-14],[-10,-5],[-26,17],[-26,24],[-43,49],[-18,33],[-37,31],[-129,85],[-58,26],[-37,6],[-59,-11],[-37,-36],[-61,-16],[-4,-3],[0,1370],[149,0],[42,-49],[13,-24],[14,15],[11,39],[-13,19],[726,0],[2,-8],[41,-45],[18,-2],[91,44],[3,11]],[[1216,4033],[-67,-18],[-22,3],[-19,-6],[-19,-19],[-18,-29],[-34,-81],[-19,-35],[-38,-45],[-42,-14],[-42,-5],[-43,-12],[18,-39],[26,0],[18,4],[67,40],[49,9],[16,-3],[79,-31],[75,-43],[96,-16],[40,-15],[44,0],[47,-5],[64,-13],[47,6],[7,8],[-5,116],[-10,34],[-12,26],[-128,128],[-37,26],[-46,25],[-46,10],[-46,-6]],[[378,2722],[34,-25],[15,3],[10,9],[10,3],[10,-5],[19,-22],[18,-6],[45,46],[-5,19],[-14,22],[-7,3],[-98,-4],[-20,-13],[-7,0],[-9,-8],[-3,-7],[2,-15]],[[1310,3301],[-8,-8],[-17,-17],[-18,-18],[-24,-10],[-25,-1],[-9,7],[-1,13],[-2,11],[-3,11],[-4,16],[7,5],[31,8],[31,8],[30,-8],[12,-17]],[[2607,3014],[-2,-16],[-11,-21],[-11,-26],[-14,-8],[-19,10],[-12,29],[-5,30],[3,26],[6,26],[4,13],[6,6],[11,-1],[14,-5],[12,-14],[11,-24],[7,-25]],[[1310,3301],[-8,-8],[-17,-17],[-18,-18],[-24,-10],[-25,-1],[-9,7],[-1,13],[-2,11],[-3,11],[-4,16],[7,5],[31,8],[31,8],[30,-8],[12,-17]],[[942,4096],[2,-8],[41,-45],[18,-2],[91,44],[3,11]],[[1519,3850],[-128,128],[-37,26],[-46,25],[-46,10],[-46,-6],[-67,-18],[-22,3],[-19,-6],[-19,-19],[-18,-29],[-34,-81],[-19,-35],[-38,-45],[-42,-14],[-42,-5],[-43,-12],[18,-39],[26,0],[18,4],[67,40],[49,9],[16,-3],[79,-31],[75,-43],[96,-16],[40,-15],[44,0],[47,-5],[64,-13],[47,6],[7,8],[-5,116],[-10,34],[-12,26]],[[149,4096],[42,-49],[13,-24],[14,15],[11,39],[-13,19]],[[415,2765],[-20,-13],[-7,0],[-9,-8],[-3,-7],[2,-15],[34,-25],[15,3],[10,9],[10,3],[10,-5],[19,-22],[18,-6],[45,46],[-5,19],[-14,22],[-7,3],[-98,-4]],[[4096,2487],[-10,2],[-138,10],[-144,1],[-55,-31],[-103,-2],[-112,-33],[-113,-51],[-60,-1],[-121,-23],[-53,-1],[-136,81],[44,11],[17,11],[-61,106],[-32,38],[-80,47],[-32,4],[-27,-10],[-105,-52],[-27,-22],[53,61],[25,26],[26,38],[-6,24],[-6,11],[-98,-5],[-7,6],[-20,32],[-10,12],[-66,34],[-47,13],[-49,1],[-8,13],[5,16],[2,11],[15,18],[43,16],[109,9],[25,29],[-4,30],[-6,23],[-36,54],[-48,40],[-98,48],[-102,32],[-176,16],[-32,-7],[-24,-20],[-43,-51],[-96,-151],[-53,-62],[-49,-33],[-112,-28],[-21,6],[-15,25],[5,22],[10,21],[1,13],[-6,25],[3,14],[11,0],[27,-18],[25,-2],[63,28],[0,43],[-17,26],[9,60],[0,16],[9,10],[7,-2],[46,-43],[15,2],[17,-5],[-40,-105],[19,0],[53,49],[36,48],[37,62],[5,32],[-43,4],[-283,-23],[-104,-47],[-32,10],[-23,36],[35,4],[41,22],[35,42],[22,7],[57,-2],[46,-16],[140,-7],[4,50],[-31,16],[-68,14],[-41,25],[-52,15],[-115,22],[-48,18],[-114,16],[-30,14],[-265,12],[-98,37],[-38,38],[-92,18],[-18,0],[-6,-10],[-4,-16],[58,-69],[2,-47],[18,-24],[-68,-37],[-47,-14],[-154,2],[-24,-16],[-60,-75],[1,-36],[5,-55],[47,0],[13,24],[20,10],[95,-9],[9,-10],[-31,-16],[-31,-7],[-37,-82],[-51,-26],[35,-13],[31,-23],[-5,-100],[44,-78],[8,-36],[-64,-2],[-57,-24],[-20,0],[-37,61],[-41,40],[-20,3],[-26,-40],[-38,22],[-15,-3],[-21,-17],[-13,-22],[-10,-34],[-12,-18],[-2,-25],[19,-11],[14,-3],[39,-18],[-40,-10],[-11,-12],[-4,-13],[-30,-19],[10,-18],[13,-14],[4,-14],[-10,-5],[-26,17],[-26,24],[-43,49],[-18,33],[-37,31],[-129,85],[-58,26],[-37,6],[-59,-11],[-37,-36],[-61,-16],[-4,-3]],[[942,4096],[155,0],[-3,-11],[-91,-44],[-18,2],[-41,45],[-2,8]],[[539,2725],[-45,-46],[-18,6],[-19,22],[-10,5],[-10,-3],[-10,-9],[-15,-3],[-34,25],[-2,15],[3,7],[9,8],[7,0],[20,13],[98,4],[7,-3],[14,-22],[5,-19]],[[149,4096],[67,0],[13,-19],[-11,-39],[-14,-15],[-13,24],[-42,49]],[[1308,4029],[46,-25],[37,-26],[128,-128],[12,-26],[10,-34],[5,-116],[-7,-8],[-47,-6],[-64,13],[-47,5],[-44,0],[-40,15],[-96,16],[-75,43],[-79,31],[-16,3],[-49,-9],[-67,-40],[-18,-4],[-26,0],[-18,39],[43,12],[42,5],[42,14],[38,45],[19,35],[34,81],[18,29],[19,19],[19,6],[22,-3],[67,18],[46,6],[46,-10]],[[4096,2487],[0,-2487],[-4096,0],[0,2726],[4,3],[61,16],[37,36],[59,11],[37,-6],[58,-26],[129,-85],[37,-31],[18,-33],[43,-49],[26,-24],[26,-17],[10,5],[-4,14],[-13,14],[-10,18],[30,19],[4,13],[11,12],[40,10],[-39,18],[-14,3],[-19,11],[2,25],[12,18],[10,34],[13,22],[21,17],[15,3],[38,-22],[26,40],[20,-3],[41,-40],[37,-61],[20,0],[57,24],[64,2],[-8,36],[-44,78],[5,100],[-31,23],[-35,13],[51,26],[37,82],[31,7],[31,16],[-9,10],[-95,9],[-20,-10],[-13,-24],[-47,0],[-5,55],[-1,36],[60,75],[24,16],[154,-2],[47,14],[68,37],[-18,24],[-2,47],[-58,69],[4,16],[6,10],[18,0],[92,-18],[38,-38],[98,-37],[265,-12],[30,-14],[114,-16],[48,-18],[115,-22],[52,-15],[41,-25],[68,-14],[31,-16],[-4,-50],[-140,7],[-46,16],[-57,2],[-22,-7],[-35,-42],[-41,-22],[-35,-4],[23,-36],[32,-10],[104,47],[283,23],[43,-4],[-5,-32],[-37,-62],[-36,-48],[-53,-49],[-19,0],[40,105],[-17,5],[-15,-2],[-46,43],[-7,2],[-9,-10],[0,-16],[-9,-60],[17,-26],[0,-43],[-63,-28],[-25,2],[-27,18],[-11,0],[-3,-14],[6,-25],[-1,-13],[-10,-21],[-5,-22],[15,-25],[21,-6],[112,28],[49,33],[53,62],[96,151],[43,51],[24,20],[32,7],[176,-16],[102,-32],[98,-48],[48,-40],[36,-54],[6,-23],[4,-30],[-25,-29],[-109,-9],[-43,-16],[-15,-18],[-2,-11],[-5,-16],[8,-13],[49,-1],[47,-13],[66,-34],[10,-12],[20,-32],[7,-6],[98,5],[6,-11],[6,-24],[-26,-38],[-25,-26],[-53,-61],[27,22],[105,52],[27,10],[32,-4],[80,-47],[32,-38],[61,-106],[-17,-11],[-44,-11],[136,-81],[53,1],[121,23],[60,1],[113,51],[112,33],[103,2],[55,31],[144,-1],[138,-10],[10,-2]],[[2574,2828],[76,-30],[123,17],[59,-59],[43,-5],[104,-72],[79,-102],[103,-214],[34,-11],[-114,-103],[-478,473],[-29,106]],[[1568,2728],[72,64],[36,-2],[0,1],[-18,4],[-79,81],[-55,-40],[16,-13],[-20,-27],[-20,22],[-13,-13],[-6,34],[-16,-8],[78,159],[-16,32],[52,11],[24,59],[19,-15],[31,13],[-8,15],[30,-13],[17,51],[39,-22],[0,1],[87,185],[391,-146],[227,8],[219,-98],[66,-66],[32,-93],[-43,-56],[-34,-1],[-54,45],[-37,-30],[-390,173],[-60,4],[53,82],[-163,-243],[1,0],[46,40],[-18,-113],[-74,0],[1,-35],[39,-23],[-36,-43],[10,-40],[79,-37],[28,-91],[44,48],[83,33],[54,-7],[66,-77],[36,3],[-2,-45],[57,-55],[0,-9],[-93,-69],[-67,34],[-3,-53],[-35,-19],[-29,26],[-49,-18],[-10,15],[-17,-23],[-55,106],[-42,-50],[-75,-9],[-48,43],[-38,-9],[-36,45],[-112,-81],[10,57],[-44,24],[-6,-16],[-48,43],[18,-3],[-19,69],[44,34],[-33,16],[27,31],[-1,0],[-32,-2],[-13,38],[-61,0],[-4,64]],[[1890,2801],[86,41],[27,24],[-113,-65]],[[1638,2180],[72,33],[19,-26],[-11,-30],[-77,-3],[-3,26]],[[1255,2168],[17,114],[27,10],[8,-19],[31,28],[95,-8],[19,-18],[-17,-36],[71,-38],[-131,-135],[-47,6],[-8,56],[-54,4],[-11,36]]]}