{"objects":{"water":{"type":"GeometryCollection","geometries":[{"type":"MultiPolygon","properties":{"source":"naturalearthdata.com","kind":"ocean","area":990044000000000,"sort_rank":200,"min_zoom":0,"id":1},"arcs":[[[0],[1],[2],[3],[4],[5],[6],[7],[8],[9],[10]]]},{"type":"LineString","properties":{"source":"naturalearthdata.com","kind":"ocean","sort_rank":205,"boundary":true,"min_zoom":0,"id":166},"arcs":[11]},{"type":"LineString","properties":{"source":"naturalearthdata.com","kind":"ocean","sort_rank":205,"boundary":true,"min_zoom":0,"id":167},"arcs":[12]},{"type":"LineString","properties":{"source":"naturalearthdata.com","kind":"ocean","sort_rank":205,"boundary":true,"min_zoom":0,"id":168},"arcs":[13]},{"type":"LineString","properties":{"source":"naturalearthdata.com","kind":"ocean","sort_rank":205,"boundary":true,"min_zoom":0,"id":398},"arcs":[14]},{"type":"LineString","properties":{"source":"naturalearthdata.com","kind":"ocean","sort_rank":205,"boundary":true,"min_zoom":0,"id":399},"arcs":[15]},{"type":"LineString","properties":{"source":"naturalearthdata.com","kind":"ocean","sort_rank":205,"boundary":true,"min_zoom":0,"id":400},"arcs":[16]},{"type":"LineString","properties":{"source":"naturalearthdata.com","kind":"ocean","sort_rank":205,"boundary":true,"min_zoom":0,"id":401},"arcs":[17]},{"type":"LineString","properties":{"source":"naturalearthdata.com","kind":"ocean","sort_rank":205,"boundary":true,"min_zoom":0,"id":402},"arcs":[18]},{"type":"LineString","properties":{"source":"naturalearthdata.com","kind":"ocean","sort_rank":205,"boundary":true,"min_zoom":0,"id":1413},"arcs":[19]},{"type":"LineString","properties":{"source":"naturalearthdata.com","kind":"ocean","sort_rank":205,"boundary":true,"min_zoom":0,"id":1414},"arcs":[20]}]},"buildings":{"type":"GeometryCollection","geometries":[]},"places":{"type":"GeometryCollection","geometries":[]},"transit":{"type":"GeometryCollection","geometries":[]},"pois":{"type":"GeometryCollection","geometries":[]},"boundaries":{"type":"GeometryCollection","geometries":[]},"roads":{"type":"GeometryCollection","geometries":[]},"earth":{"type":"GeometryCollection","geometries":[{"type":"MultiPolygon","properties":{"sort_rank":10,"source":"naturalearthdata.com","min_zoom":3.0,"kind":"earth","area":331560690158},"arcs":[[[21]],[[22]],[[23]]]}]},"landuse":{"type":"GeometryCollection","geometries":[{"type":"MultiPolygon","properties":{"kind":"nature_reserve","protect_class":"4","area":851317118699,"sort_rank":23,"source":"openstreetmap.org","min_zoom":4.0,"tier":2,"id":-9173183},"arcs":[[[24]]]}]}},"type":"Topology","transform":{"translate":[135.0,-0.0],"scale":[0.0054931641,0.0053571889]},"arcs":[[[0,0],[0,4096],[4096,0],[0,-4096],[-4096,0]],[[1939,3500],[5,-5],[5,7],[0,6],[-3,2],[-8,1],[1,-11]],[[1964,3389],[-11,-18],[9,4],[11,11],[-6,6],[-3,-3]],[[1940,3049],[6,0],[4,1],[1,4],[-4,4],[-12,-1],[1,-5],[4,-3]],[[1948,2821],[9,-1],[0,5],[6,8],[1,9],[6,8],[-6,-2],[-14,-8],[-5,-17],[3,-2]],[[1934,2811],[-7,-5],[1,-6],[5,-15],[8,9],[-3,17],[-4,0]],[[1853,2636],[7,-2],[9,9],[0,4],[-6,2],[-15,-5],[1,-5],[4,-3]],[[1791,2543],[-9,-18],[-25,-18],[0,-22],[2,-4],[7,-6],[7,0],[7,28],[30,30],[-6,5],[-6,3],[-7,2]],[[573,1789],[-6,-6],[-5,-11],[-5,-9],[1,-5],[14,15],[7,2],[6,7],[-5,9],[-7,-2]],[[3069,1387],[1,-1],[3,1],[6,4],[-1,2],[-5,1],[-3,0],[-1,-2],[0,-5]],[[3023,1377],[0,-4],[-6,-1],[-1,-1],[2,-1],[11,-1],[2,2],[0,3],[-1,3],[-3,3],[-4,-1],[-2,-2],[2,0]],[[1944,3495],[5,7],[0,6],[-3,2],[-8,1],[1,-11],[5,-5]],[[1935,3057],[1,-5],[4,-3],[6,0],[4,1],[1,4],[-4,4],[-12,-1]],[[1848,2644],[1,-5],[4,-3],[7,-2],[9,9],[0,4],[-6,2],[-15,-5]],[[1953,3371],[9,4],[11,11],[-6,6],[-3,-3],[-11,-18]],[[1950,2840],[-5,-17],[3,-2],[9,-1],[0,5],[6,8],[1,9],[6,8],[-6,-2],[-14,-8]],[[1782,2525],[-25,-18],[0,-22],[2,-4],[7,-6],[7,0],[7,28],[30,30],[-6,5],[-6,3],[-7,2],[-9,-18]],[[1927,2806],[1,-6],[5,-15],[8,9],[-3,17],[-4,0],[-7,-5]],[[562,1772],[-5,-9],[1,-5],[14,15],[7,2],[6,7],[-5,9],[-7,-2],[-6,-6],[-5,-11]],[[3021,1377],[2,0],[0,-4],[-6,-1],[-1,-1],[2,-1],[11,-1],[2,2],[0,3],[-1,3],[-3,3],[-4,-1],[-2,-2]],[[3073,1394],[-3,0],[-1,-2],[0,-5],[1,-1],[3,1],[6,4],[-1,2],[-5,1]],[[572,1773],[-14,-15],[-1,5],[5,9],[5,11],[6,6],[7,2],[5,-9],[-6,-7],[-7,-2]],[[1773,2475],[-7,0],[-7,6],[-2,4],[0,22],[25,18],[9,18],[7,-2],[6,-3],[6,-5],[-30,-30],[-7,-28]],[[1957,2825],[0,-5],[-9,1],[-3,2],[5,17],[14,8],[6,2],[-6,-8],[-1,-9],[-6,-8]],[[1834,4096],[392,0],[27,-242],[55,-123],[-2,-100],[27,-58],[100,-38],[64,-181],[-25,-240],[-88,-234],[-311,-573],[-166,-147],[-441,-114],[-131,155],[540,142],[399,611],[-28,622],[-68,232],[-222,147],[-122,141]]]}