{"objects":{"water":{"type":"GeometryCollection","geometries":[{"type":"MultiPolygon","properties":{"source":"naturalearthdata.com","kind":"ocean","area":990044000000000,"sort_rank":200,"min_zoom":0,"id":1},"arcs":[[[0]],[[1]],[[2]],[[3]],[[4]],[[5]],[[6]],[[7]]]},{"type":"MultiPolygon","properties":{"sort_rank":204,"source":"naturalearthdata.com","kind":"lake","min_zoom":4.0,"area":24492695661},"arcs":[[[8]]]},{"type":"LineString","properties":{"source":"naturalearthdata.com","kind":"lake","area":12832100000,"sort_rank":367,"boundary":true,"min_zoom":4.0,"id":116},"arcs":[9]},{"type":"MultiLineString","properties":{"source":"naturalearthdata.com","kind":"ocean","sort_rank":205,"boundary":true,"min_zoom":0,"id":1199},"arcs":[[10],[11],[12],[13],[14],[15],[16],[17],[18]]},{"type":"LineString","properties":{"source":"naturalearthdata.com","kind":"ocean","sort_rank":205,"boundary":true,"min_zoom":0,"id":1222},"arcs":[19]}]},"buildings":{"type":"GeometryCollection","geometries":[]},"places":{"type":"GeometryCollection","geometries":[]},"transit":{"type":"GeometryCollection","geometries":[]},"pois":{"type":"GeometryCollection","geometries":[]},"boundaries":{"type":"GeometryCollection","geometries":[]},"roads":{"type":"GeometryCollection","geometries":[]},"earth":{"type":"GeometryCollection","geometries":[{"type":"MultiPolygon","properties":{"sort_rank":10,"source":"naturalearthdata.com","min_zoom":0,"kind":"earth","area":119982075948881},"arcs":[[[20]],[[21]]]}]},"landuse":{"type":"GeometryCollection","geometries":[]}},"type":"Topology","transform":{"translate":[-90.0,79.1713346408],"scale":[0.0054931641,0.0008557008]},"arcs":[[[4096,2029],[0,-2029],[-1274,0],[3,68],[-45,7],[-66,-37],[-48,29],[-45,13],[-63,84],[-31,17],[-32,102],[-69,75],[-33,12],[-8,28],[95,-20],[56,-25],[54,-49],[49,-20],[44,8],[84,44],[72,-6],[39,13],[32,30],[27,13],[73,-8],[19,11],[12,20],[10,36],[7,52],[-5,55],[-32,103],[-12,29],[-31,17],[-75,8],[-89,44],[-21,23],[48,45],[45,7],[62,-39],[65,-23],[184,-155],[41,-9],[45,17],[105,71],[16,24],[35,77],[0,32],[-31,36],[-14,6],[109,101],[36,85],[-2,27],[-34,29],[-22,4],[-134,-60],[-61,18],[-21,23],[2,20],[23,19],[24,5],[25,-9],[34,12],[68,48],[152,54],[9,52],[-83,266],[-8,40],[14,-14],[43,-80],[47,-72],[35,-28],[39,-8],[34,19],[27,47],[80,191],[60,108],[156,211],[50,56]],[[4096,2630],[0,-101],[-149,-87],[-41,-15],[-32,15],[6,38],[216,150]],[[3939,4096],[157,0],[0,-15],[-43,-13],[-79,-7],[-54,8],[19,27]],[[2467,4096],[114,0],[33,-38],[14,-41],[-33,-42],[-48,-44],[-25,17],[-18,64],[-16,47],[-16,31],[-5,6]],[[1986,4096],[28,0],[-18,-2],[-10,2]],[[0,3182],[0,914],[1630,0],[43,-105],[-10,-17],[-59,26],[-71,57],[-38,7],[-60,-24],[-1,-31],[30,-45],[50,-52],[-6,-15],[-56,-14],[-45,-34],[-33,-44],[1,-38],[35,-68],[47,-68],[96,-101],[244,-191],[91,-112],[37,-91],[-7,-4],[-40,40],[-41,59],[-44,49],[-73,31],[-188,136],[-126,114],[-47,34],[-19,-2],[-13,-20],[-7,-38],[17,-44],[60,-77],[-5,-31],[-51,13],[-26,21],[-43,54],[-30,53],[-75,163],[-43,28],[-99,28],[-33,28],[-35,46],[-28,14],[-69,-52],[-37,-45],[-57,-88],[-23,-10],[-49,-41],[-78,-34],[6,-37],[232,-167],[25,-24],[22,-34],[1,-13],[-65,-1],[-25,-32],[-19,-2],[-42,26],[-52,59],[-40,22],[-45,7],[-38,-20],[-30,-49],[-3,-39],[-37,49],[-33,63],[-43,36],[-77,13],[-92,-41],[-56,-50],[-51,-73],[-41,-46],[-46,-26],[-67,0]],[[0,2814],[0,64],[32,1],[-4,-27],[-28,-38]],[[0,1574],[0,1070],[186,126],[91,27],[69,-7],[91,-38],[-3,-20],[-93,11],[-90,-20],[-49,-32],[-98,-101],[-45,-69],[7,-31],[78,-61],[-10,-13],[-55,-14],[-69,-63],[-7,-56],[35,-70],[31,-38],[41,-8],[93,38],[293,26],[119,49],[136,139],[86,51],[36,12],[48,-10],[-26,-46],[-132,-145],[-122,-102],[-82,-41],[-84,-15],[-186,14],[-137,-69],[-18,-31],[9,-38],[13,-33],[15,-28],[25,-28],[54,-42],[72,-77],[41,-33],[54,-23],[69,16],[46,66],[154,262],[48,72],[34,27],[209,74],[245,58],[-11,-52],[-243,-71],[-103,-64],[-71,-74],[-112,-158],[-34,-72],[-30,-75],[-2,-39],[15,-30],[52,-45],[27,-5],[68,23],[76,-65],[30,-6],[132,7],[36,13],[26,21],[35,54],[44,84],[44,47],[113,26],[52,31],[50,11],[-21,-51],[-79,-115],[-21,-62],[50,-21],[44,2],[149,72],[46,5],[53,33],[159,127],[68,91],[28,47],[11,32],[13,60],[13,89],[17,61],[20,33],[23,12],[26,-10],[36,38],[69,126],[70,84],[197,116],[-26,-52],[-92,-76],[-137,-179],[-32,-62],[-30,-83],[-10,-50],[-6,-57],[30,-36],[100,-19],[112,1],[49,-11],[49,-21],[-2,-16],[-56,-26],[-62,-9],[-160,-59],[-226,-159],[-8,-27],[-69,-113],[-169,-97],[-283,-82],[-46,-25],[-36,-37],[4,-52],[51,-120],[64,-127],[86,-128],[39,-78],[52,-120],[33,-63],[31,-47],[53,-21],[78,4],[30,-11],[-27,-40],[-37,-34],[-35,-6],[-68,16],[-77,46],[-41,37],[-30,43],[-36,71],[-59,146],[-55,99],[-59,72],[-62,108],[-69,96],[-61,39],[-113,19],[-88,-8],[-209,56],[-35,-72],[-21,-157],[22,-123],[14,-202],[49,-120],[21,-25],[105,-37],[34,-30],[33,-61],[46,-137],[57,-138],[26,-88],[33,-89],[35,-63],[-284,0],[50,43],[20,30],[26,59],[-4,51],[-21,69],[-59,168],[-27,94],[-5,5],[-13,-24],[-10,-26],[-27,-101],[-10,-8],[-14,84],[-18,63],[-9,20],[-19,15],[-57,13],[-39,-57],[-11,-8],[-58,-23],[-10,11],[14,58],[14,38],[17,167],[13,104],[-18,85],[-23,89],[-23,4],[-58,38],[-39,10],[-11,12],[10,42],[44,62],[2,24],[-3,110],[-2,55],[-6,27],[-52,51],[-30,16],[-54,-1],[-18,-12],[-22,-36],[-4,-46],[3,-68],[7,-40],[42,-35],[23,-69],[10,-48],[0,-16],[-24,26],[-38,-3],[-58,41],[-29,37],[-33,76],[-4,30],[13,84],[-1,21],[-8,18],[-1,15],[13,39],[-1,20],[-5,26],[-13,36],[-17,25],[-35,8],[-28,-9],[-22,-35],[-12,-3],[-25,23]],[[3124,2932],[40,29],[50,27],[503,222],[54,18],[58,8],[-93,-63],[-98,-54],[-401,-167],[-90,-33],[-4,9],[-19,4]],[[3124,2932],[40,29],[50,27],[503,222],[54,18],[58,8],[-93,-63],[-98,-54],[-401,-167],[-90,-33],[-4,9],[-19,4]],[[3874,2442],[6,38],[216,150]],[[4096,4081],[-43,-13],[-79,-7],[-54,8],[19,27]],[[2581,4096],[33,-38],[14,-41],[-33,-42],[-48,-44],[-25,17],[-18,64],[-16,47],[-16,31],[-5,6]],[[2014,4096],[-18,-2],[-10,2]],[[1630,4096],[43,-105],[-10,-17],[-59,26],[-71,57],[-38,7],[-60,-24],[-1,-31],[30,-45],[50,-52],[-6,-15],[-56,-14],[-45,-34],[-33,-44],[1,-38],[35,-68],[47,-68],[96,-101],[244,-191],[91,-112],[37,-91],[-7,-4],[-40,40],[-41,59],[-44,49],[-73,31],[-188,136],[-126,114],[-47,34],[-19,-2],[-13,-20],[-7,-38],[17,-44],[60,-77],[-5,-31],[-51,13],[-26,21],[-43,54],[-30,53],[-75,163],[-43,28],[-99,28],[-33,28],[-35,46],[-28,14],[-69,-52],[-37,-45],[-57,-88],[-23,-10],[-49,-41],[-78,-34],[6,-37],[232,-167],[25,-24],[22,-34],[1,-13],[-65,-1],[-25,-32],[-19,-2],[-42,26],[-52,59],[-40,22],[-45,7],[-38,-20],[-30,-49],[-3,-39],[-37,49],[-33,63],[-43,36],[-77,13],[-92,-41],[-56,-50],[-51,-73],[-41,-46],[-46,-26],[-67,0]],[[0,2878],[32,1],[-4,-27],[-28,-38]],[[0,2644],[186,126],[91,27],[69,-7],[91,-38],[-3,-20],[-93,11],[-90,-20],[-49,-32],[-98,-101],[-45,-69],[7,-31],[78,-61],[-10,-13],[-55,-14],[-69,-63],[-7,-56],[35,-70],[31,-38],[41,-8],[93,38],[293,26],[119,49],[136,139],[86,51],[36,12],[48,-10],[-26,-46],[-132,-145],[-122,-102],[-82,-41],[-84,-15],[-186,14],[-137,-69],[-18,-31],[9,-38],[13,-33],[15,-28],[25,-28],[54,-42],[72,-77],[41,-33],[54,-23],[69,16],[46,66],[154,262],[48,72],[34,27],[209,74],[245,58],[-11,-52],[-243,-71],[-103,-64],[-71,-74],[-112,-158],[-34,-72],[-30,-75],[-2,-39],[15,-30],[52,-45],[27,-5],[68,23],[76,-65],[30,-6],[132,7],[36,13],[26,21],[35,54],[44,84],[44,47],[113,26],[52,31],[50,11],[-21,-51],[-79,-115],[-21,-62],[50,-21],[44,2],[149,72],[46,5],[53,33],[159,127],[68,91],[28,47],[11,32],[13,60],[13,89],[17,61],[20,33],[23,12],[26,-10],[36,38],[69,126],[70,84],[197,116],[-26,-52],[-92,-76],[-137,-179],[-32,-62],[-30,-83],[-10,-50],[-6,-57],[30,-36],[100,-19],[112,1],[49,-11],[49,-21],[-2,-16],[-56,-26],[-62,-9],[-160,-59],[-226,-159],[-8,-27],[-69,-113],[-169,-97],[-283,-82],[-46,-25],[-36,-37],[4,-52],[51,-120],[64,-127],[86,-128],[39,-78],[52,-120],[33,-63],[31,-47],[53,-21],[78,4],[30,-11],[-27,-40],[-37,-34],[-35,-6],[-68,16],[-77,46],[-41,37],[-30,43],[-36,71],[-59,146],[-55,99],[-59,72],[-62,108],[-69,96],[-61,39],[-113,19],[-88,-8],[-209,56],[-35,-72],[-21,-157],[22,-123],[14,-202],[49,-120],[21,-25],[105,-37],[34,-30],[33,-61],[46,-137],[57,-138],[26,-88],[33,-89],[35,-63]],[[2822,0],[3,68],[-45,7],[-66,-37],[-48,29],[-45,13],[-63,84],[-31,17],[-32,102],[-69,75],[-33,12],[-8,28],[95,-20],[56,-25],[54,-49],[49,-20],[44,8],[84,44],[72,-6],[39,13],[32,30],[27,13],[73,-8],[19,11],[12,20],[10,36],[7,52],[-5,55],[-32,103],[-12,29],[-31,17],[-75,8],[-89,44],[-21,23],[48,45],[45,7],[62,-39],[65,-23],[184,-155],[41,-9],[45,17],[105,71],[16,24],[35,77],[0,32],[-31,36],[-14,6],[109,101],[36,85],[-2,27],[-34,29],[-22,4],[-134,-60],[-61,18],[-21,23],[2,20],[23,19],[24,5],[25,-9],[34,12],[68,48],[152,54],[9,52],[-83,266],[-8,40],[14,-14],[43,-80],[47,-72],[35,-28],[39,-8],[34,19],[27,47],[80,191],[60,108],[156,211],[50,56]],[[4096,2529],[-149,-87],[-41,-15],[-32,15]],[[807,0],[50,43],[20,30],[26,59],[-4,51],[-21,69],[-59,168],[-27,94],[-5,5],[-13,-24],[-10,-26],[-27,-101],[-10,-8],[-14,84],[-18,63],[-9,20],[-19,15],[-57,13],[-39,-57],[-11,-8],[-58,-23],[-10,11],[14,58],[14,38],[17,167],[13,104],[-18,85],[-23,89],[-23,4],[-58,38],[-39,10],[-11,12],[10,42],[44,62],[2,24],[-3,110],[-2,55],[-6,27],[-52,51],[-30,16],[-54,-1],[-18,-12],[-22,-36],[-4,-46],[3,-68],[7,-40],[42,-35],[23,-69],[10,-48],[0,-16],[-24,26],[-38,-3],[-58,41],[-29,37],[-33,76],[-4,30],[13,84],[-1,21],[-8,18],[-1,15],[13,39],[-1,20],[-5,26],[-13,36],[-17,25],[-35,8],[-28,-9],[-22,-35],[-12,-3],[-25,23]],[[807,0],[-807,0],[0,1574],[25,-23],[12,3],[22,35],[28,9],[35,-8],[17,-25],[13,-36],[5,-26],[1,-20],[-13,-39],[1,-15],[8,-18],[1,-21],[-13,-84],[4,-30],[33,-76],[29,-37],[58,-41],[38,3],[24,-26],[0,16],[-10,48],[-23,69],[-42,35],[-7,40],[-3,68],[4,46],[22,36],[18,12],[54,1],[30,-16],[52,-51],[6,-27],[2,-55],[3,-110],[-2,-24],[-44,-62],[-10,-42],[11,-12],[39,-10],[58,-38],[23,-4],[23,-89],[18,-85],[-13,-104],[-17,-167],[-14,-38],[-14,-58],[10,-11],[58,23],[11,8],[39,57],[57,-13],[19,-15],[9,-20],[18,-63],[14,-84],[10,8],[27,101],[10,26],[13,24],[5,-5],[27,-94],[59,-168],[21,-69],[4,-51],[-26,-59],[-20,-30],[-50,-43]],[[4096,2529],[0,-500],[-50,-56],[-156,-211],[-60,-108],[-80,-191],[-27,-47],[-34,-19],[-39,8],[-35,28],[-47,72],[-43,80],[-14,14],[8,-40],[83,-266],[-9,-52],[-152,-54],[-68,-48],[-34,-12],[-25,9],[-24,-5],[-23,-19],[-2,-20],[21,-23],[61,-18],[134,60],[22,-4],[34,-29],[2,-27],[-36,-85],[-109,-101],[14,-6],[31,-36],[0,-32],[-35,-77],[-16,-24],[-105,-71],[-45,-17],[-41,9],[-184,155],[-65,23],[-62,39],[-45,-7],[-48,-45],[21,-23],[89,-44],[75,-8],[31,-17],[12,-29],[32,-103],[5,-55],[-7,-52],[-10,-36],[-12,-20],[-19,-11],[-73,8],[-27,-13],[-32,-30],[-39,-13],[-72,6],[-84,-44],[-44,-8],[-49,20],[-54,49],[-56,25],[-95,20],[8,-28],[33,-12],[69,-75],[32,-102],[31,-17],[63,-84],[45,-13],[48,-29],[66,37],[45,-7],[-3,-68],[-1731,0],[-35,63],[-33,89],[-26,88],[-57,138],[-46,137],[-33,61],[-34,30],[-105,37],[-21,25],[-49,120],[-14,202],[-22,123],[21,157],[35,72],[209,-56],[88,8],[113,-19],[61,-39],[69,-96],[62,-108],[59,-72],[55,-99],[59,-146],[36,-71],[30,-43],[41,-37],[77,-46],[68,-16],[35,6],[37,34],[27,40],[-30,11],[-78,-4],[-53,21],[-31,47],[-33,63],[-52,120],[-39,78],[-86,128],[-64,127],[-51,120],[-4,52],[36,37],[46,25],[283,82],[169,97],[69,113],[8,27],[226,159],[160,59],[62,9],[56,26],[2,16],[-49,21],[-49,11],[-112,-1],[-100,19],[-30,36],[6,57],[10,50],[30,83],[32,62],[137,179],[92,76],[26,52],[-197,-116],[-70,-84],[-69,-126],[-36,-38],[-26,10],[-23,-12],[-20,-33],[-17,-61],[-13,-89],[-13,-60],[-11,-32],[-28,-47],[-68,-91],[-159,-127],[-53,-33],[-46,-5],[-149,-72],[-44,-2],[-50,21],[21,62],[79,115],[21,51],[-50,-11],[-52,-31],[-113,-26],[-44,-47],[-44,-84],[-35,-54],[-26,-21],[-36,-13],[-132,-7],[-30,6],[-76,65],[-68,-23],[-27,5],[-52,45],[-15,30],[2,39],[30,75],[34,72],[112,158],[71,74],[103,64],[243,71],[11,52],[-245,-58],[-209,-74],[-34,-27],[-48,-72],[-154,-262],[-46,-66],[-69,-16],[-54,23],[-41,33],[-72,77],[-54,42],[-25,28],[-15,28],[-13,33],[-9,38],[18,31],[137,69],[186,-14],[84,15],[82,41],[122,102],[132,145],[26,46],[-48,10],[-36,-12],[-86,-51],[-136,-139],[-119,-49],[-293,-26],[-93,-38],[-41,8],[-31,38],[-35,70],[7,56],[69,63],[55,14],[10,13],[-78,61],[-7,31],[45,69],[98,101],[49,32],[90,20],[93,-11],[3,20],[-91,38],[-69,7],[-91,-27],[-186,-126],[0,170],[28,38],[4,27],[-32,-1],[0,304],[67,0],[46,26],[41,46],[51,73],[56,50],[92,41],[77,-13],[43,-36],[33,-63],[37,-49],[3,39],[30,49],[38,20],[45,-7],[40,-22],[52,-59],[42,-26],[19,2],[25,32],[65,1],[-1,13],[-22,34],[-25,24],[-232,167],[-6,37],[78,34],[49,41],[23,10],[57,88],[37,45],[69,52],[28,-14],[35,-46],[33,-28],[99,-28],[43,-28],[75,-163],[30,-53],[43,-54],[26,-21],[51,-13],[5,31],[-60,77],[-17,44],[7,38],[13,20],[19,2],[47,-34],[126,-114],[188,-136],[73,-31],[44,-49],[41,-59],[40,-40],[7,4],[-37,91],[-91,112],[-244,191],[-96,101],[-47,68],[-35,68],[-1,38],[33,44],[45,34],[56,14],[6,15],[-50,52],[-30,45],[1,31],[60,24],[38,-7],[71,-57],[59,-26],[10,17],[-43,105],[356,0],[10,-2],[18,2],[453,0],[5,-6],[16,-31],[16,-47],[18,-64],[25,-17],[48,44],[33,42],[-14,41],[-33,38],[1358,0],[-19,-27],[54,-8],[79,7],[43,13],[0,-1451],[-216,-150],[-6,-38],[32,-15],[41,15],[149,87]]]}