{"objects":{"water":{"type":"GeometryCollection","geometries":[{"type":"Polygon","properties":{"source":"naturalearthdata.com","kind":"ocean","area":990044000000000,"sort_rank":200,"min_zoom":0,"id":1},"arcs":[[0],[1]]},{"type":"LineString","properties":{"source":"naturalearthdata.com","kind":"ocean","sort_rank":205,"boundary":true,"min_zoom":0,"id":156},"arcs":[2]}]},"buildings":{"type":"GeometryCollection","geometries":[]},"places":{"type":"GeometryCollection","geometries":[]},"transit":{"type":"GeometryCollection","geometries":[]},"pois":{"type":"GeometryCollection","geometries":[]},"boundaries":{"type":"GeometryCollection","geometries":[]},"roads":{"type":"GeometryCollection","geometries":[]},"earth":{"type":"GeometryCollection","geometries":[{"type":"MultiPolygon","properties":{"sort_rank":10,"source":"naturalearthdata.com","min_zoom":3.0,"kind":"earth","area":152379014469},"arcs":[[[3]]]}]},"landuse":{"type":"GeometryCollection","geometries":[]}},"type":"Topology","transform":{"translate":[-90.0,-66.5132604431],"scale":[0.0054931641,0.0026212616]},"arcs":[[[4096,0],[-4096,0],[0,4096],[4096,0],[0,-4096]],[[4060,4059],[16,-7],[6,1],[6,5],[6,12],[-1,5],[-5,2],[-40,4],[-13,-4],[-3,-6],[1,-6],[3,-3],[24,-3]],[[4048,4081],[-13,-4],[-3,-6],[1,-6],[3,-3],[24,-3],[16,-7],[6,1],[6,5],[6,12],[-1,5],[-5,2],[-40,4]],[[4082,4053],[-6,-1],[-16,7],[-24,3],[-3,3],[-1,6],[3,6],[13,4],[40,-4],[5,-2],[1,-5],[-6,-12],[-6,-5]]]}