{"objects":{"water":{"type":"GeometryCollection","geometries":[{"type":"MultiPolygon","properties":{"source":"naturalearthdata.com","kind":"ocean","area":990044000000000,"sort_rank":200,"min_zoom":0,"id":1},"arcs":[[[0],[1],[2]]]},{"type":"LineString","properties":{"source":"naturalearthdata.com","kind":"ocean","sort_rank":205,"boundary":true,"min_zoom":0,"id":1345},"arcs":[3]},{"type":"LineString","properties":{"source":"naturalearthdata.com","kind":"ocean","sort_rank":205,"boundary":true,"min_zoom":0,"id":1346},"arcs":[4]},{"type":"MultiLineString","properties":{"source":"naturalearthdata.com","kind":"ocean","sort_rank":205,"boundary":true,"min_zoom":0,"id":1351},"arcs":[[5],[6],[7]]},{"type":"Point","properties":{"label_placement":true,"alt_name:pl":"Morze McKinley","collision_rank":398,"name:cs":"Wandelovo mo\u0159e","alt_name:eo":"McKinley-maro","min_zoom":3.0,"alt_name:en":"McKinley Sea","alt_name:cs":"McKinleyovo mo\u0159e","name:pl":"Morze Wandela","id":5837815586,"name":"Wandelhavet","alt_name:da":"McKinleyhavet","name:en":"Wandel Sea","name:eo":"Vandel-maro","sort_rank":200,"name:da":"Wandelhavet","kind":"sea","alt_name:fr":"Mer de McKinley","source":"openstreetmap.org","name:fr":"Mer de Wandel","wikidata_id":"Q259929"},"coordinates":[919,3481]}]},"buildings":{"type":"GeometryCollection","geometries":[]},"places":{"type":"GeometryCollection","geometries":[]},"transit":{"type":"GeometryCollection","geometries":[]},"pois":{"type":"GeometryCollection","geometries":[]},"boundaries":{"type":"GeometryCollection","geometries":[]},"roads":{"type":"GeometryCollection","geometries":[]},"earth":{"type":"GeometryCollection","geometries":[{"type":"MultiPolygon","properties":{"sort_rank":10,"source":"naturalearthdata.com","kind":"earth","min_zoom":2.0,"area":465164376090},"arcs":[[[8]]]},{"type":"MultiPolygon","properties":{"sort_rank":10,"source":"naturalearthdata.com","min_zoom":3.0,"kind":"earth","area":261709008765},"arcs":[[[9]]]},{"type":"MultiPolygon","properties":{"sort_rank":10,"source":"naturalearthdata.com","min_zoom":0,"kind":"earth","area":119982075948881},"arcs":[[[10]],[[11]],[[12]]]}]},"landuse":{"type":"GeometryCollection","geometries":[{"type":"MultiPolygon","properties":{"kind":"national_park","protect_class":"2","area":20348673556490,"sort_rank":18,"source":"openstreetmap.org","min_zoom":3.0,"tier":1,"id":-8515283},"arcs":[[[13]]]}]}},"type":"Topology","transform":{"translate":[-22.5,79.1713346408],"scale":[0.0054931641,0.0008557008]},"arcs":[[[4096,4096],[0,-4096],[-3461,0],[4,8],[3,39],[-7,47],[-11,44],[-15,42],[-12,19],[-12,-4],[-23,12],[-3,58],[5,106],[9,92],[10,79],[3,56],[-13,60],[-7,19],[-23,6],[-59,-11],[-26,11],[-15,21],[-13,35],[-8,63],[-3,94],[9,86],[20,78],[31,78],[64,113],[16,19],[41,4],[32,-16],[61,-48],[113,-41],[64,5],[66,29],[30,3],[33,-15],[26,9],[69,63],[59,90],[43,77],[-1,38],[-90,66],[-29,32],[-31,72],[80,90],[59,-10],[83,10],[63,83],[126,49],[13,15],[35,66],[2,45],[-15,50],[-33,70],[7,23],[46,24],[72,6],[64,23],[59,58],[122,169],[41,89],[128,135],[18,38],[1,28],[-24,25],[-52,88],[-64,84],[-44,39],[-95,44],[-136,80],[-98,29],[-179,9],[-41,18],[-19,-4],[-75,-56],[-28,-10],[-26,-27],[-17,-29],[-51,-120],[-54,-96],[-41,-109],[-12,-24],[-42,-38],[-47,35],[-46,16],[-27,30],[-62,36],[-38,-6],[-89,23],[-13,149],[-74,0],[-70,-88],[-134,-295],[-25,-42],[-46,-59],[-56,-56],[-87,-149],[-29,-35],[-75,-70],[0,182],[15,24],[83,172],[43,75],[40,104],[50,192],[15,109],[5,111],[1,93],[-3,76],[-6,58],[-31,99],[-44,7],[-168,-24],[0,383],[5,3],[87,92],[69,99],[17,55],[-11,46],[-17,49],[3946,0]],[[526,3397],[3,-102],[41,-86],[61,-105],[48,-15],[19,37],[-27,121],[-46,116],[-45,87],[-33,-8],[-21,-45]],[[813,631],[77,134],[38,134],[-13,103],[-93,31],[-102,-52],[-82,-82],[-26,-103],[19,-93],[68,-62],[114,-10]],[[580,3450],[-33,-8],[-21,-45],[3,-102],[41,-86],[61,-105],[48,-15],[19,37],[-27,121],[-46,116],[-45,87]],[[813,631],[77,134],[38,134],[-13,103],[-93,31],[-102,-52],[-82,-82],[-26,-103],[19,-93],[68,-62],[114,-10]],[[150,4096],[17,-49],[11,-46],[-17,-55],[-69,-99],[-87,-92],[-5,-3]],[[0,3369],[168,24],[44,-7],[31,-99],[6,-58],[3,-76],[-1,-93],[-5,-111],[-15,-109],[-50,-192],[-40,-104],[-43,-75],[-83,-172],[-15,-24]],[[0,2091],[75,70],[29,35],[87,149],[56,56],[46,59],[25,42],[134,295],[70,88],[74,0],[13,-149],[89,-23],[38,6],[62,-36],[27,-30],[46,-16],[47,-35],[42,38],[12,24],[41,109],[54,96],[51,120],[17,29],[26,27],[28,10],[75,56],[19,4],[41,-18],[179,-9],[98,-29],[136,-80],[95,-44],[44,-39],[64,-84],[52,-88],[24,-25],[-1,-28],[-18,-38],[-128,-135],[-41,-89],[-122,-169],[-59,-58],[-64,-23],[-72,-6],[-46,-24],[-7,-23],[33,-70],[15,-50],[-2,-45],[-35,-66],[-13,-15],[-126,-49],[-63,-83],[-83,-10],[-59,10],[-80,-90],[31,-72],[29,-32],[90,-66],[1,-38],[-43,-77],[-59,-90],[-69,-63],[-26,-9],[-33,15],[-30,-3],[-66,-29],[-64,-5],[-113,41],[-61,48],[-32,16],[-41,-4],[-16,-19],[-64,-113],[-31,-78],[-20,-78],[-9,-86],[3,-94],[8,-63],[13,-35],[15,-21],[26,-11],[59,11],[23,-6],[7,-19],[13,-60],[-3,-56],[-10,-79],[-9,-92],[-5,-106],[3,-58],[23,-12],[12,4],[12,-19],[15,-42],[11,-44],[7,-47],[-3,-39],[-4,-8]],[[890,765],[-77,-134],[-114,10],[-68,62],[-19,93],[26,103],[82,82],[102,52],[93,-31],[13,-103],[-38,-134]],[[698,3126],[-19,-37],[-48,15],[-61,105],[-41,86],[-3,102],[21,45],[33,8],[45,-87],[46,-116],[27,-121]],[[0,3752],[0,344],[150,0],[17,-49],[11,-46],[-17,-55],[-69,-99],[-87,-92],[-5,-3]],[[0,2273],[0,1096],[168,24],[44,-7],[31,-99],[6,-58],[3,-76],[-1,-93],[-5,-111],[-15,-109],[-50,-192],[-40,-104],[-43,-75],[-83,-172],[-15,-24]],[[635,0],[-635,0],[0,2091],[75,70],[29,35],[87,149],[56,56],[46,59],[25,42],[134,295],[70,88],[74,0],[13,-149],[89,-23],[38,6],[62,-36],[27,-30],[46,-16],[47,-35],[42,38],[12,24],[41,109],[54,96],[51,120],[17,29],[26,27],[28,10],[75,56],[19,4],[41,-18],[179,-9],[98,-29],[136,-80],[95,-44],[44,-39],[64,-84],[52,-88],[24,-25],[-1,-28],[-18,-38],[-128,-135],[-41,-89],[-122,-169],[-59,-58],[-64,-23],[-72,-6],[-46,-24],[-7,-23],[33,-70],[15,-50],[-2,-45],[-35,-66],[-13,-15],[-126,-49],[-63,-83],[-83,-10],[-59,10],[-80,-90],[31,-72],[29,-32],[90,-66],[1,-38],[-43,-77],[-59,-90],[-69,-63],[-26,-9],[-33,15],[-30,-3],[-66,-29],[-64,-5],[-113,41],[-61,48],[-32,16],[-41,-4],[-16,-19],[-64,-113],[-31,-78],[-20,-78],[-9,-86],[3,-94],[8,-63],[13,-35],[15,-21],[26,-11],[59,11],[23,-6],[7,-19],[13,-60],[-3,-56],[-10,-79],[-9,-92],[-5,-106],[3,-58],[23,-12],[12,4],[12,-19],[15,-42],[11,-44],[7,-47],[-3,-39],[-4,-8]],[[1080,0],[-1080,0],[0,4096],[743,0],[296,-458],[933,-568],[192,-204],[106,-298],[-78,-204],[-162,-156],[-127,-170],[-65,-380],[-33,-74],[-85,-85],[-314,-206],[-270,-488],[-105,-260],[24,-257],[97,123],[110,14],[96,-78],[42,-165],[-23,-110],[-61,-72],[-193,0],[-45,38],[2,-38]]]}