{"objects":{"water":{"type":"GeometryCollection","geometries":[{"type":"Polygon","properties":{"source":"naturalearthdata.com","kind":"ocean","area":990044000000000,"sort_rank":200,"min_zoom":0,"id":1},"arcs":[[0]]},{"type":"Point","properties":{"label_placement":true,"alt_name:eo":"Suda Atlantika Oceano","collision_rank":398,"name:ms":"Lautan Atlantik Selatan","name:ar":"\u062c\u0646\u0648\u0628 \u0627\u0644\u0645\u062d\u064a\u0637 \u0627\u0644\u0623\u0637\u0644\u0633\u064a","name:cs":"Ji\u017en\u00ed Atlantsk\u00fd oce\u00e1n","min_zoom":3.0,"name:vi":"Nam \u0110\u1ea1i T\u00e2y D\u01b0\u01a1ng","name:ru":"\u042e\u0436\u043d\u044b\u0439 \u0410\u0442\u043b\u0430\u043d\u0442\u0438\u0447\u0435\u0441\u043a\u0438\u0439 \u043e\u043a\u0435\u0430\u043d","name:pl":"Po\u0142udniowy Atlantyk","id":305640288,"name:fa":"\u0627\u0642\u06cc\u0627\u0646\u0648\u0633 \u0627\u0637\u0644\u0633 \u062c\u0646\u0648\u0628\u06cc","sort_rank":200,"name:fi":"Etel\u00e4-Atlannin valtameri","name:de":"S\u00fcdatlantischer Ozean","source":"openstreetmap.org","name:fr":"Oc\u00e9an Atlantique Sud","name:zh":"\u5357\u5927\u897f\u6d0b","name:sl":"Ju\u017eni Atlantski ocean","name:sk":"Ju\u017en\u00fd Atlantick\u00fd oce\u00e1n","name:ja":"\u5357\u5927\u897f\u6d0b","name:lt":"Piet\u0173 Atlanto vandenynas","alt_name:de":"S\u00fcdatlantik","kind":"sea","name:be":"\u041f\u0430\u045e\u0434\u043d\u0435\u0432\u044b \u0410\u0442\u043b\u0430\u043d\u0442\u044b\u0447\u043d\u044b \u0430\u043a\u0456\u044f\u043d","name:hu":"D\u00e9l-Atlanti-\u00f3ce\u00e1n","name:hr":"Ju\u017eni Atlanski ocean","name:el":"\u039d\u03cc\u03c4\u03b9\u03bf\u03c2 \u0391\u03c4\u03bb\u03b1\u03bd\u03c4\u03b9\u03ba\u03cc\u03c2 \u03a9\u03ba\u03b5\u03b1\u03bd\u03cc\u03c2","name:eo":"Suda Atlantiko","name:en":"South Atlantic Ocean","name":"Suda Atlantiko","name:is":"Su\u00f0ur-Atlantshaf","wikidata_id":"Q1482804","alt_name:sl":"Ju\u017eni Atlantik","name:nl":"Zuid Atlantische Oceaan","name:es":"Oc\u00e9ano Atlantico Sur"},"coordinates":[1365,2983]}]},"buildings":{"type":"GeometryCollection","geometries":[]},"places":{"type":"GeometryCollection","geometries":[]},"transit":{"type":"GeometryCollection","geometries":[]},"pois":{"type":"GeometryCollection","geometries":[]},"boundaries":{"type":"GeometryCollection","geometries":[]},"roads":{"type":"GeometryCollection","geometries":[]},"earth":{"type":"GeometryCollection","geometries":[]},"landuse":{"type":"GeometryCollection","geometries":[]}},"type":"Topology","transform":{"translate":[-22.5,-55.7765730187],"scale":[0.0054931641,0.0036124695]},"arcs":[[[4096,4096],[0,-4096],[-4096,0],[0,4096],[4096,0]]]}