{"objects":{"water":{"type":"GeometryCollection","geometries":[{"type":"Polygon","properties":{"source":"naturalearthdata.com","kind":"ocean","area":990044000000000,"sort_rank":200,"min_zoom":0,"id":1},"arcs":[[0],[1],[2],[3],[4],[5],[6]]},{"type":"LineString","properties":{"source":"naturalearthdata.com","kind":"ocean","sort_rank":205,"boundary":true,"min_zoom":0,"id":246},"arcs":[7]},{"type":"LineString","properties":{"source":"naturalearthdata.com","kind":"ocean","sort_rank":205,"boundary":true,"min_zoom":0,"id":248},"arcs":[8]},{"type":"LineString","properties":{"source":"naturalearthdata.com","kind":"ocean","sort_rank":205,"boundary":true,"min_zoom":0,"id":250},"arcs":[9]},{"type":"LineString","properties":{"source":"naturalearthdata.com","kind":"ocean","sort_rank":205,"boundary":true,"min_zoom":0,"id":257},"arcs":[10]},{"type":"LineString","properties":{"source":"naturalearthdata.com","kind":"ocean","sort_rank":205,"boundary":true,"min_zoom":0,"id":258},"arcs":[11]},{"type":"LineString","properties":{"source":"naturalearthdata.com","kind":"ocean","sort_rank":205,"boundary":true,"min_zoom":0,"id":259},"arcs":[12]},{"type":"LineString","properties":{"source":"naturalearthdata.com","kind":"ocean","sort_rank":205,"boundary":true,"min_zoom":0,"id":260},"arcs":[13]},{"type":"LineString","properties":{"source":"naturalearthdata.com","kind":"ocean","sort_rank":205,"boundary":true,"min_zoom":0,"id":1386},"arcs":[14]}]},"buildings":{"type":"GeometryCollection","geometries":[]},"places":{"type":"GeometryCollection","geometries":[]},"transit":{"type":"GeometryCollection","geometries":[]},"pois":{"type":"GeometryCollection","geometries":[]},"boundaries":{"type":"GeometryCollection","geometries":[]},"roads":{"type":"GeometryCollection","geometries":[]},"earth":{"type":"GeometryCollection","geometries":[{"type":"MultiPolygon","properties":{"sort_rank":10,"source":"naturalearthdata.com","kind":"earth","min_zoom":2.0,"area":437295020042},"arcs":[[[15]],[[16]],[[17]]]},{"type":"MultiPolygon","properties":{"sort_rank":10,"source":"naturalearthdata.com","min_zoom":3.0,"kind":"earth","area":152379014469},"arcs":[[[18]],[[19]],[[20]],[[21]]]},{"type":"MultiPolygon","properties":{"sort_rank":10,"source":"naturalearthdata.com","min_zoom":0,"kind":"earth","area":130720926000100},"arcs":[[[22]]]}]},"landuse":{"type":"GeometryCollection","geometries":[]}},"type":"Topology","transform":{"translate":[-22.5,-74.0195433115],"scale":[0.0054931641,0.0018325886]},"arcs":[[[4096,1390],[-34,-47],[-26,-46],[-39,-38],[-39,45],[-15,49],[-10,104],[-31,46],[-27,-10],[-26,-56],[-26,-14],[-94,-12],[-45,42],[-63,20],[-37,0],[-78,-22],[-86,-8],[-51,20],[-47,0],[-36,6],[-273,-8],[-31,9],[-1,33],[8,61],[32,55],[36,46],[22,61],[-20,61],[-44,17],[-56,-23],[-55,-33],[-53,-15],[-35,5],[-65,26],[-42,-23],[-24,-8],[-19,-22],[-3,-31],[21,-42],[25,-57],[5,-55],[-14,-55],[-8,-122],[-37,-48],[-55,-6],[-51,-16],[-27,2],[-58,170],[-48,102],[-32,31],[-36,12],[-52,37],[-38,55],[-32,-5],[-16,-26],[5,-22],[38,-21],[16,-38],[-35,-38],[-32,-27],[-21,-25],[-25,-80],[-31,-60],[-26,-4],[-35,43],[-30,23],[-61,59],[-48,23],[-27,-4],[-24,-20],[-26,-31],[12,-57],[24,-65],[83,-58],[66,-36],[28,5],[31,10],[9,-35],[0,-43],[-30,-71],[-41,-137],[-27,-71],[-51,-17],[-58,-30],[-119,-71],[-84,-85],[-71,-4],[-62,19],[-65,13],[0,-28],[24,-32],[30,-86],[-30,-56],[-28,-11],[-125,41],[-107,-26],[-38,-31],[-63,-99],[-24,-30],[-28,-20],[-13,-71],[-2,-48],[24,-20],[53,-16],[29,-26],[-12,-32],[-33,-8],[-18,-20],[11,-26],[86,-17],[89,31],[118,21],[7,-47],[-16,-28],[-13,-17],[-1075,0],[6,73],[15,48],[0,47],[-11,50],[-20,-3],[-32,-28],[-20,-62],[-8,-49],[-19,-33],[-29,-27],[-53,-16],[-168,0],[0,4096],[4096,0],[0,-2706]],[[3445,1810],[16,-18],[88,-63],[5,-18],[3,-31],[29,-23],[-1,-17],[-3,-23],[0,-31],[7,-30],[32,15],[44,52],[14,26],[14,52],[17,26],[5,18],[-30,14],[-30,-2],[-20,17],[-40,41],[-52,10],[-91,-4],[-7,-11]],[[3511,1606],[-9,13],[-25,-5],[2,-11],[-3,-21],[4,-12],[14,-32],[19,-16],[26,-3],[19,12],[-43,65],[-4,10]],[[2971,1874],[4,-14],[48,32],[-10,66],[-4,5],[-18,10],[-32,-23],[-35,-4],[31,-53],[16,-19]],[[3461,1916],[8,-15],[30,1],[99,15],[10,24],[-1,47],[-5,31],[-17,17],[-26,5],[-41,-15],[-20,-20],[-39,-79],[2,-11]],[[1745,1094],[-9,-27],[4,-19],[10,-21],[30,-27],[24,-5],[15,12],[-5,19],[-18,37],[-28,35],[-16,4],[-7,-8]],[[1119,852],[-19,-8],[-11,-32],[1,-28],[11,-38],[24,-27],[26,-1],[13,13],[-12,44],[-24,66],[-9,11]],[[2991,1973],[-32,-23],[-35,-4],[31,-53],[16,-19],[4,-14],[48,32],[-10,66],[-4,5],[-18,10]],[[3477,1614],[2,-11],[-3,-21],[4,-12],[14,-32],[19,-16],[26,-3],[19,12],[-43,65],[-4,10],[-9,13],[-25,-5]],[[3635,1774],[-40,41],[-52,10],[-91,-4],[-7,-11],[16,-18],[88,-63],[5,-18],[3,-31],[29,-23],[-1,-17],[-3,-23],[0,-31],[7,-30],[32,15],[44,52],[14,26],[14,52],[17,26],[5,18],[-30,14],[-30,-2],[-20,17]],[[3598,1917],[10,24],[-1,47],[-5,31],[-17,17],[-26,5],[-41,-15],[-20,-20],[-39,-79],[2,-11],[8,-15],[30,1],[99,15]],[[339,0],[6,73],[15,48],[0,47],[-11,50],[-20,-3],[-32,-28],[-20,-62],[-8,-49],[-19,-33],[-29,-27],[-53,-16]],[[1128,841],[-9,11],[-19,-8],[-11,-32],[1,-28],[11,-38],[24,-27],[26,-1],[13,13],[-12,44],[-24,66]],[[1768,1098],[-16,4],[-7,-8],[-9,-27],[4,-19],[10,-21],[30,-27],[24,-5],[15,12],[-5,19],[-18,37],[-28,35]],[[1414,0],[13,17],[16,28],[-7,47],[-118,-21],[-89,-31],[-86,17],[-11,26],[18,20],[33,8],[12,32],[-29,26],[-53,16],[-24,20],[2,48],[13,71],[28,20],[24,30],[63,99],[38,31],[107,26],[125,-41],[28,11],[30,56],[-30,86],[-24,32],[0,28],[65,-13],[62,-19],[71,4],[84,85],[119,71],[58,30],[51,17],[27,71],[41,137],[30,71],[0,43],[-9,35],[-31,-10],[-28,-5],[-66,36],[-83,58],[-24,65],[-12,57],[26,31],[24,20],[27,4],[48,-23],[61,-59],[30,-23],[35,-43],[26,4],[31,60],[25,80],[21,25],[32,27],[35,38],[-16,38],[-38,21],[-5,22],[16,26],[32,5],[38,-55],[52,-37],[36,-12],[32,-31],[48,-102],[58,-170],[27,-2],[51,16],[55,6],[37,48],[8,122],[14,55],[-5,55],[-25,57],[-21,42],[3,31],[19,22],[24,8],[42,23],[65,-26],[35,-5],[53,15],[55,33],[56,23],[44,-17],[20,-61],[-22,-61],[-36,-46],[-32,-55],[-8,-61],[1,-33],[31,-9],[273,8],[36,-6],[47,0],[51,-20],[86,8],[78,22],[37,0],[63,-20],[45,-42],[94,12],[26,14],[26,56],[27,10],[31,-46],[10,-104],[15,-49],[39,-45],[39,38],[26,46],[34,47]],[[339,0],[-171,0],[53,16],[29,27],[19,33],[8,49],[20,62],[32,28],[20,3],[11,-50],[0,-47],[-15,-48],[-6,-73]],[[3635,1774],[20,-17],[30,2],[30,-14],[-5,-18],[-17,-26],[-14,-52],[-14,-26],[-44,-52],[-32,-15],[-7,30],[0,31],[3,23],[1,17],[-29,23],[-3,31],[-5,18],[-88,63],[-16,18],[7,11],[91,4],[52,-10],[40,-41]],[[3499,1902],[-30,-1],[-8,15],[-2,11],[39,79],[20,20],[41,15],[26,-5],[17,-17],[5,-31],[1,-47],[-10,-24],[-99,-15]],[[1164,731],[-13,-13],[-26,1],[-24,27],[-11,38],[-1,28],[11,32],[19,8],[9,-11],[24,-66],[12,-44]],[[1819,1007],[-15,-12],[-24,5],[-30,27],[-10,21],[-4,19],[9,27],[7,8],[16,-4],[28,-35],[18,-37],[5,-19]],[[3558,1531],[-19,-12],[-26,3],[-19,16],[-14,32],[-4,12],[3,21],[-2,11],[25,5],[9,-13],[4,-10],[43,-65]],[[3023,1892],[-48,-32],[-4,14],[-16,19],[-31,53],[35,4],[32,23],[18,-10],[4,-5],[10,-66]],[[4096,0],[-2682,0],[13,17],[16,28],[-7,47],[-118,-21],[-89,-31],[-86,17],[-11,26],[18,20],[33,8],[12,32],[-29,26],[-53,16],[-24,20],[2,48],[13,71],[28,20],[24,30],[63,99],[38,31],[107,26],[125,-41],[28,11],[30,56],[-30,86],[-24,32],[0,28],[65,-13],[62,-19],[71,4],[84,85],[119,71],[58,30],[51,17],[27,71],[41,137],[30,71],[0,43],[-9,35],[-31,-10],[-28,-5],[-66,36],[-83,58],[-24,65],[-12,57],[26,31],[24,20],[27,4],[48,-23],[61,-59],[30,-23],[35,-43],[26,4],[31,60],[25,80],[21,25],[32,27],[35,38],[-16,38],[-38,21],[-5,22],[16,26],[32,5],[38,-55],[52,-37],[36,-12],[32,-31],[48,-102],[58,-170],[27,-2],[51,16],[55,6],[37,48],[8,122],[14,55],[-5,55],[-25,57],[-21,42],[3,31],[19,22],[24,8],[42,23],[65,-26],[35,-5],[53,15],[55,33],[56,23],[44,-17],[20,-61],[-22,-61],[-36,-46],[-32,-55],[-8,-61],[1,-33],[31,-9],[273,8],[36,-6],[47,0],[51,-20],[86,8],[78,22],[37,0],[63,-20],[45,-42],[94,12],[26,14],[26,56],[27,10],[31,-46],[10,-104],[15,-49],[39,-45],[39,38],[26,46],[34,47],[0,-1390]]]}