{"objects":{"water":{"type":"GeometryCollection","geometries":[{"type":"Polygon","properties":{"source":"naturalearthdata.com","kind":"ocean","area":990044000000000,"sort_rank":200,"min_zoom":0,"id":1},"arcs":[[0]]},{"type":"MultiLineString","properties":{"source":"naturalearthdata.com","kind":"ocean","sort_rank":205,"boundary":true,"min_zoom":0,"id":258},"arcs":[[1],[2]]},{"type":"LineString","properties":{"source":"naturalearthdata.com","kind":"ocean","sort_rank":205,"boundary":true,"min_zoom":0,"id":1386},"arcs":[3]}]},"buildings":{"type":"GeometryCollection","geometries":[]},"places":{"type":"GeometryCollection","geometries":[]},"transit":{"type":"GeometryCollection","geometries":[]},"pois":{"type":"GeometryCollection","geometries":[]},"boundaries":{"type":"GeometryCollection","geometries":[]},"roads":{"type":"GeometryCollection","geometries":[]},"earth":{"type":"GeometryCollection","geometries":[{"type":"MultiPolygon","properties":{"sort_rank":10,"source":"naturalearthdata.com","kind":"earth","min_zoom":2.0,"area":437295020042},"arcs":[[[4]]]},{"type":"MultiPolygon","properties":{"sort_rank":10,"source":"naturalearthdata.com","min_zoom":0,"kind":"earth","area":130720926000100},"arcs":[[[5]]]}]},"landuse":{"type":"GeometryCollection","geometries":[]}},"type":"Topology","transform":{"translate":[-22.5,-79.1713346408],"scale":[0.0054931641,0.0012577616]},"arcs":[[[1414,4096],[-65,-114],[-36,-94],[-44,-75],[-26,-25],[-138,66],[-54,-3],[-48,6],[-56,-11],[-25,-36],[-89,-254],[-26,-131],[-28,-88],[-54,-62],[-18,-50],[-24,-101],[24,-80],[18,-38],[19,-5],[20,-27],[-51,-25],[-49,-6],[-117,-56],[-181,38],[-53,-81],[-38,-32],[-81,-39],[-94,-8],[-94,26],[-6,-2],[0,1307],[168,0],[-64,-29],[-19,-40],[77,12],[81,-33],[21,-34],[13,-39],[24,-170],[5,-13],[15,-21],[45,-9],[13,39],[1,28],[-2,72],[-32,96],[-8,37],[-2,36],[3,68],[1075,0]],[[346,3955],[-8,37],[-2,36],[3,68]],[[168,4096],[-64,-29],[-19,-40],[77,12],[81,-33],[21,-34],[13,-39],[24,-170],[5,-13],[15,-21],[45,-9],[13,39],[1,28],[-2,72],[-32,96]],[[0,2789],[6,2],[94,-26],[94,8],[81,39],[38,32],[53,81],[181,-38],[117,56],[49,6],[51,25],[-20,27],[-19,5],[-18,38],[-24,80],[24,101],[18,50],[54,62],[28,88],[26,131],[89,254],[25,36],[56,11],[48,-6],[54,3],[138,-66],[26,25],[44,75],[36,94],[65,114]],[[168,4096],[171,0],[-3,-68],[2,-36],[8,-37],[32,-96],[2,-72],[-1,-28],[-13,-39],[-45,9],[-15,21],[-5,13],[-24,170],[-13,39],[-21,34],[-81,33],[-77,-12],[19,40],[64,29]],[[1414,4096],[2682,0],[0,-4096],[-4096,0],[0,2789],[6,2],[94,-26],[94,8],[81,39],[38,32],[53,81],[181,-38],[117,56],[49,6],[51,25],[-20,27],[-19,5],[-18,38],[-24,80],[24,101],[18,50],[54,62],[28,88],[26,131],[89,254],[25,36],[56,11],[48,-6],[54,3],[138,-66],[26,25],[44,75],[36,94],[65,114]]]}