{"objects":{"water":{"type":"GeometryCollection","geometries":[{"type":"MultiPolygon","properties":{"source":"naturalearthdata.com","kind":"ocean","area":990044000000000,"sort_rank":200,"min_zoom":0,"id":1},"arcs":[[[0],[1],[2],[3],[4]]]},{"type":"LineString","properties":{"source":"naturalearthdata.com","kind":"ocean","sort_rank":205,"boundary":true,"min_zoom":0,"id":1347},"arcs":[5]},{"type":"LineString","properties":{"source":"naturalearthdata.com","kind":"ocean","sort_rank":205,"boundary":true,"min_zoom":0,"id":1348},"arcs":[6]},{"type":"LineString","properties":{"source":"naturalearthdata.com","kind":"ocean","sort_rank":205,"boundary":true,"min_zoom":0,"id":1349},"arcs":[7]},{"type":"LineString","properties":{"source":"naturalearthdata.com","kind":"ocean","sort_rank":205,"boundary":true,"min_zoom":0,"id":1350},"arcs":[8]},{"type":"MultiLineString","properties":{"source":"naturalearthdata.com","kind":"ocean","sort_rank":205,"boundary":true,"min_zoom":0,"id":1351},"arcs":[[9],[10]]},{"type":"Point","properties":{"label_placement":true,"name:pt":"Mar da Gronel\u00e2ndia","collision_rank":398,"name:ms":"Laut Greenland","name:ko":"\uadf8\ub9b0\ub780\ub4dc \ud574","name:ar":"\u0628\u062d\u0631 \u063a\u0631\u064a\u0646\u0644\u0627\u0646\u062f","name:cs":"Gr\u00f3nsk\u00e9 mo\u0159e","min_zoom":3.0,"name:it":"Mare di Groenlandia","name:ru":"\u0413\u0440\u0435\u043d\u043b\u0430\u043d\u0434\u0441\u043a\u043e\u0435 \u043c\u043e\u0440\u0435","name:vi":"Bi\u1ec3n Greenland","name:pl":"Morze Grenlandzkie","id":305639396,"name:fa":"\u062f\u0631\u06cc\u0627\u06cc \u06af\u0631\u06cc\u0646\u0644\u0646\u062f","sort_rank":200,"name:fi":"Gr\u00f6nlanninmeri","name:da":"Gr\u00f8nlandshavet","name:de":"Gr\u00f6nlandsee","source":"openstreetmap.org","name:fr":"Mer du Groenland","name:zh":"\u683c\u9675\u5170\u6d77","name:sl":"Grenlandsko morje","name:sk":"Gr\u00f3nske more","name:lt":"Grenlandijos j\u016bra","kind":"sea","name:br":"Mor Greunland","name:uk":"\u0413\u0440\u0435\u043d\u043b\u0430\u043d\u0434\u0441\u044c\u043a\u0435 \u043c\u043e\u0440\u0435","name:sv":"Gr\u00f6nlandshavet","name:hu":"Gr\u00f6nlandi-tenger","name:hr":"Grenlandsko more","name:eo":"Gronlanda Maro","name:en":"Greenland Sea","name":"Greenland Sea","wikidata_id":"Q132868","name:es":"Mar de Groenlandia"},"coordinates":[2276,780]}]},"buildings":{"type":"GeometryCollection","geometries":[]},"places":{"type":"GeometryCollection","geometries":[]},"transit":{"type":"GeometryCollection","geometries":[]},"pois":{"type":"GeometryCollection","geometries":[]},"boundaries":{"type":"GeometryCollection","geometries":[]},"roads":{"type":"GeometryCollection","geometries":[]},"earth":{"type":"GeometryCollection","geometries":[{"type":"MultiPolygon","properties":{"sort_rank":10,"source":"naturalearthdata.com","kind":"earth","min_zoom":2.0,"area":465164376090},"arcs":[[[11]]]},{"type":"MultiPolygon","properties":{"sort_rank":10,"source":"naturalearthdata.com","min_zoom":3.0,"kind":"earth","area":261709008765},"arcs":[[[12]],[[13]],[[14]]]},{"type":"MultiPolygon","properties":{"sort_rank":10,"source":"naturalearthdata.com","min_zoom":0,"kind":"earth","area":119982075948881},"arcs":[[[15]],[[16]]]}]},"landuse":{"type":"GeometryCollection","geometries":[{"type":"MultiPolygon","properties":{"kind":"national_park","protect_class":"2","area":20348673556490,"sort_rank":18,"source":"openstreetmap.org","min_zoom":3.0,"tier":1,"id":-8515283},"arcs":[[[17]],[[18]]]}]}},"type":"Topology","transform":{"translate":[-22.5,74.0195433115],"scale":[0.0054931641,0.0012577616]},"arcs":[[[4096,4096],[0,-4096],[-4048,0],[-6,8],[-12,27],[1,22],[7,27],[13,32],[4,32],[-4,32],[-8,21],[-13,11],[2,13],[27,22],[37,48],[10,39],[-12,102],[7,-2],[33,-66],[-12,-99],[-23,-90],[68,-65],[83,-41],[86,21],[77,53],[-5,62],[38,0],[74,-19],[32,9],[18,11],[10,18],[8,29],[5,46],[3,63],[-11,53],[-26,43],[-20,19],[-47,181],[-34,98],[-42,35],[-37,-35],[-21,-105],[-14,-92],[-46,-73],[-32,15],[0,12],[12,16],[15,36],[17,56],[2,68],[-14,81],[-12,48],[-10,17],[-13,4],[-16,-9],[-57,-56],[-26,-21],[-17,-6],[-17,6],[-22,26],[-35,49],[-24,43],[67,-64],[39,-13],[44,33],[29,55],[28,12],[34,6],[77,125],[52,-5],[31,-42],[25,-40],[17,-37],[22,-7],[27,25],[19,39],[9,55],[1,70],[-6,86],[-5,57],[-6,30],[-3,32],[-1,36],[-5,54],[-10,30],[-44,81],[-27,79],[17,99],[-44,78],[-32,10],[-28,-1],[-24,7],[-39,28],[-19,23],[-55,-28],[-42,-4],[-13,7],[-15,17],[-34,85],[-22,138],[-23,11],[-53,11],[-15,8],[-12,11],[-10,15],[0,80],[30,39],[27,0],[47,-41],[33,-42],[24,-1],[119,123],[4,35],[83,27],[76,5],[37,-10],[65,-43],[64,-19],[32,-18],[21,-24],[22,-13],[25,-4],[17,12],[21,65],[11,49],[6,72],[2,96],[-9,66],[-18,35],[-26,19],[-58,-2],[-42,-38],[-31,-9],[-22,19],[-30,39],[-40,30],[-77,29],[-42,62],[-40,137],[44,34],[51,22],[38,-19],[78,-75],[10,-4],[31,15],[0,29],[-18,45],[-17,32],[-43,38],[-49,29],[-59,47],[-46,23],[-53,17],[-49,-52],[-45,-119],[-36,-36],[-28,45],[-3,65],[21,85],[21,75],[22,65],[15,80],[10,95],[12,69],[43,139],[2,32],[-36,38],[2,12],[94,116],[40,20],[36,1],[27,9],[14,21],[16,34],[10,38],[4,42],[7,28],[9,14],[83,47],[35,23],[11,15],[3461,0]],[[895,774],[35,35],[-19,91],[-49,-7],[-22,49],[-6,77],[-15,84],[-42,-28],[-40,-35],[-33,49],[-41,-56],[-4,-98],[-2,-98],[40,-56],[58,7],[140,-14]],[[713,1608],[-14,288],[-13,189],[-27,49],[-33,-7],[-4,-91],[0,-119],[70,-330],[21,21]],[[868,2931],[16,61],[-7,60],[-24,13],[-16,-10],[-49,-117],[-9,-37],[13,-21],[36,0],[40,51]],[[638,3144],[21,112],[-13,77],[0,112],[3,56],[-13,15],[-19,-15],[-37,-63],[3,-126],[15,-112],[16,-84],[24,28]],[[617,3501],[-37,-63],[3,-126],[15,-112],[16,-84],[24,28],[21,112],[-13,77],[0,112],[3,56],[-13,15],[-19,-15]],[[699,1896],[14,-288],[-21,-21],[-70,330],[0,119],[4,91],[33,7],[27,-49],[13,-189]],[[704,1089],[-41,-56],[-4,-98],[-2,-98],[40,-56],[58,7],[140,-14],[35,35],[-19,91],[-49,-7],[-22,49],[-6,77],[-15,84],[-42,-28],[-40,-35],[-33,49]],[[837,3055],[-49,-117],[-9,-37],[13,-21],[36,0],[40,51],[16,61],[-7,60],[-24,13],[-16,-10]],[[635,4096],[-11,-15],[-35,-23],[-83,-47],[-9,-14],[-7,-28],[-4,-42],[-10,-38],[-16,-34],[-14,-21],[-27,-9],[-36,-1],[-40,-20],[-94,-116],[-2,-12],[36,-38],[-2,-32],[-43,-139],[-12,-69],[-10,-95],[-15,-80],[-22,-65],[-21,-75],[-21,-85],[3,-65],[28,-45],[36,36],[45,119],[49,52],[53,-17],[46,-23],[59,-47],[49,-29],[43,-38],[17,-32],[18,-45],[0,-29],[-31,-15],[-10,4],[-78,75],[-38,19],[-51,-22],[-44,-34],[40,-137],[42,-62],[77,-29],[40,-30],[30,-39],[22,-19],[31,9],[42,38],[58,2],[26,-19],[18,-35],[9,-66],[-2,-96],[-6,-72],[-11,-49],[-21,-65],[-17,-12],[-25,4],[-22,13],[-21,24],[-32,18],[-64,19],[-65,43],[-37,10],[-76,-5],[-83,-27],[-4,-35],[-119,-123],[-24,1],[-33,42],[-47,41],[-27,0],[-30,-39]],[[0,2087],[10,-15],[12,-11],[15,-8],[53,-11],[23,-11],[22,-138],[34,-85],[15,-17],[13,-7],[42,4],[55,28],[19,-23],[39,-28],[24,-7],[28,1],[32,-10],[44,-78],[-17,-99],[27,-79],[44,-81],[10,-30],[5,-54],[1,-36],[3,-32],[6,-30],[5,-57],[6,-86],[-1,-70],[-9,-55],[-19,-39],[-27,-25],[-22,7],[-17,37],[-25,40],[-31,42],[-52,5],[-77,-125],[-34,-6],[-28,-12],[-29,-55],[-44,-33],[-39,13],[-67,64],[24,-43],[35,-49],[22,-26],[17,-6],[17,6],[26,21],[57,56],[16,9],[13,-4],[10,-17],[12,-48],[14,-81],[-2,-68],[-17,-56],[-15,-36],[-12,-16],[0,-12],[32,-15],[46,73],[14,92],[21,105],[37,35],[42,-35],[34,-98],[47,-181],[20,-19],[26,-43],[11,-53],[-3,-63],[-5,-46],[-8,-29],[-10,-18],[-18,-11],[-32,-9],[-74,19],[-38,0],[5,-62],[-77,-53],[-86,-21],[-83,41],[-68,65],[23,90],[12,99],[-33,66],[-7,2],[12,-102],[-10,-39],[-37,-48],[-27,-22],[-2,-13],[13,-11],[8,-21],[4,-32],[-4,-32],[-13,-32],[-7,-27],[-1,-22],[12,-27],[6,-8]],[[819,1103],[15,-84],[6,-77],[22,-49],[49,7],[19,-91],[-35,-35],[-140,14],[-58,-7],[-40,56],[2,98],[4,98],[41,56],[33,-49],[40,35],[42,28]],[[828,2880],[-36,0],[-13,21],[9,37],[49,117],[16,10],[24,-13],[7,-60],[-16,-61],[-40,-51]],[[638,3144],[-24,-28],[-16,84],[-15,112],[-3,126],[37,63],[19,15],[13,-15],[-3,-56],[0,-112],[13,-77],[-21,-112]],[[713,1608],[-21,-21],[-70,330],[0,119],[4,91],[33,7],[27,-49],[13,-189],[14,-288]],[[0,2167],[0,1929],[635,0],[-11,-15],[-35,-23],[-83,-47],[-9,-14],[-7,-28],[-4,-42],[-10,-38],[-16,-34],[-14,-21],[-27,-9],[-36,-1],[-40,-20],[-94,-116],[-2,-12],[36,-38],[-2,-32],[-43,-139],[-12,-69],[-10,-95],[-15,-80],[-22,-65],[-21,-75],[-21,-85],[3,-65],[28,-45],[36,36],[45,119],[49,52],[53,-17],[46,-23],[59,-47],[49,-29],[43,-38],[17,-32],[18,-45],[0,-29],[-31,-15],[-10,4],[-78,75],[-38,19],[-51,-22],[-44,-34],[40,-137],[42,-62],[77,-29],[40,-30],[30,-39],[22,-19],[31,9],[42,38],[58,2],[26,-19],[18,-35],[9,-66],[-2,-96],[-6,-72],[-11,-49],[-21,-65],[-17,-12],[-25,4],[-22,13],[-21,24],[-32,18],[-64,19],[-65,43],[-37,10],[-76,-5],[-83,-27],[-4,-35],[-119,-123],[-24,1],[-33,42],[-47,41],[-27,0],[-30,-39]],[[48,0],[-48,0],[0,2087],[10,-15],[12,-11],[15,-8],[53,-11],[23,-11],[22,-138],[34,-85],[15,-17],[13,-7],[42,4],[55,28],[19,-23],[39,-28],[24,-7],[28,1],[32,-10],[44,-78],[-17,-99],[27,-79],[44,-81],[10,-30],[5,-54],[1,-36],[3,-32],[6,-30],[5,-57],[6,-86],[-1,-70],[-9,-55],[-19,-39],[-27,-25],[-22,7],[-17,37],[-25,40],[-31,42],[-52,5],[-77,-125],[-34,-6],[-28,-12],[-29,-55],[-44,-33],[-39,13],[-67,64],[24,-43],[35,-49],[22,-26],[17,-6],[17,6],[26,21],[57,56],[16,9],[13,-4],[10,-17],[12,-48],[14,-81],[-2,-68],[-17,-56],[-15,-36],[-12,-16],[0,-12],[32,-15],[46,73],[14,92],[21,105],[37,35],[42,-35],[34,-98],[47,-181],[20,-19],[26,-43],[11,-53],[-3,-63],[-5,-46],[-8,-29],[-10,-18],[-18,-11],[-32,-9],[-74,19],[-38,0],[5,-62],[-77,-53],[-86,-21],[-83,41],[-68,65],[23,90],[12,99],[-33,66],[-7,2],[12,-102],[-10,-39],[-37,-48],[-27,-22],[-2,-13],[13,-11],[8,-21],[4,-32],[-4,-32],[-13,-32],[-7,-27],[-1,-22],[12,-27],[6,-8]],[[1123,4096],[193,0],[-28,-22],[-114,-8],[-51,30]],[[0,2288],[0,1808],[1080,0],[6,-99],[-68,-241],[43,-649],[30,-119],[-80,-248],[-407,-26],[-388,-293],[-216,-133]]]}