{"objects":{"water":{"type":"GeometryCollection","geometries":[{"type":"MultiPolygon","properties":{"source":"naturalearthdata.com","kind":"ocean","area":990044000000000,"sort_rank":200,"min_zoom":0,"id":1},"arcs":[[[0],[1]]]},{"type":"LineString","properties":{"source":"naturalearthdata.com","kind":"ocean","sort_rank":205,"boundary":true,"min_zoom":0,"id":139},"arcs":[2]},{"type":"LineString","properties":{"source":"naturalearthdata.com","kind":"ocean","sort_rank":205,"boundary":true,"min_zoom":0,"id":802},"arcs":[3]},{"type":"MultiLineString","properties":{"source":"naturalearthdata.com","kind":"ocean","sort_rank":205,"boundary":true,"min_zoom":0,"id":1351},"arcs":[[4],[5],[6],[7],[8]]}]},"buildings":{"type":"GeometryCollection","geometries":[]},"places":{"type":"GeometryCollection","geometries":[]},"transit":{"type":"GeometryCollection","geometries":[]},"pois":{"type":"GeometryCollection","geometries":[]},"boundaries":{"type":"GeometryCollection","geometries":[]},"roads":{"type":"GeometryCollection","geometries":[]},"earth":{"type":"GeometryCollection","geometries":[{"type":"MultiPolygon","properties":{"sort_rank":10,"source":"naturalearthdata.com","min_zoom":3.0,"kind":"earth","area":261709008765},"arcs":[[[9]]]},{"type":"MultiPolygon","properties":{"sort_rank":10,"source":"naturalearthdata.com","min_zoom":0,"kind":"earth","area":119982075948881},"arcs":[[[10]],[[11]],[[12]],[[13]],[[14]],[[15]]]}]},"landuse":{"type":"GeometryCollection","geometries":[]}},"type":"Topology","transform":{"translate":[-22.5,66.5132604431],"scale":[0.0054931641,0.0018325886]},"arcs":[[[4096,4096],[0,-4096],[-2910,0],[0,1],[-9,6],[-39,-2],[-10,-5],[-1128,0],[0,1889],[12,6],[27,26],[9,19],[5,22],[-14,9],[-39,-1],[0,382],[11,20],[3,-115],[4,-20],[0,-23],[3,-31],[0,-28],[57,5],[23,-15],[58,13],[19,32],[-9,35],[-10,117],[-9,28],[2,32],[-4,97],[3,62],[-5,71],[-10,77],[-38,17],[-38,-31],[-12,-1],[-11,-10],[-9,-32],[-13,-68],[-11,74],[-2,40],[-2,18],[0,7],[6,12],[28,21],[55,68],[9,31],[-55,5],[-19,8],[-23,79],[-1,0],[0,134],[0,-1],[38,-21],[9,55],[-7,68],[37,30],[13,129],[-3,46],[-3,108],[-28,26],[-47,11],[-9,7],[0,158],[28,-10],[29,0],[57,48],[59,40],[41,14],[125,4],[23,16],[11,87],[21,91],[-6,16],[-119,50],[-50,12],[-126,5],[-27,10],[-18,16],[4048,0]],[[2644,2512],[-5,33],[-62,-20],[-32,-60],[-81,-63],[-24,-33],[9,-12],[17,4],[58,55],[61,22],[54,33],[5,41]],[[1128,0],[10,5],[39,2],[9,-6],[0,-1]],[[2577,2525],[-32,-60],[-81,-63],[-24,-33],[9,-12],[17,4],[58,55],[61,22],[54,33],[5,41],[-5,33],[-62,-20]],[[48,4096],[18,-16],[27,-10],[126,-5],[50,-12],[119,-50],[6,-16],[-21,-91],[-11,-87],[-23,-16],[-125,-4],[-41,-14],[-59,-40],[-57,-48],[-29,0],[-28,10]],[[0,3539],[9,-7],[47,-11],[28,-26],[3,-108],[3,-46],[-13,-129],[-37,-30],[7,-68],[-9,-55],[-38,21],[0,1]],[[0,2947],[1,0],[23,-79],[19,-8],[55,-5],[-9,-31],[-55,-68],[-28,-21],[-6,-12]],[[0,2716],[2,-18],[2,-40],[11,-74],[13,68],[9,32],[11,10],[12,1],[38,31],[38,-17],[10,-77],[5,-71],[-3,-62],[4,-97],[-2,-32],[9,-28],[10,-117],[9,-35],[-19,-32],[-58,-13],[-23,15],[-57,-5],[0,28],[-3,31],[0,23],[-4,20],[-3,115],[-11,-20]],[[0,1970],[39,1],[14,-9],[-5,-22],[-9,-19],[-27,-26],[-12,-6]],[[2466,2361],[-17,-4],[-9,12],[24,33],[81,63],[32,60],[62,20],[5,-33],[-5,-41],[-54,-33],[-61,-22],[-58,-55]],[[1186,0],[-58,0],[10,5],[39,2],[9,-6],[0,-1]],[[0,3697],[0,399],[48,0],[18,-16],[27,-10],[126,-5],[50,-12],[119,-50],[6,-16],[-21,-91],[-11,-87],[-23,-16],[-125,-4],[-41,-14],[-59,-40],[-57,-48],[-29,0],[-28,10]],[[0,3081],[0,458],[9,-7],[47,-11],[28,-26],[3,-108],[3,-46],[-13,-129],[-37,-30],[7,-68],[-9,-55],[-38,21],[0,1]],[[0,2723],[0,224],[1,0],[23,-79],[19,-8],[55,-5],[-9,-31],[-55,-68],[-28,-21],[-6,-12]],[[0,2352],[0,364],[2,-18],[2,-40],[11,-74],[13,68],[9,32],[11,10],[12,1],[38,31],[38,-17],[10,-77],[5,-71],[-3,-62],[4,-97],[-2,-32],[9,-28],[10,-117],[9,-35],[-19,-32],[-58,-13],[-23,15],[-57,-5],[0,28],[-3,31],[0,23],[-4,20],[-3,115],[-11,-20]],[[0,1889],[0,81],[39,1],[14,-9],[-5,-22],[-9,-19],[-27,-26],[-12,-6]]]}