{"objects":{"water":{"type":"GeometryCollection","geometries":[{"type":"Polygon","properties":{"source":"naturalearthdata.com","kind":"ocean","area":990044000000000,"sort_rank":200,"min_zoom":0,"id":1},"arcs":[[0],[1],[2]]},{"type":"LineString","properties":{"source":"naturalearthdata.com","kind":"ocean","sort_rank":205,"boundary":true,"min_zoom":0,"id":908},"arcs":[3]},{"type":"LineString","properties":{"source":"naturalearthdata.com","kind":"ocean","sort_rank":205,"boundary":true,"min_zoom":0,"id":1407},"arcs":[4]}]},"buildings":{"type":"GeometryCollection","geometries":[]},"places":{"type":"GeometryCollection","geometries":[]},"transit":{"type":"GeometryCollection","geometries":[]},"pois":{"type":"GeometryCollection","geometries":[]},"boundaries":{"type":"GeometryCollection","geometries":[]},"roads":{"type":"GeometryCollection","geometries":[]},"earth":{"type":"GeometryCollection","geometries":[{"type":"MultiPolygon","properties":{"sort_rank":10,"source":"naturalearthdata.com","min_zoom":3.0,"kind":"earth","area":152379014469},"arcs":[[[5]]]}]},"landuse":{"type":"GeometryCollection","geometries":[]}},"type":"Topology","transform":{"translate":[-22.5,-21.9430455334],"scale":[0.0054931641,0.0053571889]},"arcs":[[[0,4096],[4096,0],[0,-4096],[-4096,0],[0,4096]],[[1473,2609],[2,-2],[6,0],[9,4],[2,4],[-4,4],[-6,5],[-4,1],[-3,-5],[-3,-7],[1,-4]],[[3045,1117],[-2,-8],[17,1],[6,5],[-1,11],[-8,1],[-12,-10]],[[3045,1117],[-2,-8],[17,1],[6,5],[-1,11],[-8,1],[-12,-10]],[[1478,2625],[-3,-5],[-3,-7],[1,-4],[2,-2],[6,0],[9,4],[2,4],[-4,4],[-6,5],[-4,1]],[[3060,1110],[-17,-1],[2,8],[12,10],[8,-1],[1,-11],[-6,-5]]]}