{"objects":{"water":{"type":"GeometryCollection","geometries":[{"type":"MultiPolygon","properties":{"source":"naturalearthdata.com","kind":"ocean","area":989871000000000,"sort_rank":200,"min_zoom":0,"id":1},"arcs":[[[0]]]}]},"buildings":{"type":"GeometryCollection","geometries":[]},"places":{"type":"GeometryCollection","geometries":[]},"transit":{"type":"GeometryCollection","geometries":[]},"pois":{"type":"GeometryCollection","geometries":[]},"boundaries":{"type":"GeometryCollection","geometries":[]},"roads":{"type":"GeometryCollection","geometries":[]},"earth":{"type":"GeometryCollection","geometries":[]},"landuse":{"type":"GeometryCollection","geometries":[{"type":"MultiPolygon","properties":{"kind":"nature_reserve","protect_class":"97","area":18870822253,"sort_rank":23,"source":"openstreetmap.org","min_zoom":4.0,"tier":2,"id":-9263969},"arcs":[[[1]]]},{"type":"MultiPolygon","properties":{"kind":"nature_reserve","protect_class":"4","area":261179315601,"sort_rank":23,"source":"openstreetmap.org","min_zoom":4.0,"tier":2,"id":-7512408},"arcs":[[[2]]]}]}},"type":"Topology","transform":{"translate":[-22.5,40.9798980696],"scale":[0.002746582,0.0019391116]},"arcs":[[[4096,0],[-4096,0],[0,4096],[4096,0],[0,-4096]],[[4096,1101],[0,-347],[-272,0],[-122,387],[60,144],[213,0],[121,-184]],[[0,1227],[0,238],[146,0],[0,-238],[-146,0]]]}