{"objects":{"water":{"type":"GeometryCollection","geometries":[{"type":"MultiPolygon","properties":{"source":"naturalearthdata.com","kind":"ocean","area":989871000000000,"sort_rank":200,"min_zoom":0,"id":1},"arcs":[[[0],[1],[2],[3]]]},{"type":"LineString","properties":{"source":"naturalearthdata.com","kind":"ocean","sort_rank":205,"boundary":true,"min_zoom":0,"id":1105},"arcs":[4]},{"type":"LineString","properties":{"source":"naturalearthdata.com","kind":"ocean","sort_rank":205,"boundary":true,"min_zoom":0,"id":1106},"arcs":[5]},{"type":"LineString","properties":{"source":"naturalearthdata.com","kind":"ocean","sort_rank":205,"boundary":true,"min_zoom":0,"id":1107},"arcs":[6]}]},"buildings":{"type":"GeometryCollection","geometries":[]},"places":{"type":"GeometryCollection","geometries":[]},"transit":{"type":"GeometryCollection","geometries":[]},"pois":{"type":"GeometryCollection","geometries":[]},"boundaries":{"type":"GeometryCollection","geometries":[]},"roads":{"type":"GeometryCollection","geometries":[]},"earth":{"type":"GeometryCollection","geometries":[{"type":"MultiPolygon","properties":{"sort_rank":10,"source":"naturalearthdata.com","kind":"earth","min_zoom":2.0,"area":101107823949},"arcs":[[[7]]]}]},"landuse":{"type":"GeometryCollection","geometries":[{"type":"MultiPolygon","properties":{"kind":"nature_reserve","protect_class":"97","area":36960523698,"sort_rank":23,"operator":"ICNF","source":"openstreetmap.org","min_zoom":4.0,"tier":2,"id":-9313588},"arcs":[[[8]]]},{"type":"MultiPolygon","properties":{"kind":"nature_reserve","protect_class":"97","area":11554018645,"sort_rank":23,"operator":"Instituto das Florestas e Conserva\u00e7\u00e3o da Natureza, IP-RAM","source":"openstreetmap.org","min_zoom":4.0,"tier":2,"id":-9317127},"arcs":[[[9],[10],[11]]]}]}},"type":"Topology","transform":{"translate":[-22.5,31.952162238],"scale":[0.002746582,0.0022040371]},"arcs":[[[4096,0],[-4096,0],[0,4096],[4096,0],[0,-4096]],[[2189,245],[-2,11],[-5,13],[-7,10],[-6,6],[1,-5],[1,-5],[2,-4],[4,-5],[12,-21]],[[2079,333],[3,5],[12,15],[4,4],[5,1],[12,6],[7,2],[-4,3],[-4,1],[-4,-1],[-3,-3],[-6,4],[-7,1],[-13,1],[-5,1],[-4,3],[-19,15],[-4,2],[-11,8],[-6,2],[-14,-1],[-8,-2],[-6,-3],[-7,-5],[-9,-2],[-10,1],[-10,6],[-8,3],[-2,0],[-4,2],[-8,10],[-4,4],[-4,2],[-3,0],[-2,0],[-3,-2],[-9,-13],[-3,-3],[-5,-2],[-2,-7],[1,-8],[3,-8],[9,-13],[13,-11],[13,-9],[61,-27],[29,-2],[18,1],[15,6],[6,13]],[[2243,501],[5,4],[5,0],[13,-2],[-4,3],[-1,5],[0,14],[-2,-4],[-8,5],[-9,-3],[-7,-7],[-5,-14],[-2,-3],[-3,-2],[-3,0],[0,-4],[7,-3],[5,1],[4,4],[5,6]],[[2189,245],[-2,11],[-5,13],[-7,10],[-6,6],[1,-5],[1,-5],[2,-4],[4,-5],[12,-21]],[[2079,333],[3,5],[12,15],[4,4],[5,1],[12,6],[7,2],[-4,3],[-4,1],[-4,-1],[-3,-3],[-6,4],[-7,1],[-13,1],[-5,1],[-4,3],[-19,15],[-4,2],[-11,8],[-6,2],[-14,-1],[-8,-2],[-6,-3],[-7,-5],[-9,-2],[-10,1],[-10,6],[-8,3],[-2,0],[-4,2],[-8,10],[-4,4],[-4,2],[-3,0],[-2,0],[-3,-2],[-9,-13],[-3,-3],[-5,-2],[-2,-7],[1,-8],[3,-8],[9,-13],[13,-11],[13,-9],[61,-27],[29,-2],[18,1],[15,6],[6,13]],[[2243,501],[5,4],[5,0],[13,-2],[-4,3],[-1,5],[0,14],[-2,-4],[-8,5],[-9,-3],[-7,-7],[-5,-14],[-2,-3],[-3,-2],[-3,0],[0,-4],[7,-3],[5,1],[4,4],[5,6]],[[2079,333],[-6,-13],[-15,-6],[-18,-1],[-29,2],[-61,27],[-13,9],[-13,11],[-9,13],[-3,8],[-1,8],[2,7],[5,2],[3,3],[9,13],[3,2],[2,0],[3,0],[4,-2],[4,-4],[8,-10],[4,-2],[2,0],[8,-3],[10,-6],[10,-1],[9,2],[7,5],[6,3],[8,2],[14,1],[6,-2],[11,-8],[4,-2],[19,-15],[4,-3],[5,-1],[13,-1],[7,-1],[6,-4],[3,3],[4,1],[4,-1],[4,-3],[-7,-2],[-12,-6],[-5,-1],[-4,-4],[-12,-15],[-3,-5]],[[4096,2400],[0,-580],[-106,-62],[-293,18],[17,448],[382,176]],[[1835,335],[0,104],[25,36],[263,0],[58,127],[138,0],[0,-172],[-87,-45],[22,-250],[-117,0],[-29,104],[-160,0],[-113,96]],[[2210,494],[17,-28],[43,28],[-1,44],[-41,-9],[-18,-35]],[[1898,391],[31,-47],[93,-43],[113,51],[-96,57],[-56,-12],[-53,27],[-32,-33]]]}