{"objects":{"water":{"type":"GeometryCollection","geometries":[{"type":"MultiPolygon","properties":{"source":"naturalearthdata.com","kind":"ocean","area":989871000000000,"sort_rank":200,"min_zoom":0,"id":1},"arcs":[[[0],[1]]]},{"type":"LineString","properties":{"source":"naturalearthdata.com","kind":"ocean","sort_rank":205,"boundary":true,"min_zoom":0,"id":1031},"arcs":[2]}]},"buildings":{"type":"GeometryCollection","geometries":[]},"places":{"type":"GeometryCollection","geometries":[]},"transit":{"type":"GeometryCollection","geometries":[]},"pois":{"type":"GeometryCollection","geometries":[]},"boundaries":{"type":"GeometryCollection","geometries":[]},"roads":{"type":"GeometryCollection","geometries":[]},"earth":{"type":"GeometryCollection","geometries":[{"type":"MultiPolygon","properties":{"sort_rank":10,"source":"naturalearthdata.com","kind":"earth","min_zoom":5.0,"area":20337033755},"arcs":[[[3]]]}]},"landuse":{"type":"GeometryCollection","geometries":[]}},"type":"Topology","transform":{"translate":[-22.5,-40.9798980696],"scale":[0.002746582,0.0022040371]},"arcs":[[[4096,0],[-4096,0],[0,4096],[4096,0],[0,-4096]],[[3711,1774],[-7,-11],[-3,-5],[11,-9],[10,-11],[5,0],[7,5],[12,12],[2,2],[2,1],[2,3],[1,4],[-8,4],[-5,6],[-6,4],[-17,1],[-2,-1],[-4,-5]],[[3711,1774],[-7,-11],[-3,-5],[11,-9],[10,-11],[5,0],[7,5],[12,12],[2,2],[2,1],[2,3],[1,4],[-8,4],[-5,6],[-6,4],[-17,1],[-2,-1],[-4,-5]],[[3711,1774],[4,5],[2,1],[17,-1],[6,-4],[5,-6],[8,-4],[-1,-4],[-2,-3],[-2,-1],[-2,-2],[-12,-12],[-7,-5],[-5,0],[-10,11],[-11,9],[3,5],[7,11]]]}