{"objects":{"water":{"type":"GeometryCollection","geometries":[{"type":"MultiPolygon","properties":{"source":"naturalearthdata.com","kind":"ocean","area":989871000000000,"sort_rank":200,"min_zoom":0,"id":1},"arcs":[[[0],[1],[2]]]},{"type":"MultiLineString","properties":{"source":"naturalearthdata.com","kind":"ocean","sort_rank":205,"boundary":true,"min_zoom":0,"id":1},"arcs":[[3],[4],[5],[6]]},{"type":"LineString","properties":{"source":"naturalearthdata.com","kind":"ocean","sort_rank":205,"boundary":true,"min_zoom":0,"id":2526},"arcs":[7]},{"type":"LineString","properties":{"source":"naturalearthdata.com","kind":"ocean","sort_rank":205,"boundary":true,"min_zoom":0,"id":2539},"arcs":[8]},{"type":"LineString","properties":{"source":"naturalearthdata.com","kind":"ocean","sort_rank":205,"boundary":true,"min_zoom":0,"id":2542},"arcs":[9]}]},"buildings":{"type":"GeometryCollection","geometries":[]},"places":{"type":"GeometryCollection","geometries":[]},"transit":{"type":"GeometryCollection","geometries":[]},"pois":{"type":"GeometryCollection","geometries":[]},"boundaries":{"type":"GeometryCollection","geometries":[]},"roads":{"type":"GeometryCollection","geometries":[]},"earth":{"type":"GeometryCollection","geometries":[{"type":"MultiPolygon","properties":{"sort_rank":10,"source":"naturalearthdata.com","kind":"earth","min_zoom":2.0,"area":270874700878},"arcs":[[[10]]]},{"type":"MultiPolygon","properties":{"sort_rank":10,"source":"naturalearthdata.com","min_zoom":3.0,"kind":"earth","area":28297414695},"arcs":[[[11]],[[12]]]},{"type":"MultiPolygon","properties":{"sort_rank":10,"source":"naturalearthdata.com","min_zoom":0,"kind":"earth","area":59133836386451},"arcs":[[[13]],[[14]],[[15]],[[16]]]}]},"landuse":{"type":"GeometryCollection","geometries":[]}},"type":"Topology","transform":{"translate":[-22.5,-74.0195433115],"scale":[0.002746582,0.0008317698]},"arcs":[[[4096,2229],[0,-30],[-9,-14],[2,-5],[-2,-15],[-2,-16],[-2,-9],[-5,-9],[-15,-11],[-3,-6],[-4,-24],[-3,-10],[-4,-6],[-11,-9],[1,-4],[10,-19],[15,-8],[5,0],[-4,-20],[-5,-43],[-3,-20],[-5,-15],[-6,-11],[-28,-28],[-15,-6],[-19,4],[-125,-59],[-125,-58],[-28,-25],[-7,-3],[-26,10],[-8,1],[-8,-6],[-22,-28],[-8,-2],[-15,0],[-103,-83],[-2,-7],[-1,-11],[-2,-14],[-5,-16],[-5,-8],[-5,-4],[-6,-3],[-4,-6],[-7,-21],[-4,-5],[-9,-2],[-10,-7],[-10,-11],[-27,-48],[-10,-12],[-9,-5],[-30,-3],[-9,-5],[-22,-25],[-11,-6],[-22,5],[-19,-17],[-10,1],[-21,23],[-20,32],[-8,9],[-50,6],[-40,19],[-41,39],[-76,32],[-52,4],[-10,-5],[-10,-13],[12,-22],[29,-20],[20,-23],[6,-10],[3,-14],[0,-22],[2,-15],[5,-10],[13,-12],[52,-74],[49,-94],[-15,-9],[-9,-27],[-7,-32],[-13,-28],[9,-14],[18,-18],[9,-16],[-7,-9],[-23,-17],[-6,-2],[-12,6],[-18,-10],[-12,2],[-25,14],[-11,2],[-12,-3],[-12,-10],[-10,-15],[-6,-5],[-10,17],[-5,0],[-17,-35],[-5,-5],[-6,7],[-19,46],[-37,46],[-99,48],[-37,-12],[-71,10],[-8,-4],[-5,-7],[-9,-23],[-6,-8],[-62,-15],[-41,17],[-10,-3],[-26,-27],[-84,-44],[-10,-14],[-30,-53],[-5,-24],[5,-30],[7,-32],[1,-29],[-7,-17],[-168,-131],[-38,-67],[-6,-18],[-1,-22],[6,-32],[-9,-25],[-6,-29],[-4,-33],[-2,-39],[2,-41],[5,-22],[9,-13],[23,-20],[35,-11],[9,3],[16,13],[146,-49],[20,-16],[18,-30],[-15,-24],[-16,-10],[-104,-21],[-71,-54],[-16,3],[-28,23],[-15,-9],[13,-24],[20,-12],[73,0],[7,-8],[16,-36],[9,-9],[178,-12],[162,88],[162,87],[18,22],[10,5],[8,-11],[7,-26],[9,-21],[9,-12],[12,-4],[65,0],[20,-18],[-13,-37],[-13,-24],[-31,-31],[-1,-8],[1,-27],[0,-10],[-2,-5],[-19,-14],[-13,1],[-30,-18],[-7,-10],[-6,-12],[-2154,0],[5,14],[7,9],[5,12],[3,23],[-1,24],[-2,21],[0,19],[9,37],[-1,13],[-3,14],[1,13],[6,22],[8,20],[18,31],[-12,41],[-3,24],[4,28],[5,24],[1,22],[-3,22],[-6,24],[-8,22],[-10,19],[-10,13],[-11,8],[2,-5],[0,-11],[-1,-11],[-1,-7],[-3,-4],[-60,-32],[-15,-17],[-13,-23],[-12,-30],[-6,-56],[-26,-90],[1,-54],[-22,-51],[-28,-45],[-32,-36],[-37,-28],[-85,-19],[-339,0],[0,4096],[4096,0],[0,-1012],[-17,20],[-27,17],[-87,8],[-15,9],[-12,21],[-11,44],[-1,32],[7,29],[14,34],[-54,20],[-26,-1],[-67,-44],[-53,-7],[-32,-32],[-19,-32],[-12,-47],[5,-67],[13,-53],[57,-155],[9,-15],[59,-52],[86,-31],[82,-60],[101,7],[0,-422],[-8,-16],[7,-9],[1,-2],[0,-16],[-1,-3],[-40,-29],[-7,-11],[8,-6],[31,16],[9,-2]],[[2299,1718],[-38,127],[-9,17],[-8,12],[-10,7],[-10,2],[-7,-4],[-22,-29],[-16,-46],[-1,-62],[11,-62],[17,-50],[22,-32],[31,-21],[35,-2],[35,27],[-2,34],[-8,31],[-20,51]],[[3583,2356],[-24,38],[-31,33],[-32,-2],[-25,-65],[6,-44],[11,-34],[15,-27],[50,-50],[32,-17],[32,4],[28,35],[-12,47],[-16,32],[-34,50]],[[4096,3084],[-17,20],[-27,17],[-87,8],[-15,9],[-12,21],[-11,44],[-1,32],[7,29],[14,34],[-54,20],[-26,-1],[-67,-44],[-53,-7],[-32,-32],[-19,-32],[-12,-47],[5,-67],[13,-53],[57,-155],[9,-15],[59,-52],[86,-31],[82,-60],[101,7]],[[4096,2307],[-8,-16],[7,-9],[1,-2]],[[4096,2264],[-1,-3],[-40,-29],[-7,-11],[8,-6],[31,16],[9,-2]],[[4096,2199],[-9,-14],[2,-5],[-2,-15],[-2,-16],[-2,-9],[-5,-9],[-15,-11],[-3,-6],[-4,-24],[-3,-10],[-4,-6],[-11,-9],[1,-4],[10,-19],[15,-8],[5,0],[-4,-20],[-5,-43],[-3,-20],[-5,-15],[-6,-11],[-28,-28],[-15,-6],[-19,4],[-125,-59],[-125,-58],[-28,-25],[-7,-3],[-26,10],[-8,1],[-8,-6],[-22,-28],[-8,-2],[-15,0],[-103,-83],[-2,-7],[-1,-11],[-2,-14],[-5,-16],[-5,-8],[-5,-4],[-6,-3],[-4,-6],[-7,-21],[-4,-5],[-9,-2],[-10,-7],[-10,-11],[-27,-48],[-10,-12],[-9,-5],[-30,-3],[-9,-5],[-22,-25],[-11,-6],[-22,5],[-19,-17],[-10,1],[-21,23],[-20,32],[-8,9],[-50,6],[-40,19],[-41,39],[-76,32],[-52,4],[-10,-5],[-10,-13],[12,-22],[29,-20],[20,-23],[6,-10],[3,-14],[0,-22],[2,-15],[5,-10],[13,-12],[52,-74],[49,-94],[-15,-9],[-9,-27],[-7,-32],[-13,-28],[9,-14],[18,-18],[9,-16],[-7,-9],[-23,-17],[-6,-2],[-12,6],[-18,-10],[-12,2],[-25,14],[-11,2],[-12,-3],[-12,-10],[-10,-15],[-6,-5],[-10,17],[-5,0],[-17,-35],[-5,-5],[-6,7],[-19,46],[-37,46],[-99,48],[-37,-12],[-71,10],[-8,-4],[-5,-7],[-9,-23],[-6,-8],[-62,-15],[-41,17],[-10,-3],[-26,-27],[-84,-44],[-10,-14],[-30,-53],[-5,-24],[5,-30],[7,-32],[1,-29],[-7,-17],[-168,-131],[-38,-67],[-6,-18],[-1,-22],[6,-32],[-9,-25],[-6,-29],[-4,-33],[-2,-39],[2,-41],[5,-22],[9,-13],[23,-20],[35,-11],[9,3],[16,13],[146,-49],[20,-16],[18,-30],[-15,-24],[-16,-10],[-104,-21],[-71,-54],[-16,3],[-28,23],[-15,-9],[13,-24],[20,-12],[73,0],[7,-8],[16,-36],[9,-9],[178,-12],[162,88],[162,87],[18,22],[10,5],[8,-11],[7,-26],[9,-21],[9,-12],[12,-4],[65,0],[20,-18],[-13,-37],[-13,-24],[-31,-31],[-1,-8],[1,-27],[0,-10],[-2,-5],[-19,-14],[-13,1],[-30,-18],[-7,-10],[-6,-12]],[[675,0],[5,14],[7,9],[5,12],[3,23],[-1,24],[-2,21],[0,19],[9,37],[-1,13],[-3,14],[1,13],[6,22],[8,20],[18,31],[-12,41],[-3,24],[4,28],[5,24],[1,22],[-3,22],[-6,24],[-8,22],[-10,19],[-10,13],[-11,8],[2,-5],[0,-11],[-1,-11],[-1,-7],[-3,-4],[-60,-32],[-15,-17],[-13,-23],[-12,-30],[-6,-56],[-26,-90],[1,-54],[-22,-51],[-28,-45],[-32,-36],[-37,-28],[-85,-19]],[[2299,1718],[-38,127],[-9,17],[-8,12],[-10,7],[-10,2],[-7,-4],[-22,-29],[-16,-46],[-1,-62],[11,-62],[17,-50],[22,-32],[31,-21],[35,-2],[35,27],[-2,34],[-8,31],[-20,51]],[[3583,2356],[-24,38],[-31,33],[-32,-2],[-25,-65],[6,-44],[11,-34],[15,-27],[50,-50],[32,-17],[32,4],[28,35],[-12,47],[-16,32],[-34,50]],[[675,0],[-336,0],[85,19],[37,28],[32,36],[28,45],[22,51],[-1,54],[26,90],[6,56],[12,30],[13,23],[15,17],[60,32],[3,4],[1,7],[1,11],[0,11],[-2,5],[11,-8],[10,-13],[10,-19],[8,-22],[6,-24],[3,-22],[-1,-22],[-5,-24],[-4,-28],[3,-24],[12,-41],[-18,-31],[-8,-20],[-6,-22],[-1,-13],[3,-14],[1,-13],[-9,-37],[0,-19],[2,-21],[1,-24],[-3,-23],[-5,-12],[-7,-9],[-5,-14]],[[2299,1718],[20,-51],[8,-31],[2,-34],[-35,-27],[-35,2],[-31,21],[-22,32],[-17,50],[-11,62],[1,62],[16,46],[22,29],[7,4],[10,-2],[10,-7],[8,-12],[9,-17],[38,-127]],[[3583,2356],[34,-50],[16,-32],[12,-47],[-28,-35],[-32,-4],[-32,17],[-50,50],[-15,27],[-11,34],[-6,44],[25,65],[32,2],[31,-33],[24,-38]],[[4096,2199],[0,-2199],[-1267,0],[6,12],[7,10],[30,18],[13,-1],[19,14],[2,5],[0,10],[-1,27],[1,8],[31,31],[13,24],[13,37],[-20,18],[-65,0],[-12,4],[-9,12],[-9,21],[-7,26],[-8,11],[-10,-5],[-18,-22],[-162,-87],[-162,-88],[-178,12],[-9,9],[-16,36],[-7,8],[-73,0],[-20,12],[-13,24],[15,9],[28,-23],[16,-3],[71,54],[104,21],[16,10],[15,24],[-18,30],[-20,16],[-146,49],[-16,-13],[-9,-3],[-35,11],[-23,20],[-9,13],[-5,22],[-2,41],[2,39],[4,33],[6,29],[9,25],[-6,32],[1,22],[6,18],[38,67],[168,131],[7,17],[-1,29],[-7,32],[-5,30],[5,24],[30,53],[10,14],[84,44],[26,27],[10,3],[41,-17],[62,15],[6,8],[9,23],[5,7],[8,4],[71,-10],[37,12],[99,-48],[37,-46],[19,-46],[6,-7],[5,5],[17,35],[5,0],[10,-17],[6,5],[10,15],[12,10],[12,3],[11,-2],[25,-14],[12,-2],[18,10],[12,-6],[6,2],[23,17],[7,9],[-9,16],[-18,18],[-9,14],[13,28],[7,32],[9,27],[15,9],[-49,94],[-52,74],[-13,12],[-5,10],[-2,15],[0,22],[-3,14],[-6,10],[-20,23],[-29,20],[-12,22],[10,13],[10,5],[52,-4],[76,-32],[41,-39],[40,-19],[50,-6],[8,-9],[20,-32],[21,-23],[10,-1],[19,17],[22,-5],[11,6],[22,25],[9,5],[30,3],[9,5],[10,12],[27,48],[10,11],[10,7],[9,2],[4,5],[7,21],[4,6],[6,3],[5,4],[5,8],[5,16],[2,14],[1,11],[2,7],[103,83],[15,0],[8,2],[22,28],[8,6],[8,-1],[26,-10],[7,3],[28,25],[125,58],[125,59],[19,-4],[15,6],[28,28],[6,11],[5,15],[3,20],[5,43],[4,20],[-5,0],[-15,8],[-10,19],[-1,4],[11,9],[4,6],[3,10],[4,24],[3,6],[15,11],[5,9],[2,9],[2,16],[2,15],[-2,5],[9,14]],[[4096,2264],[0,-35],[-9,2],[-31,-16],[-8,6],[7,11],[40,29],[1,3]],[[4096,2307],[0,-27],[-1,2],[-7,9],[8,16]],[[4096,3084],[0,-355],[-101,-7],[-82,60],[-86,31],[-59,52],[-9,15],[-57,155],[-13,53],[-5,67],[12,47],[19,32],[32,32],[53,7],[67,44],[26,1],[54,-20],[-14,-34],[-7,-29],[1,-32],[11,-44],[12,-21],[15,-9],[87,-8],[27,-17],[17,-20]]]}