{"objects":{"water":{"type":"GeometryCollection","geometries":[{"type":"MultiPolygon","properties":{"source":"naturalearthdata.com","kind":"ocean","area":989871000000000,"sort_rank":200,"min_zoom":0,"id":1},"arcs":[[[0]]]},{"type":"LineString","properties":{"source":"naturalearthdata.com","kind":"ocean","sort_rank":205,"boundary":true,"min_zoom":0,"id":1},"arcs":[1]},{"type":"MultiLineString","properties":{"source":"naturalearthdata.com","kind":"ocean","sort_rank":205,"boundary":true,"min_zoom":0,"id":2526},"arcs":[[2],[3]]}]},"buildings":{"type":"GeometryCollection","geometries":[]},"places":{"type":"GeometryCollection","geometries":[]},"transit":{"type":"GeometryCollection","geometries":[]},"pois":{"type":"GeometryCollection","geometries":[]},"boundaries":{"type":"GeometryCollection","geometries":[]},"roads":{"type":"GeometryCollection","geometries":[]},"earth":{"type":"GeometryCollection","geometries":[{"type":"MultiPolygon","properties":{"sort_rank":10,"source":"naturalearthdata.com","kind":"earth","min_zoom":2.0,"area":270874700878},"arcs":[[[4]]]},{"type":"MultiPolygon","properties":{"sort_rank":10,"source":"naturalearthdata.com","min_zoom":0,"kind":"earth","area":59133836386451},"arcs":[[[5]]]}]},"landuse":{"type":"GeometryCollection","geometries":[]}},"type":"Topology","transform":{"translate":[-22.5,-76.8408164144],"scale":[0.002746582,0.0006887874]},"arcs":[[[675,4096],[2154,0],[-2,-3],[-20,-63],[-14,-24],[-45,-32],[-6,-8],[-13,-24],[-5,-5],[-26,4],[-7,-8],[-2,-8],[-3,-27],[-3,-11],[-3,-5],[-5,-2],[-15,-19],[-3,-8],[-2,-10],[1,-9],[-1,-9],[-6,-10],[-23,-4],[-5,-8],[-2,-14],[1,-37],[-2,-14],[-6,-14],[-2,-8],[-1,-11],[5,-44],[14,-28],[31,-32],[-132,-57],[-9,2],[-5,-2],[-5,-1],[-2,-2],[0,-31],[-8,-11],[-42,0],[-63,77],[-122,51],[-122,51],[-156,-22],[-157,-21],[-18,-16],[-23,-31],[-15,-48],[8,-64],[-3,-8],[-5,-19],[-2,-8],[6,-9],[5,-14],[4,-18],[3,-22],[-14,-7],[-4,-47],[-2,-49],[-7,-14],[-13,12],[-11,-1],[-38,-43],[-40,-26],[-12,3],[-4,-8],[0,-30],[2,-12],[11,-23],[1,-8],[3,-16],[2,-7],[5,-6],[5,-2],[5,-6],[4,-16],[4,-27],[4,-20],[6,-15],[7,-13],[-8,-22],[-11,-9],[-22,-6],[-29,-30],[-7,-13],[-7,-24],[-8,-15],[-18,-21],[-8,-16],[-7,-29],[-1,-29],[7,-22],[-18,-13],[-9,-12],[-8,-14],[-8,-26],[-4,-7],[-5,1],[-13,13],[-4,0],[-18,-23],[-9,-16],[-8,-19],[-9,-12],[-8,2],[-8,6],[-9,-1],[-10,-45],[0,-72],[-3,-64],[-20,-16],[-20,12],[-10,-2],[-8,-15],[-2,-14],[-2,-36],[-2,-14],[-7,-19],[-4,-8],[-4,-6],[-8,-2],[-22,7],[-7,-6],[-4,-30],[8,-19],[12,-12],[8,-5],[8,-8],[14,-29],[27,-18],[9,-10],[9,-17],[15,-40],[8,-26],[7,-45],[9,-12],[93,-65],[-57,-30],[-19,1],[-25,21],[-8,3],[-10,-5],[-17,-22],[-11,1],[-121,57],[-15,-17],[34,-53],[-12,-35],[-14,-8],[-84,27],[0,-34],[-1,-34],[-36,26],[-3,-2],[-10,-16],[-5,-4],[-74,9],[-29,18],[-8,-3],[-18,-24],[-9,-5],[-115,56],[-115,56],[-17,-13],[-18,-23],[-77,-46],[-9,-19],[-2,-32],[5,-21],[29,-49],[-8,-13],[-8,0],[-16,17],[-9,6],[-7,-3],[-15,-27],[-16,-16],[-32,6],[-17,-18],[-31,-51],[-34,-36],[-35,-13],[-150,62],[-29,-42],[-18,-12],[-19,-2],[-68,41],[-7,-5],[-2,-30],[-83,89],[-5,-1],[-4,-7],[-9,-27],[-5,-11],[-5,-3],[-44,41],[0,2367],[339,0],[-17,-5],[-101,-27],[-54,-93],[7,-12],[112,37],[151,-25],[65,-54],[21,-30],[19,-34],[11,-35],[8,-40],[26,-198],[7,-39],[1,-12],[0,-12],[0,-19],[0,-11],[8,-35],[14,-18],[101,-39],[18,5],[18,14],[5,8],[4,11],[10,39],[2,11],[1,12],[1,12],[0,47],[-5,47],[-7,42],[-10,33],[-56,128],[-11,41],[-19,93],[-11,38],[4,14],[5,17],[3,20],[3,19],[0,13],[0,25],[2,12]],[[2829,4096],[-2,-3],[-20,-63],[-14,-24],[-45,-32],[-6,-8],[-13,-24],[-5,-5],[-26,4],[-7,-8],[-2,-8],[-3,-27],[-3,-11],[-3,-5],[-5,-2],[-15,-19],[-3,-8],[-2,-10],[1,-9],[-1,-9],[-6,-10],[-23,-4],[-5,-8],[-2,-14],[1,-37],[-2,-14],[-6,-14],[-2,-8],[-1,-11],[5,-44],[14,-28],[31,-32],[-132,-57],[-9,2],[-5,-2],[-5,-1],[-2,-2],[0,-31],[-8,-11],[-42,0],[-63,77],[-122,51],[-122,51],[-156,-22],[-157,-21],[-18,-16],[-23,-31],[-15,-48],[8,-64],[-3,-8],[-5,-19],[-2,-8],[6,-9],[5,-14],[4,-18],[3,-22],[-14,-7],[-4,-47],[-2,-49],[-7,-14],[-13,12],[-11,-1],[-38,-43],[-40,-26],[-12,3],[-4,-8],[0,-30],[2,-12],[11,-23],[1,-8],[3,-16],[2,-7],[5,-6],[5,-2],[5,-6],[4,-16],[4,-27],[4,-20],[6,-15],[7,-13],[-8,-22],[-11,-9],[-22,-6],[-29,-30],[-7,-13],[-7,-24],[-8,-15],[-18,-21],[-8,-16],[-7,-29],[-1,-29],[7,-22],[-18,-13],[-9,-12],[-8,-14],[-8,-26],[-4,-7],[-5,1],[-13,13],[-4,0],[-18,-23],[-9,-16],[-8,-19],[-9,-12],[-8,2],[-8,6],[-9,-1],[-10,-45],[0,-72],[-3,-64],[-20,-16],[-20,12],[-10,-2],[-8,-15],[-2,-14],[-2,-36],[-2,-14],[-7,-19],[-4,-8],[-4,-6],[-8,-2],[-22,7],[-7,-6],[-4,-30],[8,-19],[12,-12],[8,-5],[8,-8],[14,-29],[27,-18],[9,-10],[9,-17],[15,-40],[8,-26],[7,-45],[9,-12],[93,-65],[-57,-30],[-19,1],[-25,21],[-8,3],[-10,-5],[-17,-22],[-11,1],[-121,57],[-15,-17],[34,-53],[-12,-35],[-14,-8],[-84,27],[0,-34],[-1,-34],[-36,26],[-3,-2],[-10,-16],[-5,-4],[-74,9],[-29,18],[-8,-3],[-18,-24],[-9,-5],[-115,56],[-115,56],[-17,-13],[-18,-23],[-77,-46],[-9,-19],[-2,-32],[5,-21],[29,-49],[-8,-13],[-8,0],[-16,17],[-9,6],[-7,-3],[-15,-27],[-16,-16],[-32,6],[-17,-18],[-31,-51],[-34,-36],[-35,-13],[-150,62],[-29,-42],[-18,-12],[-19,-2],[-68,41],[-7,-5],[-2,-30],[-83,89],[-5,-1],[-4,-7],[-9,-27],[-5,-11],[-5,-3],[-44,41]],[[777,3507],[0,47],[-5,47],[-7,42],[-10,33],[-56,128],[-11,41],[-19,93],[-11,38],[4,14],[5,17],[3,20],[3,19],[0,13],[0,25],[2,12]],[[339,4096],[-17,-5],[-101,-27],[-54,-93],[7,-12],[112,37],[151,-25],[65,-54],[21,-30],[19,-34],[11,-35],[8,-40],[26,-198],[7,-39],[1,-12],[0,-12],[0,-19],[0,-11],[8,-35],[14,-18],[101,-39],[18,5],[18,14],[5,8],[4,11],[10,39],[2,11],[1,12],[1,12]],[[339,4096],[336,0],[-2,-12],[0,-25],[0,-13],[-3,-19],[-3,-20],[-5,-17],[-4,-14],[11,-38],[19,-93],[11,-41],[56,-128],[10,-33],[7,-42],[5,-47],[0,-47],[-1,-12],[-1,-12],[-2,-11],[-10,-39],[-4,-11],[-5,-8],[-18,-14],[-18,-5],[-101,39],[-14,18],[-8,35],[0,11],[0,19],[0,12],[-1,12],[-7,39],[-26,198],[-8,40],[-11,35],[-19,34],[-21,30],[-65,54],[-151,25],[-112,-37],[-7,12],[54,93],[101,27],[17,5]],[[2829,4096],[1267,0],[0,-4096],[-4096,0],[0,1729],[44,-41],[5,3],[5,11],[9,27],[4,7],[5,1],[83,-89],[2,30],[7,5],[68,-41],[19,2],[18,12],[29,42],[150,-62],[35,13],[34,36],[31,51],[17,18],[32,-6],[16,16],[15,27],[7,3],[9,-6],[16,-17],[8,0],[8,13],[-29,49],[-5,21],[2,32],[9,19],[77,46],[18,23],[17,13],[115,-56],[115,-56],[9,5],[18,24],[8,3],[29,-18],[74,-9],[5,4],[10,16],[3,2],[36,-26],[1,34],[0,34],[84,-27],[14,8],[12,35],[-34,53],[15,17],[121,-57],[11,-1],[17,22],[10,5],[8,-3],[25,-21],[19,-1],[57,30],[-93,65],[-9,12],[-7,45],[-8,26],[-15,40],[-9,17],[-9,10],[-27,18],[-14,29],[-8,8],[-8,5],[-12,12],[-8,19],[4,30],[7,6],[22,-7],[8,2],[4,6],[4,8],[7,19],[2,14],[2,36],[2,14],[8,15],[10,2],[20,-12],[20,16],[3,64],[0,72],[10,45],[9,1],[8,-6],[8,-2],[9,12],[8,19],[9,16],[18,23],[4,0],[13,-13],[5,-1],[4,7],[8,26],[8,14],[9,12],[18,13],[-7,22],[1,29],[7,29],[8,16],[18,21],[8,15],[7,24],[7,13],[29,30],[22,6],[11,9],[8,22],[-7,13],[-6,15],[-4,20],[-4,27],[-4,16],[-5,6],[-5,2],[-5,6],[-2,7],[-3,16],[-1,8],[-11,23],[-2,12],[0,30],[4,8],[12,-3],[40,26],[38,43],[11,1],[13,-12],[7,14],[2,49],[4,47],[14,7],[-3,22],[-4,18],[-5,14],[-6,9],[2,8],[5,19],[3,8],[-8,64],[15,48],[23,31],[18,16],[157,21],[57,8],[99,14],[122,-51],[122,-51],[63,-77],[42,0],[8,11],[0,31],[2,2],[5,1],[5,2],[9,-2],[132,57],[-31,32],[-14,28],[-5,44],[1,11],[2,8],[6,14],[2,14],[-1,37],[2,14],[5,8],[23,4],[6,10],[1,9],[-1,9],[2,10],[3,8],[15,19],[5,2],[3,5],[3,11],[3,27],[2,8],[7,8],[26,-4],[5,5],[13,24],[6,8],[45,32],[14,24],[20,63],[2,3]]]}