{"objects":{"water":{"type":"GeometryCollection","geometries":[{"type":"MultiPolygon","properties":{"source":"naturalearthdata.com","kind":"ocean","area":989871000000000,"sort_rank":200,"min_zoom":0,"id":1},"arcs":[[[0],[1]],[[2]],[[3]],[[4]],[[5]]]},{"type":"MultiLineString","properties":{"source":"naturalearthdata.com","kind":"ocean","sort_rank":205,"boundary":true,"min_zoom":0,"id":514},"arcs":[[6],[7],[8],[9],[10],[11],[12],[13]]},{"type":"MultiLineString","properties":{"source":"naturalearthdata.com","kind":"ocean","sort_rank":205,"boundary":true,"min_zoom":0,"id":2490},"arcs":[[14],[15],[16],[17]]},{"type":"MultiLineString","properties":{"source":"naturalearthdata.com","kind":"ocean","sort_rank":205,"boundary":true,"min_zoom":0,"id":2492},"arcs":[[18],[19]]},{"type":"LineString","properties":{"source":"naturalearthdata.com","kind":"ocean","sort_rank":205,"boundary":true,"min_zoom":0,"id":2493},"arcs":[20]}]},"buildings":{"type":"GeometryCollection","geometries":[]},"places":{"type":"GeometryCollection","geometries":[]},"transit":{"type":"GeometryCollection","geometries":[]},"pois":{"type":"GeometryCollection","geometries":[]},"boundaries":{"type":"GeometryCollection","geometries":[]},"roads":{"type":"GeometryCollection","geometries":[]},"earth":{"type":"GeometryCollection","geometries":[{"type":"MultiPolygon","properties":{"sort_rank":10,"source":"naturalearthdata.com","min_zoom":0,"kind":"earth","area":44884805284559},"arcs":[[[21]],[[22]],[[23]],[[24]],[[25]],[[26]],[[27]],[[28]]]}]},"landuse":{"type":"GeometryCollection","geometries":[]}},"type":"Topology","transform":{"translate":[-22.5,70.612614238],"scale":[0.002746582,0.0008317698]},"arcs":[[[405,4096],[3691,0],[0,-4096],[-3819,0],[1,1],[-3,13],[-2,6],[-3,5],[41,0],[9,9],[-7,13],[-3,8],[-2,11],[14,-1],[7,2],[6,8],[-9,12],[-9,8],[-42,6],[-7,7],[0,8],[79,0],[-9,24],[-17,17],[-17,5],[-14,-14],[-7,9],[-8,-2],[-9,-5],[-8,-2],[3,14],[6,4],[12,0],[6,2],[18,22],[9,4],[3,7],[0,18],[-2,7],[-4,3],[-5,-1],[-43,-28],[-14,-2],[-10,2],[-12,8],[-11,13],[-6,19],[6,2],[3,-1],[1,-1],[5,1],[15,-14],[7,-3],[30,2],[3,5],[5,16],[6,14],[2,8],[-2,4],[-4,4],[-11,19],[-4,9],[16,29],[37,47],[15,32],[-10,10],[-25,-32],[-13,5],[13,17],[-11,8],[-12,-9],[-22,-33],[-3,20],[12,20],[26,26],[-10,12],[-70,-36],[-27,7],[0,9],[37,4],[20,19],[22,3],[10,8],[24,16],[6,8],[-5,8],[-2,15],[1,15],[1,12],[-8,16],[-10,7],[-22,1],[-7,-2],[-16,-12],[-9,-2],[2,-8],[-7,-11],[-30,11],[-119,-29],[-13,21],[62,10],[15,11],[135,40],[13,12],[-32,31],[-11,2],[4,13],[-1,13],[-5,15],[-3,17],[13,-3],[9,-16],[15,-43],[12,-7],[7,17],[5,26],[6,17],[-15,37],[-8,12],[-9,1],[0,9],[3,1],[7,7],[-6,13],[-10,12],[-11,8],[-7,-5],[-7,-19],[-10,-13],[-10,-4],[-9,8],[7,7],[3,1],[0,8],[-7,6],[-14,3],[-7,7],[130,66],[0,9],[-45,0],[-24,-16],[-8,-1],[9,8],[4,6],[8,17],[11,10],[6,9],[-28,3],[-8,-7],[-6,-8],[-6,-5],[-4,3],[1,14],[6,11],[9,8],[27,9],[17,18],[9,3],[-10,18],[-45,6],[0,9],[8,-1],[22,8],[8,10],[-15,8],[-29,-10],[-14,9],[11,16],[24,17],[10,17],[-2,11],[-3,10],[-4,8],[-4,4],[-5,-4],[-2,-10],[-2,-12],[-3,-7],[-8,1],[-11,28],[-9,4],[5,-29],[-7,-4],[-20,8],[4,-5],[3,-7],[3,-10],[3,-11],[-8,-7],[-7,8],[-8,14],[-8,10],[-18,8],[-19,0],[-9,-7],[-56,-72],[-7,-19],[-18,-70],[-2,-16],[1,-9],[5,-4],[3,-5],[1,-11],[-3,-21],[-5,-39],[-14,-15],[-17,0],[-14,9],[3,14],[2,7],[2,3],[1,4],[-1,7],[-3,6],[-1,-1],[1,24],[2,9],[4,17],[-5,9],[-9,15],[-3,9],[-1,8],[0,8],[1,2],[2,5],[1,9],[-2,22],[-2,17],[0,1],[0,153],[4,4],[15,28],[8,7],[26,0],[8,6],[21,5],[46,-7],[18,28],[-5,7],[-15,2],[-23,17],[10,17],[40,26],[24,5],[9,17],[-13,17],[20,3],[8,7],[2,14],[10,8],[4,7],[3,10],[-89,-33],[-7,7],[7,26],[-7,16],[-10,4],[-10,-5],[-29,-26],[-4,-6],[-2,-18],[2,-10],[0,-11],[-5,-18],[-9,-14],[-15,-15],[-6,-21],[1,-4],[1,-4],[0,-3],[1,-5],[-11,-1],[-20,17],[-8,-3],[0,101],[14,16],[13,21],[6,22],[-2,30],[-14,-3],[-17,-16],[0,425],[91,-16],[18,5],[7,8],[13,24],[7,10],[-2,11],[-8,17],[-10,10],[-3,7],[-2,15],[7,5],[20,37],[21,22],[7,11],[-22,3],[-21,13],[-21,2],[-10,-5],[1,-13],[-6,-14],[-7,-5],[-8,1],[-6,9],[7,33],[-10,22],[-63,31],[0,133],[51,-22],[10,5],[18,20],[9,1],[-1,-4],[-1,-5],[-1,-3],[-2,-5],[7,-9],[35,-10],[38,-34],[17,-6],[16,4],[12,22],[-2,6],[-5,18],[0,9],[5,37],[-6,26],[-13,15],[-15,4],[-64,-24],[2,13],[4,10],[4,6],[3,3],[6,9],[0,12],[-5,12],[-6,9],[-52,30],[-19,23],[-9,5],[-16,2],[-7,9],[-5,13],[-1,15],[-4,0],[-3,-5],[0,97],[86,8],[34,-17],[3,9],[9,11],[12,8],[12,3],[10,-5],[-15,-33],[15,8],[9,0],[3,-12],[6,-4],[28,2],[8,6],[-2,0],[2,5],[0,1],[-2,3],[10,15],[-2,17],[-8,12],[-10,5],[-2,1],[-5,12],[-3,2],[-2,-2],[-3,-4],[-2,-1],[-11,1],[-4,4],[-3,12],[17,9],[5,6],[-5,10],[-6,5],[-30,11],[-3,2],[-1,5],[-1,6],[-1,3],[-7,1],[-8,-3],[-9,0],[-11,10],[11,12],[31,14],[15,13],[4,2],[12,-4],[5,4],[-8,14],[-3,3],[10,22],[22,9],[11,11],[-2,5],[-1,7],[-1,6],[-1,6],[-5,8],[-8,3],[-8,5],[-4,18],[-10,-14],[-9,2],[-9,7],[-9,5],[-3,-3],[-1,-6],[-1,-6],[0,-2],[-4,0],[-58,58],[-89,27],[0,328],[68,-28],[38,5],[37,30],[52,65],[68,50],[27,8],[18,13],[20,-1],[10,4],[8,16],[-2,19],[-8,19],[-10,19],[-2,1],[-4,1],[28,40],[33,-5],[63,-35],[134,-5],[134,-5],[34,20],[9,14],[9,23],[7,26],[0,22],[-11,11],[-28,-2],[-11,15],[-1,18],[15,32],[1,16],[-2,10],[3,6],[3,5],[2,8],[-1,14],[-2,6],[-2,4],[-3,9],[-4,22],[-2,7],[-9,20],[-2,8],[4,23],[11,6],[22,-3],[0,7],[-5,1],[-5,5],[-5,8],[-5,12],[13,19],[15,10],[35,4],[5,5],[3,9],[3,29],[4,7],[4,4],[3,12],[-5,4],[-2,10],[-1,14],[-2,13],[-7,13],[-8,6],[-17,5],[-117,-11],[-165,103],[-90,57]],[[427,3048],[-13,-1],[-36,-31],[24,-26],[25,2],[50,24],[0,6],[1,5],[3,3],[4,2],[-13,14],[-45,2]],[[160,4096],[58,0],[-3,-4],[3,-29],[-2,-4],[-1,-4],[-1,-4],[-1,-5],[9,-6],[4,-6],[3,-9],[1,-12],[-7,-18],[1,-11],[6,-9],[14,-1],[6,-3],[4,-7],[3,-9],[2,-10],[3,-10],[6,-14],[2,-9],[-1,-10],[-2,-12],[2,-10],[3,-10],[1,-9],[-1,-6],[-3,-10],[-1,-5],[0,-6],[2,-10],[0,-5],[1,-12],[0,-11],[2,-8],[2,-5],[-1,-3],[-1,-3],[-1,-2],[-2,-1],[12,-29],[5,-16],[3,-21],[-15,-35],[-9,-14],[-7,4],[-5,5],[-9,-14],[-5,5],[-2,12],[1,10],[2,10],[2,13],[0,26],[0,14],[-2,6],[-3,5],[-2,14],[-1,16],[0,14],[2,8],[4,9],[2,7],[0,7],[-2,14],[-1,9],[1,6],[9,30],[-20,58],[3,8],[-12,17],[-26,16],[-12,16],[4,12],[0,10],[-2,8],[-5,3],[4,19],[3,10],[-1,5],[-14,17],[-12,8]],[[0,3558],[0,33],[23,18],[23,0],[17,14],[43,8],[12,-6],[-70,-25],[-45,-42],[-3,0]],[[0,1917],[0,3],[1,0],[-1,-3]],[[27,0],[-27,0],[0,289],[8,3],[11,-1],[7,-10],[1,-19],[-1,-23],[-3,-21],[-2,-11],[-1,-19],[-7,-69],[-3,-43],[0,-7],[0,-6],[2,-9],[7,-14],[3,-8],[5,-32]],[[0,289],[8,3],[11,-1],[7,-10],[1,-19],[-1,-23],[-3,-21],[-2,-11],[-1,-19],[-7,-69],[-3,-43],[0,-7],[0,-6],[2,-9],[7,-14],[3,-8],[5,-32]],[[277,0],[1,1],[-3,13],[-2,6],[-3,5],[41,0],[9,9],[-7,13],[-3,8],[-2,11],[14,-1],[7,2],[6,8],[-9,12],[-9,8],[-42,6],[-7,7],[0,8],[79,0],[-9,24],[-17,17],[-17,5],[-14,-14],[-7,9],[-8,-2],[-9,-5],[-8,-2],[3,14],[6,4],[12,0],[6,2],[18,22],[9,4],[3,7],[0,18],[-2,7],[-4,3],[-5,-1],[-43,-28],[-14,-2],[-10,2],[-12,8],[-11,13],[-6,19],[6,2],[3,-1],[1,-1],[5,1],[15,-14],[7,-3],[30,2],[3,5],[5,16],[6,14],[2,8],[-2,4],[-4,4],[-11,19],[-4,9],[16,29],[37,47],[15,32],[-10,10],[-25,-32],[-13,5],[13,17],[-11,8],[-12,-9],[-22,-33],[-3,20],[12,20],[26,26],[-10,12],[-70,-36],[-27,7],[0,9],[37,4],[20,19],[22,3],[10,8],[24,16],[6,8],[-5,8],[-2,15],[1,15],[1,12],[-8,16],[-10,7],[-22,1],[-7,-2],[-16,-12],[-9,-2],[2,-8],[-7,-11],[-30,11],[-119,-29],[-13,21],[62,10],[15,11],[135,40],[13,12],[-32,31],[-11,2],[4,13],[-1,13],[-5,15],[-3,17],[13,-3],[9,-16],[15,-43],[12,-7],[7,17],[5,26],[6,17],[-15,37],[-8,12],[-9,1],[0,9],[3,1],[7,7],[-6,13],[-10,12],[-11,8],[-7,-5],[-7,-19],[-10,-13],[-10,-4],[-9,8],[7,7],[3,1],[0,8],[-7,6],[-14,3],[-7,7],[130,66],[0,9],[-45,0],[-24,-16],[-8,-1],[9,8],[4,6],[8,17],[11,10],[6,9],[-28,3],[-8,-7],[-6,-8],[-6,-5],[-4,3],[1,14],[6,11],[9,8],[27,9],[17,18],[9,3],[-10,18],[-45,6],[0,9],[8,-1],[22,8],[8,10],[-15,8],[-29,-10],[-14,9],[11,16],[24,17],[10,17],[-2,11],[-3,10],[-4,8],[-4,4],[-5,-4],[-2,-10],[-2,-12],[-3,-7],[-8,1],[-11,28],[-9,4],[5,-29],[-7,-4],[-20,8],[4,-5],[3,-7],[3,-10],[3,-11],[-8,-7],[-7,8],[-8,14],[-8,10],[-18,8],[-19,0],[-9,-7],[-56,-72],[-7,-19],[-18,-70],[-2,-16],[1,-9],[5,-4],[3,-5],[1,-11],[-3,-21],[-5,-39],[-14,-15],[-17,0],[-14,9],[3,14],[2,7],[2,3],[1,4],[-1,7],[-3,6],[-1,-1],[1,24],[2,9],[4,17],[-5,9],[-9,15],[-3,9],[-1,8]],[[0,923],[1,2],[2,5],[1,9],[-2,22],[-2,17],[0,1]],[[0,1132],[4,4],[15,28],[8,7],[26,0],[8,6],[21,5],[46,-7],[18,28],[-5,7],[-15,2],[-23,17],[10,17],[40,26],[24,5],[9,17],[-13,17],[20,3],[8,7],[2,14],[10,8],[4,7],[3,10],[-89,-33],[-7,7],[7,26],[-7,16],[-10,4],[-10,-5],[-29,-26],[-4,-6],[-2,-18],[2,-10],[0,-11],[-5,-18],[-9,-14],[-15,-15],[-6,-21],[1,-4],[1,-4],[0,-3],[1,-5],[-11,-1],[-20,17],[-8,-3]],[[0,1334],[14,16],[13,21],[6,22],[-2,30],[-14,-3],[-17,-16]],[[0,3591],[23,18],[23,0],[17,14],[43,8],[12,-6],[-70,-25],[-45,-42],[-3,0]],[[0,3199],[68,-28],[38,5],[37,30],[52,65],[68,50],[27,8],[18,13],[20,-1],[10,4],[8,16],[-2,19],[-8,19],[-10,19],[-2,1],[-4,1],[28,40],[33,-5],[63,-35],[134,-5],[134,-5],[34,20],[9,14],[9,23],[7,26],[0,22],[-11,11],[-28,-2],[-11,15],[-1,18],[15,32],[1,16],[-2,10],[3,6],[3,5],[2,8],[-1,14],[-2,6],[-2,4],[-3,9],[-4,22],[-2,7],[-9,20],[-2,8],[4,23],[11,6],[22,-3],[0,7],[-5,1],[-5,5],[-5,8],[-5,12],[13,19],[15,10],[35,4],[5,5],[3,9],[3,29],[4,7],[4,4],[3,12],[-5,4],[-2,10],[-1,14],[-2,13],[-7,13],[-8,6],[-17,5],[-117,-11],[-165,103],[-90,57]],[[218,4096],[-3,-4],[3,-29],[-2,-4],[-1,-4],[-1,-4],[-1,-5],[9,-6],[4,-6],[3,-9],[1,-12],[-7,-18],[1,-11],[6,-9],[14,-1],[6,-3],[4,-7],[3,-9],[2,-10],[3,-10],[6,-14],[2,-9],[-1,-10],[-2,-12],[2,-10],[3,-10],[1,-9],[-1,-6],[-3,-10],[-1,-5],[0,-6],[2,-10],[0,-5],[1,-12],[0,-11],[2,-8],[2,-5],[-1,-3],[-1,-3],[-1,-2],[-2,-1],[12,-29],[5,-16],[3,-21],[-15,-35],[-9,-14],[-7,4],[-5,5],[-9,-14],[-5,5],[-2,12],[1,10],[2,10],[2,13],[0,26],[0,14],[-2,6],[-3,5],[-2,14],[-1,16],[0,14],[2,8],[4,9],[2,7],[0,7],[-2,14],[-1,9],[1,6],[9,30],[-20,58],[3,8],[-12,17],[-26,16],[-12,16],[4,12],[0,10],[-2,8],[-5,3],[4,19],[3,10],[-1,5],[-14,17],[-12,8]],[[201,2183],[0,9],[5,37],[-6,26],[-13,15],[-15,4],[-64,-24],[2,13],[4,10],[4,6],[3,3],[6,9],[0,12],[-5,12],[-6,9],[-52,30],[-19,23],[-9,5],[-16,2],[-7,9],[-5,13],[-1,15],[-4,0],[-3,-5]],[[0,1920],[1,0],[-1,-3]],[[0,1829],[91,-16],[18,5],[7,8],[13,24],[7,10],[-2,11],[-8,17],[-10,10],[-3,7],[-2,15],[7,5],[20,37],[21,22],[7,11],[-22,3],[-21,13],[-21,2],[-10,-5],[1,-13],[-6,-14],[-7,-5],[-8,1],[-6,9],[7,33],[-10,22],[-63,31]],[[0,2205],[51,-22],[10,5],[18,20],[9,1],[-1,-4],[-1,-5],[-1,-3],[-2,-5],[7,-9],[35,-10],[38,-34],[17,-6],[16,4],[12,22],[-2,6],[-5,18]],[[208,2555],[-2,1],[-5,12],[-3,2],[-2,-2],[-3,-4],[-2,-1],[-11,1],[-4,4],[-3,12],[17,9],[5,6],[-5,10],[-6,5],[-30,11],[-3,2],[-1,5],[-1,6],[-1,3],[-7,1],[-8,-3],[-9,0],[-11,10],[11,12],[31,14],[15,13],[4,2],[12,-4],[5,4],[-8,14],[-3,3],[10,22],[22,9],[11,11],[-2,5],[-1,7],[-1,6],[-1,6],[-5,8],[-8,3],[-8,5],[-4,18],[-10,-14],[-9,2],[-9,7],[-9,5],[-3,-3],[-1,-6],[-1,-6],[0,-2],[-4,0],[-58,58],[-89,27]],[[0,2513],[86,8],[34,-17],[3,9],[9,11],[12,8],[12,3],[10,-5],[-15,-33],[15,8],[9,0],[3,-12],[6,-4],[28,2],[8,6],[-2,0],[2,5],[0,1],[-2,3],[10,15],[-2,17],[-8,12],[-10,5]],[[427,3048],[-13,-1],[-36,-31],[24,-26],[25,2],[50,24],[0,6],[1,5],[3,3],[4,2],[-13,14],[-45,2]],[[0,2205],[0,211],[3,5],[4,0],[1,-15],[5,-13],[7,-9],[16,-2],[9,-5],[19,-23],[52,-30],[6,-9],[5,-12],[0,-12],[-6,-9],[-3,-3],[-4,-6],[-4,-10],[-2,-13],[64,24],[15,-4],[13,-15],[6,-26],[-5,-37],[0,-9],[5,-18],[2,-6],[-12,-22],[-16,-4],[-17,6],[-38,34],[-35,10],[-7,9],[2,5],[1,3],[1,5],[1,4],[-9,-1],[-18,-20],[-10,-5],[-51,22]],[[0,1920],[0,152],[63,-31],[10,-22],[-7,-33],[6,-9],[8,-1],[7,5],[6,14],[-1,13],[10,5],[21,-2],[21,-13],[22,-3],[-7,-11],[-21,-22],[-20,-37],[-7,-5],[2,-15],[3,-7],[10,-10],[8,-17],[2,-11],[-7,-10],[-13,-24],[-7,-8],[-18,-5],[-91,16],[0,88],[1,3],[-1,0]],[[0,2513],[0,358],[89,-27],[58,-58],[4,0],[0,2],[1,6],[1,6],[3,3],[9,-5],[9,-7],[9,-2],[10,14],[4,-18],[8,-5],[8,-3],[5,-8],[1,-6],[1,-6],[1,-7],[2,-5],[-11,-11],[-22,-9],[-10,-22],[3,-3],[8,-14],[-5,-4],[-12,4],[-4,-2],[-15,-13],[-31,-14],[-11,-12],[11,-10],[9,0],[8,3],[7,-1],[1,-3],[1,-6],[1,-5],[3,-2],[30,-11],[6,-5],[5,-10],[-5,-6],[-17,-9],[3,-12],[4,-4],[11,-1],[2,1],[3,4],[2,2],[3,-2],[5,-12],[2,-1],[10,-5],[8,-12],[2,-17],[-10,-15],[2,-3],[0,-1],[-2,-5],[2,0],[-8,-6],[-28,-2],[-6,4],[-3,12],[-9,0],[-15,-8],[15,33],[-10,5],[-12,-3],[-12,-8],[-9,-11],[-3,-9],[-34,17],[-86,-8]],[[218,4096],[187,0],[90,-57],[165,-103],[117,11],[17,-5],[8,-6],[7,-13],[2,-13],[1,-14],[2,-10],[5,-4],[-3,-12],[-4,-4],[-4,-7],[-3,-29],[-3,-9],[-5,-5],[-35,-4],[-15,-10],[-13,-19],[5,-12],[5,-8],[5,-5],[5,-1],[0,-7],[-22,3],[-11,-6],[-4,-23],[2,-8],[9,-20],[2,-7],[4,-22],[3,-9],[2,-4],[2,-6],[1,-14],[-2,-8],[-3,-5],[-3,-6],[2,-10],[-1,-16],[-15,-32],[1,-18],[11,-15],[28,2],[11,-11],[0,-22],[-7,-26],[-9,-23],[-9,-14],[-34,-20],[-134,5],[-134,5],[-63,35],[-33,5],[-28,-40],[4,-1],[2,-1],[10,-19],[8,-19],[2,-19],[-8,-16],[-10,-4],[-20,1],[-18,-13],[-27,-8],[-68,-50],[-52,-65],[-37,-30],[-38,-5],[-68,28],[0,359],[3,0],[45,42],[70,25],[-12,6],[-43,-8],[-17,-14],[-23,0],[-23,-18],[0,505],[160,0],[12,-8],[14,-17],[1,-5],[-3,-10],[-4,-19],[5,-3],[2,-8],[0,-10],[-4,-12],[12,-16],[26,-16],[12,-17],[-3,-8],[20,-58],[-9,-30],[-1,-6],[1,-9],[2,-14],[0,-7],[-2,-7],[-4,-9],[-2,-8],[0,-14],[1,-16],[2,-14],[3,-5],[2,-6],[0,-14],[0,-26],[-2,-13],[-2,-10],[-1,-10],[2,-12],[5,-5],[9,14],[5,-5],[7,-4],[9,14],[15,35],[-3,21],[-5,16],[-12,29],[2,1],[1,2],[1,3],[1,3],[-2,5],[-2,8],[0,11],[-1,12],[0,5],[-2,10],[0,6],[1,5],[3,10],[1,6],[-1,9],[-3,10],[-2,10],[2,12],[1,10],[-2,9],[-6,14],[-3,10],[-2,10],[-3,9],[-4,7],[-6,3],[-14,1],[-6,9],[-1,11],[7,18],[-1,12],[-3,9],[-4,6],[-9,6],[1,5],[1,4],[1,4],[2,4],[-3,29],[3,4]],[[0,1334],[0,70],[17,16],[14,3],[2,-30],[-6,-22],[-13,-21],[-14,-16]],[[0,1132],[0,101],[8,3],[20,-17],[11,1],[-1,5],[0,3],[-1,4],[-1,4],[6,21],[15,15],[9,14],[5,18],[0,11],[-2,10],[2,18],[4,6],[29,26],[10,5],[10,-4],[7,-16],[-7,-26],[7,-7],[89,33],[-3,-10],[-4,-7],[-10,-8],[-2,-14],[-8,-7],[-20,-3],[13,-17],[-9,-17],[-24,-5],[-40,-26],[-10,-17],[23,-17],[15,-2],[5,-7],[-18,-28],[-46,7],[-21,-5],[-8,-6],[-26,0],[-8,-7],[-15,-28],[-4,-4]],[[0,923],[0,56],[0,-1],[2,-17],[2,-22],[-1,-9],[-2,-5],[-1,-2]],[[0,289],[0,626],[1,-8],[3,-9],[9,-15],[5,-9],[-4,-17],[-2,-9],[-1,-24],[1,1],[3,-6],[1,-7],[-1,-4],[-2,-3],[-2,-7],[-3,-14],[14,-9],[17,0],[14,15],[5,39],[3,21],[-1,11],[-3,5],[-5,4],[-1,9],[2,16],[18,70],[7,19],[56,72],[9,7],[19,0],[18,-8],[8,-10],[8,-14],[7,-8],[8,7],[-3,11],[-3,10],[-3,7],[-4,5],[20,-8],[7,4],[-5,29],[9,-4],[11,-28],[8,-1],[3,7],[2,12],[2,10],[5,4],[4,-4],[4,-8],[3,-10],[2,-11],[-10,-17],[-24,-17],[-11,-16],[14,-9],[29,10],[15,-8],[-8,-10],[-22,-8],[-8,1],[0,-9],[45,-6],[10,-18],[-9,-3],[-17,-18],[-27,-9],[-9,-8],[-6,-11],[-1,-14],[4,-3],[6,5],[6,8],[8,7],[28,-3],[-6,-9],[-11,-10],[-8,-17],[-4,-6],[-9,-8],[8,1],[24,16],[45,0],[0,-9],[-130,-66],[7,-7],[14,-3],[7,-6],[0,-8],[-3,-1],[-7,-7],[9,-8],[10,4],[10,13],[7,19],[7,5],[11,-8],[10,-12],[6,-13],[-7,-7],[-3,-1],[0,-9],[9,-1],[8,-12],[15,-37],[-6,-17],[-5,-26],[-7,-17],[-12,7],[-15,43],[-9,16],[-13,3],[3,-17],[5,-15],[1,-13],[-4,-13],[11,-2],[32,-31],[-13,-12],[-135,-40],[-15,-11],[-62,-10],[13,-21],[119,29],[30,-11],[7,11],[-2,8],[9,2],[16,12],[7,2],[22,-1],[10,-7],[8,-16],[-1,-12],[-1,-15],[2,-15],[5,-8],[-6,-8],[-24,-16],[-10,-8],[-22,-3],[-20,-19],[-37,-4],[0,-9],[27,-7],[70,36],[10,-12],[-26,-26],[-12,-20],[3,-20],[22,33],[12,9],[11,-8],[-13,-17],[13,-5],[25,32],[10,-10],[-15,-32],[-37,-47],[-16,-29],[4,-9],[11,-19],[4,-4],[2,-4],[-2,-8],[-6,-14],[-5,-16],[-3,-5],[-30,-2],[-7,3],[-15,14],[-5,-1],[-1,1],[-3,1],[-6,-2],[6,-19],[11,-13],[12,-8],[10,-2],[14,2],[43,28],[5,1],[4,-3],[2,-7],[0,-18],[-3,-7],[-9,-4],[-18,-22],[-6,-2],[-12,0],[-6,-4],[-3,-14],[8,2],[9,5],[8,2],[7,-9],[14,14],[17,-5],[17,-17],[9,-24],[-79,0],[0,-8],[7,-7],[42,-6],[9,-8],[9,-12],[-6,-8],[-7,-2],[-14,1],[2,-11],[3,-8],[7,-13],[-9,-9],[-41,0],[3,-5],[2,-6],[3,-13],[-1,-1],[-250,0],[-5,32],[-3,8],[-7,14],[-2,9],[0,6],[0,7],[3,43],[7,69],[1,19],[2,11],[3,21],[1,23],[-1,19],[-7,10],[-11,1],[-8,-3]]]}