{"objects":{"water":{"type":"GeometryCollection","geometries":[{"type":"MultiPolygon","properties":{"source":"naturalearthdata.com","kind":"ocean","area":989871000000000,"sort_rank":200,"min_zoom":0,"id":1},"arcs":[[[0],[1]]]},{"type":"MultiLineString","properties":{"source":"naturalearthdata.com","kind":"ocean","sort_rank":205,"boundary":true,"min_zoom":0,"id":411},"arcs":[[2],[3],[4],[5]]},{"type":"MultiLineString","properties":{"source":"naturalearthdata.com","kind":"ocean","sort_rank":205,"boundary":true,"min_zoom":0,"id":514},"arcs":[[6],[7]]},{"type":"LineString","properties":{"source":"naturalearthdata.com","kind":"ocean","sort_rank":205,"boundary":true,"min_zoom":0,"id":3486},"arcs":[8]}]},"buildings":{"type":"GeometryCollection","geometries":[]},"places":{"type":"GeometryCollection","geometries":[]},"transit":{"type":"GeometryCollection","geometries":[]},"pois":{"type":"GeometryCollection","geometries":[]},"boundaries":{"type":"GeometryCollection","geometries":[]},"roads":{"type":"GeometryCollection","geometries":[]},"earth":{"type":"GeometryCollection","geometries":[{"type":"MultiPolygon","properties":{"sort_rank":10,"source":"naturalearthdata.com","min_zoom":0,"kind":"earth","area":44884805284559},"arcs":[[[9]],[[10]],[[11]]]}]},"landuse":{"type":"GeometryCollection","geometries":[]}},"type":"Topology","transform":{"translate":[-22.5,66.5132604431],"scale":[0.002746582,0.0010008188]},"arcs":[[[277,4096],[3819,0],[0,-4096],[-1717,0],[-21,23],[-17,-8],[-4,-2],[-21,10],[-10,0],[-8,-5],[-3,-4],[-2,-14],[-11,0],[-1,2],[0,3],[-3,-5],[-42,0],[-2,2],[-4,-2],[-20,0],[0,7],[-6,0],[-10,-5],[-2,-2],[-2192,0],[0,3460],[3,1],[3,4],[2,8],[0,11],[2,10],[2,3],[8,-3],[6,-4],[3,-10],[2,-13],[5,-10],[8,-2],[16,20],[14,10],[19,36],[30,34],[3,10],[17,37],[6,8],[5,4],[-1,8],[-6,12],[-5,5],[-36,-6],[-29,-18],[-20,-7],[-10,-9],[-47,0],[0,497],[27,0],[6,-34],[-2,-7],[2,-6],[-3,-31],[1,-37],[5,-32],[7,-17],[15,-10],[21,8],[56,47],[19,8],[20,-2],[25,-24],[4,-5],[-1,-8],[-4,-14],[-12,-22],[-4,-15],[4,-14],[18,-7],[36,42],[17,8],[2,-5],[9,-7],[4,-2],[22,4],[10,5],[10,10],[14,25],[15,16],[7,11],[23,47],[-4,5],[-6,4],[-5,0],[-8,-11],[-4,4],[-6,12],[-31,5],[-9,8],[20,14],[0,7],[-12,7],[-9,-3],[-19,-18],[-11,-1],[-4,12],[3,16],[9,7]],[[1635,51],[-4,-3],[1,-16],[6,-12],[8,6],[1,9],[-3,2],[-9,14]],[[2192,0],[2,2],[10,5],[6,0],[0,-7]],[[2230,0],[4,2],[2,-2]],[[2278,0],[3,5],[0,-3],[1,-2]],[[2293,0],[2,14],[3,4],[8,5],[10,0],[21,-10],[4,2],[17,8],[21,-23]],[[0,3460],[3,1],[3,4],[2,8],[0,11],[2,10],[2,3],[8,-3],[6,-4],[3,-10],[2,-13],[5,-10],[8,-2],[16,20],[14,10],[19,36],[30,34],[3,10],[17,37],[6,8],[5,4],[-1,8],[-6,12],[-5,5],[-36,-6],[-29,-18],[-20,-7],[-10,-9],[-47,0]],[[27,4096],[6,-34],[-2,-7],[2,-6],[-3,-31],[1,-37],[5,-32],[7,-17],[15,-10],[21,8],[56,47],[19,8],[20,-2],[25,-24],[4,-5],[-1,-8],[-4,-14],[-12,-22],[-4,-15],[4,-14],[18,-7],[36,42],[17,8],[2,-5],[9,-7],[4,-2],[22,4],[10,5],[10,10],[14,25],[15,16],[7,11],[23,47],[-4,5],[-6,4],[-5,0],[-8,-11],[-4,4],[-6,12],[-31,5],[-9,8],[20,14],[0,7],[-12,7],[-9,-3],[-19,-18],[-11,-1],[-4,12],[3,16],[9,7]],[[1635,51],[-4,-3],[1,-16],[6,-12],[8,6],[1,9],[-3,2],[-9,14]],[[2293,0],[2,14],[3,4],[8,5],[10,0],[21,-10],[4,2],[17,8],[21,-23],[-86,0]],[[27,4096],[250,0],[-9,-7],[-3,-16],[4,-12],[11,1],[19,18],[9,3],[12,-7],[0,-7],[-20,-14],[9,-8],[31,-5],[6,-12],[4,-4],[8,11],[5,0],[6,-4],[4,-5],[-23,-47],[-7,-11],[-15,-16],[-14,-25],[-10,-10],[-10,-5],[-22,-4],[-4,2],[-9,7],[-2,5],[-17,-8],[-36,-42],[-18,7],[-4,14],[4,15],[12,22],[4,14],[1,8],[-4,5],[-25,24],[-20,2],[-19,-8],[-56,-47],[-21,-8],[-15,10],[-7,17],[-5,32],[-1,37],[3,31],[-2,6],[2,7],[-6,34]],[[0,3460],[0,139],[47,0],[10,9],[20,7],[29,18],[36,6],[5,-5],[6,-12],[1,-8],[-5,-4],[-6,-8],[-17,-37],[-3,-10],[-30,-34],[-19,-36],[-14,-10],[-16,-20],[-8,2],[-5,10],[-2,13],[-3,10],[-6,4],[-8,3],[-2,-3],[-2,-10],[0,-11],[-2,-8],[-3,-4],[-3,-1]]]}