{"objects":{"water":{"type":"GeometryCollection","geometries":[{"type":"MultiPolygon","properties":{"source":"naturalearthdata.com","kind":"ocean","area":990044000000000,"sort_rank":200,"min_zoom":0,"id":1},"arcs":[[[0]]]},{"type":"LineString","properties":{"source":"naturalearthdata.com","kind":"ocean","sort_rank":205,"boundary":true,"min_zoom":0,"id":42},"arcs":[1]},{"type":"LineString","properties":{"source":"naturalearthdata.com","kind":"ocean","sort_rank":205,"boundary":true,"min_zoom":0,"id":679},"arcs":[2]},{"type":"MultiLineString","properties":{"source":"naturalearthdata.com","kind":"ocean","sort_rank":205,"boundary":true,"min_zoom":0,"id":1388},"arcs":[[3],[4]]},{"type":"Point","properties":{"label_placement":true,"collision_rank":398,"name:ar":"\u0628\u062d\u0631 \u0644\u0627\u0628\u062a\u064a\u0641","name:cs":"mo\u0159e Lapt\u011bv\u016f","min_zoom":3.0,"name:it":"Mare di Laptev","name:vi":"Bi\u1ec3n Laptev","name:ru":"\u041c\u043e\u0440\u0435 \u041b\u0430\u043f\u0442\u0435\u0432\u044b\u0445","name:pl":"Morze \u0141aptiew\u00f3w","id":305640305,"name:fa":"\u062f\u0631\u06cc\u0627\u06cc \u0644\u0627\u067e\u062a\u0641","sort_rank":200,"name:fi":"Laptevinmeri","old_name:ru":"\u041c\u043e\u0440\u0435 \u041d\u043e\u0440\u0434\u0435\u043d\u0448\u0435\u043b\u044c\u0434\u0430","name:de":"Laptewsee","source":"openstreetmap.org","name:fr":"Mer de Laptev","old_name:cs":"Nordenskj\u00f6ldovo mo\u0159e","name:zh":"\u62c9\u666e\u6377\u592b\u6d77","name:sl":"Morje Laptevov","name:sk":"More Laptevovcov","name:lt":"Laptev\u0173 j\u016bra","name:no":"Laptevhavet","kind":"sea","name:br":"Mor al Lapteved","old_name:en":"Nordenski\u00f6ld Sea","name:uk":"\u041c\u043e\u0440\u0435 \u041b\u0430\u043f\u0442\u0454\u0432\u0438\u0445","name:sv":"Nordenski\u00f6lds hav","name:hu":"Laptyev-tenger","name:hr":"Laptevsko more","name:eo":"Lapteva Maro","name:en":"Laptev Sea","name":"\u041c\u043e\u0440\u0435 \u041b\u0430\u043f\u0442\u0435\u0432\u044b\u0445","name:be":"\u041c\u043e\u0440\u0430 \u041b\u0430\u043f\u0446\u0435\u0432\u044b\u0445","wikidata_id":"Q7988","name:es":"Mar de L\u00e1ptev"},"coordinates":[2458,1575]}]},"buildings":{"type":"GeometryCollection","geometries":[]},"places":{"type":"GeometryCollection","geometries":[]},"transit":{"type":"GeometryCollection","geometries":[]},"pois":{"type":"GeometryCollection","geometries":[]},"boundaries":{"type":"GeometryCollection","geometries":[]},"roads":{"type":"GeometryCollection","geometries":[]},"earth":{"type":"GeometryCollection","geometries":[{"type":"MultiPolygon","properties":{"sort_rank":10,"source":"naturalearthdata.com","kind":"earth","min_zoom":2.0,"area":650942670114},"arcs":[[[5]]]},{"type":"MultiPolygon","properties":{"sort_rank":10,"source":"naturalearthdata.com","min_zoom":3.0,"kind":"earth","area":331560690158},"arcs":[[[6]]]},{"type":"MultiPolygon","properties":{"sort_rank":10,"source":"naturalearthdata.com","min_zoom":0,"kind":"earth","area":158482837729342},"arcs":[[[7]],[[8]]]}]},"landuse":{"type":"GeometryCollection","geometries":[{"type":"MultiPolygon","properties":{"kind":"nature_reserve","protect_class":"1","area":3380599052966,"sort_rank":23,"source":"openstreetmap.org","min_zoom":4.0,"tier":2,"id":-9349959},"arcs":[[[9]]]}]}},"type":"Topology","transform":{"translate":[112.5,74.0195433115],"scale":[0.0054931641,0.0012577616]},"arcs":[[[0,2061],[0,2035],[4096,0],[0,-4096],[-4096,0],[0,80],[51,-20],[6,6],[30,75],[39,34],[12,26],[7,36],[10,28],[7,38],[-19,32],[-61,31],[-82,29],[0,322],[77,74],[126,221],[20,126],[-30,41],[-37,25],[-21,62],[-15,7],[-37,-39],[-41,132],[-42,61],[0,28],[24,-11],[90,-109],[48,-17],[14,-16],[9,-28],[-6,-46],[15,3],[10,20],[23,89],[23,120],[-3,52],[-53,-24],[-25,176],[-11,53],[-17,58],[-34,5],[-18,-15],[14,-19],[15,-33],[-10,-33],[-8,-15],[-42,-44],[-30,-4],[12,19],[14,42],[-10,45],[-10,26],[-12,131],[-22,11],[0,48],[6,-7],[8,2],[2,25],[5,13],[8,8],[-5,34],[-24,47]],[[0,80],[51,-20],[6,6],[30,75],[39,34],[12,26],[7,36],[10,28],[7,38],[-19,32],[-61,31],[-82,29]],[[0,1939],[6,-7],[8,2],[2,25],[5,13],[8,8],[-5,34],[-24,47]],[[0,717],[77,74],[126,221],[20,126],[-30,41],[-37,25],[-21,62],[-15,7],[-37,-39],[-41,132],[-42,61]],[[0,1455],[24,-11],[90,-109],[48,-17],[14,-16],[9,-28],[-6,-46],[15,3],[10,20],[23,89],[23,120],[-3,52],[-53,-24],[-25,176],[-11,53],[-17,58],[-34,5],[-18,-15],[14,-19],[15,-33],[-10,-33],[-8,-15],[-42,-44],[-30,-4],[12,19],[14,42],[-10,45],[-10,26],[-12,131],[-22,11]],[[0,80],[0,315],[82,-29],[61,-31],[19,-32],[-7,-38],[-10,-28],[-7,-36],[-12,-26],[-39,-34],[-30,-75],[-6,-6],[-51,20]],[[0,1939],[0,122],[24,-47],[5,-34],[-8,-8],[-5,-13],[-2,-25],[-8,-2],[-6,7]],[[0,1455],[0,436],[22,-11],[12,-131],[10,-26],[10,-45],[-14,-42],[-12,-19],[30,4],[42,44],[8,15],[10,33],[-15,33],[-14,19],[18,15],[34,-5],[17,-58],[11,-53],[25,-176],[53,24],[3,-52],[-23,-120],[-23,-89],[-10,-20],[-15,-3],[6,46],[-9,28],[-14,16],[-48,17],[-90,109],[-24,11]],[[0,717],[0,710],[42,-61],[41,-132],[37,39],[15,-7],[21,-62],[37,-25],[30,-41],[-20,-126],[-126,-221],[-77,-74]],[[0,1341],[0,245],[26,31],[50,-6],[29,80],[37,0],[14,-32],[-1,37],[-60,28],[-13,37],[35,29],[25,-11],[48,-136],[-8,-81],[70,-45],[8,-64],[-67,-251],[35,-50],[-13,-129],[-112,-206],[-88,105],[-15,0],[0,152],[29,-2],[31,22],[5,65],[-50,29],[-10,152],[-5,1]]]}