{"objects":{"water":{"type":"GeometryCollection","geometries":[{"type":"MultiPolygon","properties":{"source":"naturalearthdata.com","kind":"ocean","area":990044000000000,"sort_rank":200,"min_zoom":0,"id":1},"arcs":[[[0],[1],[2]]]},{"type":"LineString","properties":{"source":"naturalearthdata.com","kind":"ocean","sort_rank":205,"boundary":true,"min_zoom":0,"id":680},"arcs":[3]},{"type":"LineString","properties":{"source":"naturalearthdata.com","kind":"ocean","sort_rank":205,"boundary":true,"min_zoom":0,"id":681},"arcs":[4]},{"type":"LineString","properties":{"source":"naturalearthdata.com","kind":"ocean","sort_rank":205,"boundary":true,"min_zoom":0,"id":1388},"arcs":[5]}]},"buildings":{"type":"GeometryCollection","geometries":[]},"places":{"type":"GeometryCollection","geometries":[]},"transit":{"type":"GeometryCollection","geometries":[]},"pois":{"type":"GeometryCollection","geometries":[]},"boundaries":{"type":"GeometryCollection","geometries":[]},"roads":{"type":"GeometryCollection","geometries":[]},"earth":{"type":"GeometryCollection","geometries":[{"type":"MultiPolygon","properties":{"sort_rank":10,"source":"naturalearthdata.com","kind":"earth","min_zoom":4.0,"area":34679318797},"arcs":[[[6]]]},{"type":"MultiPolygon","properties":{"sort_rank":10,"source":"naturalearthdata.com","min_zoom":3.0,"kind":"earth","area":331560690158},"arcs":[[[7]]]},{"type":"MultiPolygon","properties":{"sort_rank":10,"source":"naturalearthdata.com","min_zoom":0,"kind":"earth","area":158482837729342},"arcs":[[[8]]]}]},"landuse":{"type":"GeometryCollection","geometries":[]}},"type":"Topology","transform":{"translate":[112.5,66.5132604431],"scale":[0.0054931641,0.0018325886]},"arcs":[[[0,3933],[0,163],[4096,0],[0,-1370],[-34,-26],[-20,-41],[-109,-4],[-76,30],[-48,31],[-53,63],[-53,81],[-7,7],[-6,17],[-10,40],[-11,30],[-17,-17],[-43,-92],[-18,-46],[-23,-87],[-17,-73],[-3,-31],[8,-27],[-23,-22],[-25,-55],[-38,-110],[-23,-39],[-30,-35],[-21,-12],[-24,2],[-23,31],[-12,72],[-13,15],[-17,-41],[-23,3],[-47,30],[-46,64],[-49,30],[-67,155],[-30,57],[-17,46],[-38,5],[-15,33],[19,24],[52,21],[42,-3],[-31,60],[-15,37],[-16,19],[6,-40],[-7,-30],[-14,-23],[-23,-15],[-101,182],[-60,88],[-34,32],[-21,57],[14,12],[72,-68],[50,-35],[84,-91],[63,7],[23,41],[1,81],[-24,67],[-30,26],[-103,6],[-24,21],[16,7],[23,1],[33,20],[55,49],[24,16],[-4,38],[-38,53],[-63,7],[-13,5],[25,27],[21,16],[37,39],[8,37],[-7,-3],[-27,2],[-8,16],[3,27],[-28,24],[-26,16],[-60,3],[1,18],[3,16],[-26,12],[-21,21],[-5,19],[-7,11],[-40,19],[-129,36],[-14,-10],[-21,-51],[-52,-55],[-39,30],[-8,3],[-7,14],[10,24],[6,23],[-9,17],[-7,6],[-27,-17],[-40,-11],[-17,-16],[-35,-11],[3,40],[-150,104],[-46,22],[-28,2],[-67,-24],[-16,-12],[-24,-34],[-56,21],[-14,-16],[-20,-57],[3,-55],[6,-16],[5,-30],[22,-47],[22,-37],[-9,-9],[-10,-2],[-10,-16],[-11,-32],[-19,-45],[-25,-26],[-30,5],[-70,35],[-16,-6],[-4,-25],[41,-22],[4,-13],[-11,-9],[-28,-7],[-50,1],[-42,10],[-26,34],[-25,5],[-72,1],[-65,-19],[-73,24],[-123,-5],[-31,4],[-59,47],[-85,29],[-96,70],[-10,66],[14,53],[55,0],[33,9],[-5,21],[-7,10],[-77,28],[-208,6],[-148,42],[-210,14],[-95,-52],[-138,-12],[-37,-28],[-63,-16],[5,-39],[32,-30],[15,-6],[16,-12],[-10,-10],[-12,-5],[-23,-24],[-14,-22],[4,-50],[-7,-48],[-23,-66],[-19,-30],[-18,-39],[15,-37],[17,-15],[44,-19],[15,-12],[-9,-11],[-64,13],[-23,39],[-5,22],[-6,33],[22,37],[22,24],[19,58],[3,53],[0,110],[-39,24],[-21,37],[37,68],[10,35],[-16,33],[-27,71],[-27,41],[-18,18],[-18,9],[19,-69],[-15,-36],[-11,-13],[-54,-14]],[[2192,4004],[20,20],[-3,7],[-16,18],[-21,5],[-17,-8],[0,-10],[5,-19],[21,-15],[11,2]],[[1327,3564],[40,0],[46,25],[-5,9],[-28,27],[-21,6],[-37,-7],[-22,-17],[27,-43]],[[1380,3625],[-21,6],[-37,-7],[-22,-17],[27,-43],[40,0],[46,25],[-5,9],[-28,27]],[[2172,4054],[-17,-8],[0,-10],[5,-19],[21,-15],[11,2],[20,20],[-3,7],[-16,18],[-21,5]],[[4096,2726],[-34,-26],[-20,-41],[-109,-4],[-76,30],[-48,31],[-53,63],[-53,81],[-7,7],[-6,17],[-10,40],[-11,30],[-17,-17],[-43,-92],[-18,-46],[-23,-87],[-17,-73],[-3,-31],[8,-27],[-23,-22],[-25,-55],[-38,-110],[-23,-39],[-30,-35],[-21,-12],[-24,2],[-23,31],[-12,72],[-13,15],[-17,-41],[-23,3],[-47,30],[-46,64],[-49,30],[-67,155],[-30,57],[-17,46],[-38,5],[-15,33],[19,24],[52,21],[42,-3],[-31,60],[-15,37],[-16,19],[6,-40],[-7,-30],[-14,-23],[-23,-15],[-101,182],[-60,88],[-34,32],[-21,57],[14,12],[72,-68],[50,-35],[84,-91],[63,7],[23,41],[1,81],[-24,67],[-30,26],[-103,6],[-24,21],[16,7],[23,1],[33,20],[55,49],[24,16],[-4,38],[-38,53],[-63,7],[-13,5],[25,27],[21,16],[37,39],[8,37],[-7,-3],[-27,2],[-8,16],[3,27],[-28,24],[-26,16],[-60,3],[1,18],[3,16],[-26,12],[-21,21],[-5,19],[-7,11],[-40,19],[-129,36],[-14,-10],[-21,-51],[-52,-55],[-39,30],[-8,3],[-7,14],[10,24],[6,23],[-9,17],[-7,6],[-27,-17],[-40,-11],[-17,-16],[-35,-11],[3,40],[-150,104],[-46,22],[-28,2],[-67,-24],[-16,-12],[-24,-34],[-56,21],[-14,-16],[-20,-57],[3,-55],[6,-16],[5,-30],[22,-47],[22,-37],[-9,-9],[-10,-2],[-10,-16],[-11,-32],[-19,-45],[-25,-26],[-30,5],[-70,35],[-16,-6],[-4,-25],[41,-22],[4,-13],[-11,-9],[-28,-7],[-50,1],[-42,10],[-26,34],[-25,5],[-72,1],[-65,-19],[-73,24],[-123,-5],[-31,4],[-59,47],[-85,29],[-96,70],[-10,66],[14,53],[55,0],[33,9],[-5,21],[-7,10],[-77,28],[-208,6],[-148,42],[-210,14],[-95,-52],[-138,-12],[-37,-28],[-63,-16],[5,-39],[32,-30],[15,-6],[16,-12],[-10,-10],[-12,-5],[-23,-24],[-14,-22],[4,-50],[-7,-48],[-23,-66],[-19,-30],[-18,-39],[15,-37],[17,-15],[44,-19],[15,-12],[-9,-11],[-64,13],[-23,39],[-5,22],[-6,33],[22,37],[22,24],[19,58],[3,53],[0,110],[-39,24],[-21,37],[37,68],[10,35],[-16,33],[-27,71],[-27,41],[-18,18],[-18,9],[19,-69],[-15,-36],[-11,-13],[-54,-14]],[[2192,4004],[-11,-2],[-21,15],[-5,19],[0,10],[17,8],[21,-5],[16,-18],[3,-7],[-20,-20]],[[1413,3589],[-46,-25],[-40,0],[-27,43],[22,17],[37,7],[21,-6],[28,-27],[5,-9]],[[4096,2726],[0,-2726],[-4096,0],[0,3933],[54,14],[11,13],[15,36],[-19,69],[18,-9],[18,-18],[27,-41],[27,-71],[16,-33],[-10,-35],[-37,-68],[21,-37],[39,-24],[0,-110],[-3,-53],[-19,-58],[-22,-24],[-22,-37],[6,-33],[5,-22],[23,-39],[64,-13],[9,11],[-15,12],[-44,19],[-17,15],[-15,37],[18,39],[19,30],[23,66],[7,48],[-4,50],[14,22],[23,24],[12,5],[10,10],[-16,12],[-15,6],[-32,30],[-5,39],[63,16],[37,28],[138,12],[95,52],[210,-14],[148,-42],[208,-6],[77,-28],[7,-10],[5,-21],[-33,-9],[-55,0],[-14,-53],[10,-66],[96,-70],[85,-29],[59,-47],[31,-4],[123,5],[73,-24],[65,19],[72,-1],[25,-5],[26,-34],[42,-10],[50,-1],[28,7],[11,9],[-4,13],[-41,22],[4,25],[16,6],[70,-35],[30,-5],[25,26],[19,45],[11,32],[10,16],[10,2],[9,9],[-22,37],[-22,47],[-5,30],[-6,16],[-3,55],[20,57],[14,16],[56,-21],[24,34],[16,12],[67,24],[28,-2],[46,-22],[150,-104],[-3,-40],[35,11],[17,16],[40,11],[27,17],[7,-6],[9,-17],[-6,-23],[-10,-24],[7,-14],[8,-3],[39,-30],[52,55],[21,51],[14,10],[129,-36],[40,-19],[7,-11],[5,-19],[21,-21],[26,-12],[-3,-16],[-1,-18],[60,-3],[26,-16],[28,-24],[-3,-27],[8,-16],[27,-2],[7,3],[-8,-37],[-37,-39],[-21,-16],[-25,-27],[13,-5],[63,-7],[38,-53],[4,-38],[-24,-16],[-55,-49],[-33,-20],[-23,-1],[-16,-7],[24,-21],[103,-6],[30,-26],[24,-67],[-1,-81],[-23,-41],[-63,-7],[-84,91],[-50,35],[-72,68],[-14,-12],[21,-57],[34,-32],[60,-88],[101,-182],[23,15],[14,23],[7,30],[-6,40],[16,-19],[15,-37],[31,-60],[-42,3],[-52,-21],[-19,-24],[15,-33],[38,-5],[17,-46],[30,-57],[67,-155],[49,-30],[46,-64],[47,-30],[23,-3],[17,41],[13,-15],[12,-72],[23,-31],[24,-2],[21,12],[30,35],[23,39],[38,110],[25,55],[23,22],[-8,27],[3,31],[17,73],[23,87],[18,46],[43,92],[17,17],[11,-30],[10,-40],[6,-17],[7,-7],[53,-81],[53,-63],[48,-31],[76,-30],[109,4],[20,41],[34,26]]]}