{"objects":{"water":{"type":"GeometryCollection","geometries":[{"type":"MultiPolygon","properties":{"source":"naturalearthdata.com","kind":"ocean","area":989871000000000,"sort_rank":200,"min_zoom":0,"id":1},"arcs":[[[0]]]},{"type":"MultiLineString","properties":{"source":"naturalearthdata.com","kind":"ocean","sort_rank":205,"boundary":true,"min_zoom":0,"id":1015},"arcs":[[1],[2],[3],[4]]}]},"buildings":{"type":"GeometryCollection","geometries":[]},"places":{"type":"GeometryCollection","geometries":[]},"transit":{"type":"GeometryCollection","geometries":[]},"pois":{"type":"GeometryCollection","geometries":[]},"boundaries":{"type":"GeometryCollection","geometries":[]},"roads":{"type":"GeometryCollection","geometries":[]},"earth":{"type":"GeometryCollection","geometries":[{"type":"MultiPolygon","properties":{"sort_rank":10,"source":"naturalearthdata.com","min_zoom":0,"kind":"earth","area":44884805284559},"arcs":[[[5]],[[6]],[[7]],[[8]]]}]},"landuse":{"type":"GeometryCollection","geometries":[]}},"type":"Topology","transform":{"translate":[-90.0,82.6762849783],"scale":[0.002746582,0.000318109]},"arcs":[[[4096,80],[0,-80],[-88,0],[-17,16],[-13,-16],[-60,0],[-100,54],[-141,77],[-18,-21],[-13,-53],[16,-48],[6,-9],[-75,0],[-7,14],[-12,64],[4,10],[4,14],[7,41],[-13,45],[-42,64],[2,10],[2,23],[1,10],[-13,51],[-141,46],[-140,46],[-141,46],[-24,-21],[-10,-28],[-6,-44],[3,-30],[36,-79],[40,-32],[36,-88],[40,-34],[13,-71],[-3,-20],[10,-37],[-3239,0],[0,4096],[4096,0],[0,-3248],[-16,-7],[-71,-207],[-7,-10],[-24,16],[-2,78],[-16,55],[-20,32],[-14,7],[1,25],[2,19],[3,11],[4,6],[-30,1],[-6,12],[-13,41],[-6,14],[-149,-57],[-149,-57],[-17,-53],[-6,-9],[-13,-2],[-19,-36],[-30,-5],[-14,-18],[11,-65],[18,-47],[123,-52],[123,-52],[0,-22],[-90,-7],[-28,-59],[28,-18],[-3,-58],[13,-44],[169,-81],[169,-81],[79,-38]],[[4096,848],[-16,-7],[-71,-207],[-7,-10],[-24,16],[-2,78],[-16,55],[-20,32],[-14,7],[1,25],[2,19],[3,11],[4,6],[-30,1],[-6,12],[-13,41],[-6,14],[-149,-57],[-149,-57],[-17,-53],[-6,-9],[-13,-2],[-19,-36],[-30,-5],[-14,-18],[11,-65],[18,-47],[123,-52],[123,-52],[0,-22],[-90,-7],[-28,-59],[28,-18],[-3,-58],[13,-44],[169,-81],[169,-81],[79,-38]],[[4008,0],[-17,16],[-13,-16]],[[3918,0],[-100,54],[-141,77],[-18,-21],[-13,-53],[16,-48],[6,-9]],[[3593,0],[-7,14],[-12,64],[4,10],[4,14],[7,41],[-13,45],[-42,64],[2,10],[2,23],[1,10],[-13,51],[-141,46],[-140,46],[-141,46],[-24,-21],[-10,-28],[-6,-44],[3,-30],[36,-79],[40,-32],[36,-88],[40,-34],[13,-71],[-3,-20],[10,-37]],[[4096,848],[0,-768],[-79,38],[-169,81],[-169,81],[-13,44],[3,58],[-28,18],[28,59],[90,7],[0,22],[-123,52],[-123,52],[-18,47],[-11,65],[14,18],[30,5],[19,36],[13,2],[6,9],[17,53],[149,57],[149,57],[6,-14],[13,-41],[6,-12],[30,-1],[-4,-6],[-3,-11],[-2,-19],[-1,-25],[14,-7],[20,-32],[16,-55],[2,-78],[24,-16],[7,10],[71,207],[16,7]],[[3593,0],[-354,0],[-10,37],[3,20],[-13,71],[-40,34],[-36,88],[-40,32],[-36,79],[-3,30],[6,44],[10,28],[24,21],[141,-46],[139,-45],[1,-1],[141,-46],[13,-51],[-1,-10],[-2,-23],[-2,-10],[42,-64],[13,-45],[-7,-41],[-4,-14],[-4,-10],[12,-64],[7,-14]],[[3918,0],[-250,0],[-6,9],[-16,48],[13,53],[18,21],[141,-77],[100,-54]],[[4008,0],[-30,0],[13,16],[17,-16]]]}