{"objects":{"water":{"type":"GeometryCollection","geometries":[{"type":"MultiPolygon","properties":{"source":"naturalearthdata.com","kind":"ocean","area":989871000000000,"sort_rank":200,"min_zoom":0,"id":1},"arcs":[[[0]]]},{"type":"LineString","properties":{"source":"naturalearthdata.com","kind":"ocean","sort_rank":205,"boundary":true,"min_zoom":0,"id":524},"arcs":[1]},{"type":"LineString","properties":{"source":"naturalearthdata.com","kind":"ocean","sort_rank":205,"boundary":true,"min_zoom":0,"id":525},"arcs":[2]}]},"buildings":{"type":"GeometryCollection","geometries":[]},"places":{"type":"GeometryCollection","geometries":[]},"transit":{"type":"GeometryCollection","geometries":[]},"pois":{"type":"GeometryCollection","geometries":[]},"boundaries":{"type":"GeometryCollection","geometries":[]},"roads":{"type":"GeometryCollection","geometries":[]},"earth":{"type":"GeometryCollection","geometries":[]},"landuse":{"type":"GeometryCollection","geometries":[{"type":"MultiPolygon","properties":{"source":"openstreetmap.org","kind":"nature_reserve","area":705401269780,"tier":2,"min_zoom":4.0,"id":-7714582,"sort_rank":23},"arcs":[[[3]]]}]}},"type":"Topology","transform":{"translate":[-90.0,-31.952162238],"scale":[0.002746582,0.002443632]},"arcs":[[[0,4096],[4096,0],[0,-4096],[-4096,0],[0,4096]],[[3677,2294],[-3,-5],[4,0],[3,1],[0,2],[-4,2]],[[3606,2327],[-4,-4],[3,0],[3,0],[0,2],[-1,1],[-1,0],[0,1]],[[4096,3589],[0,-1440],[-1001,0],[0,-1105],[-348,203],[-269,289],[-173,360],[-60,398],[27,272],[81,266],[128,240],[174,212],[209,172],[243,128],[259,77],[267,21],[256,-30],[207,-63]]]}