{"objects":{"water":{"type":"GeometryCollection","geometries":[{"type":"MultiPolygon","properties":{"source":"naturalearthdata.com","kind":"ocean","area":989871000000000,"sort_rank":200,"min_zoom":0,"id":1},"arcs":[[[0],[1],[2]]]},{"type":"LineString","properties":{"source":"naturalearthdata.com","kind":"ocean","sort_rank":205,"boundary":true,"min_zoom":0,"id":6},"arcs":[3]},{"type":"LineString","properties":{"source":"naturalearthdata.com","kind":"ocean","sort_rank":205,"boundary":true,"min_zoom":0,"id":7},"arcs":[4]}]},"buildings":{"type":"GeometryCollection","geometries":[]},"places":{"type":"GeometryCollection","geometries":[]},"transit":{"type":"GeometryCollection","geometries":[]},"pois":{"type":"GeometryCollection","geometries":[]},"boundaries":{"type":"GeometryCollection","geometries":[]},"roads":{"type":"GeometryCollection","geometries":[]},"earth":{"type":"GeometryCollection","geometries":[{"type":"MultiPolygon","properties":{"sort_rank":10,"source":"naturalearthdata.com","kind":"earth","min_zoom":5.0,"area":20337033755},"arcs":[[[5]]]},{"type":"MultiPolygon","properties":{"sort_rank":10,"source":"naturalearthdata.com","min_zoom":3.0,"kind":"earth","area":34889604215},"arcs":[[[6]]]}]},"landuse":{"type":"GeometryCollection","geometries":[{"type":"MultiPolygon","properties":{"source":"openstreetmap.org","kind":"nature_reserve","area":705401269780,"tier":2,"min_zoom":4.0,"id":-7714582,"sort_rank":23},"arcs":[[[7]]]}]}},"type":"Topology","transform":{"translate":[-90.0,-40.9798980696],"scale":[0.002746582,0.0022040371]},"arcs":[[[0,4096],[4096,0],[0,-4096],[-4096,0],[0,4096]],[[3364,3273],[4,-3],[6,-1],[6,1],[4,3],[1,6],[0,8],[-2,9],[-1,5],[-11,9],[-9,-8],[-4,-15],[6,-14]],[[4082,3344],[-7,0],[-3,0],[-1,2],[-4,7],[-7,4],[-8,2],[-5,0],[-3,-1],[-1,-4],[-1,-4],[-1,-3],[-4,-2],[-8,-2],[-3,-2],[-9,-8],[-9,-10],[2,-6],[2,0],[9,6],[4,1],[9,3],[13,6],[8,2],[8,-3],[10,-7],[2,3],[3,-3],[3,3],[4,1],[4,0],[4,0],[-8,13],[-3,2]],[[3364,3273],[4,-3],[6,-1],[6,1],[4,3],[1,6],[0,8],[-2,9],[-1,5],[-11,9],[-9,-8],[-4,-15],[6,-14]],[[4082,3344],[-7,0],[-3,0],[-1,2],[-4,7],[-7,4],[-8,2],[-5,0],[-3,-1],[-1,-4],[-1,-4],[-1,-3],[-4,-2],[-8,-2],[-3,-2],[-9,-8],[-9,-10],[2,-6],[2,0],[9,6],[4,1],[9,3],[13,6],[8,2],[8,-3],[10,-7],[2,3],[3,-3],[3,3],[4,1],[4,0],[4,0],[-8,13],[-3,2]],[[3364,3273],[-6,14],[4,15],[9,8],[11,-9],[1,-5],[2,-9],[0,-8],[-1,-6],[-4,-3],[-6,-1],[-6,1],[-4,3]],[[4082,3344],[3,-2],[8,-13],[-4,0],[-4,0],[-4,-1],[-3,-3],[-3,3],[-2,-3],[-10,7],[-8,3],[-8,-2],[-13,-6],[-9,-3],[-4,-1],[-9,-6],[-2,0],[-2,6],[9,10],[9,8],[3,2],[8,2],[4,2],[1,3],[1,4],[1,4],[3,1],[5,0],[8,-2],[7,-4],[4,-7],[1,-2],[3,0],[7,0]],[[4096,3419],[0,-196],[-63,-19],[-670,-44],[-87,43],[-27,69],[25,73],[62,39],[707,52],[53,-17]]]}