{"objects":{"water":{"type":"GeometryCollection","geometries":[{"type":"MultiPolygon","properties":{"source":"naturalearthdata.com","kind":"ocean","area":989871000000000,"sort_rank":200,"min_zoom":0,"id":1},"arcs":[[[0]],[[1]],[[2]],[[3]],[[4]],[[5]],[[6]],[[7]],[[8]],[[9]]]},{"type":"MultiLineString","properties":{"source":"naturalearthdata.com","kind":"ocean","sort_rank":205,"boundary":true,"min_zoom":0,"id":1015},"arcs":[[10],[11],[12],[13],[14],[15],[16],[17],[18],[19]]}]},"buildings":{"type":"GeometryCollection","geometries":[]},"places":{"type":"GeometryCollection","geometries":[]},"transit":{"type":"GeometryCollection","geometries":[]},"pois":{"type":"GeometryCollection","geometries":[]},"boundaries":{"type":"GeometryCollection","geometries":[]},"roads":{"type":"GeometryCollection","geometries":[]},"earth":{"type":"GeometryCollection","geometries":[{"type":"MultiPolygon","properties":{"sort_rank":10,"source":"naturalearthdata.com","min_zoom":0,"kind":"earth","area":44884805284559},"arcs":[[[20]]]}]},"landuse":{"type":"GeometryCollection","geometries":[]}},"type":"Topology","transform":{"translate":[-90.0,81.0932138526],"scale":[0.002746582,0.000386492]},"arcs":[[[4096,52],[0,-52],[-118,0],[-7,15],[-22,10],[-113,188],[-15,64],[102,-120],[102,-120],[71,15]],[[4096,137],[0,-26],[-3,7],[3,19]],[[4008,4096],[88,0],[0,-8],[-70,-7],[-18,15]],[[3918,4096],[60,0],[-19,-19],[-41,19]],[[3593,4096],[75,0],[46,-59],[-8,-20],[-9,-5],[-10,6],[-18,26],[-65,36],[-11,16]],[[0,4096],[3239,0],[2,-9],[91,-148],[90,-147],[7,-40],[-111,-22],[-96,125],[-97,125],[-119,55],[-119,56],[-94,-39],[-15,-34],[-10,-70],[38,-90],[134,-141],[4,-13],[122,-58],[27,19],[9,-19],[-7,-12],[-182,15],[-181,15],[-67,-181],[-18,-75],[-1,-14],[2,-32],[6,-29],[172,-188],[172,-189],[173,-189],[153,-7],[-6,-18],[-29,-40],[-3,-8],[0,-13],[4,-25],[11,-41],[130,-66],[130,-67],[130,-66],[10,-29],[-8,-19],[-17,-27],[-7,-24],[19,-34],[42,-5],[19,-32],[-3,-18],[11,-48],[164,-305],[-109,16],[-14,20],[-17,71],[-148,280],[-152,105],[-29,-31],[-18,0],[-15,16],[-2,35],[-177,134],[-177,135],[2,0],[-100,91],[-99,91],[-99,148],[-62,0],[-145,132],[-11,-8],[-8,-14],[-1,-12],[1,-58],[0,-45],[1,-24],[3,-14],[63,-113],[76,-215],[16,-23],[172,11],[61,-73],[18,-60],[7,-10],[-12,-24],[-14,1],[-56,63],[-125,10],[-125,10],[-125,10],[0,16],[37,20],[18,37],[10,69],[-6,17],[-17,81],[-7,20],[-110,147],[-7,20],[-5,34],[-1,32],[1,14],[0,13],[-5,28],[-16,52],[-90,119],[-95,31],[-96,31],[-54,-51],[-16,33],[3,18],[-50,70],[-155,71],[17,28],[92,13],[9,24],[-14,55],[-17,24],[-128,-13],[-128,-14],[-128,-13],[-35,-48],[-8,-2],[-8,-9],[-6,-29],[8,-18],[40,-1],[29,-32],[58,5],[17,-41],[-12,-89],[7,-35],[35,-1],[-7,-22],[-14,-29],[-7,-21],[13,-31],[40,-56],[-19,-34],[-40,8],[-18,-14],[-40,-77],[-125,-18],[-125,-19],[-73,27],[-105,-53],[-12,-32],[7,-47],[48,-136],[180,-95],[180,-94],[180,-95],[180,-95],[14,-59],[3,-29],[5,-66],[2,-19],[23,-53],[7,-28],[-43,29],[-19,38],[-20,55],[2,75],[-5,43],[-11,20],[-60,15],[-14,-27],[47,-150],[53,-117],[-42,25],[-40,65],[-65,199],[-25,28],[-151,-1],[-19,-49],[34,-104],[86,-158],[12,-58],[-10,-21],[-11,8],[-100,203],[-100,202],[-48,41],[-19,35],[-34,2],[-136,31],[-122,-19],[-8,-19],[-5,-31],[3,-19],[45,-71],[9,-5],[0,-17],[-105,-34],[16,-51],[100,-62],[21,-43],[10,-58],[-102,93],[-102,92],[-10,29],[52,104],[-7,38],[-65,121],[-79,37],[-75,-37],[-74,73],[-26,5],[-8,-5],[-3,-9],[-7,-22],[-4,-5],[-14,1],[-25,-29],[-162,-58],[-119,-133],[-18,-47],[25,-106],[-2,-12],[-3,-8],[5,-32],[-33,-35],[-63,90],[-33,-6],[-17,-24],[-8,-20],[-3,-24],[5,-24],[10,-11],[74,-16],[10,-39],[-11,-19],[-33,-92],[-26,-31],[-4,-25],[0,-6],[6,-25],[-13,28],[-30,15],[-11,-4],[6,27],[2,8],[-6,17],[-7,5],[-13,-4],[-41,50],[-23,67],[-13,26],[6,12],[12,7],[5,16],[-15,26],[-15,-4],[-47,-54],[-33,5],[10,-15],[8,-30],[-24,8],[0,2038]],[[1501,0],[-456,0],[71,46],[153,37],[-3,0],[83,70],[34,95],[119,132],[115,76],[114,77],[86,11],[26,17],[33,-51],[8,3],[9,15],[10,6],[9,-9],[5,-33],[-12,-11],[-27,-46],[-125,-70],[-127,-117],[-25,-48],[-27,-22],[-27,-49],[-39,-26],[-13,-21],[-9,-35],[6,-29],[9,-18]],[[2299,0],[-282,0],[74,18],[19,-12],[166,58],[165,58],[166,59],[166,58],[7,-15],[-34,-50],[-88,-30],[-19,-34],[-169,-55],[-169,-54],[-2,-1]],[[0,1385],[59,10],[92,0],[-20,-79],[-100,-14],[-5,-15],[-6,-38],[-4,-13],[-7,-9],[-9,2],[0,156]],[[0,857],[78,57],[99,106],[75,46],[120,91],[133,34],[39,27],[37,58],[22,11],[22,-12],[18,-39],[-5,-19],[41,-16],[32,33],[133,-67],[134,-68],[9,-24],[3,-15],[4,-12],[4,-6],[4,-2],[-13,-24],[-88,80],[-72,-2],[-23,20],[-39,-34],[-17,7],[-13,24],[3,11],[3,7],[3,3],[4,-2],[0,16],[-134,-36],[-68,2],[-143,-58],[-9,-14],[-8,-35],[11,-9],[21,-39],[10,-5],[-11,-17],[-13,2],[-39,36],[-92,-151],[-76,-12],[-56,-110],[-115,-56],[-12,-30],[45,-69],[94,-47],[68,-88],[143,37],[22,-45],[-114,-52],[-113,-52],[-17,6],[-69,93],[-18,5],[-27,-22],[-16,22],[-8,3],[-6,-7],[0,459]],[[4096,4088],[-70,-7],[-18,15]],[[3978,4096],[-19,-19],[-41,19]],[[3668,4096],[46,-59],[-8,-20],[-9,-5],[-10,6],[-18,26],[-65,36],[-11,16]],[[3239,4096],[2,-9],[91,-148],[90,-147],[7,-40],[-111,-22],[-96,125],[-97,125],[-119,55],[-119,56],[-94,-39],[-15,-34],[-10,-70],[38,-90],[134,-141],[4,-13],[122,-58],[27,19],[9,-19],[-7,-12],[-182,15],[-181,15],[-67,-181],[-18,-75],[-1,-14],[2,-32],[6,-29],[172,-188],[172,-189],[173,-189],[153,-7],[-6,-18],[-29,-40],[-3,-8],[0,-13],[4,-25],[11,-41],[130,-66],[130,-67],[130,-66],[10,-29],[-8,-19],[-17,-27],[-7,-24],[19,-34],[42,-5],[19,-32],[-3,-18],[11,-48],[164,-305],[-109,16],[-14,20],[-17,71],[-148,280],[-152,105],[-29,-31],[-18,0],[-15,16],[-2,35],[-177,134],[-177,135],[2,0],[-100,91],[-99,91],[-99,148],[-62,0],[-145,132],[-11,-8],[-8,-14],[-1,-12],[1,-58],[0,-45],[1,-24],[3,-14],[63,-113],[76,-215],[16,-23],[172,11],[61,-73],[18,-60],[7,-10],[-12,-24],[-14,1],[-56,63],[-125,10],[-125,10],[-125,10],[0,16],[37,20],[18,37],[10,69],[-6,17],[-17,81],[-7,20],[-110,147],[-7,20],[-5,34],[-1,32],[1,14],[0,13],[-5,28],[-16,52],[-90,119],[-95,31],[-96,31],[-54,-51],[-16,33],[3,18],[-50,70],[-155,71],[17,28],[92,13],[9,24],[-14,55],[-17,24],[-128,-13],[-128,-14],[-128,-13],[-35,-48],[-8,-2],[-8,-9],[-6,-29],[8,-18],[40,-1],[29,-32],[58,5],[17,-41],[-12,-89],[7,-35],[35,-1],[-7,-22],[-14,-29],[-7,-21],[13,-31],[40,-56],[-19,-34],[-40,8],[-18,-14],[-40,-77],[-125,-18],[-125,-19],[-73,27],[-105,-53],[-12,-32],[7,-47],[48,-136],[180,-95],[180,-94],[180,-95],[180,-95],[14,-59],[3,-29],[5,-66],[2,-19],[23,-53],[7,-28],[-43,29],[-19,38],[-20,55],[2,75],[-5,43],[-11,20],[-60,15],[-14,-27],[47,-150],[53,-117],[-42,25],[-40,65],[-65,199],[-25,28],[-151,-1],[-19,-49],[34,-104],[86,-158],[12,-58],[-10,-21],[-11,8],[-100,203],[-100,202],[-48,41],[-19,35],[-34,2],[-136,31],[-122,-19],[-8,-19],[-5,-31],[3,-19],[45,-71],[9,-5],[0,-17],[-105,-34],[16,-51],[100,-62],[21,-43],[10,-58],[-102,93],[-102,92],[-10,29],[52,104],[-7,38],[-65,121],[-79,37],[-75,-37],[-74,73],[-26,5],[-8,-5],[-3,-9],[-7,-22],[-4,-5],[-14,1],[-25,-29],[-162,-58],[-119,-133],[-18,-47],[25,-106],[-2,-12],[-3,-8],[5,-32],[-33,-35],[-63,90],[-33,-6],[-17,-24],[-8,-20],[-3,-24],[5,-24],[10,-11],[74,-16],[10,-39],[-11,-19],[-33,-92],[-26,-31],[-4,-25],[0,-6],[6,-25],[-13,28],[-30,15],[-11,-4],[6,27],[2,8],[-6,17],[-7,5],[-13,-4],[-41,50],[-23,67],[-13,26],[6,12],[12,7],[5,16],[-15,26],[-15,-4],[-47,-54],[-33,5],[10,-15],[8,-30],[-24,8]],[[0,1385],[59,10],[92,0],[-20,-79],[-100,-14],[-5,-15],[-6,-38],[-4,-13],[-7,-9],[-9,2]],[[0,857],[78,57],[99,106],[75,46],[120,91],[133,34],[39,27],[37,58],[22,11],[22,-12],[18,-39],[-5,-19],[41,-16],[32,33],[133,-67],[134,-68],[9,-24],[3,-15],[4,-12],[4,-6],[4,-2],[-13,-24],[-88,80],[-72,-2],[-23,20],[-39,-34],[-17,7],[-13,24],[3,11],[3,7],[3,3],[4,-2],[0,16],[-134,-36],[-68,2],[-143,-58],[-9,-14],[-8,-35],[11,-9],[21,-39],[10,-5],[-11,-17],[-13,2],[-39,36],[-92,-151],[-76,-12],[-56,-110],[-115,-56],[-12,-30],[45,-69],[94,-47],[68,-88],[143,37],[22,-45],[-114,-52],[-113,-52],[-17,6],[-69,93],[-18,5],[-27,-22],[-16,22],[-8,3],[-6,-7]],[[1045,0],[71,46],[153,37],[-3,0],[83,70],[34,95],[119,132],[115,76],[114,77],[86,11],[26,17],[33,-51],[8,3],[9,15],[10,6],[9,-9],[5,-33],[-12,-11],[-27,-46],[-125,-70],[-127,-117],[-25,-48],[-27,-22],[-27,-49],[-39,-26],[-13,-21],[-9,-35],[6,-29],[9,-18]],[[2017,0],[74,18],[19,-12],[166,58],[165,58],[166,59],[166,58],[7,-15],[-34,-50],[-88,-30],[-19,-34],[-169,-55],[-169,-54],[-2,-1]],[[3978,0],[-7,15],[-22,10],[-113,188],[-15,64],[102,-120],[102,-120],[71,15]],[[4096,111],[-3,7],[3,19]],[[4096,111],[0,-59],[-71,-15],[-102,120],[-102,120],[15,-64],[113,-188],[22,-10],[7,-15],[-1679,0],[2,1],[169,54],[169,55],[19,34],[88,30],[34,50],[-7,15],[-166,-58],[-166,-59],[-165,-58],[-166,-58],[-19,12],[-74,-18],[-516,0],[-9,18],[-6,29],[9,35],[13,21],[39,26],[27,49],[27,22],[25,48],[127,117],[125,70],[27,46],[12,11],[-5,33],[-9,9],[-10,-6],[-9,-15],[-8,-3],[-33,51],[-26,-17],[-86,-11],[-114,-77],[-115,-76],[-119,-132],[-34,-95],[-83,-70],[3,0],[-153,-37],[-71,-46],[-1045,0],[0,398],[6,7],[8,-3],[16,-22],[27,22],[18,-5],[69,-93],[17,-6],[113,52],[114,52],[-22,45],[-143,-37],[-68,88],[-94,47],[-45,69],[12,30],[115,56],[56,110],[76,12],[92,151],[39,-36],[13,-2],[11,17],[-10,5],[-21,39],[-11,9],[8,35],[9,14],[143,58],[68,-2],[134,36],[0,-16],[-4,2],[-3,-3],[-3,-7],[-3,-11],[13,-24],[17,-7],[39,34],[23,-20],[72,2],[88,-80],[13,24],[-4,2],[-4,6],[-4,12],[-3,15],[-9,24],[-134,68],[-133,67],[-32,-33],[-41,16],[5,19],[-18,39],[-22,12],[-22,-11],[-37,-58],[-39,-27],[-133,-34],[-120,-91],[-75,-46],[-99,-106],[-78,-57],[0,372],[9,-2],[7,9],[4,13],[6,38],[5,15],[100,14],[20,79],[-92,0],[-59,-10],[0,673],[24,-8],[-8,30],[-10,15],[33,-5],[47,54],[15,4],[15,-26],[-5,-16],[-12,-7],[-6,-12],[13,-26],[23,-67],[41,-50],[13,4],[7,-5],[6,-17],[-2,-8],[-6,-27],[11,4],[30,-15],[13,-28],[-6,25],[0,6],[4,25],[26,31],[33,92],[11,19],[-10,39],[-74,16],[-10,11],[-5,24],[3,24],[8,20],[17,24],[33,6],[63,-90],[33,35],[-5,32],[3,8],[2,12],[-25,106],[18,47],[119,133],[162,58],[25,29],[14,-1],[4,5],[7,22],[3,9],[8,5],[26,-5],[74,-73],[75,37],[79,-37],[65,-121],[7,-38],[-52,-104],[10,-29],[102,-92],[102,-93],[-10,58],[-21,43],[-100,62],[-16,51],[105,34],[0,17],[-9,5],[-45,71],[-3,19],[5,31],[8,19],[122,19],[136,-31],[34,-2],[19,-35],[48,-41],[100,-202],[100,-203],[11,-8],[10,21],[-12,58],[-86,158],[-34,104],[19,49],[151,1],[25,-28],[65,-199],[40,-65],[42,-25],[-53,117],[-47,150],[14,27],[60,-15],[11,-20],[5,-43],[-2,-75],[20,-55],[19,-38],[43,-29],[-7,28],[-23,53],[-2,19],[-5,66],[-3,29],[-14,59],[-180,95],[-180,95],[-180,94],[-180,95],[-48,136],[-7,47],[12,32],[105,53],[73,-27],[125,19],[125,18],[40,77],[10,7],[8,7],[33,-7],[7,-1],[1,1],[18,33],[-40,56],[-13,31],[7,21],[14,29],[7,22],[-35,1],[-7,35],[12,89],[-17,41],[-58,-5],[-29,32],[-40,1],[-8,18],[6,29],[8,9],[8,2],[35,48],[128,13],[128,14],[128,13],[17,-24],[14,-55],[-9,-24],[-92,-13],[-17,-28],[155,-71],[50,-70],[-3,-18],[16,-33],[54,51],[96,-31],[95,-31],[90,-119],[16,-52],[2,-14],[3,-14],[0,-13],[-1,-14],[1,-32],[5,-34],[7,-20],[110,-147],[7,-20],[17,-81],[6,-17],[-10,-69],[-18,-37],[-37,-20],[0,-16],[125,-10],[125,-10],[125,-10],[56,-63],[14,-1],[12,24],[-7,10],[-18,60],[-61,73],[-172,-11],[-16,23],[-76,215],[-63,113],[-3,14],[-1,24],[0,45],[-1,38],[0,20],[1,12],[8,14],[11,8],[59,-54],[86,-78],[62,0],[99,-148],[99,-91],[100,-91],[-2,0],[177,-135],[144,-108],[33,-26],[2,-35],[15,-16],[18,0],[29,31],[152,-105],[148,-280],[17,-71],[14,-20],[109,-16],[-164,305],[-11,48],[3,18],[-19,32],[-42,5],[-19,34],[7,24],[17,27],[8,19],[-10,29],[-130,66],[-130,67],[-47,24],[-83,42],[-11,41],[-4,25],[0,13],[3,8],[29,40],[6,18],[-153,7],[-173,189],[-99,108],[-73,81],[-172,188],[-6,29],[-2,32],[1,14],[18,75],[67,181],[181,-15],[182,-15],[7,12],[-9,19],[-27,-19],[-122,58],[-4,13],[-134,141],[-38,90],[10,70],[15,34],[94,39],[119,-56],[119,-55],[97,-125],[96,-125],[66,13],[45,9],[-7,40],[-38,63],[-52,84],[-91,148],[-2,9],[354,0],[11,-16],[65,-36],[18,-26],[10,-6],[9,5],[8,20],[-46,59],[250,0],[41,-19],[19,19],[30,0],[18,-15],[70,7],[0,-3951],[-3,-19],[3,-7]]]}