{"objects":{"water":{"type":"GeometryCollection","geometries":[{"type":"MultiPolygon","properties":{"source":"naturalearthdata.com","kind":"ocean","area":989871000000000,"sort_rank":200,"min_zoom":0,"id":1},"arcs":[[[0]],[[1]]]},{"type":"MultiLineString","properties":{"source":"naturalearthdata.com","kind":"ocean","sort_rank":205,"boundary":true,"min_zoom":0,"id":2},"arcs":[[2],[3]]}]},"buildings":{"type":"GeometryCollection","geometries":[]},"places":{"type":"GeometryCollection","geometries":[]},"transit":{"type":"GeometryCollection","geometries":[]},"pois":{"type":"GeometryCollection","geometries":[]},"boundaries":{"type":"GeometryCollection","geometries":[]},"roads":{"type":"GeometryCollection","geometries":[]},"earth":{"type":"GeometryCollection","geometries":[{"type":"MultiPolygon","properties":{"sort_rank":10,"source":"naturalearthdata.com","min_zoom":0,"kind":"earth","area":59133836386451},"arcs":[[[4]]]}]},"landuse":{"type":"GeometryCollection","geometries":[]}},"type":"Topology","transform":{"translate":[-90.0,-81.0932138526],"scale":[0.002746582,0.0004692088]},"arcs":[[[4096,2339],[0,-248],[-17,10],[-155,92],[-154,92],[-15,82],[165,-13],[165,-14],[11,-1]],[[3122,4096],[974,0],[0,-236],[-79,7],[-178,14],[-177,15],[-177,14],[-21,-32],[-16,-65],[-3,-42],[-3,-146],[0,-47],[6,-36],[8,-31],[39,-92],[5,-41],[-2,-58],[-7,-35],[-10,-29],[-11,-20],[-8,-6],[-114,115],[-114,115],[-19,46],[-48,263],[-6,56],[16,93],[19,46],[42,64],[-62,19],[-8,-6],[-25,-39],[-8,0],[-8,15],[-15,42],[15,32],[-5,5]],[[4096,2091],[-17,10],[-155,92],[-154,92],[-15,82],[165,-13],[165,-14],[11,-1]],[[4096,3860],[-79,7],[-178,14],[-177,15],[-177,14],[-21,-32],[-16,-65],[-3,-42],[-3,-146],[0,-47],[6,-36],[8,-31],[39,-92],[5,-41],[-2,-58],[-7,-35],[-10,-29],[-11,-20],[-8,-6],[-114,115],[-114,115],[-19,46],[-48,263],[-6,56],[16,93],[19,46],[42,64],[-62,19],[-8,-6],[-25,-39],[-8,0],[-8,15],[-15,42],[15,32],[-5,5]],[[4096,2091],[0,-2091],[-4096,0],[0,4096],[3122,0],[5,-5],[-15,-32],[15,-42],[8,-15],[8,0],[25,39],[8,6],[62,-19],[-42,-64],[-19,-46],[-16,-93],[6,-56],[48,-263],[19,-46],[114,-115],[114,-115],[8,6],[11,20],[10,29],[7,35],[2,58],[-5,41],[-39,92],[-8,31],[-6,36],[0,47],[3,146],[3,42],[16,65],[21,32],[177,-14],[177,-15],[178,-14],[79,-7],[0,-1521],[-11,1],[-165,14],[-165,13],[15,-82],[154,-92],[155,-92],[17,-10]]]}