{"objects":{"water":{"type":"GeometryCollection","geometries":[{"type":"MultiPolygon","properties":{"source":"naturalearthdata.com","kind":"ocean","area":989871000000000,"sort_rank":200,"min_zoom":0,"id":1},"arcs":[[[0],[1],[2]]]},{"type":"LineString","properties":{"source":"naturalearthdata.com","kind":"ocean","sort_rank":205,"boundary":true,"min_zoom":0,"id":3354},"arcs":[3]},{"type":"LineString","properties":{"source":"naturalearthdata.com","kind":"ocean","sort_rank":205,"boundary":true,"min_zoom":0,"id":3356},"arcs":[4]},{"type":"LineString","properties":{"source":"naturalearthdata.com","kind":"ocean","sort_rank":205,"boundary":true,"min_zoom":0,"id":3364},"arcs":[5]},{"type":"LineString","properties":{"source":"naturalearthdata.com","kind":"ocean","sort_rank":205,"boundary":true,"min_zoom":0,"id":3365},"arcs":[6]},{"type":"LineString","properties":{"source":"naturalearthdata.com","kind":"ocean","sort_rank":205,"boundary":true,"min_zoom":0,"id":3366},"arcs":[7]},{"type":"Point","properties":{"name:ia":"Oceano Pacific Nord","label_placement":true,"collision_rank":398,"name:id":"Samudra Pasifik Utara","name:ms":"Lautan Pasifik Utara","name:ar":"\u0634\u0645\u0627\u0644 \u0627\u0644\u0645\u062d\u064a\u0637 \u0627\u0644\u0647\u0627\u062f\u064a","name:cs":"Severn\u00ed Tich\u00fd oce\u00e1n","name:is":"Nor\u00f0ur-Kyrrahaf","alt_name:cs":"Severn\u00ed Pacifik","name:ru":"\u0421\u0435\u0432\u0435\u0440\u043d\u044b\u0439 \u0422\u0438\u0445\u0438\u0439 \u043e\u043a\u0435\u0430\u043d","name:vi":"B\u1eafc Th\u00e1i B\u00ecnh D\u01b0\u01a1ng","name:pl":"P\u00f3\u0142nocny Ocean Spokojny","id":305640027,"name:fa":"\u0627\u0642\u06cc\u0627\u0646\u0648\u0633 \u0622\u0631\u0627\u0645 \u0634\u0645\u0627\u0644\u06cc","sort_rank":200,"name:de":"Nordpazifischer Ozean","source":"openstreetmap.org","name:fr":"Oc\u00e9an Pacifique nord","name:zh":"\u5317\u592a\u5e73\u6d0b","name:sl":"Severni Tihi ocean","name:sk":"Severn\u00fd Tich\u00fd oce\u00e1n","name:ja":"\u5317\u592a\u5e73\u6d0b","name:lt":"\u0160iaur\u0117s Ramusis vandenynas","alt_name:de":"Nordpazifik","kind":"sea","name:be":"\u041f\u0430\u045e\u043d\u043e\u0447\u043d\u044b \u0426\u0456\u0445\u0456 \u0430\u043a\u0456\u044f\u043d","name:hu":"\u00c9szaki-Csendes-\u00f3ce\u00e1n","name:hr":"Sjeverni Tihi ocean","name:el":"\u0392\u03cc\u03c1\u03b5\u03b9\u03bf\u03c2 \u0395\u03b9\u03c1\u03b7\u03bd\u03b9\u03ba\u03cc\u03c2 \u03a9\u03ba\u03b5\u03b1\u03bd\u03cc\u03c2","name:eo":"Norda Pacifiko","name:en":"North Pacific Ocean","name":"North Pacific Ocean","min_zoom":3.0,"wikidata_id":"Q62475166","name:es":"Oc\u00e9ano Pac\u00edfico Norte"},"coordinates":[3641,3297]}]},"buildings":{"type":"GeometryCollection","geometries":[]},"places":{"type":"GeometryCollection","geometries":[]},"transit":{"type":"GeometryCollection","geometries":[]},"pois":{"type":"GeometryCollection","geometries":[]},"boundaries":{"type":"GeometryCollection","geometries":[]},"roads":{"type":"GeometryCollection","geometries":[]},"earth":{"type":"GeometryCollection","geometries":[]},"landuse":{"type":"GeometryCollection","geometries":[{"type":"MultiPolygon","properties":{"kind":"nature_reserve","protect_class":"4","area":513808834215,"sort_rank":23,"source":"openstreetmap.org","min_zoom":4.0,"tier":2,"id":-8890494},"arcs":[[[8]]]}]}},"type":"Topology","transform":{"translate":[-180.0,21.9430455334],"scale":[0.002746582,0.002443632]},"arcs":[[[0,4096],[4096,0],[0,-4096],[-4096,0],[0,100],[0,204],[0,204],[0,205],[0,204],[0,204],[0,204],[0,204],[0,204],[0,204],[0,204],[0,204],[0,204],[0,204],[0,204],[0,204],[0,204],[0,204],[0,204],[0,204],[0,119]],[[3014,1567],[-7,-1],[1,-6],[3,-1],[3,8]],[[962,2566],[-4,1],[-3,-1],[-3,-3],[-2,-3],[4,0],[3,1],[3,3],[2,2]],[[3014,1567],[-3,-8],[-3,1],[-1,6],[7,1]],[[2197,1689],[0,-2],[0,-1],[0,-2],[2,-1],[0,2],[0,1],[-1,1],[-1,2]],[[973,2565],[-3,-3],[4,1],[1,0],[0,1],[-2,1]],[[962,2566],[-4,1],[-3,-1],[-3,-3],[-2,-3],[4,0],[3,1],[3,3],[2,2]],[[622,2643],[1,-4],[-1,-1],[-2,-1],[-2,0],[-1,0],[3,2],[1,1],[1,2],[0,1]],[[4096,1648],[0,-695],[-744,136],[-380,136],[-938,139],[-759,806],[-813,171],[-144,126],[-54,184],[24,126],[69,108],[105,75],[126,32],[460,-87],[653,-188],[661,-710],[728,-107],[411,-143],[595,-109]]]}