{"objects":{"water":{"type":"GeometryCollection","geometries":[{"type":"MultiPolygon","properties":{"source":"naturalearthdata.com","kind":"ocean","area":989871000000000,"sort_rank":200,"min_zoom":0,"id":1},"arcs":[[[0]]]},{"type":"LineString","properties":{"source":"naturalearthdata.com","kind":"ocean","sort_rank":205,"boundary":true,"min_zoom":0,"id":3154},"arcs":[1]},{"type":"LineString","properties":{"source":"naturalearthdata.com","kind":"ocean","sort_rank":205,"boundary":true,"min_zoom":0,"id":3155},"arcs":[2]},{"type":"LineString","properties":{"source":"naturalearthdata.com","kind":"ocean","sort_rank":205,"boundary":true,"min_zoom":0,"id":3157},"arcs":[3]}]},"buildings":{"type":"GeometryCollection","geometries":[]},"places":{"type":"GeometryCollection","geometries":[{"type":"Point","properties":{"name:pt":"Quiribati","name:ka":"\u10d9\u10d8\u10e0\u10d8\u10d1\u10d0\u10e2\u10d8","name:ko":"\ud0a4\ub9ac\ubc14\uc2dc","name:kn":"\u0c95\u0cbf\u0cb0\u0cbf\u0cac\u0cbe\u0ca4\u0cbf","name:km":"\u1782\u17b7\u179a\u17b7\u1794\u17b6\u1791\u17b8","name:tt":"\u041a\u0438\u0440\u0438\u0431\u0430\u0442\u0438","name:ku":"Kir\u00eebat\u00ee","name:ti":"\u12aa\u122a\u1263\u1272","name:ks":"\u06a9\u0650\u0631\u0655\u0628\u0627\u062a\u06cc","name:to":"Kilipasi","name:be":"\u041a\u0456\u0440\u044b\u0431\u0430\u0446\u0456","name:or":"\u0b15\u0b3f\u0b30\u0b3f\u0b2c\u0b3e\u0b1f\u0b40","name:pl":"Kiribati","name:ta":"\u0b95\u0bbf\u0bb0\u0bbf\u0baa\u0b9f\u0bbf","name:ca":"Kiribati","name:te":"\u0c15\u0c3f\u0c30\u0c3f\u0c2c\u0c3e\u0c1f\u0c3f","name:hu":"Kiribati","name:da":"Kiribati","name:de":"Kiribati","name:dz":"\u0f40\u0f72\u0f0b\u0f62\u0f72\u0f0b\u0f56\u0f0b\u0f4f\u0f72\u0f0b\u0f58\u0f5a\u0f7c\u0f0b\u0f42\u0fb3\u0f72\u0f44","source":"openstreetmap.org","name:lv":"Kiribati","name:lt":"Kiribatis","name:hi":"\u0915\u093f\u0930\u093f\u092c\u093e\u0924\u0940","name:he":"\u05e7\u05d9\u05e8\u05d9\u05d1\u05d8\u05d9","kind":"country","name:ur":"\u06a9\u0631\u06cc\u0628\u0627\u062a\u06cc","official_name":"Republic of Kiribati","name:uk":"\u041a\u0456\u0440\u0438\u0431\u0430\u0442\u0456","name:hy":"\u053f\u056b\u0580\u056b\u0562\u0561\u057f\u056b","min_zoom":5,"name:li":"Kiribati-eilen","name:lo":"\u0e84\u0eb4\u0ea5\u0eb4\u0e9a\u0eb2\u0e95\u0eb4","population":103000,"name:el":"\u039a\u03b9\u03c1\u03b9\u03bc\u03c0\u03ac\u03c4\u03b9","name:eo":"Kiribato","name:en":"Kiribati","name":"Kiribati","name:ee":"Kiribati nutome","name:th":"\u0e1b\u0e23\u0e30\u0e40\u0e17\u0e28\u0e04\u0e34\u0e23\u0e34\u0e1a\u0e32\u0e2a","wikidata_id":"Q710","name:nl":"Kiribati","name:es":"Kiribati","name:ia":"Kiribati","collision_rank":311,"name:mr":"\u0915\u093f\u0930\u0940\u092c\u093e\u091f\u0940","name:ar":"\u0643\u064a\u0631\u064a\u0628\u0627\u0633","max_zoom":10,"name:io":"Kiribati","name:is":"K\u00edribat\u00ed","name:am":"\u12aa\u122a\u1263\u1272","name:it":"Kiribati","name:vi":"Kiribati","name:ru":"\u041a\u0438\u0440\u0438\u0431\u0430\u0442\u0438","name:mn":"\u041a\u0438\u0440\u0438\u0431\u0430\u0442\u0438","id":432425015,"name:mk":"\u041a\u0438\u0440\u0438\u0431\u0430\u0442\u0438","name:vo":"Kiribatu\u00e4ns","name:zu":"i-Kiribati","name:ff":"Kiribari","name:fi":"Kiribati","name:no":"Kiribati","name:fr":"Kiribati","name:fy":"Kiribaty","name:zh":"\u57fa\u91cc\u5df4\u65af","name:gv":"Yn Chiribati","name:sk":"Kiribati","name:ja":"\u30ad\u30ea\u30d0\u30b9","name:si":"\u0d9a\u0dd2\u0dbb\u0dd2\u0db6\u0dad\u0dd2","name:fa":"\u06a9\u06cc\u0631\u06cc\u0628\u0627\u062a\u06cc","name:ne":"\u0915\u093f\u0930\u093f\u092c\u093e\u091f\u0940","name:br":"Kiribati","name:bn":"\u0995\u09bf\u09b0\u09bf\u09ac\u09be\u09a4\u09bf","name:bo":"\u0f40\u0f72\u0f0b\u0f62\u0f72\u0f0b\u0f56\u0f71\u0f0b\u0f4f\u0f72\u0f0d","name:ml":"\u0d15\u0d3f\u0d30\u0d3f\u0d2c\u0d3e\u0d24\u0d4d\u0d24\u0d3f","name:sv":"Kiribati","name:bg":"\u041a\u0438\u0440\u0438\u0431\u0430\u0442\u0438","name:sr":"\u041a\u0438\u0440\u0438\u0431\u0430\u0442\u0438","name:sq":"Qiribati","name:ga":"Cireabait\u00ed","name:gd":"Ciribeas","name:yo":"Or\u00edl\u1eb9\u0301\u00e8de Kiribati","name:gu":"\u0a95\u0abf\u0ab0\u0abf\u0aac\u0abe\u0a9f\u0ac0","population_rank":9},"coordinates":[3035,164]}]},"transit":{"type":"GeometryCollection","geometries":[]},"pois":{"type":"GeometryCollection","geometries":[]},"boundaries":{"type":"GeometryCollection","geometries":[]},"roads":{"type":"GeometryCollection","geometries":[]},"earth":{"type":"GeometryCollection","geometries":[]},"landuse":{"type":"GeometryCollection","geometries":[]}},"type":"Topology","transform":{"translate":[-180.0,-0.0],"scale":[0.002746582,0.002729102]},"arcs":[[[0,4096],[4096,0],[0,-4096],[-4096,0],[0,91],[0,183],[0,183],[0,182],[0,183],[0,183],[0,183],[0,182],[0,183],[0,183],[0,182],[0,183],[0,183],[0,182],[0,183],[0,183],[0,183],[0,182],[0,183],[0,183],[0,182],[0,183],[0,168]],[[1279,72],[2,-1],[0,-1],[1,0],[1,1],[0,1],[-1,1],[-1,-1],[-2,0]],[[1289,83],[-2,-2],[2,-1],[0,3]],[[1225,290],[-2,4],[0,1],[1,1],[1,-2],[0,-4]]]}