{"objects":{"water":{"type":"GeometryCollection","geometries":[{"type":"Polygon","properties":{"source":"naturalearthdata.com","kind":"ocean","area":989871000000000,"sort_rank":200,"min_zoom":0,"id":1},"arcs":[[0],[1],[2]]},{"type":"LineString","properties":{"source":"naturalearthdata.com","kind":"ocean","sort_rank":205,"boundary":true,"min_zoom":0,"id":2043},"arcs":[3]},{"type":"LineString","properties":{"source":"naturalearthdata.com","kind":"ocean","sort_rank":205,"boundary":true,"min_zoom":0,"id":3091},"arcs":[4]}]},"buildings":{"type":"GeometryCollection","geometries":[]},"places":{"type":"GeometryCollection","geometries":[]},"transit":{"type":"GeometryCollection","geometries":[]},"pois":{"type":"GeometryCollection","geometries":[]},"boundaries":{"type":"GeometryCollection","geometries":[]},"roads":{"type":"GeometryCollection","geometries":[]},"earth":{"type":"GeometryCollection","geometries":[]},"landuse":{"type":"GeometryCollection","geometries":[]}},"type":"Topology","transform":{"translate":[-180.0,-31.952162238],"scale":[0.002746582,0.002443632]},"arcs":[[[0,0],[0,119],[0,204],[0,204],[0,204],[0,204],[0,204],[0,204],[0,204],[0,204],[0,204],[0,204],[0,204],[0,204],[0,204],[0,204],[0,204],[0,204],[0,205],[0,204],[0,204],[0,100],[4096,0],[0,-4096],[-4096,0]],[[761,1094],[1,0],[4,-5],[2,5],[5,3],[5,0],[5,-3],[-6,11],[-3,4],[-6,3],[-5,3],[-7,1],[-6,1],[-7,0],[2,-4],[3,-3],[7,-6],[0,-4],[0,-5],[1,-3],[5,2]],[[1379,3940],[-2,0],[0,-2],[1,-2],[2,-2],[1,0],[2,1],[1,2],[-2,2],[-3,1]],[[761,1094],[-5,-2],[-1,3],[0,5],[0,4],[-7,6],[-3,3],[-2,4],[7,0],[6,-1],[7,-1],[5,-3],[6,-3],[3,-4],[6,-11],[-5,3],[-5,0],[-5,-3],[-2,-5],[-4,5],[-1,0]],[[1379,3940],[-2,0],[0,-2],[1,-2],[2,-2],[1,0],[2,1],[1,2],[-2,2],[-3,1]]]}