{"objects":{"water":{"type":"GeometryCollection","geometries":[{"type":"Polygon","properties":{"source":"naturalearthdata.com","kind":"ocean","area":989871000000000,"sort_rank":200,"min_zoom":0,"id":1},"arcs":[[0],[1],[2]]},{"type":"LineString","properties":{"source":"naturalearthdata.com","kind":"ocean","sort_rank":205,"boundary":true,"min_zoom":0,"id":2020},"arcs":[3]},{"type":"LineString","properties":{"source":"naturalearthdata.com","kind":"ocean","sort_rank":205,"boundary":true,"min_zoom":0,"id":2021},"arcs":[4]}]},"buildings":{"type":"GeometryCollection","geometries":[]},"places":{"type":"GeometryCollection","geometries":[]},"transit":{"type":"GeometryCollection","geometries":[]},"pois":{"type":"GeometryCollection","geometries":[]},"boundaries":{"type":"GeometryCollection","geometries":[]},"roads":{"type":"GeometryCollection","geometries":[]},"earth":{"type":"GeometryCollection","geometries":[{"type":"MultiPolygon","properties":{"sort_rank":10,"source":"naturalearthdata.com","kind":"earth","min_zoom":2.0,"area":10807105778},"arcs":[[[5]]]},{"type":"MultiPolygon","properties":{"sort_rank":10,"source":"naturalearthdata.com","kind":"earth","min_zoom":4.0,"area":1764610689},"arcs":[[[6]]]}]},"landuse":{"type":"GeometryCollection","geometries":[]}},"type":"Topology","transform":{"translate":[-180.0,-48.9224992638],"scale":[0.002746582,0.0019391116]},"arcs":[[[0,0],[0,159],[0,257],[0,257],[0,257],[0,257],[0,257],[0,257],[0,258],[0,257],[0,257],[0,257],[0,257],[0,257],[0,257],[0,257],[0,258],[0,80],[4096,0],[0,-4096],[-4096,0]],[[1403,2411],[-1,3],[0,3],[0,3],[-2,3],[-5,1],[-8,0],[-7,-1],[-5,-4],[-5,-5],[2,-3],[4,-3],[4,-6],[-1,-4],[-5,-13],[-2,-5],[2,-1],[-2,-2],[2,-2],[2,-4],[1,-1],[0,-7],[7,3],[13,9],[2,11],[3,7],[13,9],[-9,6],[-3,3]],[[1317,2591],[2,10],[3,8],[18,32],[13,16],[14,8],[15,-9],[0,8],[3,6],[4,4],[6,0],[0,3],[-81,-7],[-9,2],[-25,12],[-5,1],[-15,-1],[-4,2],[-8,4],[-3,1],[-8,-2],[-3,-6],[-1,-8],[-4,-10],[-7,-5],[-33,-4],[-4,2],[-9,7],[-1,2],[-5,-3],[0,-4],[3,-4],[0,-4],[-8,-5],[-8,-3],[-7,-3],[-5,-10],[11,-10],[26,9],[11,-6],[5,3],[6,0],[3,1],[-2,7],[3,4],[3,-2],[4,1],[4,3],[5,1],[5,-1],[5,-2],[8,-8],[8,-9],[16,-31],[3,-12],[-7,-9],[-9,-5],[-2,-6],[-4,-5],[-21,-17],[-8,-5],[-4,-3],[2,-3],[4,-2],[3,-2],[8,-20],[3,-10],[1,-11],[3,-4],[7,-2],[22,0],[3,1],[3,10],[16,8],[9,8],[10,5],[3,2],[10,3],[16,1],[10,4],[-5,12],[-4,2],[-10,3],[-4,4],[-7,8],[-2,5],[0,8],[-3,11],[-13,-12],[-9,6],[-1,7],[0,6],[0,7],[-3,7],[-12,17],[2,7],[26,24],[-33,7],[-7,6],[-1,13],[9,2],[20,-4],[20,0],[11,-4],[6,-10],[-1,-10],[-6,-11],[-7,-10],[-6,-4],[2,-5],[1,-6],[0,-12],[1,-5],[3,-1],[2,2],[1,4]],[[1403,2411],[-1,3],[0,3],[0,3],[-2,3],[-5,1],[-8,0],[-7,-1],[-5,-4],[-5,-5],[2,-3],[4,-3],[4,-6],[-1,-4],[-5,-13],[-2,-5],[2,-1],[-2,-2],[2,-2],[2,-4],[1,-1],[0,-7],[7,3],[13,9],[2,11],[3,7],[13,9],[-9,6],[-3,3]],[[1317,2591],[2,10],[3,8],[18,32],[13,16],[14,8],[15,-9],[0,8],[3,6],[4,4],[6,0],[0,3],[-81,-7],[-9,2],[-25,12],[-5,1],[-15,-1],[-4,2],[-8,4],[-3,1],[-8,-2],[-3,-6],[-1,-8],[-4,-10],[-7,-5],[-33,-4],[-4,2],[-9,7],[-1,2],[-5,-3],[0,-4],[3,-4],[0,-4],[-8,-5],[-8,-3],[-7,-3],[-5,-10],[11,-10],[26,9],[11,-6],[5,3],[6,0],[3,1],[-2,7],[3,4],[3,-2],[4,1],[4,3],[5,1],[5,-1],[5,-2],[8,-8],[8,-9],[16,-31],[3,-12],[-7,-9],[-9,-5],[-2,-6],[-4,-5],[-21,-17],[-8,-5],[-4,-3],[2,-3],[4,-2],[3,-2],[8,-20],[3,-10],[1,-11],[3,-4],[7,-2],[22,0],[3,1],[3,10],[16,8],[9,8],[10,5],[3,2],[10,3],[16,1],[10,4],[-5,12],[-4,2],[-10,3],[-4,4],[-7,8],[-2,5],[0,8],[-3,11],[-13,-12],[-9,6],[-1,7],[0,6],[0,7],[-3,7],[-12,17],[2,7],[26,24],[-33,7],[-7,6],[-1,13],[9,2],[20,-4],[20,0],[11,-4],[6,-10],[-1,-10],[-6,-11],[-7,-10],[-6,-4],[2,-5],[1,-6],[0,-12],[1,-5],[3,-1],[2,2],[1,4]],[[1317,2591],[-1,-4],[-2,-2],[-3,1],[-1,5],[0,12],[-1,6],[-2,5],[6,4],[7,10],[6,11],[1,10],[-6,10],[-11,4],[-20,0],[-20,4],[-9,-2],[1,-13],[7,-6],[33,-7],[-26,-24],[-2,-7],[12,-17],[3,-7],[0,-7],[0,-6],[1,-7],[9,-6],[13,12],[3,-11],[0,-8],[2,-5],[7,-8],[4,-4],[10,-3],[4,-2],[5,-12],[-10,-4],[-16,-1],[-10,-3],[-3,-2],[-10,-5],[-9,-8],[-16,-8],[-3,-10],[-3,-1],[-22,0],[-7,2],[-3,4],[-1,11],[-3,10],[-8,20],[-3,2],[-4,2],[-2,3],[4,3],[8,5],[21,17],[4,5],[2,6],[9,5],[7,9],[-3,12],[-16,31],[-8,9],[-8,8],[-5,2],[-5,1],[-5,-1],[-4,-3],[-4,-1],[-3,2],[-3,-4],[2,-7],[-3,-1],[-6,0],[-5,-3],[-11,6],[-26,-9],[-11,10],[5,10],[7,3],[8,3],[8,5],[0,4],[-3,4],[0,4],[5,3],[1,-2],[9,-7],[4,-2],[33,4],[7,5],[4,10],[1,8],[3,6],[8,2],[3,-1],[8,-4],[4,-2],[15,1],[5,-1],[25,-12],[9,-2],[81,7],[0,-3],[-6,0],[-4,-4],[-3,-6],[0,-8],[-15,9],[-14,-8],[-13,-16],[-18,-32],[-3,-8],[-2,-10]],[[1403,2411],[3,-3],[9,-6],[-13,-9],[-3,-7],[-2,-11],[-13,-9],[-7,-3],[0,7],[-1,1],[-2,4],[-2,2],[2,2],[-2,1],[2,5],[5,13],[1,4],[-4,6],[-4,3],[-2,3],[5,5],[5,4],[7,1],[8,0],[5,-1],[2,-3],[0,-3],[0,-3],[1,-3]]]}