{"objects":{"water":{"type":"GeometryCollection","geometries":[{"type":"Polygon","properties":{"source":"naturalearthdata.com","kind":"ocean","area":989871000000000,"sort_rank":200,"min_zoom":0,"id":1},"arcs":[[0]]},{"type":"LineString","properties":{"source":"naturalearthdata.com","kind":"ocean","sort_rank":205,"boundary":true,"min_zoom":0,"id":2},"arcs":[1]}]},"buildings":{"type":"GeometryCollection","geometries":[]},"places":{"type":"GeometryCollection","geometries":[]},"transit":{"type":"GeometryCollection","geometries":[]},"pois":{"type":"GeometryCollection","geometries":[]},"boundaries":{"type":"GeometryCollection","geometries":[]},"roads":{"type":"GeometryCollection","geometries":[]},"earth":{"type":"GeometryCollection","geometries":[{"type":"MultiPolygon","properties":{"sort_rank":10,"source":"naturalearthdata.com","min_zoom":0,"kind":"earth","area":53730332668114},"arcs":[[[2]]]}]},"landuse":{"type":"GeometryCollection","geometries":[]}},"type":"Topology","transform":{"translate":[-180.0,-85.0511287798],"scale":[0.002746582,0.0002616868]},"arcs":[[[4096,1604],[-180,63],[-180,64],[-180,64],[-180,63],[-180,64],[-180,64],[-180,63],[-180,64],[-180,64],[-180,63],[-180,64],[-180,64],[-180,64],[-11,-20],[-6,-77],[15,-5],[7,-14],[7,-28],[-17,-125],[-21,-47],[-115,-96],[-115,-95],[-12,18],[-18,98],[-20,68],[-9,22],[8,5],[8,18],[-93,99],[-94,100],[20,59],[124,46],[19,46],[-127,16],[-126,15],[-127,16],[-79,-84],[-78,21],[-60,-70],[-107,123],[-2,75],[-11,38],[-66,82],[4,-1],[4,5],[4,14],[4,25],[-4,9],[-42,53],[-152,-46],[-152,-45],[-153,-46],[-152,-45],[-11,10],[0,1284],[0,143],[4096,0],[0,-2492]],[[4096,1604],[-180,63],[-180,64],[-180,64],[-180,63],[-180,64],[-180,64],[-180,63],[-180,64],[-180,64],[-180,63],[-180,64],[-180,64],[-180,64],[-11,-20],[-6,-77],[15,-5],[7,-14],[7,-28],[-17,-125],[-21,-47],[-115,-96],[-115,-95],[-12,18],[-18,98],[-20,68],[-9,22],[8,5],[8,18],[-93,99],[-94,100],[20,59],[124,46],[19,46],[-127,16],[-126,15],[-127,16],[-79,-84],[-78,21],[-60,-70],[-107,123],[-2,75],[-11,38],[-66,82],[4,-1],[4,5],[4,14],[4,25],[-4,9],[-42,53],[-152,-46],[-152,-45],[-153,-46],[-152,-45],[-11,10]],[[4096,1604],[0,-1604],[-4096,0],[0,142],[0,1906],[0,621],[11,-10],[152,45],[153,46],[152,45],[152,46],[42,-53],[4,-9],[-4,-25],[-4,-14],[-4,-5],[-4,1],[66,-82],[11,-38],[2,-75],[107,-123],[60,70],[78,-21],[79,84],[127,-16],[126,-15],[127,-16],[-19,-46],[-124,-46],[-20,-59],[94,-100],[93,-99],[-8,-18],[-8,-5],[9,-22],[20,-68],[18,-98],[12,-18],[115,95],[115,96],[21,47],[17,125],[-7,28],[-7,14],[-15,5],[6,77],[11,20],[180,-64],[180,-64],[180,-64],[180,-63],[180,-64],[180,-64],[180,-63],[180,-64],[180,-64],[180,-63],[180,-64],[180,-64],[180,-63]]]}