{"objects":{"water":{"type":"GeometryCollection","geometries":[{"type":"MultiPolygon","properties":{"source":"naturalearthdata.com","kind":"ocean","area":989871000000000,"sort_rank":200,"min_zoom":0,"id":1},"arcs":[[[0],[1]]]},{"type":"LineString","properties":{"source":"naturalearthdata.com","kind":"ocean","sort_rank":205,"boundary":true,"min_zoom":0,"id":3003},"arcs":[2]},{"type":"LineString","properties":{"source":"naturalearthdata.com","kind":"ocean","sort_rank":205,"boundary":true,"min_zoom":0,"id":4016},"arcs":[3]}]},"buildings":{"type":"GeometryCollection","geometries":[]},"places":{"type":"GeometryCollection","geometries":[]},"transit":{"type":"GeometryCollection","geometries":[]},"pois":{"type":"GeometryCollection","geometries":[]},"boundaries":{"type":"GeometryCollection","geometries":[]},"roads":{"type":"GeometryCollection","geometries":[]},"earth":{"type":"GeometryCollection","geometries":[{"type":"MultiPolygon","properties":{"sort_rank":10,"source":"naturalearthdata.com","kind":"earth","min_zoom":5.0,"area":12275035991},"arcs":[[[4]]]},{"type":"MultiPolygon","properties":{"sort_rank":10,"source":"naturalearthdata.com","min_zoom":0,"kind":"earth","area":13131386715102},"arcs":[[[5]]]}]},"landuse":{"type":"GeometryCollection","geometries":[{"type":"MultiPolygon","properties":{"kind":"nature_reserve","protect_class":"1","area":117796657022,"sort_rank":23,"source":"openstreetmap.org","min_zoom":4.0,"tier":2,"id":-5576598},"arcs":[[[6]],[[7]]]}]}},"type":"Topology","transform":{"translate":[-180.0,70.612614238],"scale":[0.002746582,0.0008317698]},"arcs":[[[0,4096],[4096,0],[0,-4096],[-4096,0],[0,456],[34,6],[6,-4],[13,-17],[69,-17],[60,-55],[16,-5],[33,18],[16,-10],[-5,-13],[-2,-4],[131,51],[38,37],[103,20],[103,19],[38,30],[100,4],[20,13],[21,39],[25,10],[24,21],[17,7],[21,37],[26,32],[19,42],[4,16],[1,18],[-6,15],[-10,11],[-7,12],[3,19],[-6,10],[-6,4],[-6,-2],[-15,-10],[-24,8],[-6,11],[-4,3],[-9,-1],[-4,2],[-23,33],[-69,76],[-25,14],[3,7],[2,2],[-3,3],[-5,10],[-3,3],[14,15],[4,9],[-43,40],[-9,4],[-16,-10],[-8,1],[-39,33],[-7,15],[6,-3],[7,-2],[17,-3],[-23,9],[-27,27],[-123,35],[-124,36],[-47,-20],[-14,-17],[-16,-7],[-8,-7],[-7,-2],[-16,16],[-87,19],[-25,-14],[-7,5],[-6,7],[-8,4],[-8,-4],[-15,-17],[-37,-13],[-4,-3],[18,-21],[-50,-2],[0,17],[0,600],[0,599],[0,600],[0,599],[0,570]],[[1607,922],[-5,2],[-6,0],[-66,37],[-5,0],[19,-27],[8,-7],[15,-3],[6,-7],[5,-10],[6,-12],[8,-6],[7,2],[7,5],[5,8],[0,11],[-1,6],[-3,1]],[[0,456],[34,6],[6,-4],[13,-17],[69,-17],[60,-55],[16,-5],[33,18],[16,-10],[-5,-13],[-2,-4],[131,51],[38,37],[103,20],[103,19],[38,30],[100,4],[20,13],[21,39],[25,10],[24,21],[17,7],[21,37],[26,32],[19,42],[4,16],[1,18],[-6,15],[-10,11],[-7,12],[3,19],[-6,10],[-6,4],[-6,-2],[-15,-10],[-24,8],[-6,11],[-4,3],[-9,-1],[-4,2],[-23,33],[-69,76],[-25,14],[3,7],[2,2],[-3,3],[-5,10],[-3,3],[14,15],[4,9],[-43,40],[-9,4],[-16,-10],[-8,1],[-39,33],[-7,15],[6,-3],[7,-2],[17,-3],[-23,9],[-27,27],[-123,35],[-124,36],[-47,-20],[-14,-17],[-16,-7],[-8,-7],[-7,-2],[-16,16],[-87,19],[-25,-14],[-7,5],[-6,7],[-8,4],[-8,-4],[-15,-17],[-37,-13],[-4,-3],[18,-21],[-50,-2]],[[1607,922],[-5,2],[-6,0],[-66,37],[-5,0],[19,-27],[8,-7],[15,-3],[6,-7],[5,-10],[6,-12],[8,-6],[7,2],[7,5],[5,8],[0,11],[-1,6],[-3,1]],[[1607,922],[3,-1],[1,-6],[0,-11],[-5,-8],[-7,-5],[-7,-2],[-8,6],[-6,12],[-5,10],[-6,7],[-15,3],[-8,7],[-19,27],[5,0],[66,-37],[6,0],[5,-2]],[[0,1111],[50,2],[-18,21],[4,3],[37,13],[15,17],[8,4],[8,-4],[6,-7],[7,-5],[25,14],[87,-19],[16,-16],[7,2],[8,7],[16,7],[14,17],[47,20],[124,-36],[123,-35],[27,-27],[23,-9],[-17,3],[-7,2],[-6,3],[7,-15],[39,-33],[8,-1],[16,10],[9,-4],[43,-40],[-4,-9],[-14,-15],[3,-3],[5,-10],[3,-3],[-2,-2],[-3,-7],[25,-14],[69,-76],[23,-33],[4,-2],[9,1],[4,-3],[6,-11],[24,-8],[15,10],[6,2],[6,-4],[6,-10],[-3,-19],[7,-12],[10,-11],[6,-15],[-1,-18],[-4,-16],[-19,-42],[-26,-32],[-21,-37],[-17,-7],[-24,-21],[-25,-10],[-21,-39],[-20,-13],[-100,-4],[-38,-30],[-103,-19],[-103,-20],[-38,-37],[-131,-51],[2,4],[5,13],[-16,10],[-33,-18],[-16,5],[-60,55],[-69,17],[-13,17],[-6,4],[-34,-6],[0,73],[0,582]],[[1324,955],[11,96],[43,84],[68,59],[84,25],[85,-13],[154,-92],[53,-82],[18,-146],[-58,-141],[-74,-62],[-98,-29],[-83,13],[-103,76],[-77,115],[-23,97]],[[0,124],[0,1251],[217,71],[119,-2],[215,-46],[220,-101],[331,-395],[42,-192],[-21,-132],[-42,-87],[-126,-139],[-126,-86],[-72,231],[-368,-110],[-79,-45],[62,-236],[-50,-21],[-164,-34],[-158,73]]]}