{"objects":{"water":{"type":"GeometryCollection","geometries":[{"type":"MultiPolygon","properties":{"source":"naturalearthdata.com","kind":"ocean","area":989871000000000,"sort_rank":200,"min_zoom":0,"id":1},"arcs":[[[0],[1],[2],[3],[4],[5],[6],[7],[8],[9],[10]],[[11]]]},{"type":"LineString","properties":{"source":"naturalearthdata.com","kind":"ocean","sort_rank":205,"boundary":true,"min_zoom":0,"id":410},"arcs":[12]},{"type":"MultiLineString","properties":{"source":"naturalearthdata.com","kind":"ocean","sort_rank":205,"boundary":true,"min_zoom":0,"id":445},"arcs":[[13],[14]]},{"type":"LineString","properties":{"source":"naturalearthdata.com","kind":"ocean","sort_rank":205,"boundary":true,"min_zoom":0,"id":1884},"arcs":[15]},{"type":"LineString","properties":{"source":"naturalearthdata.com","kind":"ocean","sort_rank":205,"boundary":true,"min_zoom":0,"id":1885},"arcs":[16]},{"type":"LineString","properties":{"source":"naturalearthdata.com","kind":"ocean","sort_rank":205,"boundary":true,"min_zoom":0,"id":1886},"arcs":[17]},{"type":"LineString","properties":{"source":"naturalearthdata.com","kind":"ocean","sort_rank":205,"boundary":true,"min_zoom":0,"id":1887},"arcs":[18]},{"type":"LineString","properties":{"source":"naturalearthdata.com","kind":"ocean","sort_rank":205,"boundary":true,"min_zoom":0,"id":1888},"arcs":[19]},{"type":"LineString","properties":{"source":"naturalearthdata.com","kind":"ocean","sort_rank":205,"boundary":true,"min_zoom":0,"id":1889},"arcs":[20]},{"type":"LineString","properties":{"source":"naturalearthdata.com","kind":"ocean","sort_rank":205,"boundary":true,"min_zoom":0,"id":1890},"arcs":[21]},{"type":"LineString","properties":{"source":"naturalearthdata.com","kind":"ocean","sort_rank":205,"boundary":true,"min_zoom":0,"id":1893},"arcs":[22]},{"type":"LineString","properties":{"source":"naturalearthdata.com","kind":"ocean","sort_rank":205,"boundary":true,"min_zoom":0,"id":3985},"arcs":[23]},{"type":"LineString","properties":{"source":"naturalearthdata.com","kind":"ocean","sort_rank":205,"boundary":true,"min_zoom":0,"id":3991},"arcs":[24]}]},"buildings":{"type":"GeometryCollection","geometries":[]},"places":{"type":"GeometryCollection","geometries":[]},"transit":{"type":"GeometryCollection","geometries":[]},"pois":{"type":"GeometryCollection","geometries":[]},"boundaries":{"type":"GeometryCollection","geometries":[]},"roads":{"type":"GeometryCollection","geometries":[]},"earth":{"type":"GeometryCollection","geometries":[{"type":"MultiPolygon","properties":{"sort_rank":10,"source":"naturalearthdata.com","min_zoom":1.5,"kind":"earth","area":39813756347},"arcs":[[[25]]]},{"type":"MultiPolygon","properties":{"sort_rank":10,"source":"naturalearthdata.com","kind":"earth","min_zoom":5.0,"area":10854508662},"arcs":[[[26]],[[27]]]},{"type":"MultiPolygon","properties":{"sort_rank":10,"source":"naturalearthdata.com","min_zoom":0,"kind":"earth","area":35497367916453},"arcs":[[[28]]]}]},"landuse":{"type":"GeometryCollection","geometries":[{"type":"MultiPolygon","properties":{"kind":"nature_reserve","protect_class":"2","area":168371036593,"sort_rank":23,"source":"openstreetmap.org","min_zoom":4.0,"tier":2,"id":-3593378},"arcs":[[[29]],[[30]],[[31]],[[32]],[[33]],[[34]]]}]}},"type":"Topology","transform":{"translate":[-180.0,61.6063963714],"scale":[0.002746582,0.0011979649]},"arcs":[[[4096,1343],[0,-1343],[-4096,0],[0,393],[0,417],[0,416],[0,416],[0,416],[0,416],[0,414],[23,0],[14,6],[8,5],[17,10],[9,14],[11,16],[13,13],[17,0],[11,-1],[14,23],[13,27],[23,28],[1,36],[3,25],[-3,19],[13,16],[-1,13],[-4,25],[13,18],[18,18],[5,10],[14,15],[23,27],[14,26],[-22,35],[7,8],[-2,20],[11,19],[-41,24],[-24,13],[-97,89],[-10,15],[-6,17],[-22,96],[-1,10],[4,31],[1,12],[2,4],[3,7],[4,8],[1,10],[3,36],[4,22],[22,50],[6,18],[4,3],[19,-15],[17,-9],[1,-8],[-4,-4],[-33,0],[-4,-2],[4,-6],[7,-6],[32,-14],[56,7],[40,5],[21,17],[13,31],[-26,40],[-8,17],[-5,20],[-4,7],[-14,5],[-6,5],[-12,41],[36,-16],[13,-21],[15,-7],[28,-2],[-3,22],[1,24],[-2,24],[-6,22],[12,12],[14,-21],[12,-36],[4,-33],[-2,-12],[-12,-18],[-3,-15],[4,-8],[20,-25],[6,-11],[23,-34],[32,-7],[40,14],[12,20],[11,16],[21,40],[16,31],[3,13],[1,11],[2,8],[0,11],[0,12],[15,-6],[9,-1],[-1,7],[8,10],[6,7],[9,1],[6,-12],[-19,-29],[2,-7],[2,-7],[2,-7],[-2,-8],[-6,-14],[-4,-7],[-3,-4],[6,-19],[-3,-18],[10,-4],[4,-7],[-5,-17],[-8,-17],[5,-12],[7,-13],[-12,-18],[-11,-13],[-21,3],[-24,-4],[-6,-22],[10,-24],[-5,-29],[-15,-17],[-27,2],[-5,3],[-7,6],[-23,14],[-15,16],[-7,6],[-8,1],[30,-60],[10,-33],[-13,-16],[12,-21],[38,-39],[5,-9],[18,-34],[2,-5],[2,-4],[3,-2],[10,0],[4,-2],[4,-4],[-6,-5],[8,-33],[15,1],[27,26],[15,-12],[18,-29],[5,-26],[-12,-16],[-7,-17],[1,-18],[-13,-14],[-3,-22],[3,-14],[-6,-14],[-3,-6],[-5,-12],[2,-9],[8,-14],[16,-19],[65,-23],[96,-3],[98,0],[122,0],[39,40],[23,42],[29,24],[35,19],[34,14],[127,-54],[101,-36],[61,-30],[34,-7],[16,-3],[25,-14],[7,-10],[18,-17],[6,-23],[1,-33],[9,-30],[-3,-12],[-4,-22],[31,-63],[18,-10],[5,-21],[-2,-19],[-15,-16],[-11,-14],[0,-10],[14,-10],[2,-22],[-29,-19],[-6,-13],[5,-7],[22,-16],[6,-11],[-1,-16],[27,-7],[26,-8],[3,-5],[15,-9],[7,-10],[6,-7],[2,-7],[16,0],[5,-11],[0,-16],[16,-8],[13,6],[12,5],[6,-17],[-22,-16],[-16,-8],[17,-22],[17,13],[22,-11],[51,-6],[39,-6],[25,6],[4,14],[3,17],[0,18],[0,18],[6,12],[12,-5],[2,-21],[6,-27],[18,3],[19,2],[26,3],[12,23],[-5,30],[8,25],[11,-2],[16,-34],[6,-34],[-17,-27],[-5,-25],[-2,-12],[2,-12],[68,-46],[14,-4],[29,3],[15,-3],[8,-12],[-6,0],[-17,-6],[8,-16],[15,-14],[16,-11],[23,-9],[11,-12],[27,-18],[11,-17],[2,-27],[4,-21],[1,-23],[12,-26],[44,-15],[13,-11],[55,-27],[17,-14],[14,-1],[34,11],[17,17],[26,26],[7,23],[-4,31],[8,17],[1,23],[-6,22],[-10,25],[-7,27],[1,17],[6,-11],[3,-4],[11,-3],[2,-3],[0,-6],[4,-15],[1,-7],[2,-6],[6,-2],[3,-3],[3,-6],[6,-14],[-6,-16],[-1,-14],[0,-14],[-3,-13],[4,-2],[9,1],[5,-5],[-4,-12],[-12,-34],[-21,-20],[0,-21],[-5,-22],[4,-25],[35,3],[18,-16],[42,-24],[35,16],[31,4],[-2,21],[-8,18],[0,23],[12,0],[12,-30],[4,-1],[10,2],[9,13],[2,17],[0,18],[1,30],[9,16],[1,18],[-18,13],[-28,-3],[-23,-10],[-13,19],[29,19],[18,9],[15,3],[10,5],[5,-7],[6,-6],[5,-6],[3,-10],[-2,-9],[12,-7],[8,-5],[0,-22],[1,-15],[11,2],[10,-8],[5,-2],[18,-17],[16,5],[22,9],[16,11],[20,6],[23,2],[38,-2],[-70,68],[-11,22],[-4,15],[-1,13],[-4,8],[-57,16],[-11,11],[-7,3],[-18,2],[-10,5],[-12,2],[-12,6],[-11,-15],[-7,-13],[-13,-12],[-24,-3],[0,10],[20,18],[14,28],[10,18],[-6,12],[-11,1],[-31,-9],[-23,-6],[-1,11],[12,13],[22,10],[21,6],[12,3],[10,10],[7,13],[21,6],[1,24],[-10,26],[-10,9],[-22,10],[-20,5],[-19,-7],[-11,-15],[-20,-22],[-37,-8],[-1,4],[30,15],[7,24],[2,22],[21,15],[35,2],[35,-8],[16,-9],[15,20],[8,14],[15,10],[12,7],[7,4],[18,18],[7,1],[15,-7],[9,3],[54,23],[38,30],[16,27],[30,28],[5,21],[-3,15],[-24,9],[-6,-5],[-5,-8],[-4,-4],[-8,5],[-4,8],[-6,20],[-4,10],[-1,2],[11,-5],[9,0],[12,17],[1,21],[-13,33],[-28,-5],[-11,7],[-20,-9],[-34,9],[-34,-11],[-42,18],[-6,2],[-5,5],[-2,10],[1,10],[3,7],[4,4],[4,2],[12,-6],[21,-17],[10,2],[7,6],[7,2],[24,3],[17,8],[9,2],[12,-2],[13,-5],[11,-11],[10,-17],[12,5],[10,2],[3,19],[-2,28],[-6,22],[5,22],[10,58],[25,52],[-10,1],[-18,-33],[-34,-22],[-34,4],[-12,8],[0,9],[-3,11],[-10,6],[-1,6],[4,4],[12,3],[23,-12],[-2,19],[-8,12],[-18,21],[3,14],[4,16],[-4,15],[-34,21],[-35,5],[-23,5],[-12,4],[-3,25],[5,8],[3,8],[-39,-6],[-21,5],[-12,24],[12,-7],[13,-3],[13,2],[26,12],[79,-15],[13,-6],[11,1],[13,-4],[5,-3],[4,-16],[18,11],[7,-15],[-10,-11],[-9,-11],[20,-10],[14,-12],[9,-12],[-11,-11],[-10,-9],[1,-10],[23,-6],[9,-9],[9,8],[12,8],[8,18],[8,-5],[2,-4],[14,-8],[13,-8],[12,-18],[35,2],[31,-6],[12,-10],[-24,-9],[-82,-12],[48,-12],[126,42],[56,9],[55,1],[22,-21],[12,-15],[44,-10],[11,18],[12,18],[1,34],[-4,34],[-15,-7],[-3,12],[-5,20],[-13,10],[-23,7],[-8,4],[-29,4],[-6,3],[-15,26],[-14,11],[-6,8],[-5,15],[11,0],[5,1],[4,4],[-26,11],[-4,9],[-6,15],[-7,17],[-9,20],[-1,11],[29,-13],[43,-38],[21,-17],[14,-31],[8,-16],[35,-8],[55,-31],[3,-16],[6,-5],[76,-20],[29,4],[19,12],[5,20],[12,24],[-15,7],[0,5],[-2,5],[-2,3],[-1,4],[1,4],[4,13],[-3,10],[-12,24],[18,47],[2,11],[-6,19],[-12,0],[-13,-5],[-9,3],[7,9],[35,7],[30,31],[19,16],[13,9],[38,15],[34,41],[32,14],[27,15],[32,3],[9,-17],[16,-15],[18,2],[20,0],[9,13],[5,13],[9,15],[5,11],[-4,14],[-10,13],[-7,12],[0,6],[0,5],[-3,2],[-4,1],[-34,21],[-34,10],[-17,12],[-14,5],[-19,3],[11,-4],[15,-7],[14,-7],[6,-7],[-2,-11],[-9,-5],[-10,1],[-25,20],[-15,0],[-11,-17],[-8,-8],[-32,7],[-41,32],[18,-5],[10,-1],[9,6],[12,-10],[15,3],[12,2],[8,11],[-13,25],[-4,21],[-11,14],[-11,9],[-22,12],[-15,2],[-13,0],[-14,-6],[-14,-11],[-12,-11],[-10,-14],[-8,-14],[-31,-1],[-11,9],[-10,11],[23,-9],[19,-3],[6,18],[0,12],[3,11],[11,9],[18,7],[11,4],[7,8],[-40,23],[-26,8],[-6,6],[-18,32],[-13,16],[-14,11],[-8,19],[-5,5],[-7,3],[-12,16],[-13,7],[-11,16],[-3,2],[771,0],[0,-2669],[-77,18],[-11,8],[-6,2],[-23,-6],[-55,6],[0,-6],[29,-3],[15,-5],[11,-9],[-8,-13],[-11,-5],[-23,1],[-7,5],[-20,35],[-11,8],[-13,3],[-40,1],[5,-3],[4,-3],[-10,-7],[-15,-1],[-15,5],[-10,8],[-6,14],[-5,26],[-6,12],[-22,12],[-46,-3],[-22,8],[8,3],[17,-1],[7,4],[-34,5],[-15,7],[-23,18],[-36,4],[-6,-2],[-6,-4],[4,11],[8,14],[5,13],[-2,11],[-4,6],[0,3],[1,4],[1,9],[-1,7],[-6,12],[-5,18],[-11,7],[-20,6],[-8,7],[-19,27],[-5,3],[-4,2],[-4,3],[-7,12],[-5,3],[-10,0],[-19,-6],[-4,2],[-10,8],[-5,1],[-10,-1],[-10,-3],[-36,-26],[-11,1],[-7,12],[-6,-10],[-22,-18],[-19,-26],[-24,-12],[-18,-17],[-17,-11],[-17,8],[2,2],[0,1],[0,1],[1,2],[-41,-6],[-3,2],[-6,8],[-5,2],[-17,0],[0,4],[1,3],[2,3],[2,1],[-80,23],[0,-5],[13,1],[6,-2],[6,-6],[-12,-6],[-53,-5],[-3,0],[-4,4],[-4,5],[-4,1],[-5,-4],[0,5],[5,7],[9,19],[6,3],[7,-2],[14,-9],[9,0],[-15,12],[-62,29],[-6,6],[-4,10],[-2,12],[2,13],[3,10],[4,5],[-4,14],[-6,11],[-7,5],[-8,-4],[-3,-1],[-5,3],[-4,2],[-4,-4],[-1,-6],[1,-9],[1,-7],[1,-4],[4,-6],[-2,-16],[-8,-24],[0,-15],[1,-10],[-2,-9],[-7,-11],[-3,-3],[-8,-3],[-2,-3],[-1,-4],[2,-4],[1,-4],[1,-5],[-1,-8],[-3,-6],[-4,-4],[-3,-5],[-3,-8],[-2,-5],[-1,-19],[2,-12],[0,-5],[0,-4],[-2,-4],[-2,-3],[-1,0],[1,-9],[1,-11],[2,-10],[5,-14],[0,-14],[3,-8],[22,-43],[9,-12],[11,-7],[19,-6],[10,-7],[5,-2],[9,1],[3,-1],[2,-3],[5,-8],[1,-1],[43,-13],[11,3],[10,13],[7,6],[13,4],[11,10],[2,17],[3,0],[11,11],[25,5],[10,11],[6,8],[6,6],[16,5],[-1,3],[0,1],[-1,2],[83,13],[4,-2],[5,-5],[3,-6],[6,-13],[4,-4],[7,-4],[36,-2],[3,-2],[1,-4],[0,-4],[1,-2],[25,-3],[55,-34],[12,-17],[30,-27],[25,-14],[6,-1],[3,-4],[3,-8],[2,-8],[2,-3],[0,-5],[-1,-22],[-1,-7],[-4,-6],[-4,-1],[-4,-2],[-3,-9],[10,-1],[19,-9],[9,-1],[5,3],[12,12],[6,2],[3,-1],[1,-3],[0,-5],[1,-6],[4,-3],[8,1],[3,-3],[6,-9],[18,-11],[0,6],[39,-17],[18,-15],[15,-26],[9,-20],[3,-4],[8,-2],[3,-3],[3,-17],[-4,-13],[-8,-7],[-8,-2],[3,-9],[2,-9],[0,-10],[-3,-12],[9,0],[8,-4],[15,-13],[7,2],[4,6],[8,17],[6,7],[14,2],[6,6],[-10,15],[-3,9],[1,15],[3,10],[10,16],[2,6],[3,11],[8,8],[22,10],[11,14],[6,6],[0,5],[-5,6],[22,21],[23,15],[52,10],[-5,-10],[-10,-5],[-29,-3],[-8,-4],[-16,-12],[18,11],[89,8],[7,-5],[6,-6],[19,-7],[36,-3],[14,6],[14,18],[9,20]],[[3244,1667],[-20,7],[-5,-2],[25,-5]],[[2824,2679],[-31,13],[-26,4],[-22,-7],[-9,-11],[-14,-22],[-20,-24],[-11,-24],[-9,-39],[32,1],[16,16],[43,-5],[38,13],[36,20],[50,11],[-25,33],[-48,21]],[[3710,1217],[-21,35],[-22,27],[-1,0],[18,-24],[9,-18],[29,-44],[-2,7],[-3,6],[-7,11]],[[3844,1467],[-24,8],[-8,8],[6,-8],[9,-5],[17,-3]],[[3533,1363],[-31,52],[-38,36],[-81,42],[94,-58],[29,-29],[27,-43]],[[3286,1523],[69,-19],[-89,25],[-16,-1],[5,-6],[31,1]],[[3975,3514],[-4,-14],[-2,-17],[2,-14],[6,-6],[9,2],[9,14],[7,18],[5,17],[-17,9],[-8,1],[-7,-10]],[[2740,2534],[-66,-1],[-8,4],[-7,6],[-9,-7],[-1,-15],[6,-5],[5,-1],[3,-3],[1,-6],[2,-4],[3,-2],[38,-5],[8,-3],[9,1],[22,15],[2,11],[-5,11],[-3,4]],[[4039,3474],[-5,1],[-8,-4],[-3,-9],[3,-8],[6,-4],[6,0],[4,7],[-2,12],[-1,5]],[[2684,2720],[9,3],[30,29],[-2,0],[-33,-18],[-2,-2],[0,-4],[-3,-4],[-7,-3],[-1,-2],[2,-1],[7,2]],[[2233,4096],[12,-6],[9,-15],[-1,-15],[30,-11],[6,-11],[8,-4],[-1,-12],[-7,-11],[-2,-11],[5,-23],[-12,-14],[-13,-7],[-17,-1],[-14,0],[-13,-7],[3,-15],[14,0],[19,-8],[-7,-12],[-25,-9],[-17,-17],[-10,-13],[-5,-16],[-10,-7],[-6,0],[-6,14],[0,13],[4,14],[-3,13],[4,17],[5,12],[10,8],[9,8],[8,2],[-1,11],[0,10],[-7,15],[-4,8],[-6,10],[3,17],[7,17],[-7,14],[-16,8],[-24,-4],[-19,-8],[-12,1],[-14,11],[-7,-17],[0,-6],[22,2],[4,-14],[-4,-13],[-1,-13],[-25,-9],[-14,-14],[-8,-15],[-27,-14],[27,4],[0,-13],[-3,-20],[-18,-21],[-22,-5],[-18,7],[9,26],[-7,11],[7,16],[9,4],[9,-9],[-1,15],[-16,1],[-8,13],[-3,25],[2,15],[0,22],[0,11],[16,13],[8,0],[-13,23],[-1,9],[206,0]],[[2824,2679],[-31,13],[-26,4],[-22,-7],[-9,-11],[-14,-22],[-20,-24],[-11,-24],[-9,-39],[32,1],[16,16],[43,-5],[38,13],[36,20],[50,11],[-25,33],[-48,21]],[[0,2888],[23,0],[14,6],[8,5],[17,10],[9,14],[11,16],[13,13],[17,0],[11,-1],[14,23],[13,27],[23,28],[1,36],[3,25],[-3,19],[13,16],[-1,13],[-4,25],[13,18],[18,18],[5,10],[14,15],[23,27],[14,26],[-22,35],[7,8],[-2,20],[11,19],[-41,24],[-24,13],[-97,89],[-10,15],[-6,17],[-22,96],[-1,10],[4,31],[1,12],[2,4],[3,7],[4,8],[1,10],[3,36],[4,22],[22,50],[6,18],[4,3],[19,-15],[17,-9],[1,-8],[-4,-4],[-33,0],[-4,-2],[4,-6],[7,-6],[32,-14],[56,7],[40,5],[21,17],[13,31],[-26,40],[-8,17],[-5,20],[-4,7],[-14,5],[-6,5],[-12,41],[36,-16],[13,-21],[15,-7],[28,-2],[-3,22],[1,24],[-2,24],[-6,22],[12,12],[14,-21],[12,-36],[4,-33],[-2,-12],[-12,-18],[-3,-15],[4,-8],[20,-25],[6,-11],[23,-34],[32,-7],[40,14],[12,20],[11,16],[21,40],[16,31],[3,13],[1,11],[2,8],[0,11],[0,12],[15,-6],[9,-1],[-1,7],[8,10],[6,7],[9,1],[6,-12],[-19,-29],[2,-7],[2,-7],[2,-7],[-2,-8],[-6,-14],[-4,-7],[-3,-4],[6,-19],[-3,-18],[10,-4],[4,-7],[-5,-17],[-8,-17],[5,-12],[7,-13],[-12,-18],[-11,-13],[-21,3],[-24,-4],[-6,-22],[10,-24],[-5,-29],[-15,-17],[-27,2],[-5,3],[-7,6],[-23,14],[-15,16],[-7,6],[-8,1],[30,-60],[10,-33],[-13,-16],[12,-21],[38,-39],[5,-9],[18,-34],[2,-5],[2,-4],[3,-2],[10,0],[4,-2],[4,-4],[-6,-5],[8,-33],[15,1],[27,26],[15,-12],[18,-29],[5,-26],[-12,-16],[-7,-17],[1,-18],[-13,-14],[-3,-22],[3,-14],[-6,-14],[-3,-6],[-5,-12],[2,-9],[8,-14],[16,-19],[65,-23],[96,-3],[98,0],[122,0],[39,40],[23,42],[29,24],[35,19],[34,14],[127,-54],[101,-36],[61,-30],[34,-7],[16,-3],[25,-14],[7,-10],[18,-17],[6,-23],[1,-33],[9,-30],[-3,-12],[-4,-22],[31,-63],[18,-10],[5,-21],[-2,-19],[-15,-16],[-11,-14],[0,-10],[14,-10],[2,-22],[-29,-19],[-6,-13],[5,-7],[22,-16],[6,-11],[-1,-16],[27,-7],[26,-8],[3,-5],[15,-9],[7,-10],[6,-7],[2,-7],[16,0],[5,-11],[0,-16],[16,-8],[13,6],[12,5],[6,-17],[-22,-16],[-16,-8],[17,-22],[17,13],[22,-11],[51,-6],[39,-6],[25,6],[4,14],[3,17],[0,18],[0,18],[6,12],[12,-5],[2,-21],[6,-27],[18,3],[19,2],[26,3],[12,23],[-5,30],[8,25],[11,-2],[16,-34],[6,-34],[-17,-27],[-5,-25],[-2,-12],[2,-12],[68,-46],[14,-4],[29,3],[15,-3],[8,-12],[-6,0],[-17,-6],[8,-16],[15,-14],[16,-11],[23,-9],[11,-12],[27,-18],[11,-17],[2,-27],[4,-21],[1,-23],[12,-26],[44,-15],[13,-11],[55,-27],[17,-14],[14,-1],[34,11],[17,17],[26,26],[7,23],[-4,31],[8,17],[1,23],[-6,22],[-10,25],[-7,27],[1,17],[6,-11],[3,-4],[11,-3],[2,-3],[0,-6],[4,-15],[1,-7],[2,-6],[6,-2],[3,-3],[3,-6],[6,-14],[-6,-16],[-1,-14],[0,-14],[-3,-13],[4,-2],[9,1],[5,-5],[-4,-12],[-12,-34],[-21,-20],[0,-21],[-5,-22],[4,-25],[35,3],[18,-16],[42,-24],[35,16],[31,4],[-2,21],[-8,18],[0,23],[12,0],[12,-30],[4,-1],[10,2],[9,13],[2,17],[0,18],[1,30],[9,16],[1,18],[-18,13],[-28,-3],[-23,-10],[-13,19],[29,19],[18,9],[15,3],[10,5],[5,-7],[6,-6],[5,-6],[3,-10],[-2,-9],[12,-7],[8,-5],[0,-22],[1,-15],[11,2],[10,-8],[5,-2],[18,-17],[16,5],[22,9],[16,11],[20,6],[23,2],[38,-2],[-70,68],[-11,22],[-4,15],[-1,13],[-4,8],[-57,16],[-11,11],[-7,3],[-18,2],[-10,5],[-12,2],[-12,6],[-11,-15],[-7,-13],[-13,-12],[-24,-3],[0,10],[20,18],[14,28],[10,18],[-6,12],[-11,1],[-31,-9],[-23,-6],[-1,11],[12,13],[22,10],[21,6],[12,3],[10,10],[7,13],[21,6],[1,24],[-10,26],[-10,9],[-22,10],[-20,5],[-19,-7],[-11,-15],[-20,-22],[-37,-8],[-1,4],[30,15],[7,24],[2,22],[21,15],[35,2],[35,-8],[16,-9],[15,20],[8,14],[15,10],[12,7],[7,4],[18,18],[7,1],[15,-7],[9,3],[54,23],[38,30],[16,27],[30,28],[5,21],[-3,15],[-24,9],[-6,-5],[-5,-8],[-4,-4],[-8,5],[-4,8],[-6,20],[-4,10],[-1,2],[11,-5],[9,0],[12,17],[1,21],[-13,33],[-28,-5],[-11,7],[-20,-9],[-34,9],[-34,-11],[-42,18],[-6,2],[-5,5],[-2,10],[1,10],[3,7],[4,4],[4,2],[12,-6],[21,-17],[10,2],[7,6],[7,2],[24,3],[17,8],[9,2],[12,-2],[13,-5],[11,-11],[10,-17],[12,5],[10,2],[3,19],[-2,28],[-6,22],[5,22],[10,58],[25,52],[-10,1],[-18,-33],[-34,-22],[-34,4],[-12,8],[0,9],[-3,11],[-10,6],[-1,6],[4,4],[12,3],[23,-12],[-2,19],[-8,12],[-18,21],[3,14],[4,16],[-4,15],[-34,21],[-35,5],[-23,5],[-12,4],[-3,25],[5,8],[3,8],[-39,-6],[-21,5],[-12,24],[12,-7],[13,-3],[13,2],[26,12],[79,-15],[13,-6],[11,1],[13,-4],[5,-3],[4,-16],[18,11],[7,-15],[-10,-11],[-9,-11],[20,-10],[14,-12],[9,-12],[-11,-11],[-10,-9],[1,-10],[23,-6],[9,-9],[9,8],[12,8],[8,18],[8,-5],[2,-4],[14,-8],[13,-8],[12,-18],[35,2],[31,-6],[12,-10],[-24,-9],[-82,-12],[48,-12],[126,42],[56,9],[55,1],[22,-21],[12,-15],[44,-10],[11,18],[12,18],[1,34],[-4,34],[-15,-7],[-3,12],[-5,20],[-13,10],[-23,7],[-8,4],[-29,4],[-6,3],[-15,26],[-14,11],[-6,8],[-5,15],[11,0],[5,1],[4,4],[-26,11],[-4,9],[-6,15],[-7,17],[-9,20],[-1,11],[29,-13],[43,-38],[21,-17],[14,-31],[8,-16],[35,-8],[55,-31],[3,-16],[6,-5],[76,-20],[29,4],[19,12],[5,20],[12,24],[-15,7],[0,5],[-2,5],[-2,3],[-1,4],[1,4],[4,13],[-3,10],[-12,24],[18,47],[2,11],[-6,19],[-12,0],[-13,-5],[-9,3],[7,9],[35,7],[30,31],[19,16],[13,9],[38,15],[34,41],[32,14],[27,15],[32,3],[9,-17],[16,-15],[18,2],[20,0],[9,13],[5,13],[9,15],[5,11],[-4,14],[-10,13],[-7,12],[0,6],[0,5],[-3,2],[-4,1],[-34,21],[-34,10],[-17,12],[-14,5],[-19,3],[11,-4],[15,-7],[14,-7],[6,-7],[-2,-11],[-9,-5],[-10,1],[-25,20],[-15,0],[-11,-17],[-8,-8],[-32,7],[-41,32],[18,-5],[10,-1],[9,6],[12,-10],[15,3],[12,2],[8,11],[-13,25],[-4,21],[-11,14],[-11,9],[-22,12],[-15,2],[-13,0],[-14,-6],[-14,-11],[-12,-11],[-10,-14],[-8,-14],[-31,-1],[-11,9],[-10,11],[23,-9],[19,-3],[6,18],[0,12],[3,11],[11,9],[18,7],[11,4],[7,8],[-40,23],[-26,8],[-6,6],[-18,32],[-13,16],[-14,11],[-8,19],[-5,5],[-7,3],[-12,16],[-13,7],[-11,16],[-3,2]],[[2233,4096],[12,-6],[9,-15],[-1,-15],[30,-11],[6,-11],[8,-4],[-1,-12],[-7,-11],[-2,-11],[5,-23],[-12,-14],[-13,-7],[-17,-1],[-14,0],[-13,-7],[3,-15],[14,0],[19,-8],[-7,-12],[-25,-9],[-17,-17],[-10,-13],[-5,-16],[-10,-7],[-6,0],[-6,14],[0,13],[4,14],[-3,13],[4,17],[5,12],[10,8],[9,8],[8,2],[-1,11],[0,10],[-7,15],[-4,8],[-6,10],[3,17],[7,17],[-7,14],[-16,8],[-24,-4],[-19,-8],[-12,1],[-14,11],[-7,-17],[0,-6],[22,2],[4,-14],[-4,-13],[-1,-13],[-25,-9],[-14,-14],[-8,-15],[-27,-14],[27,4],[0,-13],[-3,-20],[-18,-21],[-22,-5],[-18,7],[9,26],[-7,11],[7,16],[9,4],[9,-9],[-1,15],[-16,1],[-8,13],[-3,25],[2,15],[0,22],[0,11],[16,13],[8,0],[-13,23],[-1,9]],[[3710,1217],[-21,35],[-22,27],[-1,0],[18,-24],[9,-18],[29,-44],[-2,7],[-3,6],[-7,11]],[[3844,1467],[-24,8],[-8,8],[6,-8],[9,-5],[17,-3]],[[3533,1363],[-31,52],[-38,36],[-81,42],[94,-58],[29,-29],[27,-43]],[[3286,1523],[69,-19],[-89,25],[-16,-1],[5,-6],[31,1]],[[3244,1667],[6,-1],[1,0],[-7,1]],[[3219,1672],[25,-5],[-20,7],[-5,-2]],[[4096,1427],[-77,18],[-11,8],[-6,2],[-23,-6],[-55,6],[0,-6],[29,-3],[15,-5],[11,-9],[-8,-13],[-11,-5],[-23,1],[-7,5],[-20,35],[-11,8],[-13,3],[-40,1],[5,-3],[4,-3],[-10,-7],[-15,-1],[-15,5],[-10,8],[-6,14],[-5,26],[-6,12],[-22,12],[-46,-3],[-22,8],[8,3],[17,-1],[7,4],[-34,5],[-15,7],[-23,18],[-36,4],[-6,-2],[-6,-4],[4,11],[8,14],[5,13],[-2,11],[-4,6],[0,3],[1,4],[1,9],[-1,7],[-6,12],[-5,18],[-11,7],[-20,6],[-8,7],[-19,27],[-5,3],[-4,2],[-4,3],[-7,12],[-5,3],[-10,0],[-19,-6],[-4,2],[-10,8],[-5,1],[-10,-1],[-10,-3],[-36,-26],[-11,1],[-7,12],[-6,-10],[-22,-18],[-19,-26],[-24,-12],[-18,-17],[-17,-11],[-17,8],[2,2],[0,1],[0,1],[1,2],[-41,-6],[-3,2],[-6,8],[-5,2],[-17,0],[0,4],[1,3],[2,3],[2,1],[-80,23],[0,-5],[13,1],[6,-2],[6,-6],[-12,-6],[-53,-5],[-3,0],[-4,4],[-4,5],[-4,1],[-5,-4],[0,5],[5,7],[9,19],[6,3],[7,-2],[14,-9],[9,0],[-15,12],[-62,29],[-6,6],[-4,10],[-2,12],[2,13],[3,10],[4,5],[-4,14],[-6,11],[-7,5],[-8,-4],[-3,-1],[-5,3],[-4,2],[-4,-4],[-1,-6],[1,-9],[1,-7],[1,-4],[4,-6],[-2,-16],[-8,-24],[0,-15],[1,-10],[-2,-9],[-7,-11],[-3,-3],[-8,-3],[-2,-3],[-1,-4],[2,-4],[1,-4],[1,-5],[-1,-8],[-3,-6],[-4,-4],[-3,-5],[-3,-8],[-2,-5],[-1,-19],[2,-12],[0,-5],[0,-4],[-2,-4],[-2,-3],[-1,0],[1,-9],[1,-11],[2,-10],[5,-14],[0,-14],[3,-8],[22,-43],[9,-12],[11,-7],[19,-6],[10,-7],[5,-2],[9,1],[3,-1],[2,-3],[5,-8],[1,-1],[43,-13],[11,3],[10,13],[7,6],[13,4],[11,10],[2,17],[3,0],[11,11],[25,5],[10,11],[6,8],[6,6],[16,5],[-1,3],[0,1],[-1,2],[83,13],[4,-2],[5,-5],[3,-6],[6,-13],[4,-4],[7,-4],[36,-2],[3,-2],[1,-4],[0,-4],[1,-2],[25,-3],[55,-34],[12,-17],[30,-27],[25,-14],[6,-1],[3,-4],[3,-8],[2,-8],[2,-3],[0,-5],[-1,-22],[-1,-7],[-4,-6],[-4,-1],[-4,-2],[-3,-9],[10,-1],[19,-9],[9,-1],[5,3],[12,12],[6,2],[3,-1],[1,-3],[0,-5],[1,-6],[4,-3],[8,1],[3,-3],[6,-9],[18,-11],[0,6],[39,-17],[18,-15],[15,-26],[9,-20],[3,-4],[8,-2],[3,-3],[3,-17],[-4,-13],[-8,-7],[-8,-2],[3,-9],[2,-9],[0,-10],[-3,-12],[9,0],[8,-4],[15,-13],[7,2],[4,6],[8,17],[6,7],[14,2],[6,6],[-10,15],[-3,9],[1,15],[3,10],[10,16],[2,6],[3,11],[8,8],[22,10],[11,14],[6,6],[0,5],[-5,6],[22,21],[23,15],[52,10],[-5,-10],[-10,-5],[-29,-3],[-8,-4],[-16,-12],[18,11],[89,8],[7,-5],[6,-6],[19,-7],[36,-3],[14,6],[14,18],[9,20]],[[3975,3514],[-4,-14],[-2,-17],[2,-14],[6,-6],[9,2],[9,14],[7,18],[5,17],[-17,9],[-8,1],[-7,-10]],[[2740,2534],[-66,-1],[-8,4],[-7,6],[-9,-7],[-1,-15],[6,-5],[5,-1],[3,-3],[1,-6],[2,-4],[3,-2],[38,-5],[8,-3],[9,1],[22,15],[2,11],[-5,11],[-3,4]],[[4039,3474],[-5,1],[-8,-4],[-3,-9],[3,-8],[6,-4],[6,0],[4,7],[-2,12],[-1,5]],[[4096,1427],[0,-84],[-9,-20],[-14,-18],[-14,-6],[-36,3],[-19,7],[-6,6],[-7,5],[-89,-8],[-18,-11],[16,12],[8,4],[29,3],[10,5],[5,10],[-52,-10],[-23,-15],[-22,-21],[5,-6],[0,-5],[-6,-6],[-11,-14],[-22,-10],[-8,-8],[-3,-11],[-2,-6],[-10,-16],[-3,-10],[-1,-15],[3,-9],[10,-15],[-6,-6],[-14,-2],[-6,-7],[-8,-17],[-4,-6],[-7,-2],[-15,13],[-8,4],[-9,0],[3,12],[0,10],[-2,9],[-3,9],[8,2],[8,7],[4,13],[-3,17],[-3,3],[-8,2],[-3,4],[-9,20],[-15,26],[-18,15],[-39,17],[0,-6],[-18,11],[-6,9],[-3,3],[-8,-1],[-4,3],[-1,6],[0,5],[-1,3],[-3,1],[-6,-2],[-12,-12],[-5,-3],[-9,1],[-19,9],[-10,1],[3,9],[4,2],[4,1],[4,6],[1,7],[1,22],[0,5],[-2,3],[-2,8],[-3,8],[-3,4],[-6,1],[-25,14],[-30,27],[-12,17],[-55,34],[-25,3],[-1,2],[0,4],[-1,4],[-3,2],[-36,2],[-7,4],[-4,4],[-6,13],[-3,6],[-5,5],[-4,2],[-83,-13],[1,-2],[0,-1],[1,-3],[-16,-5],[-6,-6],[-6,-8],[-10,-11],[-25,-5],[-11,-11],[-3,0],[-2,-17],[-11,-10],[-13,-4],[-7,-6],[-10,-13],[-11,-3],[-43,13],[-1,1],[-5,8],[-2,3],[-3,1],[-9,-1],[-5,2],[-10,7],[-19,6],[-11,7],[-9,12],[-22,43],[-3,8],[0,14],[-5,14],[-2,10],[-1,11],[-1,9],[1,0],[2,3],[2,4],[0,4],[0,5],[-2,12],[1,19],[2,5],[3,8],[3,5],[4,4],[3,6],[1,8],[-1,5],[-1,4],[-2,4],[1,4],[2,3],[8,3],[3,3],[7,11],[2,9],[-1,10],[0,15],[8,24],[2,16],[-4,6],[-1,4],[-1,7],[-1,9],[1,6],[4,4],[4,-2],[5,-3],[3,1],[8,4],[7,-5],[6,-11],[4,-14],[-4,-5],[-3,-10],[-2,-13],[2,-12],[4,-10],[6,-6],[62,-29],[15,-12],[-9,0],[-14,9],[-7,2],[-6,-3],[-9,-19],[-5,-7],[0,-5],[5,4],[4,-1],[4,-5],[4,-4],[3,0],[53,5],[12,6],[-6,6],[-6,2],[-13,-1],[0,5],[80,-23],[-2,-1],[-2,-3],[-1,-3],[0,-4],[17,0],[5,-2],[6,-8],[3,-2],[41,6],[-1,-2],[0,-1],[0,-1],[-2,-2],[17,-8],[17,11],[18,17],[24,12],[19,26],[22,18],[6,10],[7,-12],[11,-1],[36,26],[10,3],[10,1],[5,-1],[10,-8],[4,-2],[19,6],[10,0],[5,-3],[7,-12],[4,-3],[4,-2],[5,-3],[19,-27],[8,-7],[20,-6],[11,-7],[5,-18],[6,-12],[1,-7],[-1,-9],[-1,-4],[0,-3],[4,-6],[2,-11],[-5,-13],[-8,-14],[-4,-11],[6,4],[6,2],[36,-4],[23,-18],[15,-7],[34,-5],[-7,-4],[-17,1],[-8,-3],[22,-8],[46,3],[22,-12],[6,-12],[5,-26],[6,-14],[10,-8],[15,-5],[15,1],[10,7],[-4,3],[-5,3],[40,-1],[13,-3],[11,-8],[20,-35],[7,-5],[23,-1],[11,5],[8,13],[-11,9],[-15,5],[-29,3],[0,6],[55,-6],[23,6],[6,-2],[11,-8],[77,-18]],[[2740,2534],[3,-4],[5,-11],[-2,-11],[-22,-15],[-9,-1],[-8,3],[-38,5],[-3,2],[-2,4],[-1,6],[-3,3],[-5,1],[-6,5],[1,15],[9,7],[7,-6],[8,-4],[66,1]],[[2824,2679],[48,-21],[25,-33],[-50,-11],[-36,-20],[-38,-13],[-43,5],[-16,-16],[-32,-1],[9,39],[11,24],[20,24],[14,22],[9,11],[22,7],[26,-4],[31,-13]],[[2027,4096],[1,-9],[13,-23],[-8,0],[-16,-13],[0,-11],[0,-22],[-2,-15],[3,-25],[8,-13],[16,-1],[1,-15],[-9,9],[-9,-4],[-7,-16],[7,-11],[-9,-26],[18,-7],[22,5],[18,21],[3,20],[0,13],[-27,-4],[27,14],[8,15],[14,14],[25,9],[1,13],[4,13],[-4,14],[-22,-2],[0,6],[7,17],[14,-11],[12,-1],[19,8],[24,4],[16,-8],[7,-14],[-7,-17],[-3,-17],[6,-10],[4,-8],[7,-15],[0,-10],[1,-11],[-8,-2],[-9,-8],[-10,-8],[-5,-12],[-4,-17],[3,-13],[-4,-14],[0,-13],[6,-14],[6,0],[10,7],[5,16],[10,13],[17,17],[25,9],[7,12],[-19,8],[-14,0],[-3,15],[13,7],[14,0],[17,1],[13,7],[12,14],[-5,23],[2,11],[7,11],[1,12],[-8,4],[-6,11],[-30,11],[1,15],[-9,15],[-12,6],[1092,0],[3,-2],[11,-16],[13,-7],[12,-16],[7,-3],[5,-5],[8,-19],[14,-11],[13,-16],[18,-32],[6,-6],[26,-8],[40,-23],[-7,-8],[-11,-4],[-18,-7],[-11,-9],[-3,-11],[0,-12],[-6,-18],[-19,3],[-23,9],[10,-11],[11,-9],[31,1],[8,14],[10,14],[12,11],[14,11],[14,6],[13,0],[15,-2],[22,-12],[11,-9],[11,-14],[4,-21],[13,-25],[-8,-11],[-12,-2],[-15,-3],[-12,10],[-9,-6],[-10,1],[-18,5],[41,-32],[32,-7],[8,8],[11,17],[15,0],[25,-20],[10,-1],[9,5],[2,11],[-6,7],[-14,7],[-15,7],[-11,4],[19,-3],[14,-5],[17,-12],[34,-10],[34,-21],[4,-1],[3,-2],[0,-5],[0,-6],[7,-12],[10,-13],[4,-14],[-5,-11],[-9,-15],[-5,-13],[-9,-13],[-20,0],[-18,-2],[-16,15],[-9,17],[-32,-3],[-27,-15],[-32,-14],[-34,-41],[-38,-15],[-13,-9],[-19,-16],[-30,-31],[-35,-7],[-7,-9],[9,-3],[13,5],[12,0],[6,-19],[-2,-11],[-18,-47],[12,-24],[3,-10],[-4,-13],[-1,-4],[1,-4],[2,-3],[2,-5],[0,-5],[15,-7],[-12,-24],[-5,-20],[-19,-12],[-29,-4],[-76,20],[-6,5],[-3,16],[-55,31],[-35,8],[-8,16],[-14,31],[-21,17],[-43,38],[-29,13],[1,-11],[9,-20],[7,-17],[6,-15],[4,-9],[26,-11],[-4,-4],[-5,-1],[-11,0],[5,-15],[6,-8],[14,-11],[15,-26],[6,-3],[29,-4],[8,-4],[23,-7],[13,-10],[5,-20],[3,-12],[15,7],[4,-34],[-1,-34],[-12,-18],[-11,-18],[-44,10],[-12,15],[-22,21],[-55,-1],[-56,-9],[-126,-42],[-48,12],[82,12],[24,9],[-12,10],[-31,6],[-35,-2],[-12,18],[-13,8],[-14,8],[-2,4],[-8,5],[-8,-18],[-12,-8],[-9,-8],[-9,9],[-23,6],[-1,10],[10,9],[11,11],[-9,12],[-14,12],[-20,10],[9,11],[10,11],[-7,15],[-18,-11],[-4,16],[-5,3],[-13,4],[-11,-1],[-13,6],[-79,15],[-26,-12],[-13,-2],[-13,3],[-12,7],[12,-24],[21,-5],[39,6],[-3,-8],[-5,-8],[3,-25],[12,-4],[23,-5],[35,-5],[34,-21],[4,-15],[-4,-16],[-3,-14],[18,-21],[8,-12],[2,-19],[-23,12],[-12,-3],[-4,-4],[1,-6],[10,-6],[3,-11],[0,-9],[12,-8],[34,-4],[34,22],[18,33],[10,-1],[-25,-52],[-10,-58],[-5,-22],[6,-22],[2,-28],[-3,-19],[-10,-2],[-12,-5],[-10,17],[-11,11],[-13,5],[-12,2],[-9,-2],[-17,-8],[-24,-3],[-7,-2],[-7,-6],[-10,-2],[-21,17],[-12,6],[-4,-2],[-4,-4],[-3,-7],[-1,-10],[2,-10],[5,-5],[6,-2],[42,-18],[34,11],[34,-9],[20,9],[11,-7],[28,5],[13,-33],[-1,-21],[-12,-17],[-9,0],[-11,5],[1,-2],[4,-10],[6,-20],[4,-8],[8,-5],[4,4],[5,8],[6,5],[24,-9],[3,-15],[-5,-21],[-30,-28],[-16,-27],[-38,-30],[-54,-23],[-9,-3],[-15,7],[-7,-1],[-18,-18],[-7,-4],[-12,-7],[-15,-10],[-8,-14],[-15,-20],[-16,9],[-35,8],[-35,-2],[-21,-15],[-2,-22],[-7,-24],[-30,-15],[1,-4],[37,8],[20,22],[11,15],[19,7],[20,-5],[22,-10],[10,-9],[10,-26],[-1,-24],[-21,-6],[-7,-13],[-10,-10],[-12,-3],[-21,-6],[-22,-10],[-12,-13],[1,-11],[23,6],[31,9],[11,-1],[6,-12],[-10,-18],[-14,-28],[-20,-18],[0,-10],[24,3],[13,12],[7,13],[11,15],[12,-6],[12,-2],[10,-5],[18,-2],[7,-3],[11,-11],[57,-16],[4,-8],[1,-13],[4,-15],[11,-22],[70,-68],[-38,2],[-23,-2],[-20,-6],[-16,-11],[-22,-9],[-16,-5],[-18,17],[-5,2],[-10,8],[-11,-2],[-1,15],[0,22],[-8,5],[-12,7],[2,9],[-3,10],[-5,6],[-6,6],[-5,7],[-10,-5],[-15,-3],[-18,-9],[-29,-19],[13,-19],[23,10],[28,3],[18,-13],[-1,-18],[-9,-16],[-1,-30],[0,-18],[-2,-17],[-9,-13],[-10,-2],[-4,1],[-12,30],[-12,0],[0,-23],[8,-18],[2,-21],[-31,-4],[-35,-16],[-42,24],[-18,16],[-35,-3],[-4,25],[5,22],[0,21],[21,20],[12,34],[4,12],[-5,5],[-9,-1],[-4,2],[3,13],[0,14],[1,14],[6,16],[-6,14],[-3,6],[-3,3],[-6,2],[-2,6],[-1,7],[-4,15],[0,6],[-2,3],[-11,3],[-3,4],[-6,11],[-1,-17],[7,-27],[10,-25],[6,-22],[-1,-23],[-8,-17],[4,-31],[-7,-23],[-26,-26],[-17,-17],[-34,-11],[-14,1],[-17,14],[-55,27],[-13,11],[-44,15],[-12,26],[-1,23],[-4,21],[-2,27],[-11,17],[-27,18],[-11,12],[-23,9],[-16,11],[-15,14],[-8,16],[17,6],[6,0],[-8,12],[-15,3],[-29,-3],[-14,4],[-68,46],[-2,12],[2,12],[5,25],[17,27],[-6,34],[-16,34],[-11,2],[-8,-25],[5,-30],[-12,-23],[-26,-3],[-19,-2],[-18,-3],[-6,27],[-2,21],[-12,5],[-6,-12],[0,-18],[0,-18],[-3,-17],[-4,-14],[-25,-6],[-39,6],[-51,6],[-22,11],[-17,-13],[-17,22],[16,8],[22,16],[-6,17],[-12,-5],[-13,-6],[-16,8],[0,16],[-5,11],[-16,0],[-2,7],[-6,7],[-7,10],[-15,9],[-3,5],[-26,8],[-27,7],[1,16],[-6,11],[-22,16],[-5,7],[6,13],[29,19],[-2,22],[-14,10],[0,10],[11,14],[15,16],[2,19],[-5,21],[-18,10],[-31,63],[4,22],[3,12],[-9,30],[-1,33],[-6,23],[-18,17],[-7,10],[-25,14],[-16,3],[-34,7],[-61,30],[-101,36],[-127,54],[-34,-14],[-35,-19],[-29,-24],[-23,-42],[-39,-40],[-122,0],[-98,0],[-96,3],[-65,23],[-16,19],[-8,14],[-2,9],[5,12],[3,6],[6,14],[-3,14],[3,22],[13,14],[-1,18],[7,17],[12,16],[-5,26],[-18,29],[-15,12],[-27,-26],[-15,-1],[-8,33],[6,5],[-4,4],[-4,2],[-10,0],[-3,2],[-2,4],[-2,5],[-18,34],[-5,9],[-38,39],[-12,21],[13,16],[-10,33],[-30,60],[8,-1],[7,-6],[15,-16],[23,-14],[7,-6],[5,-3],[27,-2],[15,17],[5,29],[-10,24],[6,22],[24,4],[21,-3],[11,13],[12,18],[-7,13],[-5,12],[8,17],[5,17],[-4,7],[-10,4],[3,18],[-6,19],[3,4],[4,7],[6,14],[2,8],[-2,7],[-2,7],[-2,7],[19,29],[-6,12],[-9,-1],[-6,-7],[-8,-10],[1,-7],[-9,1],[-15,6],[0,-12],[0,-11],[-2,-8],[-1,-11],[-3,-13],[-16,-31],[-21,-40],[-11,-16],[-12,-20],[-40,-14],[-32,7],[-23,34],[-6,11],[-20,25],[-4,8],[3,15],[12,18],[2,12],[-4,33],[-12,36],[-14,21],[-12,-12],[6,-22],[2,-24],[-1,-24],[3,-22],[-28,2],[-15,7],[-13,21],[-36,16],[12,-41],[6,-5],[14,-5],[4,-7],[5,-20],[8,-17],[26,-40],[-13,-31],[-21,-17],[-40,-5],[-56,-7],[-32,14],[-7,6],[-4,6],[4,2],[33,0],[4,4],[-1,8],[-17,9],[-19,15],[-4,-3],[-6,-18],[-22,-50],[-4,-22],[-3,-36],[-1,-10],[-4,-8],[-3,-7],[-2,-4],[-1,-12],[-4,-31],[1,-10],[22,-96],[6,-17],[10,-15],[97,-89],[24,-13],[41,-24],[-11,-19],[2,-20],[-7,-8],[22,-35],[-14,-26],[-23,-27],[-14,-15],[-5,-10],[-18,-18],[-13,-18],[4,-25],[1,-13],[-13,-16],[3,-19],[-3,-25],[-1,-36],[-23,-28],[-13,-27],[-14,-23],[-11,1],[-17,0],[-13,-13],[-11,-16],[-9,-14],[-17,-10],[-8,-5],[-14,-6],[-23,0],[0,3],[0,416],[0,416],[0,373],[2027,0]],[[3447,3777],[61,68],[74,-62],[48,34],[74,-24],[-21,-9],[6,-14],[18,23],[52,-15],[9,-43],[-27,-64],[-67,33],[-95,-34],[-95,16],[-37,91]],[[2687,4028],[42,68],[583,0],[46,-45],[-11,-40],[-149,-40],[-109,-133],[-80,31],[-221,-24],[-101,183]],[[2051,2527],[69,104],[116,93],[29,56],[-8,88],[72,40],[50,-24],[-5,-62],[93,2],[165,-107],[4,-23],[174,-5],[80,-58],[-168,-62],[44,-148],[64,-84],[-112,-21],[27,54],[-59,65],[7,43],[-42,25],[-79,-68],[-58,32],[-112,9],[-55,-32],[-103,-9],[-54,-80],[-21,86],[-118,86]],[[2234,3334],[24,277],[43,63],[469,-211],[3,-63],[-28,-28],[60,-54],[-10,-33],[88,-48],[-48,-136],[8,-118],[39,-73],[-13,-37],[-31,-33],[-86,100],[-211,75],[-149,157],[-44,110],[-114,52]],[[2413,2246],[5,60],[36,31],[-27,-94],[16,-6],[91,59],[34,54],[47,-15],[-7,-85],[-36,-34],[-63,-17],[-96,47]],[[2475,4096],[-36,-154],[-136,-111],[-166,-83],[-200,186],[55,162],[483,0]]]}