{"objects":{"water":{"type":"GeometryCollection","geometries":[{"type":"MultiPolygon","properties":{"source":"naturalearthdata.com","kind":"ocean","area":990044000000000,"sort_rank":200,"min_zoom":0,"id":1},"arcs":[[[0],[1],[2]],[[3]],[[4]]]},{"type":"LineString","properties":{"source":"naturalearthdata.com","kind":"ocean","sort_rank":205,"boundary":true,"min_zoom":0,"id":1344},"arcs":[5]},{"type":"LineString","properties":{"source":"naturalearthdata.com","kind":"ocean","sort_rank":205,"boundary":true,"min_zoom":0,"id":1345},"arcs":[6]},{"type":"LineString","properties":{"source":"naturalearthdata.com","kind":"ocean","sort_rank":205,"boundary":true,"min_zoom":0,"id":1346},"arcs":[7]},{"type":"MultiLineString","properties":{"source":"naturalearthdata.com","kind":"ocean","sort_rank":205,"boundary":true,"min_zoom":0,"id":1351},"arcs":[[8],[9],[10]]},{"type":"Point","properties":{"label_placement":true,"alt_name:pl":"Morze McKinley","collision_rank":398,"name:cs":"Wandelovo mo\u0159e","alt_name:eo":"McKinley-maro","min_zoom":3.0,"alt_name:en":"McKinley Sea","alt_name:cs":"McKinleyovo mo\u0159e","name:pl":"Morze Wandela","id":5837815586,"name":"Wandelhavet","alt_name:da":"McKinleyhavet","name:en":"Wandel Sea","name:eo":"Vandel-maro","sort_rank":200,"name:da":"Wandelhavet","kind":"sea","alt_name:fr":"Mer de McKinley","source":"openstreetmap.org","name:fr":"Mer de Wandel","wikidata_id":"Q259929"},"coordinates":[2508,2075]}]},"buildings":{"type":"GeometryCollection","geometries":[]},"places":{"type":"GeometryCollection","geometries":[]},"transit":{"type":"GeometryCollection","geometries":[]},"pois":{"type":"GeometryCollection","geometries":[]},"boundaries":{"type":"GeometryCollection","geometries":[]},"roads":{"type":"GeometryCollection","geometries":[]},"earth":{"type":"GeometryCollection","geometries":[{"type":"MultiPolygon","properties":{"sort_rank":10,"source":"naturalearthdata.com","min_zoom":0,"kind":"earth","area":608027485394504},"arcs":[[[11]],[[12]]]},{"type":"MultiPolygon","properties":{"sort_rank":10,"source":"naturalearthdata.com","kind":"earth","min_zoom":2.0,"area":1753086625268},"arcs":[[[13]]]},{"type":"MultiPolygon","properties":{"sort_rank":10,"source":"naturalearthdata.com","min_zoom":3.0,"kind":"earth","area":833312034851},"arcs":[[[14]]]}]},"landuse":{"type":"GeometryCollection","geometries":[]}},"type":"Topology","transform":{"translate":[-45.0,79.1713346408],"scale":[0.0109863281,0.0014354966]},"arcs":[[[4096,4096],[0,-4096],[-1731,0],[2,5],[2,23],[-3,28],[-6,26],[-7,25],[-7,12],[-5,-3],[-12,8],[-2,34],[3,63],[4,55],[6,47],[1,34],[-7,35],[-3,11],[-12,4],[-29,-6],[-13,6],[-8,13],[-6,20],[-4,38],[-1,56],[4,51],[10,47],[16,46],[32,67],[8,12],[20,3],[16,-10],[31,-28],[56,-25],[32,3],[33,17],[15,2],[17,-9],[13,5],[34,38],[29,54],[22,46],[-1,22],[-44,40],[-15,18],[-16,44],[41,53],[29,-6],[41,6],[32,50],[63,29],[6,9],[18,39],[1,27],[-7,29],[-17,42],[4,14],[23,15],[36,3],[32,13],[29,35],[61,101],[21,53],[64,80],[9,23],[0,17],[-12,15],[-26,52],[-32,50],[-22,23],[-47,27],[-68,48],[-49,17],[-90,5],[-20,11],[-10,-2],[-38,-34],[-13,-6],[-14,-16],[-8,-17],[-25,-72],[-28,-57],[-20,-65],[-6,-14],[-21,-23],[-24,21],[-23,9],[-13,18],[-31,22],[-19,-4],[-44,14],[-7,89],[-37,0],[-35,-53],[-67,-176],[-12,-25],[-23,-35],[-28,-33],[-44,-89],[-15,-21],[-67,-75],[-8,-28],[-5,-28],[-13,-38],[-8,8],[1,41],[11,55],[45,119],[15,27],[41,103],[22,44],[20,63],[25,114],[7,65],[2,66],[1,56],[-1,45],[-4,34],[-15,59],[-22,5],[-90,-16],[-34,-15],[-15,-13],[-7,-16],[-6,-29],[-6,-43],[-7,-41],[-10,-38],[-12,-21],[-60,-29],[-27,127],[-51,82],[-173,32],[-72,2],[-98,-37],[-57,-39],[-24,10],[-7,70],[10,53],[18,21],[520,87],[68,27],[58,42],[44,54],[34,59],[9,33],[-5,27],[-10,34],[-21,24],[-55,50],[-81,28],[-26,-7],[-12,14],[-8,32],[-23,6],[-27,-11],[-34,98],[-26,98],[-92,-44],[-79,-20],[-67,7],[-37,-9],[-94,26],[-71,6],[-39,-12],[-103,-71],[-29,-9],[-18,4],[4,71],[42,2],[131,48],[229,24],[127,20],[24,12],[11,16],[-14,20],[-99,61],[-59,23],[-63,19],[-10,-2],[-46,49],[-87,42],[-69,20],[-207,4],[-38,-16],[-40,-33],[-27,-1],[-27,21],[-22,9],[-24,-2],[-21,-16],[-26,-5],[-105,-1],[-3,-5],[-3,-14],[-2,-21],[-10,-9],[-29,1],[-33,22],[-22,-1],[-9,-9],[-12,-33],[-10,-18],[-11,-7],[-32,9],[-10,-10],[-9,-21],[0,-26],[10,-32],[9,-20],[50,-51],[5,-17],[-7,-46],[-2,-34],[-6,-22],[-5,-11],[-11,0],[-60,123],[-35,20],[-24,36],[-28,30],[-42,24],[-31,-40],[-26,-63],[-29,-59],[-20,18],[-15,3],[-13,12],[-21,40],[-19,19],[-47,18],[-21,4],[-17,-6],[-91,-76],[-42,-12],[-31,-26],[0,1365],[4096,0]],[[2311,2025],[1,-61],[21,-51],[31,-63],[24,-9],[9,23],[-13,71],[-24,70],[-22,51],[-16,-4],[-11,-27]],[[2454,376],[39,80],[19,80],[-6,61],[-47,19],[-51,-31],[-41,-49],[-13,-62],[10,-55],[33,-37],[57,-6]],[[0,2516],[0,71],[22,-1],[47,-19],[256,-54],[5,-20],[2,-31],[-48,-18],[-9,7],[-7,14],[-16,11],[-38,11],[-214,29]],[[0,2317],[0,87],[38,-55],[23,-50],[8,-72],[-8,-40],[-20,-35],[-8,-109],[1,-54],[3,-49],[6,-41],[0,-34],[-7,-25],[-11,-23],[-15,6],[-10,8],[0,190],[12,8],[8,110],[3,111],[-15,55],[-8,12]],[[0,2021],[12,8],[8,110],[3,111],[-15,55],[-8,12]],[[2338,2056],[-16,-4],[-11,-27],[1,-61],[21,-51],[31,-63],[24,-9],[9,23],[-13,71],[-24,70],[-22,51]],[[2454,376],[39,80],[19,80],[-6,61],[-47,19],[-51,-31],[-41,-49],[-13,-62],[10,-55],[33,-37],[57,-6]],[[0,1831],[10,-8],[15,-6],[11,23],[7,25],[0,34],[-6,41],[-3,49],[-1,54],[8,109],[20,35],[8,40],[-8,72],[-23,50],[-38,55]],[[0,2516],[214,-29],[38,-11],[16,-11],[7,-14],[9,-7],[48,18],[-2,31],[-5,20],[-256,54],[-47,19],[-22,1]],[[0,2731],[31,26],[42,12],[91,76],[17,6],[21,-4],[47,-18],[19,-19],[21,-40],[13,-12],[15,-3],[20,-18],[29,59],[26,63],[31,40],[42,-24],[28,-30],[24,-36],[35,-20],[60,-123],[11,0],[5,11],[6,22],[2,34],[7,46],[-5,17],[-50,51],[-9,20],[-10,32],[0,26],[9,21],[10,10],[32,-9],[11,7],[10,18],[12,33],[9,9],[22,1],[33,-22],[29,-1],[10,9],[2,21],[3,14],[3,5],[105,1],[26,5],[21,16],[24,2],[22,-9],[27,-21],[27,1],[40,33],[38,16],[207,-4],[69,-20],[87,-42],[46,-49],[10,2],[63,-19],[59,-23],[99,-61],[14,-20],[-11,-16],[-24,-12],[-127,-20],[-229,-24],[-131,-48],[-42,-2],[-4,-71],[18,-4],[29,9],[103,71],[39,12],[71,-6],[94,-26],[37,9],[67,-7],[79,20],[92,44],[26,-98],[34,-98],[27,11],[23,-6],[8,-32],[12,-14],[26,7],[81,-28],[55,-50],[21,-24],[10,-34],[5,-27],[-9,-33],[-34,-59],[-44,-54],[-58,-42],[-68,-27],[-520,-87],[-18,-21],[-10,-53],[7,-70],[24,-10],[57,39],[98,37],[72,-2],[173,-32],[51,-82],[27,-127],[60,29],[12,21],[10,38],[7,41],[6,43],[6,29],[7,16],[15,13],[34,15],[90,16],[22,-5],[15,-59],[4,-34],[1,-45],[-1,-56],[-2,-66],[-7,-65],[-25,-114],[-20,-63],[-22,-44],[-41,-103],[-15,-27],[-45,-119],[-11,-55],[-1,-41],[8,-8],[13,38],[5,28],[8,28],[67,75],[15,21],[44,89],[28,33],[23,35],[12,25],[67,176],[35,53],[37,0],[7,-89],[44,-14],[19,4],[31,-22],[13,-18],[23,-9],[24,-21],[21,23],[6,14],[20,65],[28,57],[25,72],[8,17],[14,16],[13,6],[38,34],[10,2],[20,-11],[90,-5],[49,-17],[68,-48],[47,-27],[22,-23],[32,-50],[26,-52],[12,-15],[0,-17],[-9,-23],[-64,-80],[-21,-53],[-61,-101],[-29,-35],[-32,-13],[-36,-3],[-23,-15],[-4,-14],[17,-42],[7,-29],[-1,-27],[-18,-39],[-6,-9],[-63,-29],[-32,-50],[-41,-6],[-29,6],[-41,-53],[16,-44],[15,-18],[44,-40],[1,-22],[-22,-46],[-29,-54],[-34,-38],[-13,-5],[-17,9],[-15,-2],[-33,-17],[-32,-3],[-56,25],[-31,28],[-16,10],[-20,-3],[-8,-12],[-32,-67],[-16,-46],[-10,-47],[-4,-51],[1,-56],[4,-38],[6,-20],[8,-13],[13,-6],[29,6],[12,-4],[3,-11],[7,-35],[-1,-34],[-6,-47],[-4,-55],[-3,-63],[2,-34],[12,-8],[5,3],[7,-12],[7,-25],[6,-26],[3,-28],[-2,-23],[-2,-5]],[[0,2021],[0,296],[8,-12],[15,-55],[-3,-111],[-8,-110],[-12,-8]],[[0,2587],[0,144],[31,26],[42,12],[91,76],[17,6],[21,-4],[47,-18],[19,-19],[21,-40],[13,-12],[15,-3],[20,-18],[29,59],[26,63],[31,40],[42,-24],[28,-30],[24,-36],[35,-20],[60,-123],[11,0],[5,11],[6,22],[2,34],[7,46],[-5,17],[-50,51],[-9,20],[-10,32],[0,26],[9,21],[10,10],[32,-9],[11,7],[10,18],[12,33],[9,9],[22,1],[33,-22],[29,-1],[10,9],[2,21],[3,14],[3,5],[105,1],[26,5],[21,16],[24,2],[22,-9],[27,-21],[27,1],[40,33],[38,16],[207,-4],[69,-20],[87,-42],[46,-49],[10,2],[63,-19],[59,-23],[99,-61],[14,-20],[-11,-16],[-24,-12],[-127,-20],[-229,-24],[-131,-48],[-42,-2],[-4,-71],[18,-4],[29,9],[103,71],[39,12],[71,-6],[94,-26],[37,9],[67,-7],[79,20],[92,44],[26,-98],[34,-98],[27,11],[23,-6],[8,-32],[12,-14],[26,7],[81,-28],[55,-50],[21,-24],[10,-34],[5,-27],[-9,-33],[-34,-59],[-44,-54],[-58,-42],[-68,-27],[-520,-87],[-18,-21],[-10,-53],[7,-70],[24,-10],[57,39],[98,37],[72,-2],[173,-32],[51,-82],[27,-127],[60,29],[12,21],[10,38],[7,41],[6,43],[6,29],[7,16],[15,13],[34,15],[90,16],[22,-5],[15,-59],[4,-34],[1,-45],[-1,-56],[-2,-66],[-7,-65],[-25,-114],[-20,-63],[-22,-44],[-41,-103],[-15,-27],[-45,-119],[-11,-55],[-1,-41],[8,-8],[13,38],[5,28],[8,28],[67,75],[15,21],[44,89],[28,33],[23,35],[12,25],[67,176],[35,53],[37,0],[7,-89],[44,-14],[19,4],[31,-22],[13,-18],[23,-9],[24,-21],[21,23],[6,14],[20,65],[28,57],[25,72],[8,17],[14,16],[13,6],[38,34],[10,2],[20,-11],[90,-5],[49,-17],[68,-48],[47,-27],[22,-23],[32,-50],[26,-52],[12,-15],[0,-17],[-9,-23],[-64,-80],[-21,-53],[-61,-101],[-29,-35],[-32,-13],[-36,-3],[-23,-15],[-4,-14],[17,-42],[7,-29],[-1,-27],[-18,-39],[-6,-9],[-63,-29],[-32,-50],[-41,-6],[-29,6],[-41,-53],[16,-44],[15,-18],[44,-40],[1,-22],[-22,-46],[-29,-54],[-34,-38],[-13,-5],[-17,9],[-15,-2],[-33,-17],[-32,-3],[-56,25],[-31,28],[-16,10],[-20,-3],[-8,-12],[-32,-67],[-16,-46],[-10,-47],[-4,-51],[1,-56],[4,-38],[6,-20],[8,-13],[13,-6],[29,6],[12,-4],[3,-11],[7,-35],[-1,-34],[-6,-47],[-4,-55],[-3,-63],[2,-34],[12,-8],[5,3],[7,-12],[7,-25],[6,-26],[3,-28],[-2,-23],[-2,-5],[-2365,0],[0,1831],[10,-8],[15,-6],[11,23],[7,25],[0,34],[-6,41],[-3,49],[-1,54],[8,109],[20,35],[8,40],[-8,72],[-23,50],[-38,55],[0,112],[214,-29],[38,-11],[16,-11],[7,-14],[9,-7],[48,18],[-2,31],[-5,20],[-256,54],[-47,19],[-22,1]],[[2493,456],[-39,-80],[-57,6],[-33,37],[-10,55],[13,62],[41,49],[51,31],[47,-19],[6,-61],[-19,-80]],[[2397,1864],[-9,-23],[-24,9],[-31,63],[-21,51],[-1,61],[11,27],[16,4],[22,-51],[24,-70],[13,-71]]]}