{"objects":{"water":{"type":"GeometryCollection","geometries":[{"type":"MultiPolygon","properties":{"source":"naturalearthdata.com","kind":"ocean","area":990044000000000,"sort_rank":200,"min_zoom":0,"id":1},"arcs":[[[0],[1],[2]]]},{"type":"LineString","properties":{"source":"naturalearthdata.com","kind":"ocean","sort_rank":205,"boundary":true,"min_zoom":0,"id":63},"arcs":[3]},{"type":"LineString","properties":{"source":"naturalearthdata.com","kind":"ocean","sort_rank":205,"boundary":true,"min_zoom":0,"id":316},"arcs":[4]},{"type":"Point","properties":{"label_placement":true,"alt_name:eo":"Skotia Maro","collision_rank":398,"name:ko":"\uc2a4\ucf54\uc0e4 \ud574","name:ar":"\u0628\u062d \u0633\u0643\u0648\u062a\u064a\u0627","name:cs":"mo\u0159e Scotia","min_zoom":3.0,"alt_name:cs":"Skotsk\u00e9 mo\u0159e","name:it":"Mare di Scotia","name:be":"\u041c\u043e\u0440\u0430 \u0421\u043a\u043e\u0448\u0430","name:ru":"\u041c\u043e\u0440\u0435 \u0421\u043a\u043e\u0448\u0430","name:pl":"Morze Scotia","id":305639392,"name:fa":"\u062f\u0631\u06cc\u0627\u06cc \u0627\u0633\u06a9\u0648\u0634\u06cc\u0627","sort_rank":200,"name:fi":"Skotianmeri","name:de":"Schottische See","source":"openstreetmap.org","name:fr":"Mer de Scotia","name:zh":"\u65af\u79d1\u820d\u6d77","name:sl":"\u0160kotsko morje","name:sk":"\u0160k\u00f3tske more","name:lt":"Skotijos j\u016bra","name:hi":"\u0938\u094d\u0915\u094b\u0936\u093f\u092f\u093e \u0938\u093e\u0917\u0930","name:he":"\u05d9\u05dd \u05e1\u05e7\u05d5\u05d8\u05d9\u05d4","kind":"sea","name:uk":"\u041c\u043e\u0440\u0435 \u0421\u043a\u043e\u0448\u0430","name:sv":"Scotiahavet","name:hu":"Scotia-tenger","name:hr":"\u0160kotsko more","name:eo":"Skoti\u015dipa Maro","name:en":"Scotia Sea","name":"Scotia Sea","wikidata_id":"Q204703","name:es":"Mar del Scotia"},"coordinates":[312,1417]},{"type":"Point","properties":{"label_placement":true,"alt_name:eo":"Suda Atlantika Oceano","collision_rank":398,"name:ms":"Lautan Atlantik Selatan","name:ar":"\u062c\u0646\u0648\u0628 \u0627\u0644\u0645\u062d\u064a\u0637 \u0627\u0644\u0623\u0637\u0644\u0633\u064a","name:cs":"Ji\u017en\u00ed Atlantsk\u00fd oce\u00e1n","min_zoom":3.0,"name:vi":"Nam \u0110\u1ea1i T\u00e2y D\u01b0\u01a1ng","name:ru":"\u042e\u0436\u043d\u044b\u0439 \u0410\u0442\u043b\u0430\u043d\u0442\u0438\u0447\u0435\u0441\u043a\u0438\u0439 \u043e\u043a\u0435\u0430\u043d","name:pl":"Po\u0142udniowy Atlantyk","id":305640288,"name:fa":"\u0627\u0642\u06cc\u0627\u0646\u0648\u0633 \u0627\u0637\u0644\u0633 \u062c\u0646\u0648\u0628\u06cc","sort_rank":200,"name:fi":"Etel\u00e4-Atlannin valtameri","name:de":"S\u00fcdatlantischer Ozean","source":"openstreetmap.org","name:fr":"Oc\u00e9an Atlantique Sud","name:zh":"\u5357\u5927\u897f\u6d0b","name:sl":"Ju\u017eni Atlantski ocean","name:sk":"Ju\u017en\u00fd Atlantick\u00fd oce\u00e1n","name:ja":"\u5357\u5927\u897f\u6d0b","name:lt":"Piet\u0173 Atlanto vandenynas","alt_name:de":"S\u00fcdatlantik","kind":"sea","name:be":"\u041f\u0430\u045e\u0434\u043d\u0435\u0432\u044b \u0410\u0442\u043b\u0430\u043d\u0442\u044b\u0447\u043d\u044b \u0430\u043a\u0456\u044f\u043d","name:hu":"D\u00e9l-Atlanti-\u00f3ce\u00e1n","name:hr":"Ju\u017eni Atlanski ocean","name:el":"\u039d\u03cc\u03c4\u03b9\u03bf\u03c2 \u0391\u03c4\u03bb\u03b1\u03bd\u03c4\u03b9\u03ba\u03cc\u03c2 \u03a9\u03ba\u03b5\u03b1\u03bd\u03cc\u03c2","name:eo":"Suda Atlantiko","name:en":"South Atlantic Ocean","name":"Suda Atlantiko","name:is":"Su\u00f0ur-Atlantshaf","wikidata_id":"Q1482804","alt_name:sl":"Ju\u017eni Atlantik","name:nl":"Zuid Atlantische Oceaan","name:es":"Oc\u00e9ano Atlantico Sur"},"coordinates":[2731,3451]}]},"buildings":{"type":"GeometryCollection","geometries":[]},"places":{"type":"GeometryCollection","geometries":[]},"transit":{"type":"GeometryCollection","geometries":[]},"pois":{"type":"GeometryCollection","geometries":[]},"boundaries":{"type":"GeometryCollection","geometries":[]},"roads":{"type":"GeometryCollection","geometries":[]},"earth":{"type":"GeometryCollection","geometries":[{"type":"MultiPolygon","properties":{"sort_rank":10,"source":"naturalearthdata.com","kind":"earth","min_zoom":2.0,"area":1753086625268},"arcs":[[[5]]]}]},"landuse":{"type":"GeometryCollection","geometries":[]}},"type":"Topology","transform":{"translate":[-45.0,-66.5132604431],"scale":[0.0109863281,0.006233731]},"arcs":[[[4096,0],[-4096,0],[0,4096],[4096,0],[0,-4096]],[[665,1986],[6,-6],[12,2],[31,-18],[7,-7],[7,-4],[11,0],[3,-4],[2,-7],[8,-10],[10,-4],[11,-3],[3,-3],[3,-6],[12,-20],[5,-14],[12,-11],[3,-3],[14,6],[6,6],[7,5],[-11,8],[-1,12],[3,13],[-7,-2],[-6,0],[-3,2],[-4,16],[-6,12],[-5,4],[-5,11],[-4,6],[-5,-4],[-2,-4],[-4,-1],[-8,10],[-10,-3],[4,12],[-9,13],[-5,0],[-4,1],[-4,3],[-7,0],[-7,-5],[-9,8],[-12,1],[-12,8],[-2,4],[-14,-2],[-37,0],[-6,-2],[9,-3],[27,-2],[-7,-6],[0,-9]],[[1692,1295],[14,-8],[-1,9],[-1,5],[-2,3],[-9,0],[-5,-5],[4,-4]],[[829,1918],[-7,-2],[-6,0],[-3,2],[-4,16],[-6,12],[-5,4],[-5,11],[-4,6],[-5,-4],[-2,-4],[-4,-1],[-8,10],[-10,-3],[4,12],[-9,13],[-5,0],[-4,1],[-4,3],[-7,0],[-7,-5],[-9,8],[-12,1],[-12,8],[-2,4],[-14,-2],[-37,0],[-6,-2],[9,-3],[27,-2],[-7,-6],[0,-9],[6,-6],[12,2],[31,-18],[7,-7],[7,-4],[11,0],[3,-4],[2,-7],[8,-10],[10,-4],[11,-3],[3,-3],[3,-6],[12,-20],[5,-14],[12,-11],[3,-3],[14,6],[6,6],[7,5],[-11,8],[-1,12],[3,13]],[[1702,1304],[-9,0],[-5,-5],[4,-4],[14,-8],[-1,9],[-1,5],[-2,3]],[[719,1997],[9,-8],[7,5],[7,0],[4,-3],[4,-1],[5,0],[9,-13],[-4,-12],[10,3],[8,-10],[4,1],[2,4],[5,4],[4,-6],[5,-11],[5,-4],[6,-12],[4,-16],[3,-2],[6,0],[7,2],[-3,-13],[1,-12],[11,-8],[-7,-5],[-6,-6],[-14,-6],[-3,3],[-12,11],[-5,14],[-12,20],[-3,6],[-3,3],[-11,3],[-10,4],[-8,10],[-2,7],[-3,4],[-11,0],[-7,4],[-7,7],[-31,18],[-12,-2],[-6,6],[0,9],[7,6],[-27,2],[-9,3],[6,2],[37,0],[14,2],[2,-4],[12,-8],[12,-1]]]}