{"objects":{"water":{"type":"GeometryCollection","geometries":[{"type":"MultiPolygon","properties":{"source":"naturalearthdata.com","kind":"ocean","area":990044000000000,"sort_rank":200,"min_zoom":0,"id":1},"arcs":[[[0],[1],[2],[3],[4],[5],[6],[7]],[[8]]]},{"type":"MultiLineString","properties":{"source":"naturalearthdata.com","kind":"ocean","sort_rank":205,"boundary":true,"min_zoom":0,"id":122},"arcs":[[9],[10],[11]]},{"type":"LineString","properties":{"source":"naturalearthdata.com","kind":"ocean","sort_rank":205,"boundary":true,"min_zoom":0,"id":246},"arcs":[12]},{"type":"LineString","properties":{"source":"naturalearthdata.com","kind":"ocean","sort_rank":205,"boundary":true,"min_zoom":0,"id":248},"arcs":[13]},{"type":"LineString","properties":{"source":"naturalearthdata.com","kind":"ocean","sort_rank":205,"boundary":true,"min_zoom":0,"id":250},"arcs":[14]},{"type":"LineString","properties":{"source":"naturalearthdata.com","kind":"ocean","sort_rank":205,"boundary":true,"min_zoom":0,"id":256},"arcs":[15]},{"type":"LineString","properties":{"source":"naturalearthdata.com","kind":"ocean","sort_rank":205,"boundary":true,"min_zoom":0,"id":257},"arcs":[16]},{"type":"LineString","properties":{"source":"naturalearthdata.com","kind":"ocean","sort_rank":205,"boundary":true,"min_zoom":0,"id":258},"arcs":[17]},{"type":"LineString","properties":{"source":"naturalearthdata.com","kind":"ocean","sort_rank":205,"boundary":true,"min_zoom":0,"id":259},"arcs":[18]},{"type":"LineString","properties":{"source":"naturalearthdata.com","kind":"ocean","sort_rank":205,"boundary":true,"min_zoom":0,"id":260},"arcs":[19]},{"type":"MultiLineString","properties":{"source":"naturalearthdata.com","kind":"ocean","sort_rank":205,"boundary":true,"min_zoom":0,"id":1386},"arcs":[[20],[21]]}]},"buildings":{"type":"GeometryCollection","geometries":[]},"places":{"type":"GeometryCollection","geometries":[]},"transit":{"type":"GeometryCollection","geometries":[]},"pois":{"type":"GeometryCollection","geometries":[]},"boundaries":{"type":"GeometryCollection","geometries":[]},"roads":{"type":"GeometryCollection","geometries":[]},"earth":{"type":"GeometryCollection","geometries":[{"type":"MultiPolygon","properties":{"sort_rank":10,"source":"naturalearthdata.com","min_zoom":0,"kind":"earth","area":608027485394504},"arcs":[[[22]],[[23]],[[24]]]},{"type":"MultiPolygon","properties":{"sort_rank":10,"source":"naturalearthdata.com","kind":"earth","min_zoom":2.0,"area":1753086625268},"arcs":[[[25]],[[26]],[[27]],[[28]]]},{"type":"MultiPolygon","properties":{"sort_rank":10,"source":"naturalearthdata.com","min_zoom":3.0,"kind":"earth","area":833312034851},"arcs":[[[29]],[[30]],[[31]],[[32]]]}]},"landuse":{"type":"GeometryCollection","geometries":[]}},"type":"Topology","transform":{"translate":[-45.0,-79.1713346408],"scale":[0.0109863281,0.0030903501]},"arcs":[[[0,390],[0,3706],[4096,0],[0,-1604],[-17,-29],[-13,-27],[-19,-22],[-20,26],[-7,29],[-6,62],[-15,27],[-14,-6],[-12,-33],[-14,-8],[-46,-7],[-23,25],[-32,11],[-18,0],[-39,-12],[-43,-5],[-26,11],[-23,1],[-18,3],[-137,-4],[-15,5],[-1,19],[5,36],[16,33],[17,27],[11,37],[-9,36],[-22,10],[-28,-14],[-28,-20],[-26,-9],[-18,3],[-32,16],[-22,-14],[-12,-4],[-9,-14],[-2,-18],[11,-24],[13,-34],[2,-33],[-7,-33],[-4,-72],[-19,-28],[-27,-4],[-25,-9],[-14,0],[-29,101],[-24,61],[-16,18],[-18,7],[-26,22],[-19,33],[-16,-3],[-8,-15],[3,-14],[19,-12],[8,-22],[-18,-23],[-16,-16],[-11,-14],[-12,-48],[-15,-36],[-13,-2],[-18,25],[-15,14],[-31,35],[-24,14],[-13,-3],[-12,-11],[-13,-19],[6,-34],[12,-38],[41,-35],[33,-21],[14,3],[16,6],[4,-21],[1,-26],[-15,-42],[-21,-81],[-13,-42],[-26,-10],[-29,-18],[-59,-42],[-42,-50],[-36,-3],[-31,12],[-32,7],[0,-16],[11,-19],[16,-51],[-15,-33],[-15,-7],[-62,25],[-54,-16],[-18,-18],[-32,-59],[-12,-18],[-14,-12],[-7,-42],[-1,-28],[12,-13],[27,-8],[15,-16],[-7,-19],[-16,-5],[-9,-12],[6,-15],[43,-10],[44,18],[59,12],[3,-27],[-7,-17],[-39,-56],[-19,-39],[-22,-30],[-13,-10],[-68,27],[-28,-2],[-23,3],[-29,-5],[-12,-14],[-44,-104],[-14,-53],[-14,-36],[-26,-25],[-10,-21],[-12,-41],[12,-32],[10,-15],[9,-3],[10,-11],[-26,-10],[-24,-2],[-58,-23],[-91,16],[-27,-33],[-18,-13],[-41,-16],[-47,-4],[-47,11],[-66,-18],[-98,-16],[-163,-62],[-46,-31],[-52,-34],[-47,-22],[-39,-10],[-78,-37],[-87,-73],[-30,-20],[-24,-33],[-108,-88],[-35,-41],[-32,8],[-19,-2],[-69,-46],[-20,-9],[-44,-37],[-19,-31],[-24,-67],[-23,-30],[-26,-5],[-38,-66],[-61,-139],[-8,-47],[2,-51],[32,-23],[34,-29],[48,-14],[72,-43],[57,-20],[-115,0],[-63,26],[-6,0],[-18,-19],[-16,-7],[-664,0],[0,3],[-9,25],[-8,31],[-9,28],[-7,18],[-9,9],[-29,4],[-48,1],[-39,-3],[0,50],[96,20],[8,22],[6,31],[1,15],[0,16],[-3,16],[-4,9],[-22,30],[-22,24],[-23,19],[-24,15],[-13,7]],[[3771,2740],[7,-10],[44,-38],[3,-10],[1,-19],[15,-13],[0,-11],[-2,-13],[0,-18],[4,-18],[16,8],[21,32],[7,15],[8,31],[8,15],[3,11],[-15,8],[-16,-1],[-10,10],[-19,24],[-27,7],[-45,-3],[-3,-7]],[[3804,2620],[-5,7],[-12,-3],[0,-6],[-1,-13],[2,-7],[7,-19],[10,-9],[12,-2],[10,7],[-21,38],[-2,7]],[[3533,2778],[3,-8],[24,19],[-6,39],[-2,3],[-8,6],[-16,-13],[-18,-3],[16,-31],[7,-12]],[[3778,2803],[5,-9],[14,1],[50,9],[5,14],[0,28],[-3,18],[-8,10],[-14,3],[-20,-9],[-10,-12],[-19,-46],[0,-7]],[[2920,2316],[-4,-16],[2,-11],[5,-13],[15,-16],[12,-3],[7,7],[-2,11],[-9,22],[-14,21],[-8,2],[-4,-4]],[[2607,2172],[-9,-5],[-5,-18],[0,-17],[5,-23],[13,-16],[13,0],[6,8],[-6,25],[-12,40],[-5,6]],[[2173,1693],[-15,-16],[-58,-22],[-10,-16],[39,5],[40,-14],[11,-14],[7,-15],[12,-69],[2,-6],[7,-8],[23,-4],[7,16],[0,11],[-1,30],[-16,39],[-4,15],[-1,14],[4,71],[8,29],[0,28],[-5,30],[-10,-2],[-16,-17],[-11,-37],[-4,-29],[-9,-19]],[[1337,0],[-135,0],[35,8],[39,6],[31,1],[30,-12],[0,-3]],[[96,186],[8,22],[6,31],[1,15],[0,16],[-3,16],[-4,9],[-22,30],[-22,24],[-23,19],[-24,15],[-13,7]],[[158,0],[0,3],[-9,25],[-8,31],[-9,28],[-7,18],[-9,9],[-29,4],[-48,1],[-39,-3]],[[0,166],[96,20]],[[3544,2837],[-16,-13],[-18,-3],[16,-31],[7,-12],[3,-8],[24,19],[-6,39],[-2,3],[-8,6]],[[3787,2624],[0,-6],[-1,-13],[2,-7],[7,-19],[10,-9],[12,-2],[10,7],[-21,38],[-2,7],[-5,7],[-12,-3]],[[3865,2719],[-19,24],[-27,7],[-45,-3],[-3,-7],[7,-10],[44,-38],[3,-10],[1,-19],[15,-13],[0,-11],[-2,-13],[0,-18],[4,-18],[16,8],[21,32],[7,15],[8,31],[8,15],[3,11],[-15,8],[-16,-1],[-10,10]],[[925,0],[-63,26],[-6,0],[-18,-19],[-16,-7]],[[3847,2804],[5,14],[0,28],[-3,18],[-8,10],[-14,3],[-20,-9],[-10,-12],[-19,-46],[0,-7],[5,-9],[14,1],[50,9]],[[2221,1610],[-4,15],[-1,14],[4,71],[8,29],[0,28],[-5,30],[-10,-2],[-16,-17],[-11,-37],[-4,-29],[-9,-19],[-15,-16],[-58,-22],[-10,-16],[39,5],[40,-14],[11,-14],[7,-15],[12,-69],[2,-6],[7,-8],[23,-4],[7,16],[0,11],[-1,30],[-16,39]],[[2612,2166],[-5,6],[-9,-5],[-5,-18],[0,-17],[5,-23],[13,-16],[13,0],[6,8],[-6,25],[-12,40]],[[2932,2318],[-8,2],[-4,-4],[-4,-16],[2,-11],[5,-13],[15,-16],[12,-3],[7,7],[-2,11],[-9,22],[-14,21]],[[1337,0],[0,3],[-30,12],[-31,-1],[-39,-6],[-35,-8]],[[1040,0],[-57,20],[-72,43],[-48,14],[-34,29],[-32,23],[-2,51],[8,47],[61,139],[38,66],[26,5],[23,30],[24,67],[19,31],[44,37],[20,9],[69,46],[19,2],[32,-8],[35,41],[108,88],[24,33],[30,20],[87,73],[78,37],[39,10],[47,22],[52,34],[46,31],[163,62],[98,16],[66,18],[47,-11],[47,4],[41,16],[18,13],[27,33],[91,-16],[58,23],[24,2],[26,10],[-10,11],[-9,3],[-10,15],[-12,32],[12,41],[10,21],[26,25],[14,36],[14,53],[44,104],[12,14],[29,5],[23,-3],[28,2],[68,-27],[13,10],[22,30],[19,39],[39,56],[7,17],[-3,27],[-59,-12],[-44,-18],[-43,10],[-6,15],[9,12],[16,5],[7,19],[-15,16],[-27,8],[-12,13],[1,28],[7,42],[14,12],[12,18],[32,59],[18,18],[54,16],[62,-25],[15,7],[15,33],[-16,51],[-11,19],[0,16],[32,-7],[31,-12],[36,3],[42,50],[59,42],[29,18],[26,10],[13,42],[21,81],[15,42],[-1,26],[-4,21],[-16,-6],[-14,-3],[-33,21],[-41,35],[-12,38],[-6,34],[13,19],[12,11],[13,3],[24,-14],[31,-35],[15,-14],[18,-25],[13,2],[15,36],[12,48],[11,14],[16,16],[18,23],[-8,22],[-19,12],[-3,14],[8,15],[16,3],[19,-33],[26,-22],[18,-7],[16,-18],[24,-61],[29,-101],[14,0],[25,9],[27,4],[19,28],[4,72],[7,33],[-2,33],[-13,34],[-11,24],[2,18],[9,14],[12,4],[22,14],[32,-16],[18,-3],[26,9],[28,20],[28,14],[22,-10],[9,-36],[-11,-37],[-17,-27],[-16,-33],[-5,-36],[1,-19],[15,-5],[137,4],[18,-3],[23,-1],[26,-11],[43,5],[39,12],[18,0],[32,-11],[23,-25],[46,7],[14,8],[12,33],[14,6],[15,-27],[6,-62],[7,-29],[20,-26],[19,22],[13,27],[17,29]],[[0,166],[0,224],[13,-7],[24,-15],[23,-19],[22,-24],[22,-30],[4,-9],[3,-16],[0,-16],[-1,-15],[-6,-31],[-8,-22],[-96,-20]],[[158,0],[-158,0],[0,116],[39,3],[48,-1],[29,-4],[9,-9],[7,-18],[9,-28],[8,-31],[9,-25],[0,-3]],[[4096,2492],[0,-2492],[-2759,0],[0,3],[-30,12],[-31,-1],[-39,-6],[-35,-8],[-162,0],[-57,20],[-72,43],[-48,14],[-34,29],[-32,23],[-2,51],[8,47],[61,139],[38,66],[26,5],[23,30],[24,67],[19,31],[44,37],[20,9],[69,46],[19,2],[32,-8],[35,41],[108,88],[24,33],[30,20],[87,73],[78,37],[39,10],[47,22],[52,34],[46,31],[163,62],[98,16],[66,18],[47,-11],[47,4],[41,16],[18,13],[27,33],[91,-16],[58,23],[24,2],[26,10],[-10,11],[-9,3],[-10,15],[-12,32],[12,41],[10,21],[26,25],[14,36],[14,53],[44,104],[12,14],[29,5],[23,-3],[28,2],[68,-27],[13,10],[22,30],[19,39],[39,56],[7,17],[-3,27],[-59,-12],[-44,-18],[-43,10],[-6,15],[9,12],[16,5],[7,19],[-15,16],[-27,8],[-12,13],[1,28],[7,42],[14,12],[12,18],[32,59],[18,18],[54,16],[62,-25],[15,7],[15,33],[-16,51],[-11,19],[0,16],[32,-7],[31,-12],[36,3],[42,50],[59,42],[29,18],[26,10],[13,42],[21,81],[15,42],[-1,26],[-4,21],[-16,-6],[-14,-3],[-33,21],[-41,35],[-12,38],[-6,34],[13,19],[12,11],[13,3],[24,-14],[31,-35],[15,-14],[18,-25],[13,2],[15,36],[12,48],[11,14],[16,16],[18,23],[-8,22],[-19,12],[-3,14],[8,15],[16,3],[19,-33],[26,-22],[18,-7],[16,-18],[24,-61],[29,-101],[14,0],[25,9],[27,4],[19,28],[4,72],[7,33],[-2,33],[-13,34],[-11,24],[2,18],[9,14],[12,4],[22,14],[32,-16],[18,-3],[26,9],[28,20],[28,14],[22,-10],[9,-36],[-11,-37],[-17,-27],[-16,-33],[-5,-36],[1,-19],[15,-5],[137,4],[18,-3],[23,-1],[26,-11],[43,5],[39,12],[18,0],[32,-11],[23,-25],[46,7],[14,8],[12,33],[14,6],[15,-27],[6,-62],[7,-29],[20,-26],[19,22],[13,27],[17,29]],[[925,0],[-103,0],[16,7],[18,19],[6,0],[63,-26]],[[3865,2719],[10,-10],[16,1],[15,-8],[-3,-11],[-8,-15],[-8,-31],[-7,-15],[-21,-32],[-16,-8],[-4,18],[0,18],[2,13],[0,11],[-15,13],[-1,19],[-3,10],[-44,38],[-7,10],[3,7],[45,3],[27,-7],[19,-24]],[[2220,1710],[-4,-71],[1,-14],[4,-15],[16,-39],[1,-30],[0,-11],[-7,-16],[-23,4],[-7,8],[-2,6],[-12,69],[-7,15],[-11,14],[-40,14],[-39,-5],[10,16],[58,22],[15,16],[9,19],[4,29],[11,37],[16,17],[10,2],[5,-30],[0,-28],[-8,-29]],[[3797,2795],[-14,-1],[-5,9],[0,7],[19,46],[10,12],[20,9],[14,-3],[8,-10],[3,-18],[0,-28],[-5,-14],[-50,-9]],[[2630,2101],[-6,-8],[-13,0],[-13,16],[-5,23],[0,17],[5,18],[9,5],[5,-6],[12,-40],[6,-25]],[[2957,2264],[-7,-7],[-12,3],[-15,16],[-5,13],[-2,11],[4,16],[4,4],[8,-2],[14,-21],[9,-22],[2,-11]],[[3827,2575],[-10,-7],[-12,2],[-10,9],[-7,19],[-2,7],[1,13],[0,6],[12,3],[5,-7],[2,-7],[21,-38]],[[3560,2789],[-24,-19],[-3,8],[-7,12],[-16,31],[18,3],[16,13],[8,-6],[2,-3],[6,-39]]]}