{"objects":{"water":{"type":"GeometryCollection","geometries":[{"type":"MultiPolygon","properties":{"source":"naturalearthdata.com","kind":"ocean","area":990044000000000,"sort_rank":200,"min_zoom":0,"id":1},"arcs":[[[0],[1],[2]]]},{"type":"LineString","properties":{"source":"naturalearthdata.com","kind":"ocean","sort_rank":205,"boundary":true,"min_zoom":0,"id":122},"arcs":[3]},{"type":"LineString","properties":{"source":"naturalearthdata.com","kind":"ocean","sort_rank":205,"boundary":true,"min_zoom":0,"id":255},"arcs":[4]},{"type":"MultiLineString","properties":{"source":"naturalearthdata.com","kind":"ocean","sort_rank":205,"boundary":true,"min_zoom":0,"id":256},"arcs":[[5],[6]]},{"type":"LineString","properties":{"source":"naturalearthdata.com","kind":"ocean","sort_rank":205,"boundary":true,"min_zoom":0,"id":261},"arcs":[7]},{"type":"MultiLineString","properties":{"source":"naturalearthdata.com","kind":"ocean","sort_rank":205,"boundary":true,"min_zoom":0,"id":1386},"arcs":[[8],[9]]}]},"buildings":{"type":"GeometryCollection","geometries":[]},"places":{"type":"GeometryCollection","geometries":[]},"transit":{"type":"GeometryCollection","geometries":[]},"pois":{"type":"GeometryCollection","geometries":[]},"boundaries":{"type":"GeometryCollection","geometries":[]},"roads":{"type":"GeometryCollection","geometries":[]},"earth":{"type":"GeometryCollection","geometries":[{"type":"MultiPolygon","properties":{"sort_rank":10,"source":"naturalearthdata.com","min_zoom":0,"kind":"earth","area":608027485394504},"arcs":[[[10]],[[11]],[[12]]]},{"type":"MultiPolygon","properties":{"sort_rank":10,"source":"naturalearthdata.com","kind":"earth","min_zoom":2.0,"area":1753086625268},"arcs":[[[13]],[[14]]]},{"type":"MultiPolygon","properties":{"sort_rank":10,"source":"naturalearthdata.com","min_zoom":3.0,"kind":"earth","area":833312034851},"arcs":[[[15]]]}]},"landuse":{"type":"GeometryCollection","geometries":[]}},"type":"Topology","transform":{"translate":[-45.0,-85.0511287798],"scale":[0.0109863281,0.0014354966]},"arcs":[[[1202,4096],[135,0],[12,-93],[-3,-126],[15,-69],[9,-10],[427,-114],[53,-8],[13,11],[21,-9],[19,-30],[62,-31],[-15,-74],[-40,-31],[-20,-36],[-464,-77],[-18,-7],[-24,-29],[-57,-39],[-54,-20],[-27,-99],[-29,4],[-57,-11],[-41,-37],[-32,-13],[-12,9],[-13,-15],[-93,-44],[-89,-33],[-17,-66],[-23,-46],[-18,-55],[-24,-21],[-24,-27],[-29,-10],[-36,-62],[-73,76],[-69,50],[-90,-104],[-62,-93],[-43,-5],[-19,-30],[-28,-57],[-26,-77],[-30,-132],[-47,-114],[-56,-178],[-45,-177],[-36,-42],[-21,9],[-14,-33],[-50,-47],[0,1478],[134,83],[4,10],[3,16],[-1,22],[-3,19],[-24,52],[1,13],[4,9],[9,11],[10,3],[21,-6],[18,60],[7,63],[4,155],[-2,71],[-14,89],[-8,34],[-5,90],[664,0],[-7,-7],[-17,-10],[-30,-9],[-3,-52],[10,-7],[222,-44],[10,25],[-1,11],[-4,18],[-36,39],[-41,36],[115,0],[53,-40],[41,5],[68,35]],[[1130,3757],[6,-17],[16,6],[31,46],[4,3],[2,25],[-19,26],[-21,-3],[-11,-40],[-8,-46]],[[1212,3774],[-29,-69],[16,-81],[21,-27],[68,-35],[39,-51],[36,52],[21,7],[7,-2],[9,14],[-23,60],[-72,63],[-11,59],[-7,-54],[2,-32],[-13,-33],[-13,14],[-44,107],[-7,8]],[[0,3302],[134,83],[4,10],[3,16],[-1,22],[-3,19],[-24,52],[1,13],[4,9],[9,11],[10,3],[21,-6],[18,60],[7,63],[4,155],[-2,71],[-14,89],[-8,34],[-5,90]],[[1276,3645],[-13,14],[-44,107],[-7,8],[-29,-69],[16,-81],[21,-27],[68,-35],[39,-51],[36,52],[21,7],[7,-2],[9,14],[-23,60],[-72,63],[-11,59],[-7,-54],[2,-32],[-13,-33]],[[1002,4021],[-36,39],[-41,36]],[[822,4096],[-7,-7],[-17,-10],[-30,-9],[-3,-52],[10,-7],[222,-44],[10,25],[-1,11],[-4,18]],[[1187,3795],[2,25],[-19,26],[-21,-3],[-11,-40],[-8,-46],[6,-17],[16,6],[31,46],[4,3]],[[0,1824],[50,47],[14,33],[21,-9],[36,42],[45,177],[56,178],[47,114],[30,132],[26,77],[28,57],[19,30],[43,5],[62,93],[90,104],[69,-50],[73,-76],[36,62],[29,10],[24,27],[24,21],[18,55],[23,46],[17,66],[89,33],[93,44],[13,15],[12,-9],[32,13],[41,37],[57,11],[29,-4],[27,99],[54,20],[57,39],[24,29],[18,7],[464,77],[20,36],[40,31],[15,74],[-62,31],[-19,30],[-21,9],[-13,-11],[-53,8],[-427,114],[-9,10],[-15,69],[3,126],[-12,93]],[[1202,4096],[-68,-35],[-41,-5],[-53,40]],[[0,3302],[0,794],[158,0],[5,-90],[8,-34],[14,-89],[2,-71],[-4,-155],[-7,-63],[-18,-60],[-21,6],[-10,-3],[-9,-11],[-4,-9],[-1,-13],[24,-52],[3,-19],[1,-22],[-3,-16],[-4,-10],[-134,-83]],[[1337,4096],[2759,0],[0,-4096],[-4096,0],[0,1824],[50,47],[14,33],[21,-9],[36,42],[45,177],[56,178],[47,114],[30,132],[26,77],[28,57],[19,30],[43,5],[62,93],[90,104],[69,-50],[73,-76],[36,62],[29,10],[24,27],[24,21],[18,55],[23,46],[17,66],[89,33],[93,44],[13,15],[12,-9],[32,13],[41,37],[57,11],[29,-4],[27,99],[54,20],[57,39],[24,29],[18,7],[464,77],[20,36],[40,31],[15,74],[-62,31],[-19,30],[-21,9],[-13,-11],[-53,8],[-427,114],[-9,10],[-15,69],[3,126],[-12,93]],[[1040,4096],[162,0],[-68,-35],[-41,-5],[-53,40]],[[1263,3659],[13,-14],[13,33],[-2,32],[7,54],[11,-59],[72,-63],[23,-60],[-9,-14],[-7,2],[-21,-7],[-36,-52],[-39,51],[-68,35],[-21,27],[-16,81],[29,69],[7,-8],[44,-107]],[[822,4096],[103,0],[41,-36],[36,-39],[4,-18],[1,-11],[-10,-25],[-222,44],[-10,7],[3,52],[30,9],[17,10],[7,7]],[[1152,3746],[-16,-6],[-6,17],[8,46],[11,40],[21,3],[19,-26],[-2,-25],[-4,-3],[-31,-46]]]}