{"objects":{"water":{"type":"GeometryCollection","geometries":[{"type":"MultiPolygon","properties":{"source":"naturalearthdata.com","kind":"ocean","area":989871000000000,"sort_rank":200,"min_zoom":0,"id":1},"arcs":[[[0],[1],[2],[3],[4],[5],[6],[7],[8],[9],[10],[11],[12],[13]]]},{"type":"LineString","properties":{"source":"naturalearthdata.com","kind":"ocean","sort_rank":205,"boundary":true,"min_zoom":0,"id":2925},"arcs":[14]},{"type":"LineString","properties":{"source":"naturalearthdata.com","kind":"ocean","sort_rank":205,"boundary":true,"min_zoom":0,"id":2928},"arcs":[15]},{"type":"LineString","properties":{"source":"naturalearthdata.com","kind":"ocean","sort_rank":205,"boundary":true,"min_zoom":0,"id":2929},"arcs":[16]},{"type":"LineString","properties":{"source":"naturalearthdata.com","kind":"ocean","sort_rank":205,"boundary":true,"min_zoom":0,"id":2930},"arcs":[17]},{"type":"LineString","properties":{"source":"naturalearthdata.com","kind":"ocean","sort_rank":205,"boundary":true,"min_zoom":0,"id":2934},"arcs":[18]},{"type":"LineString","properties":{"source":"naturalearthdata.com","kind":"ocean","sort_rank":205,"boundary":true,"min_zoom":0,"id":2939},"arcs":[19]},{"type":"LineString","properties":{"source":"naturalearthdata.com","kind":"ocean","sort_rank":205,"boundary":true,"min_zoom":0,"id":2940},"arcs":[20]},{"type":"LineString","properties":{"source":"naturalearthdata.com","kind":"ocean","sort_rank":205,"boundary":true,"min_zoom":0,"id":3331},"arcs":[21]},{"type":"LineString","properties":{"source":"naturalearthdata.com","kind":"ocean","sort_rank":205,"boundary":true,"min_zoom":0,"id":3332},"arcs":[22]},{"type":"LineString","properties":{"source":"naturalearthdata.com","kind":"ocean","sort_rank":205,"boundary":true,"min_zoom":0,"id":3333},"arcs":[23]},{"type":"LineString","properties":{"source":"naturalearthdata.com","kind":"ocean","sort_rank":205,"boundary":true,"min_zoom":0,"id":3336},"arcs":[24]},{"type":"LineString","properties":{"source":"naturalearthdata.com","kind":"ocean","sort_rank":205,"boundary":true,"min_zoom":0,"id":3337},"arcs":[25]},{"type":"LineString","properties":{"source":"naturalearthdata.com","kind":"ocean","sort_rank":205,"boundary":true,"min_zoom":0,"id":3338},"arcs":[26]}]},"buildings":{"type":"GeometryCollection","geometries":[]},"places":{"type":"GeometryCollection","geometries":[]},"transit":{"type":"GeometryCollection","geometries":[]},"pois":{"type":"GeometryCollection","geometries":[]},"boundaries":{"type":"GeometryCollection","geometries":[]},"roads":{"type":"GeometryCollection","geometries":[]},"earth":{"type":"GeometryCollection","geometries":[{"type":"MultiPolygon","properties":{"sort_rank":10,"source":"naturalearthdata.com","kind":"earth","min_zoom":4.0,"area":7777054921},"arcs":[[[27]],[[28]],[[29]],[[30]],[[31]]]},{"type":"MultiPolygon","properties":{"sort_rank":10,"source":"naturalearthdata.com","min_zoom":3.0,"kind":"earth","area":43052408803},"arcs":[[[32]],[[33]]]}]},"landuse":{"type":"GeometryCollection","geometries":[{"type":"MultiPolygon","properties":{"kind":"nature_reserve","protect_class":"4","area":282381055847,"sort_rank":23,"source":"openstreetmap.org","min_zoom":4.0,"tier":2,"id":-9173183},"arcs":[[[34]],[[35]]]}]}},"type":"Topology","transform":{"translate":[135.0,11.1784018737],"scale":[0.002746582,0.0026280868]},"arcs":[[[4096,0],[-4096,0],[0,4096],[4096,0],[0,-4096]],[[3600,937],[-3,5],[-5,0],[-6,-4],[-4,-4],[-2,-5],[-8,-25],[-3,-6],[-3,-4],[-4,-4],[-20,-12],[-5,-5],[-22,-13],[-5,0],[-1,2],[-3,-2],[-2,-3],[4,-3],[2,-3],[2,-4],[1,-3],[-1,-7],[-1,-5],[-2,-4],[-4,-3],[3,-2],[2,-1],[1,-3],[2,-2],[2,-15],[1,-2],[5,-6],[4,-7],[6,-2],[7,0],[7,3],[9,14],[3,35],[5,16],[9,10],[23,15],[13,12],[11,16],[5,10],[0,5],[-6,0],[-7,2],[-7,5],[-3,9]],[[3716,1143],[-7,-2],[-11,-5],[-10,-6],[-4,-7],[3,-2],[6,-1],[10,2],[7,-2],[4,-3],[3,-1],[7,3],[3,4],[2,4],[3,4],[4,1],[5,1],[3,2],[2,3],[1,5],[-4,8],[-10,-1],[-17,-7]],[[3877,1482],[-6,3],[-8,-5],[-7,-10],[-4,-9],[-1,-5],[1,-2],[4,-6],[3,-6],[1,-10],[2,-5],[7,-5],[7,5],[6,11],[2,10],[-1,3],[-5,6],[-1,4],[0,6],[1,5],[0,5],[-1,5]],[[3928,1556],[-5,-4],[-10,-3],[-4,-2],[-1,-2],[0,-4],[-1,-2],[-7,-3],[-2,-1],[-3,-4],[-1,-3],[1,-4],[-1,-6],[-4,-14],[-1,-6],[1,-5],[4,-1],[8,2],[1,-1],[7,-2],[5,0],[-2,5],[-3,5],[0,5],[2,5],[5,4],[3,-2],[3,0],[2,2],[2,3],[-3,5],[-1,3],[7,17],[2,4],[4,2],[5,5],[-3,3],[-5,1],[-5,-2]],[[3899,1974],[-4,3],[-11,1],[-5,2],[-6,-1],[-3,-2],[0,-4],[2,-4],[3,-3],[5,-2],[5,0],[10,1],[5,1],[2,3],[-3,5]],[[3922,2662],[-6,-5],[-2,-18],[-4,-9],[-9,-5],[2,-9],[9,0],[5,3],[16,16],[4,4],[5,2],[3,3],[1,7],[-1,5],[-4,3],[-5,3],[-14,0]],[[3882,2871],[6,0],[5,2],[5,3],[1,4],[0,7],[0,5],[-3,5],[-4,6],[-14,0],[-7,-8],[1,-15],[10,-9]],[[3928,2092],[6,6],[-7,3],[-6,-2],[7,-7]],[[3952,2324],[5,6],[-6,3],[-6,-2],[7,-7]],[[3952,2431],[5,3],[0,4],[-2,5],[-4,3],[-6,0],[-3,-5],[2,-6],[8,-4]],[[3789,3225],[3,3],[0,5],[-2,4],[-4,1],[-6,-2],[0,-4],[4,-5],[5,-2]],[[3732,3360],[3,1],[3,2],[1,3],[1,3],[-1,1],[-3,0],[-3,-1],[-3,-1],[0,2],[0,4],[-2,2],[-4,-4],[-1,-4],[2,-4],[3,-2],[4,-2]],[[3610,3553],[4,4],[2,4],[0,5],[-4,2],[-5,-1],[-2,-5],[1,-5],[4,-4]],[[3600,937],[-3,5],[-5,0],[-6,-4],[-4,-4],[-2,-5],[-8,-25],[-3,-6],[-3,-4],[-4,-4],[-20,-12],[-5,-5],[-22,-13],[-5,0],[-1,2],[-3,-2],[-2,-3],[4,-3],[2,-3],[2,-4],[1,-3],[-1,-7],[-1,-5],[-2,-4],[-4,-3],[3,-2],[2,-1],[1,-3],[2,-2],[2,-15],[1,-2],[5,-6],[4,-7],[6,-2],[7,0],[7,3],[9,14],[3,35],[5,16],[9,10],[23,15],[13,12],[11,16],[5,10],[0,5],[-6,0],[-7,2],[-7,5],[-3,9]],[[3716,1143],[-7,-2],[-11,-5],[-10,-6],[-4,-7],[3,-2],[6,-1],[10,2],[7,-2],[4,-3],[3,-1],[7,3],[3,4],[2,4],[3,4],[4,1],[5,1],[3,2],[2,3],[1,5],[-4,8],[-10,-1],[-17,-7]],[[3877,1482],[-6,3],[-8,-5],[-7,-10],[-4,-9],[-1,-5],[1,-2],[4,-6],[3,-6],[1,-10],[2,-5],[7,-5],[7,5],[6,11],[2,10],[-1,3],[-5,6],[-1,4],[0,6],[1,5],[0,5],[-1,5]],[[3928,1556],[-5,-4],[-10,-3],[-4,-2],[-1,-2],[0,-4],[-1,-2],[-7,-3],[-2,-1],[-3,-4],[-1,-3],[1,-4],[-1,-6],[-4,-14],[-1,-6],[1,-5],[4,-1],[8,2],[1,-1],[7,-2],[5,0],[-2,5],[-3,5],[0,5],[2,5],[5,4],[3,-2],[3,0],[2,2],[2,3],[-3,5],[-1,3],[7,17],[2,4],[4,2],[5,5],[-3,3],[-5,1],[-5,-2]],[[3899,1974],[-4,3],[-11,1],[-5,2],[-6,-1],[-3,-2],[0,-4],[2,-4],[3,-3],[5,-2],[5,0],[10,1],[5,1],[2,3],[-3,5]],[[3922,2662],[-6,-5],[-2,-18],[-4,-9],[-9,-5],[2,-9],[9,0],[5,3],[16,16],[4,4],[5,2],[3,3],[1,7],[-1,5],[-4,3],[-5,3],[-14,0]],[[3882,2871],[6,0],[5,2],[5,3],[1,4],[0,7],[0,5],[-3,5],[-4,6],[-14,0],[-7,-8],[1,-15],[10,-9]],[[3928,2092],[-7,7],[6,2],[7,-3],[-6,-6]],[[3952,2324],[-7,7],[6,2],[6,-3],[-5,-6]],[[3952,2431],[-8,4],[-2,6],[3,5],[6,0],[4,-3],[2,-5],[0,-4],[-5,-3]],[[3789,3225],[-5,2],[-4,5],[0,4],[6,2],[4,-1],[2,-4],[0,-5],[-3,-3]],[[3732,3360],[-4,2],[-3,2],[-2,4],[1,4],[4,4],[2,-2],[0,-4],[0,-2],[3,1],[3,1],[3,0],[1,-1],[-1,-3],[-1,-3],[-3,-2],[-3,-1]],[[3610,3553],[-4,4],[-1,5],[2,5],[5,1],[4,-2],[0,-5],[-2,-4],[-4,-4]],[[3716,1143],[17,7],[10,1],[4,-8],[-1,-5],[-2,-3],[-3,-2],[-5,-1],[-4,-1],[-3,-4],[-2,-4],[-3,-4],[-7,-3],[-3,1],[-4,3],[-7,2],[-10,-2],[-6,1],[-3,2],[4,7],[10,6],[11,5],[7,2]],[[3877,1482],[1,-5],[0,-5],[-1,-5],[0,-6],[1,-4],[5,-6],[1,-3],[-2,-10],[-6,-11],[-7,-5],[-7,5],[-2,5],[-1,10],[-3,6],[-4,6],[-1,2],[1,5],[4,9],[7,10],[8,5],[6,-3]],[[3899,1974],[3,-5],[-2,-3],[-5,-1],[-10,-1],[-5,0],[-5,2],[-3,3],[-2,4],[0,4],[3,2],[6,1],[5,-2],[11,-1],[4,-3]],[[3922,2662],[14,0],[5,-3],[4,-3],[1,-5],[-1,-7],[-3,-3],[-5,-2],[-4,-4],[-16,-16],[-5,-3],[-9,0],[-2,9],[9,5],[4,9],[2,18],[6,5]],[[3882,2871],[-10,9],[-1,15],[7,8],[14,0],[4,-6],[3,-5],[0,-5],[0,-7],[-1,-4],[-5,-3],[-5,-2],[-6,0]],[[3600,937],[3,-9],[7,-5],[7,-2],[6,0],[0,-5],[-5,-10],[-11,-16],[-13,-12],[-23,-15],[-9,-10],[-5,-16],[-3,-35],[-9,-14],[-7,-3],[-7,0],[-6,2],[-4,7],[-5,6],[-1,2],[-2,15],[-2,2],[-1,3],[-2,1],[-3,2],[4,3],[2,4],[1,5],[1,7],[-1,3],[-2,4],[-2,3],[-4,3],[2,3],[3,2],[1,-2],[5,0],[22,13],[5,5],[20,12],[4,4],[3,4],[3,6],[8,25],[2,5],[4,4],[6,4],[5,0],[3,-5]],[[3928,1556],[5,2],[5,-1],[3,-3],[-5,-5],[-4,-2],[-2,-4],[-7,-17],[1,-3],[3,-5],[-2,-3],[-2,-2],[-3,0],[-3,2],[-5,-4],[-2,-5],[0,-5],[3,-5],[2,-5],[-5,0],[-7,2],[-1,1],[-8,-2],[-4,1],[-1,5],[1,6],[4,14],[1,6],[-1,4],[1,3],[3,4],[2,1],[7,3],[1,2],[0,4],[1,2],[4,2],[10,3],[5,4]],[[4096,1064],[0,-660],[-282,-255],[-564,-149],[-387,0],[-193,233],[1080,289],[346,542]],[[3667,4096],[429,0],[0,-412],[-185,125],[-244,287]]]}