{"objects":{"water":{"type":"GeometryCollection","geometries":[{"type":"MultiPolygon","properties":{"source":"naturalearthdata.com","kind":"ocean","area":989871000000000,"sort_rank":200,"min_zoom":0,"id":1},"arcs":[[[0]],[[1]]]},{"type":"MultiLineString","properties":{"source":"naturalearthdata.com","kind":"ocean","sort_rank":205,"boundary":true,"min_zoom":0,"id":3517},"arcs":[[2],[3]]}]},"buildings":{"type":"GeometryCollection","geometries":[]},"places":{"type":"GeometryCollection","geometries":[]},"transit":{"type":"GeometryCollection","geometries":[]},"pois":{"type":"GeometryCollection","geometries":[]},"boundaries":{"type":"GeometryCollection","geometries":[]},"roads":{"type":"GeometryCollection","geometries":[]},"earth":{"type":"GeometryCollection","geometries":[{"type":"Polygon","properties":{"sort_rank":10,"source":"naturalearthdata.com","min_zoom":0,"kind":"earth","area":83319317895524},"arcs":[[4]]}]},"landuse":{"type":"GeometryCollection","geometries":[]}},"type":"Topology","transform":{"translate":[135.0,-70.612614238],"scale":[0.002746582,0.0010008188]},"arcs":[[[4096,4096],[0,-1308],[0,1],[-13,23],[-6,16],[-8,13],[-18,4],[-6,16],[34,43],[9,19],[-7,18],[-3,25],[-4,21],[-22,9],[-20,22],[-10,6],[-47,-3],[-44,15],[-23,-19],[-9,-51],[-7,-57],[-17,-36],[-10,0],[-13,9],[-12,16],[-7,22],[0,12],[2,14],[1,13],[-2,10],[-9,11],[-9,7],[3,27],[-2,20],[-8,42],[-6,19],[-9,6],[-36,-1],[-15,-6],[-15,-12],[-67,-107],[-41,-84],[-14,-18],[-15,-12],[-19,-6],[-60,8],[-16,-4],[-17,-10],[-31,-33],[-16,-31],[-27,-75],[-30,-46],[-8,-8],[-7,4],[-8,10],[-8,1],[-17,-14],[-1,18],[2,17],[6,33],[-50,-50],[-24,-10],[-27,12],[8,26],[4,15],[0,13],[0,18],[3,12],[12,16],[-31,-14],[-10,0],[6,35],[8,31],[11,25],[27,40],[24,18],[16,19],[9,15],[9,19],[14,36],[3,14],[1,14],[-3,17],[-5,24],[-2,14],[-1,13],[2,21],[-1,14],[-4,10],[-6,11],[-5,3],[-12,3],[-2,6],[0,20],[5,6],[7,2],[7,10],[3,14],[0,10],[-1,9],[2,13],[10,14],[9,-17],[9,-28],[8,-22],[10,-7],[9,4],[9,11],[19,41],[4,6],[16,16],[5,9],[4,11],[7,42],[3,12],[8,20],[3,14],[-8,12],[-10,9],[-10,6],[-20,-3],[-9,4],[-6,12],[-7,23],[15,9],[17,-9],[17,-16],[16,-9],[20,1],[15,10],[12,25],[12,44],[-6,21],[-36,64],[-13,16],[-35,14],[-36,-1],[-16,-7],[-17,-14],[-15,-21],[-11,-29],[-3,-19],[-7,-68],[-4,-17],[-5,6],[-5,18],[-3,19],[-1,29],[-1,14],[-2,6],[-9,-2],[-107,-52],[11,19],[27,27],[9,20],[3,22],[-1,10],[-4,9],[-3,19],[-1,18],[5,55],[-6,21],[-13,18],[-27,21],[-88,36],[-14,-1],[-172,-116],[-43,-47],[-21,-11],[-126,-6],[-22,11],[-16,23],[-6,14],[-3,4],[-4,0],[-6,4],[-2,4],[-4,11],[-2,4],[-3,1],[-6,-1],[-2,2],[-7,17],[-11,39],[-7,17],[-39,48],[-40,28],[-147,20],[-49,-33],[-20,-22],[-10,-5],[-9,2],[-11,10],[-3,-26],[-6,-8],[-8,5],[-93,89],[-37,14],[-75,4],[-65,24],[-20,-1],[-10,-4],[-8,-7],[0,-6],[1,-10],[-2,-14],[-6,-15],[-3,-5],[-4,3],[-14,37],[-8,12],[-11,6],[-63,0],[-11,-4],[-7,-11],[-8,-18],[-7,-12],[-20,23],[-18,-6],[-19,-18],[-15,-21],[0,25],[7,21],[9,17],[9,12],[-9,30],[-9,9],[-11,3],[-13,9],[-24,30],[-12,10],[-32,5],[-6,-2],[-18,-19],[-6,-4],[-11,0],[-9,9],[-4,18],[5,29],[-74,27],[-27,-4],[-31,5],[-17,-10],[-6,0],[-22,16],[-15,4],[-56,-6],[-8,-5],[-7,-2],[-20,14],[-3,3],[-2,7],[-6,18],[-2,4],[-3,-2],[-6,-14],[-4,-2],[-83,8],[-16,-7],[-13,-13],[-28,-47],[-15,-15],[-17,-9],[18,86],[-4,5],[-3,8],[-3,12],[2947,0]],[[621,4096],[-12,-27],[-6,-1],[-6,12],[-6,16],[30,0]],[[4096,2788],[0,1],[-13,23],[-6,16],[-8,13],[-18,4],[-6,16],[34,43],[9,19],[-7,18],[-3,25],[-4,21],[-22,9],[-20,22],[-10,6],[-47,-3],[-44,15],[-23,-19],[-9,-51],[-7,-57],[-17,-36],[-10,0],[-13,9],[-12,16],[-7,22],[0,12],[2,14],[1,13],[-2,10],[-9,11],[-9,7],[3,27],[-2,20],[-8,42],[-6,19],[-9,6],[-36,-1],[-15,-6],[-15,-12],[-67,-107],[-41,-84],[-14,-18],[-15,-12],[-19,-6],[-60,8],[-16,-4],[-17,-10],[-31,-33],[-16,-31],[-27,-75],[-30,-46],[-8,-8],[-7,4],[-8,10],[-8,1],[-17,-14],[-1,18],[2,17],[6,33],[-50,-50],[-24,-10],[-27,12],[8,26],[4,15],[0,13],[0,18],[3,12],[12,16],[-31,-14],[-10,0],[6,35],[8,31],[11,25],[27,40],[24,18],[16,19],[9,15],[9,19],[14,36],[3,14],[1,14],[-3,17],[-5,24],[-2,14],[-1,13],[2,21],[-1,14],[-4,10],[-6,11],[-5,3],[-12,3],[-2,6],[0,20],[5,6],[7,2],[7,10],[3,14],[0,10],[-1,9],[2,13],[10,14],[9,-17],[9,-28],[8,-22],[10,-7],[9,4],[9,11],[19,41],[4,6],[16,16],[5,9],[4,11],[7,42],[3,12],[8,20],[3,14],[-8,12],[-10,9],[-10,6],[-20,-3],[-9,4],[-6,12],[-7,23],[15,9],[17,-9],[17,-16],[16,-9],[20,1],[15,10],[12,25],[12,44],[-6,21],[-36,64],[-13,16],[-35,14],[-36,-1],[-16,-7],[-17,-14],[-15,-21],[-11,-29],[-3,-19],[-7,-68],[-4,-17],[-5,6],[-5,18],[-3,19],[-1,29],[-1,14],[-2,6],[-9,-2],[-107,-52],[11,19],[27,27],[9,20],[3,22],[-1,10],[-4,9],[-3,19],[-1,18],[5,55],[-6,21],[-13,18],[-27,21],[-88,36],[-14,-1],[-172,-116],[-43,-47],[-21,-11],[-126,-6],[-22,11],[-16,23],[-6,14],[-3,4],[-4,0],[-6,4],[-2,4],[-4,11],[-2,4],[-3,1],[-6,-1],[-2,2],[-7,17],[-11,39],[-7,17],[-39,48],[-40,28],[-147,20],[-49,-33],[-20,-22],[-10,-5],[-9,2],[-11,10],[-3,-26],[-6,-8],[-8,5],[-93,89],[-37,14],[-75,4],[-65,24],[-20,-1],[-10,-4],[-8,-7],[0,-6],[1,-10],[-2,-14],[-6,-15],[-3,-5],[-4,3],[-14,37],[-8,12],[-11,6],[-63,0],[-11,-4],[-7,-11],[-8,-18],[-7,-12],[-20,23],[-18,-6],[-19,-18],[-15,-21],[0,25],[7,21],[9,17],[9,12],[-9,30],[-9,9],[-11,3],[-13,9],[-24,30],[-12,10],[-32,5],[-6,-2],[-18,-19],[-6,-4],[-11,0],[-9,9],[-4,18],[5,29],[-74,27],[-27,-4],[-31,5],[-17,-10],[-6,0],[-22,16],[-15,4],[-56,-6],[-8,-5],[-7,-2],[-20,14],[-3,3],[-2,7],[-6,18],[-2,4],[-3,-2],[-6,-14],[-4,-2],[-83,8],[-16,-7],[-13,-13],[-28,-47],[-15,-15],[-17,-9],[18,86],[-4,5],[-3,8],[-3,12]],[[621,4096],[-12,-27],[-6,-1],[-6,12],[-6,16]],[[0,4096],[591,0],[6,-16],[6,-12],[6,1],[12,27],[528,0],[3,-12],[3,-8],[4,-5],[-18,-86],[17,9],[15,15],[28,47],[13,13],[16,7],[83,-8],[4,2],[6,14],[3,2],[2,-4],[6,-18],[2,-7],[3,-3],[20,-14],[7,2],[8,5],[56,6],[15,-4],[22,-16],[6,0],[17,10],[31,-5],[27,4],[74,-27],[-5,-29],[4,-18],[9,-9],[11,0],[6,4],[18,19],[6,2],[32,-5],[12,-10],[24,-30],[13,-9],[11,-3],[9,-9],[9,-30],[-9,-12],[-9,-17],[-7,-21],[0,-25],[15,21],[19,18],[18,6],[20,-23],[7,12],[8,18],[7,11],[11,4],[63,0],[11,-6],[8,-12],[14,-37],[4,-3],[3,5],[6,15],[2,14],[-1,10],[0,6],[8,7],[10,4],[20,1],[41,-15],[24,-9],[75,-4],[37,-14],[93,-89],[8,-5],[6,8],[3,26],[11,-10],[9,-2],[10,5],[20,22],[49,33],[147,-20],[40,-28],[39,-48],[7,-17],[11,-39],[7,-17],[2,-2],[6,1],[3,-1],[2,-4],[4,-11],[2,-4],[6,-4],[4,0],[3,-4],[6,-14],[16,-23],[22,-11],[126,6],[21,11],[43,47],[172,116],[14,1],[88,-36],[27,-21],[13,-18],[6,-21],[-5,-55],[1,-18],[3,-19],[4,-9],[1,-10],[-3,-22],[-9,-20],[-27,-27],[-11,-19],[107,52],[9,2],[2,-6],[1,-14],[1,-29],[3,-19],[5,-18],[5,-6],[4,17],[7,68],[3,19],[11,29],[15,21],[17,14],[16,7],[36,1],[35,-14],[13,-16],[36,-64],[6,-21],[-12,-44],[-12,-25],[-15,-10],[-20,-1],[-16,9],[-17,16],[-17,9],[-15,-9],[7,-23],[6,-12],[9,-4],[20,3],[10,-6],[10,-9],[8,-12],[-3,-14],[-8,-20],[-3,-12],[-7,-42],[-4,-11],[-5,-9],[-16,-16],[-4,-6],[-19,-41],[-9,-11],[-9,-4],[-10,7],[-8,22],[-9,28],[-9,17],[-10,-14],[-2,-13],[1,-9],[0,-10],[-3,-14],[-7,-10],[-7,-2],[-5,-6],[0,-20],[2,-6],[12,-3],[5,-3],[6,-11],[4,-10],[1,-14],[-2,-21],[1,-13],[2,-14],[5,-24],[3,-17],[-1,-14],[-3,-14],[-14,-36],[-9,-19],[-9,-15],[-16,-19],[-24,-18],[-27,-40],[-11,-25],[-8,-31],[-6,-35],[10,0],[31,14],[-12,-16],[-3,-12],[0,-18],[0,-13],[-4,-15],[-8,-26],[27,-12],[24,10],[50,50],[-6,-33],[-2,-17],[1,-18],[17,14],[8,-1],[8,-10],[7,-4],[8,8],[30,46],[27,75],[16,31],[31,33],[17,10],[16,4],[60,-8],[19,6],[15,12],[14,18],[41,84],[67,107],[15,12],[15,6],[36,1],[9,-6],[6,-19],[8,-42],[2,-20],[-3,-27],[9,-7],[9,-11],[2,-10],[-1,-13],[-2,-14],[0,-12],[7,-22],[12,-16],[13,-9],[10,0],[17,36],[7,57],[9,51],[23,19],[44,-15],[47,3],[10,-6],[20,-22],[22,-9],[4,-21],[3,-25],[7,-18],[-9,-19],[-34,-43],[6,-16],[18,-4],[8,-13],[6,-16],[13,-23],[0,-1],[0,-2788],[-4096,0],[0,4096]]]}