{"objects":{"water":{"type":"GeometryCollection","geometries":[{"type":"MultiPolygon","properties":{"source":"naturalearthdata.com","kind":"ocean","area":989871000000000,"sort_rank":200,"min_zoom":0,"id":1},"arcs":[[[0],[1],[2],[3],[4]]]},{"type":"LineString","properties":{"source":"naturalearthdata.com","kind":"ocean","sort_rank":205,"boundary":true,"min_zoom":0,"id":1937},"arcs":[5]},{"type":"MultiLineString","properties":{"source":"naturalearthdata.com","kind":"ocean","sort_rank":205,"boundary":true,"min_zoom":0,"id":1938},"arcs":[[6],[7]]},{"type":"LineString","properties":{"source":"naturalearthdata.com","kind":"ocean","sort_rank":205,"boundary":true,"min_zoom":0,"id":1950},"arcs":[8]},{"type":"LineString","properties":{"source":"naturalearthdata.com","kind":"ocean","sort_rank":205,"boundary":true,"min_zoom":0,"id":1951},"arcs":[9]},{"type":"LineString","properties":{"source":"naturalearthdata.com","kind":"ocean","sort_rank":205,"boundary":true,"min_zoom":0,"id":1952},"arcs":[10]},{"type":"LineString","properties":{"source":"naturalearthdata.com","kind":"ocean","sort_rank":205,"boundary":true,"min_zoom":0,"id":1953},"arcs":[11]},{"type":"LineString","properties":{"source":"naturalearthdata.com","kind":"ocean","sort_rank":205,"boundary":true,"min_zoom":0,"id":1956},"arcs":[12]}]},"buildings":{"type":"GeometryCollection","geometries":[]},"places":{"type":"GeometryCollection","geometries":[]},"transit":{"type":"GeometryCollection","geometries":[]},"pois":{"type":"GeometryCollection","geometries":[]},"boundaries":{"type":"GeometryCollection","geometries":[]},"roads":{"type":"GeometryCollection","geometries":[]},"earth":{"type":"GeometryCollection","geometries":[{"type":"MultiPolygon","properties":{"sort_rank":10,"source":"naturalearthdata.com","kind":"earth","min_zoom":2.0,"area":127836867867},"arcs":[[[13]]]},{"type":"MultiPolygon","properties":{"sort_rank":10,"source":"naturalearthdata.com","min_zoom":1.0,"kind":"earth","area":163947459751},"arcs":[[[14]],[[15]]]},{"type":"MultiPolygon","properties":{"sort_rank":10,"source":"naturalearthdata.com","min_zoom":3.0,"kind":"earth","area":66069933958},"arcs":[[[16]],[[17]]]},{"type":"MultiPolygon","properties":{"sort_rank":10,"source":"naturalearthdata.com","min_zoom":0,"kind":"earth","area":21804330306050},"arcs":[[[18]]]}]},"landuse":{"type":"GeometryCollection","geometries":[]}},"type":"Topology","transform":{"translate":[135.0,74.0195433115],"scale":[0.002746582,0.0006887874]},"arcs":[[[4096,1674],[0,-1674],[-1892,0],[0,2],[0,25],[1,13],[4,14],[3,5],[2,6],[1,19],[-1,7],[-3,11],[-1,6],[1,7],[2,5],[1,6],[0,8],[-4,19],[2,12],[4,10],[4,13],[6,25],[-1,6],[-3,20],[-16,73],[-29,42],[-32,19],[-99,-16],[-98,-16],[-47,-50],[-10,-43],[-6,-52],[-2,-74],[-3,-48],[13,-65],[3,-9],[-1459,0],[-31,40],[-32,74],[-6,8],[-19,17],[-16,26],[-17,8],[-45,46],[-56,94],[-51,11],[-18,21],[-6,3],[-11,0],[10,-22],[3,-14],[7,-73],[11,-33],[13,-9],[14,0],[14,-6],[39,-59],[7,-18],[3,-34],[7,-28],[10,-21],[23,-31],[-290,0],[0,4096],[4096,0],[0,-2107],[-4,-3],[-10,3],[-8,8],[-8,2],[0,-15],[5,-35],[1,-26],[-1,-41],[-3,-36],[-6,-17],[-5,-7],[-12,-34],[-14,-16],[3,-18],[8,-21],[7,-12],[35,-42],[12,-5]],[[719,2283],[8,-18],[10,-12],[11,-5],[10,0],[-9,15],[-24,15],[-7,19],[-1,3],[0,3],[0,3],[0,2],[0,-5],[-1,-6],[1,-7],[2,-7]],[[750,2354],[-17,-16],[-10,-12],[-6,-17],[4,10],[48,38],[10,14],[-3,0],[-17,-14],[-5,0],[-4,-3]],[[361,2189],[64,107],[6,22],[-9,20],[-19,13],[-19,24],[-25,19],[-10,3],[-9,8],[-17,34],[-8,7],[-4,10],[-3,22],[-3,20],[-6,8],[-2,51],[-13,36],[-16,29],[-12,33],[2,24],[-6,7],[-5,-14],[2,-37],[-1,-6],[-1,-7],[0,-8],[0,-13],[-3,-14],[-5,-12],[-12,-23],[-2,-1],[-3,-2],[-2,-8],[-1,-8],[1,-8],[1,-9],[-5,-24],[-3,-8],[-4,-7],[2,-7],[2,-16],[1,-8],[-8,-24],[-5,-9],[-5,-5],[5,-44],[13,-73],[2,-43],[-17,-59],[-7,-44],[-4,-19],[-14,-15],[-6,-17],[-4,-21],[1,-19],[2,-19],[-1,-20],[-2,-19],[0,-27],[143,10],[51,50],[11,17],[7,22],[-13,23],[-11,29],[-3,32],[12,37]],[[3774,2208],[-32,63],[-38,35],[-132,53],[-17,28],[-10,33],[-5,12],[-7,6],[-34,0],[-68,55],[-85,44],[-88,98],[-33,11],[-4,-2],[-11,-15],[-5,-2],[-3,5],[-2,8],[-2,6],[-36,30],[-36,10],[-73,-34],[-10,-17],[10,-40],[-39,13],[-80,-13],[-47,37],[-139,44],[-22,19],[-6,12],[-16,43],[-102,143],[-85,70],[-77,88],[-39,13],[-83,74],[-21,5],[6,-18],[17,-27],[7,-14],[-1,-2],[0,-5],[0,-7],[1,-7],[2,-6],[19,-30],[3,-8],[10,-38],[11,-27],[34,-35],[6,-25],[-14,-8],[-129,72],[-70,-6],[-14,-8],[-13,-18],[-12,-32],[-6,-21],[-3,-21],[-1,-23],[0,-29],[-3,-28],[-4,-24],[-3,-22],[10,-71],[0,-57],[-5,-57],[-10,-45],[40,-48],[12,-21],[-3,-3],[-3,-4],[-6,-12],[8,-13],[17,-16],[7,-12],[-12,-28],[-15,-14],[-31,-7],[-50,22],[-32,-12],[-73,25],[-9,7],[-5,7],[-2,10],[1,11],[3,14],[1,11],[3,28],[1,5],[4,7],[28,67],[-3,28],[-10,23],[-11,15],[-50,23],[-15,15],[-15,6],[-40,-44],[-71,51],[-6,9],[-12,25],[-5,7],[-27,20],[-7,12],[-3,12],[3,9],[8,4],[3,5],[0,11],[0,13],[3,11],[7,1],[8,-7],[7,-2],[5,17],[-10,12],[-21,36],[-11,12],[-62,11],[-26,37],[-162,124],[-41,69],[-8,19],[-5,29],[-1,13],[2,12],[1,10],[-2,8],[-15,14],[-8,3],[11,4],[29,9],[15,16],[-94,-38],[-94,-39],[-8,-15],[-6,-23],[-13,-53],[2,-5],[4,-12],[2,-4],[-5,-12],[-5,-15],[-2,-17],[2,-15],[-7,-7],[-8,2],[-7,14],[-5,47],[-5,13],[-7,12],[-6,18],[3,13],[5,7],[9,10],[-86,-55],[-18,-41],[-8,-4],[-8,-4],[-19,-25],[-5,-8],[-3,-12],[15,22],[24,22],[1,3],[4,0],[4,-2],[3,-6],[1,-8],[-32,-63],[-37,-22],[-78,-6],[-101,-87],[-7,-18],[1,-2],[2,-42],[3,-33],[11,-28],[27,-33],[11,-30],[13,-23],[40,-30],[8,-27],[1,-8],[2,-8],[1,-6],[0,-8],[-4,-6],[-5,-2],[-10,3],[-38,41],[-62,0],[-31,25],[-49,-2],[-5,-4],[-3,-7],[-6,-19],[-3,-9],[-30,-54],[4,-16],[22,-22],[6,-12],[2,-18],[-1,-15],[-2,-12],[-5,-11],[6,-1],[11,-10],[6,-3],[8,-9],[15,-42],[10,-9],[-5,-15],[-19,2],[-8,-6],[-5,-12],[-1,-5],[1,-4],[0,-9],[-1,-6],[0,-4],[-1,-6],[-2,-9],[1,-16],[8,-17],[15,-22],[5,-12],[10,-29],[5,-19],[-48,0],[-8,-10],[-1,-20],[0,-21],[-6,-9],[5,-29],[7,-6],[16,15],[26,13],[26,-2],[18,-10],[8,-14],[4,-26],[-3,-29],[-8,-18],[-9,-10],[-44,-20],[-38,-1],[-12,11],[-29,65],[-21,1],[-43,-39],[5,-18],[13,-28],[5,-14],[0,-16],[-1,-18],[-5,-35],[12,-14],[34,-85],[18,-35],[6,-15],[12,-42],[5,-11],[104,-121],[79,-40],[52,-69],[5,-14],[2,-15],[0,-16],[1,-20],[5,-35],[7,-36],[8,-31],[9,-21],[61,-73],[19,-8],[19,-20],[118,-46],[118,-45],[73,-82],[41,-7],[39,14],[39,37],[56,116],[2,6],[1,6],[9,38],[5,33],[7,30],[10,25],[11,12],[4,9],[5,17],[-12,-26],[-17,-19],[-18,-3],[-13,19],[-2,26],[3,29],[0,23],[-9,12],[14,23],[47,46],[10,4],[16,-18],[8,-6],[38,9],[10,-9],[2,-11],[3,-33],[2,-15],[9,-17],[20,-2],[9,-11],[4,-14],[4,-29],[4,-16],[22,-50],[103,17],[72,55],[33,-3],[173,59],[94,5],[110,65],[62,50],[129,8],[14,-20],[1,-22],[31,-35],[8,-12],[6,-18],[-12,-14],[-13,2],[-38,44],[-27,16],[-13,1],[-26,-13],[-13,-15],[0,-17],[139,-158],[58,-11],[59,24],[14,21],[-8,8],[-25,-8],[9,40],[11,21],[13,7],[16,1],[8,-6],[15,-22],[8,1],[19,20],[10,5],[29,-18],[168,26],[74,44],[10,11],[4,14],[-15,55],[-19,38],[-19,6],[-41,-14],[-74,31],[-85,55],[-65,8],[-60,25],[-15,13],[-8,27],[2,10],[-11,54],[-16,28],[-35,35],[-5,15],[0,17],[1,19],[-1,21],[-6,21],[-77,119],[-13,44],[-3,29],[3,35],[9,70],[-33,65],[-5,14],[-1,13],[2,14],[15,52],[4,22],[-2,9],[-23,8],[-12,9],[-10,14],[63,8],[9,11],[-9,2],[-18,15],[-38,12],[-7,11],[19,7],[116,-10],[11,6],[9,18],[-10,25],[-15,16],[-15,8],[-13,-1],[18,21],[64,-10],[38,20],[15,1],[5,-3],[4,-8],[7,-17],[4,-4],[69,19],[35,-24],[15,-89],[-3,-42],[-7,-22],[-61,-60],[-45,-15],[-31,-50],[-2,-5],[-2,-9],[-1,-18],[-2,-5],[-31,-21],[-7,-16],[-1,-19],[3,-9],[4,-9],[2,-18],[-3,-23],[-10,-37],[-2,-15],[4,-23],[10,-21],[21,-26],[18,-11],[7,-16],[2,-37],[4,-24],[12,-18],[-1,-23],[12,-12],[25,3],[11,-10],[2,-14],[6,-46],[4,-14],[0,-9],[0,-10],[0,-7],[5,-14],[5,-8],[17,-11],[16,3],[17,-15],[5,4],[12,-26],[63,-22],[38,-35],[20,-6],[37,29],[85,-8],[10,-8],[24,-38],[37,-22],[9,-10],[10,-4],[56,31],[65,0],[17,9],[15,24],[29,62],[29,37],[31,20],[9,13],[7,23],[5,36],[3,37],[-3,29],[18,22],[44,-5],[18,22],[-17,28],[-70,42],[-8,9],[-4,20],[2,11],[8,27],[2,17],[-1,21],[-1,8],[1,8],[5,23],[6,16],[20,22],[67,37],[38,41],[71,29],[42,-12],[3,7],[-2,14],[-7,20]],[[437,0],[-31,40],[-32,74],[-6,8],[-19,17],[-16,26],[-17,8],[-45,46],[-56,94],[-51,11],[-18,21],[-6,3],[-11,0],[10,-22],[3,-14],[7,-73],[11,-33],[13,-9],[14,0],[14,-6],[39,-59],[7,-18],[3,-34],[7,-28],[10,-21],[23,-31]],[[2220,188],[6,25],[-1,6],[-3,20],[-16,73],[-29,42],[-32,19],[-99,-16],[-98,-16],[-47,-50],[-10,-43],[-6,-52],[-2,-74],[-3,-48],[13,-65],[3,-9]],[[2204,0],[0,2],[0,25],[1,13],[4,14],[3,5],[2,6],[1,19],[-1,7],[-3,11],[-1,6],[1,7],[2,5],[1,6],[0,8],[-4,19],[2,12],[4,10],[4,13]],[[4096,1989],[-4,-3],[-10,3],[-8,8],[-8,2],[0,-15],[5,-35],[1,-26],[-1,-41],[-3,-36],[-6,-17],[-5,-7],[-12,-34],[-14,-16],[3,-18],[8,-21],[7,-12],[35,-42],[12,-5]],[[719,2283],[8,-18],[10,-12],[11,-5],[10,0],[-9,15],[-24,15],[-7,19],[-1,3],[0,3],[0,3],[0,2],[0,-5],[-1,-6],[1,-7],[2,-7]],[[750,2354],[-17,-16],[-10,-12],[-6,-17],[4,10],[48,38],[10,14],[-3,0],[-17,-14],[-5,0],[-4,-3]],[[361,2189],[64,107],[6,22],[-9,20],[-19,13],[-19,24],[-25,19],[-10,3],[-9,8],[-17,34],[-8,7],[-4,10],[-3,22],[-3,20],[-6,8],[-2,51],[-13,36],[-16,29],[-12,33],[2,24],[-6,7],[-5,-14],[2,-37],[-1,-6],[-1,-7],[0,-8],[0,-13],[-3,-14],[-5,-12],[-12,-23],[-2,-1],[-3,-2],[-2,-8],[-1,-8],[1,-8],[1,-9],[-5,-24],[-3,-8],[-4,-7],[2,-7],[2,-16],[1,-8],[-8,-24],[-5,-9],[-5,-5],[5,-44],[13,-73],[2,-43],[-17,-59],[-7,-44],[-4,-19],[-14,-15],[-6,-17],[-4,-21],[1,-19],[2,-19],[-1,-20],[-2,-19],[0,-27],[143,10],[51,50],[11,17],[7,22],[-13,23],[-11,29],[-3,32],[12,37]],[[3774,2208],[-32,63],[-38,35],[-132,53],[-17,28],[-10,33],[-5,12],[-7,6],[-34,0],[-68,55],[-85,44],[-88,98],[-33,11],[-4,-2],[-11,-15],[-5,-2],[-3,5],[-2,8],[-2,6],[-36,30],[-36,10],[-73,-34],[-10,-17],[10,-40],[-39,13],[-80,-13],[-47,37],[-139,44],[-22,19],[-6,12],[-16,43],[-102,143],[-85,70],[-77,88],[-39,13],[-83,74],[-21,5],[6,-18],[17,-27],[7,-14],[-1,-2],[0,-5],[0,-7],[1,-7],[2,-6],[19,-30],[3,-8],[10,-38],[11,-27],[34,-35],[6,-25],[-14,-8],[-129,72],[-70,-6],[-14,-8],[-13,-18],[-12,-32],[-6,-21],[-3,-21],[-1,-23],[0,-29],[-3,-28],[-4,-24],[-3,-22],[10,-71],[0,-57],[-5,-57],[-10,-45],[40,-48],[12,-21],[-3,-3],[-3,-4],[-6,-12],[8,-13],[17,-16],[7,-12],[-12,-28],[-15,-14],[-31,-7],[-50,22],[-32,-12],[-73,25],[-9,7],[-5,7],[-2,10],[1,11],[3,14],[1,11],[3,28],[1,5],[4,7],[28,67],[-3,28],[-10,23],[-11,15],[-50,23],[-15,15],[-15,6],[-40,-44],[-71,51],[-6,9],[-12,25],[-5,7],[-27,20],[-7,12],[-3,12],[3,9],[8,4],[3,5],[0,11],[0,13],[3,11],[7,1],[8,-7],[7,-2],[5,17],[-10,12],[-21,36],[-11,12],[-62,11],[-26,37],[-162,124],[-41,69],[-8,19],[-5,29],[-1,13],[2,12],[1,10],[-2,8],[-15,14],[-8,3],[11,4],[29,9],[15,16],[-94,-38],[-94,-39],[-8,-15],[-6,-23],[-13,-53],[2,-5],[4,-12],[2,-4],[-5,-12],[-5,-15],[-2,-17],[2,-15],[-7,-7],[-8,2],[-7,14],[-5,47],[-5,13],[-7,12],[-6,18],[3,13],[5,7],[9,10],[-86,-55],[-18,-41],[-8,-4],[-8,-4],[-19,-25],[-5,-8],[-3,-12],[15,22],[24,22],[1,3],[4,0],[4,-2],[3,-6],[1,-8],[-32,-63],[-37,-22],[-78,-6],[-101,-87],[-7,-18],[1,-2],[2,-42],[3,-33],[11,-28],[27,-33],[11,-30],[13,-23],[40,-30],[8,-27],[1,-8],[2,-8],[1,-6],[0,-8],[-4,-6],[-5,-2],[-10,3],[-38,41],[-62,0],[-31,25],[-49,-2],[-5,-4],[-3,-7],[-6,-19],[-3,-9],[-30,-54],[4,-16],[22,-22],[6,-12],[2,-18],[-1,-15],[-2,-12],[-5,-11],[6,-1],[11,-10],[6,-3],[8,-9],[15,-42],[10,-9],[-5,-15],[-19,2],[-8,-6],[-5,-12],[-1,-5],[1,-4],[0,-9],[-1,-6],[0,-4],[-1,-6],[-2,-9],[1,-16],[8,-17],[15,-22],[5,-12],[10,-29],[5,-19],[-48,0],[-8,-10],[-1,-20],[0,-21],[-6,-9],[5,-29],[7,-6],[16,15],[26,13],[26,-2],[18,-10],[8,-14],[4,-26],[-3,-29],[-8,-18],[-9,-10],[-44,-20],[-38,-1],[-12,11],[-29,65],[-21,1],[-43,-39],[5,-18],[13,-28],[5,-14],[0,-16],[-1,-18],[-5,-35],[12,-14],[34,-85],[18,-35],[6,-15],[12,-42],[5,-11],[104,-121],[79,-40],[52,-69],[5,-14],[2,-15],[0,-16],[1,-20],[5,-35],[7,-36],[8,-31],[9,-21],[61,-73],[19,-8],[19,-20],[118,-46],[118,-45],[73,-82],[41,-7],[39,14],[39,37],[56,116],[2,6],[1,6],[9,38],[5,33],[7,30],[10,25],[11,12],[4,9],[5,17],[-12,-26],[-17,-19],[-18,-3],[-13,19],[-2,26],[3,29],[0,23],[-9,12],[14,23],[47,46],[10,4],[16,-18],[8,-6],[38,9],[10,-9],[2,-11],[3,-33],[2,-15],[9,-17],[20,-2],[9,-11],[4,-14],[4,-29],[4,-16],[22,-50],[103,17],[72,55],[33,-3],[173,59],[94,5],[110,65],[62,50],[129,8],[14,-20],[1,-22],[31,-35],[8,-12],[6,-18],[-12,-14],[-13,2],[-38,44],[-27,16],[-13,1],[-26,-13],[-13,-15],[0,-17],[139,-158],[58,-11],[59,24],[14,21],[-8,8],[-25,-8],[9,40],[11,21],[13,7],[16,1],[8,-6],[15,-22],[8,1],[19,20],[10,5],[29,-18],[168,26],[74,44],[10,11],[4,14],[-15,55],[-19,38],[-19,6],[-41,-14],[-74,31],[-85,55],[-65,8],[-60,25],[-15,13],[-8,27],[2,10],[-11,54],[-16,28],[-35,35],[-5,15],[0,17],[1,19],[-1,21],[-6,21],[-77,119],[-13,44],[-3,29],[3,35],[9,70],[-33,65],[-5,14],[-1,13],[2,14],[15,52],[4,22],[-2,9],[-23,8],[-12,9],[-10,14],[63,8],[9,11],[-9,2],[-18,15],[-38,12],[-7,11],[19,7],[116,-10],[11,6],[9,18],[-10,25],[-15,16],[-15,8],[-13,-1],[18,21],[64,-10],[38,20],[15,1],[5,-3],[4,-8],[7,-17],[4,-4],[69,19],[35,-24],[15,-89],[-3,-42],[-7,-22],[-61,-60],[-45,-15],[-31,-50],[-2,-5],[-2,-9],[-1,-18],[-2,-5],[-31,-21],[-7,-16],[-1,-19],[3,-9],[4,-9],[2,-18],[-3,-23],[-10,-37],[-2,-15],[4,-23],[10,-21],[21,-26],[18,-11],[7,-16],[2,-37],[4,-24],[12,-18],[-1,-23],[12,-12],[25,3],[11,-10],[2,-14],[6,-46],[4,-14],[0,-9],[0,-10],[0,-7],[5,-14],[5,-8],[17,-11],[16,3],[17,-15],[5,4],[12,-26],[63,-22],[38,-35],[20,-6],[37,29],[85,-8],[10,-8],[24,-38],[37,-22],[9,-10],[10,-4],[56,31],[65,0],[17,9],[15,24],[29,62],[29,37],[31,20],[9,13],[7,23],[5,36],[3,37],[-3,29],[18,22],[44,-5],[18,22],[-17,28],[-70,42],[-8,9],[-4,20],[2,11],[8,27],[2,17],[-1,21],[-1,8],[1,8],[5,23],[6,16],[20,22],[67,37],[38,41],[71,29],[42,-12],[3,7],[-2,14],[-7,20]],[[2204,0],[-308,0],[-3,9],[-13,65],[3,48],[2,74],[6,52],[10,43],[47,50],[98,16],[99,16],[32,-19],[29,-42],[16,-73],[3,-20],[1,-6],[-6,-25],[-4,-13],[-4,-10],[-2,-12],[4,-19],[0,-8],[-1,-6],[-2,-5],[-1,-7],[1,-6],[3,-11],[1,-7],[-1,-19],[-2,-6],[-3,-5],[-4,-14],[-1,-13],[0,-25],[0,-2]],[[4096,1989],[0,-315],[-12,5],[-35,42],[-7,12],[-8,21],[-3,18],[14,16],[12,34],[5,7],[6,17],[3,36],[1,41],[-1,26],[-5,35],[0,15],[8,-2],[8,-8],[10,-3],[4,3]],[[750,2354],[4,3],[5,0],[17,14],[3,0],[-10,-14],[-48,-38],[-4,-10],[6,17],[10,12],[17,16]],[[437,0],[-147,0],[-23,31],[-10,21],[-7,28],[-3,34],[-7,18],[-39,59],[-14,6],[-14,0],[-13,9],[-11,33],[-7,73],[-3,14],[-10,22],[11,0],[6,-3],[18,-21],[51,-11],[56,-94],[45,-46],[17,-8],[16,-26],[19,-17],[6,-8],[32,-74],[31,-40]],[[361,2189],[-12,-37],[3,-32],[11,-29],[13,-23],[-7,-22],[-11,-17],[-51,-50],[-143,-10],[0,27],[2,19],[1,20],[-2,19],[-1,19],[4,21],[6,17],[14,15],[4,19],[7,44],[17,59],[-2,43],[-13,73],[-5,44],[5,5],[5,9],[8,24],[-1,8],[-2,16],[-2,7],[4,7],[3,8],[5,24],[-1,9],[-1,8],[1,8],[2,8],[3,2],[2,1],[12,23],[5,12],[3,14],[0,13],[0,8],[1,7],[1,6],[-2,37],[5,14],[6,-7],[-2,-24],[12,-33],[16,-29],[13,-36],[2,-51],[6,-8],[3,-20],[3,-22],[4,-10],[8,-7],[17,-34],[9,-8],[10,-3],[25,-19],[19,-24],[19,-13],[9,-20],[-6,-22],[-64,-107]],[[3774,2208],[7,-20],[2,-14],[-3,-7],[-42,12],[-71,-29],[-38,-41],[-67,-37],[-20,-22],[-6,-16],[-5,-23],[-1,-8],[1,-8],[1,-21],[-2,-17],[-8,-27],[-2,-11],[4,-20],[8,-9],[70,-42],[17,-28],[-18,-22],[-44,5],[-18,-22],[3,-29],[-3,-37],[-5,-36],[-7,-23],[-9,-13],[-31,-20],[-29,-37],[-29,-62],[-15,-24],[-17,-9],[-65,0],[-56,-31],[-10,4],[-9,10],[-37,22],[-24,38],[-10,8],[-85,8],[-37,-29],[-20,6],[-38,35],[-63,22],[-12,26],[-5,-4],[-17,15],[-16,-3],[-17,11],[-5,8],[-5,14],[0,7],[0,10],[0,9],[-4,14],[-6,46],[-2,14],[-11,10],[-25,-3],[-12,12],[1,23],[-12,18],[-4,24],[-2,37],[-7,16],[-18,11],[-21,26],[-10,21],[-4,23],[2,15],[10,37],[3,23],[-2,18],[-4,9],[-3,9],[1,19],[7,16],[31,21],[2,5],[1,18],[2,9],[2,5],[31,50],[45,15],[61,60],[7,22],[3,42],[-15,89],[-35,24],[-69,-19],[-4,4],[-7,17],[-4,8],[-5,3],[-15,-1],[-38,-20],[-64,10],[-18,-21],[13,1],[15,-8],[15,-16],[10,-25],[-9,-18],[-11,-6],[-116,10],[-19,-7],[7,-11],[38,-12],[18,-15],[9,-2],[-9,-11],[-63,-8],[10,-14],[12,-9],[23,-8],[2,-9],[-4,-22],[-15,-52],[-2,-14],[1,-13],[5,-14],[33,-65],[-9,-70],[-3,-35],[3,-29],[13,-44],[77,-119],[6,-21],[1,-21],[-1,-19],[0,-17],[5,-15],[35,-35],[16,-28],[11,-54],[-2,-10],[8,-27],[15,-13],[60,-25],[65,-8],[85,-55],[74,-31],[41,14],[19,-6],[19,-38],[15,-55],[-4,-14],[-10,-11],[-74,-44],[-168,-26],[-29,18],[-10,-5],[-19,-20],[-8,-1],[-15,22],[-8,6],[-16,-1],[-13,-7],[-11,-21],[-9,-40],[25,8],[8,-8],[-14,-21],[-59,-24],[-58,11],[-139,158],[0,17],[13,15],[26,13],[13,-1],[27,-16],[38,-44],[13,-2],[12,14],[-6,18],[-8,12],[-31,35],[-1,22],[-14,20],[-129,-8],[-62,-50],[-110,-65],[-94,-5],[-173,-59],[-33,3],[-72,-55],[-103,-17],[-22,50],[-4,16],[-4,29],[-4,14],[-9,11],[-20,2],[-9,17],[-2,15],[-3,33],[-2,11],[-10,9],[-38,-9],[-8,6],[-16,18],[-10,-4],[-47,-46],[-14,-23],[9,-12],[0,-23],[-3,-29],[2,-26],[13,-19],[18,3],[17,19],[12,26],[-5,-17],[-4,-9],[-11,-12],[-10,-25],[-7,-30],[-5,-33],[-9,-38],[-1,-6],[-2,-6],[-56,-116],[-39,-37],[-39,-14],[-41,7],[-73,82],[-118,45],[-118,46],[-19,20],[-19,8],[-61,73],[-9,21],[-8,31],[-7,36],[-5,35],[-1,20],[0,16],[-2,15],[-5,14],[-52,69],[-79,40],[-104,121],[-5,11],[-12,42],[-6,15],[-18,35],[-34,85],[-12,14],[5,35],[1,18],[0,16],[-5,14],[-13,28],[-5,18],[43,39],[21,-1],[29,-65],[12,-11],[38,1],[44,20],[9,10],[8,18],[3,29],[-4,26],[-8,14],[-18,10],[-26,2],[-26,-13],[-16,-15],[-7,6],[-5,29],[6,9],[0,21],[1,20],[8,10],[48,0],[-5,19],[-10,29],[-5,12],[-15,22],[-8,17],[-1,16],[2,9],[1,6],[0,4],[1,6],[0,9],[-1,4],[1,5],[5,12],[8,6],[19,-2],[5,15],[-10,9],[-15,42],[-8,9],[-6,3],[-11,10],[-6,1],[5,11],[2,12],[1,15],[-2,18],[-6,12],[-22,22],[-4,16],[30,54],[3,9],[6,19],[3,7],[5,4],[49,2],[31,-25],[62,0],[38,-41],[10,-3],[5,2],[4,6],[0,8],[-1,6],[-2,8],[-1,8],[-8,27],[-40,30],[-13,23],[-11,30],[-27,33],[-11,28],[-3,33],[-2,42],[-1,2],[7,18],[101,87],[78,6],[37,22],[32,63],[-1,8],[-3,6],[-4,2],[-4,0],[-1,-3],[-24,-22],[-15,-22],[3,12],[5,8],[19,25],[8,4],[8,4],[18,41],[86,55],[-9,-10],[-5,-7],[-3,-13],[6,-18],[7,-12],[5,-13],[5,-47],[7,-14],[8,-2],[7,7],[-2,15],[2,17],[5,15],[5,12],[-2,4],[-4,12],[-2,5],[13,53],[6,23],[8,15],[94,39],[94,38],[-15,-16],[-29,-9],[-11,-4],[8,-3],[15,-14],[2,-8],[-1,-10],[-2,-12],[1,-13],[5,-29],[8,-19],[41,-69],[162,-124],[26,-37],[62,-11],[11,-12],[21,-36],[10,-12],[-5,-17],[-7,2],[-8,7],[-7,-1],[-3,-11],[0,-13],[0,-11],[-3,-5],[-8,-4],[-3,-9],[3,-12],[7,-12],[27,-20],[5,-7],[12,-25],[6,-9],[71,-51],[40,44],[15,-6],[15,-15],[50,-23],[11,-15],[10,-23],[3,-28],[-28,-67],[-4,-7],[-1,-5],[-3,-28],[-1,-11],[-3,-14],[-1,-11],[2,-10],[5,-7],[9,-7],[73,-25],[32,12],[50,-22],[31,7],[15,14],[12,28],[-7,12],[-17,16],[-8,13],[6,12],[3,4],[3,3],[-12,21],[-40,48],[10,45],[5,57],[0,57],[-10,71],[3,22],[4,24],[3,28],[0,29],[1,23],[3,21],[6,21],[12,32],[13,18],[14,8],[70,6],[129,-72],[14,8],[-6,25],[-34,35],[-11,27],[-10,38],[-3,8],[-19,30],[-2,6],[-1,7],[0,7],[0,5],[1,2],[-7,14],[-17,27],[-6,18],[21,-5],[83,-74],[39,-13],[77,-88],[85,-70],[102,-143],[16,-43],[6,-12],[22,-19],[139,-44],[47,-37],[80,13],[39,-13],[-10,40],[10,17],[73,34],[36,-10],[36,-30],[2,-6],[2,-8],[3,-5],[5,2],[11,15],[4,2],[33,-11],[88,-98],[85,-44],[68,-55],[34,0],[7,-6],[5,-12],[10,-33],[17,-28],[132,-53],[38,-35],[32,-63]]]}