{"objects":{"water":{"type":"GeometryCollection","geometries":[{"type":"Polygon","properties":{"name:pt":null,"collision_rank":400,"name:nl":null,"name:id":null,"name:hi":null,"name:tr":null,"name:ar":null,"min_zoom":4.7,"name:it":null,"name:vi":null,"name:ru":"\u0411\u0443\u0441\u0442\u0430\u0445","name:sv":null,"name:pl":null,"name:hu":null,"id":577,"name:ja":null,"name:el":null,"kind":"lake","name:en":"Lake Bustakh","name":"Ozero Bustakh","area":2767120000,"sort_rank":204,"name:bn":null,"name:de":null,"name:ko":null,"name:fr":null,"source":"naturalearthdata.com","wikidata_id":"Q2996806","name:zh":"\u5e03\u65af\u5854\u8d6b\u6e56","name:es":null},"arcs":[[0]]},{"type":"MultiPolygon","properties":{"source":"naturalearthdata.com","kind":"ocean","area":989871000000000,"sort_rank":200,"min_zoom":0,"id":1},"arcs":[[[1]],[[2]],[[3],[4],[5]]]},{"type":"LineString","properties":{"source":"naturalearthdata.com","min_zoom":4.7,"area":2767120000,"sort_rank":367,"boundary":true,"id":577,"kind":"lake"},"arcs":[6]},{"type":"MultiLineString","properties":{"source":"naturalearthdata.com","kind":"ocean","sort_rank":205,"boundary":true,"min_zoom":0,"id":506},"arcs":[[7],[8],[9],[10]]},{"type":"LineString","properties":{"source":"naturalearthdata.com","kind":"ocean","sort_rank":205,"boundary":true,"min_zoom":0,"id":1921},"arcs":[11]},{"type":"LineString","properties":{"source":"naturalearthdata.com","kind":"ocean","sort_rank":205,"boundary":true,"min_zoom":0,"id":1932},"arcs":[12]},{"type":"MultiLineString","properties":{"source":"naturalearthdata.com","kind":"ocean","sort_rank":205,"boundary":true,"min_zoom":0,"id":1937},"arcs":[[13],[14]]},{"type":"LineString","properties":{"source":"naturalearthdata.com","kind":"ocean","sort_rank":205,"boundary":true,"min_zoom":0,"id":1938},"arcs":[15]}]},"buildings":{"type":"GeometryCollection","geometries":[]},"places":{"type":"GeometryCollection","geometries":[{"type":"Point","properties":{"name:pt":null,"collision_rank":371,"name:nl":"Nizjnejansk","name:id":null,"name":"Nizhneyansk","name:hi":null,"name:tr":null,"name:sv":null,"name:ar":null,"min_zoom":5.0,"name:it":"Ni\u017enejansk","name:vi":null,"name:ru":"\u041d\u0438\u0436\u043d\u0435\u044f\u043d\u0441\u043a","name:pl":null,"name:hu":null,"id":6894,"name:ja":null,"name:el":null,"kind":"locality","name:en":"Nizhneyansk","population_rank":2,"source":"naturalearthdata.com","name:bn":null,"name:de":"Nischnejansk","name:ko":null,"name:fr":null,"wikidata_id":"Q1993488","population":400,"name:zh":null,"name:es":null},"coordinates":[388,987]}]},"transit":{"type":"GeometryCollection","geometries":[]},"pois":{"type":"GeometryCollection","geometries":[]},"boundaries":{"type":"GeometryCollection","geometries":[]},"roads":{"type":"GeometryCollection","geometries":[]},"earth":{"type":"GeometryCollection","geometries":[{"type":"MultiPolygon","properties":{"sort_rank":10,"source":"naturalearthdata.com","kind":"earth","min_zoom":2.0,"area":127836867867},"arcs":[[[16]]]},{"type":"MultiPolygon","properties":{"sort_rank":10,"source":"naturalearthdata.com","min_zoom":1.0,"kind":"earth","area":163947459751},"arcs":[[[17]]]},{"type":"MultiPolygon","properties":{"sort_rank":10,"source":"naturalearthdata.com","min_zoom":3.0,"kind":"earth","area":66069933958},"arcs":[[[18]],[[19]]]},{"type":"MultiPolygon","properties":{"sort_rank":10,"source":"naturalearthdata.com","min_zoom":0,"kind":"earth","area":21804330306050},"arcs":[[[20]],[[21]]]}]},"landuse":{"type":"GeometryCollection","geometries":[{"type":"MultiPolygon","properties":{"kind":"nature_reserve","protect_class":"7","area":293079611893,"sort_rank":23,"source":"openstreetmap.org","min_zoom":4.0,"tier":2,"id":-5637990},"arcs":[[[22],[23]],[[24]]]}]}},"type":"Topology","transform":{"translate":[135.0,70.612614238],"scale":[0.002746582,0.0008317698]},"arcs":[[[2612,2370],[9,-27],[6,-11],[-30,1],[-8,-5],[-34,-70],[-61,-39],[-11,-2],[-4,2],[-7,12],[-4,2],[-37,-16],[-7,5],[-8,11],[-5,12],[2,5],[24,32],[-4,4],[-13,7],[-3,2],[-2,9],[-41,53],[7,15],[9,10],[9,0],[12,-23],[9,-11],[8,-7],[4,3],[3,17],[6,11],[8,7],[16,6],[24,29],[19,8],[90,-31],[9,-9],[5,-12]],[[4096,1654],[0,-137],[-34,-65],[-21,-14],[-23,-27],[-10,-6],[-21,0],[-10,-6],[-35,-34],[-35,-22],[-59,14],[-82,-94],[-4,-2],[-4,-1],[-4,0],[-4,3],[-3,6],[-3,12],[-2,5],[-10,5],[-8,-3],[-8,-6],[-9,-5],[-9,4],[-19,18],[-10,4],[-7,-5],[-13,-20],[-7,-1],[3,9],[-9,22],[-12,1],[-12,-12],[-10,-20],[5,29],[-2,40],[7,14],[-12,33],[14,14],[37,-15],[27,36],[18,4],[16,11],[8,37],[-10,15],[-46,29],[-13,13],[-6,11],[-13,16],[-5,11],[-2,14],[0,13],[1,12],[1,14],[3,16],[8,-7],[11,-24],[20,-16],[31,-8],[34,-32],[18,-36],[9,-8],[86,42],[66,5],[8,4],[8,8],[5,11],[2,8],[1,21],[2,12],[-6,24],[-1,29],[-3,25],[-15,13],[-19,-9],[-9,2],[-8,19],[-4,14],[-2,15],[-2,4],[-2,2],[-1,2],[0,7],[0,8],[2,0],[1,-1],[2,2],[32,83],[6,35],[3,17],[1,5],[-3,14],[-4,1],[-5,-5],[-6,-1],[-32,33],[14,13],[15,2],[55,-32],[13,-14],[10,-19],[-6,-8],[-13,-6],[-6,-10],[4,-25],[10,-4],[13,2],[11,-7],[6,-16],[1,-18],[-2,-17],[-8,-14],[6,-21],[6,-15],[6,-3],[2,18],[2,9],[5,9],[18,23],[3,7],[-1,4],[-1,4],[-1,16],[-3,8],[-1,9],[4,10],[8,6],[25,-2],[21,8],[10,-4],[1,-21],[5,-2],[0,-83],[-4,-4],[-16,-9],[-24,-33],[-8,-8],[-9,-2],[-18,7],[-8,-5],[-7,-11],[0,-7],[3,-8],[1,-16],[0,-15],[-1,-10],[-1,-8],[-4,-12],[0,-9],[3,-11],[2,-14],[-2,-15],[-5,-11],[-10,-19],[-4,-16],[-1,-37],[12,-1],[99,157],[2,2]],[[4096,2086],[0,-63],[-87,-5],[-112,-11],[-112,-11],[-119,-10],[-43,-27],[-73,-11],[-19,-12],[-9,-12],[-19,-39],[-8,-6],[-44,-6],[-23,5],[-49,35],[-9,11],[-8,7],[-8,4],[-7,7],[1,20],[-9,4],[-24,36],[23,-5],[6,-5],[8,-2],[7,7],[6,12],[8,10],[13,5],[15,-3],[16,-10],[13,-16],[23,-43],[13,-13],[7,18],[3,20],[29,72],[13,24],[2,12],[5,13],[10,20],[52,60],[16,12],[17,5],[18,-3],[16,-11],[13,-23],[7,-9],[7,6],[6,11],[8,7],[8,1],[7,-6],[-3,-9],[8,-8],[18,-1],[9,-7],[5,-10],[10,-28],[5,-11],[7,-9],[7,-1],[36,17],[79,5],[136,-25],[18,11],[51,-6]],[[2204,4096],[1892,0],[0,-1893],[-46,30],[-60,2],[-89,30],[-111,71],[-104,24],[-103,24],[-99,16],[-97,40],[-84,8],[-133,21],[-38,27],[-42,14],[-144,-13],[-20,12],[-120,15],[-60,7],[-113,-20],[-91,28],[-91,28],[-28,22],[-38,10],[-32,38],[-19,34],[-8,11],[-42,28],[-76,4],[-20,11],[-43,2],[-20,12],[-20,-2],[-20,11],[-48,-7],[-5,-9],[1,-21],[4,-11],[17,-19],[6,-10],[1,-6],[-1,-15],[0,-5],[2,-4],[68,-59],[13,-31],[8,-6],[16,-6],[14,-18],[8,-22],[0,-27],[-12,-32],[3,-9],[-8,-23],[-6,-10],[-6,-8],[7,-8],[16,-8],[42,0],[-15,-11],[-49,-12],[-11,-15],[-10,-21],[-30,-8],[-80,-42],[-84,-8],[-99,-13],[-83,29],[-110,-7],[-16,-12],[-42,-71],[-5,-3],[-10,-1],[-5,-3],[-2,-5],[-4,-16],[-3,-4],[-6,-6],[-20,-44],[-24,-39],[-11,-28],[-5,-36],[-2,-11],[-8,-21],[-2,-13],[2,-13],[13,-33],[22,-43],[19,-21],[19,-10],[20,-3],[-6,16],[-20,5],[-7,12],[-1,20],[7,2],[19,-14],[21,-8],[53,3],[9,13],[-35,-4],[-10,13],[31,44],[16,15],[106,-4],[106,-5],[19,-13],[8,-33],[-9,-24],[-22,-15],[-24,-7],[-15,1],[-35,30],[-20,5],[-9,-23],[-7,-26],[-42,-65],[-5,-29],[1,-26],[3,-24],[0,-23],[-11,-34],[-18,-19],[-18,-6],[-57,17],[-33,-17],[0,-8],[86,-12],[12,-8],[16,-20],[5,-11],[7,-19],[10,-16],[25,-1],[11,-11],[-7,-1],[-9,-6],[-8,-13],[-3,-18],[-2,-14],[-10,-19],[-4,-12],[4,-9],[2,-9],[0,-9],[-3,-6],[5,-10],[2,-45],[6,-33],[0,-23],[2,-9],[8,-15],[19,-59],[8,-16],[60,-78],[-2,-6],[-4,-14],[-2,-6],[17,-14],[3,-9],[0,-15],[-6,-1],[-6,4],[-5,5],[-12,8],[-24,1],[-12,9],[-7,-1],[-27,-22],[-16,-20],[-12,8],[-23,29],[-13,8],[-52,0],[-8,-8],[-15,-35],[-3,-9],[-1,-20],[-2,-8],[-7,-8],[-15,-8],[-41,0],[-20,15],[-7,1],[15,24],[-6,13],[-13,22],[-6,15],[3,8],[-7,18],[-8,48],[-4,21],[-13,19],[-33,9],[-15,9],[-44,52],[-15,6],[-14,-5],[-45,-45],[7,-7],[5,-8],[3,-13],[-2,-21],[-5,-17],[-50,-16],[-10,25],[-3,10],[0,14],[7,18],[9,11],[19,12],[-102,-16],[-44,-22],[-22,-28],[-1,-40],[-2,-13],[0,-25],[-1,-11],[-4,-13],[-18,-30],[-22,-44],[-13,-18],[-15,-4],[0,-8],[6,-3],[10,-17],[5,-4],[7,6],[7,10],[7,6],[8,-6],[-8,-10],[-3,-6],[-2,-8],[8,0],[13,-20],[8,-5],[107,0],[6,-3],[10,-12],[5,-2],[0,-8],[-14,-9],[-21,2],[-20,9],[-15,13],[-7,2],[-56,-37],[-1,-12],[80,-7],[9,-10],[-8,-25],[-12,-14],[-12,-4],[-17,8],[-3,-7],[-1,-10],[-2,-6],[-7,-6],[-36,1],[-50,34],[-11,-9],[-10,-13],[-13,-7],[7,-11],[6,-7],[6,-5],[14,-2],[7,-5],[3,-10],[-5,-17],[21,22],[6,3],[-2,-9],[20,-2],[10,-4],[9,-10],[-4,-9],[7,-5],[7,-10],[7,-14],[3,-20],[-13,-4],[-11,-9],[-11,-5],[-12,10],[8,13],[2,3],[-15,9],[-8,1],[-7,-6],[-5,-11],[-3,-9],[-3,-5],[-6,-4],[-11,0],[-11,8],[-7,19],[1,31],[-9,3],[-42,35],[-22,5],[-12,11],[-2,9],[3,6],[9,5],[7,-2],[13,-12],[7,-3],[10,1],[11,5],[10,13],[7,23],[-6,-1],[-7,-5],[-6,-2],[-6,8],[5,8],[3,9],[3,11],[2,13],[-33,-45],[-8,-6],[-12,-1],[-10,5],[-2,14],[-34,21],[-11,12],[8,8],[15,-4],[7,12],[-5,2],[-6,6],[-4,10],[3,11],[8,11],[4,7],[2,12],[-16,1],[-16,7],[-5,5],[-12,20],[-26,-18],[-17,9],[9,13],[4,9],[-2,9],[-21,18],[-53,15],[-9,8],[-10,15],[-11,11],[-23,7],[-11,9],[-22,50],[-10,15],[-10,9],[-20,9],[-11,1],[-10,-4],[-9,-7],[-8,-10],[-6,-15],[-4,-17],[-6,-12],[-9,-1],[4,25],[-1,14],[-5,7],[-10,3],[2,0],[-1,49],[-26,21],[-51,9],[-116,62],[-133,-14],[-27,-23],[-45,-13],[-17,-13],[-13,-20],[17,-12],[9,-9],[4,-21],[-38,0],[-30,23],[-10,3],[-8,-3],[-6,-8],[-10,-22],[-9,-11],[-5,0],[-11,23],[-15,5],[-12,-13],[0,2995],[290,0],[89,-98],[7,-22],[2,-15],[5,-11],[20,-23],[4,-2],[4,2],[2,6],[2,6],[2,6],[15,7],[12,15],[8,23],[-4,31],[2,38],[-17,31],[-6,6],[1459,0],[43,-97],[41,-37],[39,9],[7,5],[22,28],[18,8],[18,0],[7,3],[19,22],[18,7],[35,1],[17,9],[18,23],[4,10],[2,9]],[[1061,1137],[-3,4],[-13,21],[-6,5],[-54,16],[-13,-4],[-22,-16],[-11,-4],[-39,12],[-92,-12],[-33,-35],[-38,-16],[-12,-20],[19,-8],[109,-100],[17,9],[-5,16],[4,0],[3,2],[6,7],[-13,13],[-27,16],[-13,12],[9,9],[10,2],[10,-5],[18,-17],[32,4],[14,-11],[24,-45],[39,-22],[9,2],[18,12],[63,76],[9,20],[-16,50],[-3,7]],[[3086,3256],[-1,8],[0,6],[0,6],[1,8],[-1,12],[-3,4],[-2,1],[-2,3],[-1,14],[0,14],[-1,15],[-3,15],[10,5],[25,37],[-19,43],[-17,51],[-11,25],[-92,120],[-45,19],[-8,9],[-23,40],[-7,6],[-16,8],[-109,138],[-37,26],[-76,22],[-83,61],[-164,-12],[-82,-51],[-59,6],[-10,8],[-3,2],[-3,1],[1,5],[-14,-1],[-70,-75],[-13,-21],[-12,-26],[-10,-30],[-11,-45],[-6,-21],[-22,-57],[-7,-25],[-8,-34],[-11,-28],[-12,-22],[-49,-93],[-94,-39],[-56,8],[-64,15],[-50,-64],[7,-58],[11,-37],[54,-15],[71,25],[47,43],[77,27],[105,5],[94,-47],[95,-48],[74,-38],[120,-35],[137,-36],[46,-6],[71,-26],[79,9],[152,-53],[85,14],[43,23],[14,28],[-9,25],[-8,32],[-15,51]],[[2612,2370],[9,-27],[6,-11],[-30,1],[-8,-5],[-34,-70],[-61,-39],[-11,-2],[-4,2],[-7,12],[-4,2],[-37,-16],[-7,5],[-8,11],[-5,12],[2,5],[24,32],[-4,4],[-13,7],[-3,2],[-2,9],[-41,53],[7,15],[9,10],[9,0],[12,-23],[9,-11],[8,-7],[4,3],[3,17],[6,11],[8,7],[16,6],[24,29],[19,8],[90,-31],[9,-9],[5,-12]],[[4096,1517],[-34,-65],[-21,-14],[-23,-27],[-10,-6],[-21,0],[-10,-6],[-35,-34],[-35,-22],[-59,14],[-82,-94],[-4,-2],[-4,-1],[-4,0],[-4,3],[-3,6],[-3,12],[-2,5],[-10,5],[-8,-3],[-8,-6],[-9,-5],[-9,4],[-19,18],[-10,4],[-7,-5],[-13,-20],[-7,-1],[3,9],[-9,22],[-12,1],[-12,-12],[-10,-20],[5,29],[-2,40],[7,14],[-12,33],[14,14],[37,-15],[27,36],[18,4],[16,11],[8,37],[-10,15],[-46,29],[-13,13],[-6,11],[-13,16],[-5,11],[-2,14],[0,13],[1,12],[1,14],[3,16],[8,-7],[11,-24],[20,-16],[31,-8],[34,-32],[18,-36],[9,-8],[86,42],[66,5],[8,4],[8,8],[5,11],[2,8],[1,21],[2,12],[-6,24],[-1,29],[-3,25],[-15,13],[-19,-9],[-9,2],[-8,19],[-4,14],[-2,15],[-2,4],[-2,2],[-1,2],[0,7],[0,8],[2,0],[1,-1],[2,2],[32,83],[6,35],[3,17],[1,5],[-3,14],[-4,1],[-5,-5],[-6,-1],[-32,33],[14,13],[15,2],[55,-32],[13,-14],[10,-19],[-6,-8],[-13,-6],[-6,-10],[4,-25],[10,-4],[13,2],[11,-7],[6,-16],[1,-18],[-2,-17],[-8,-14],[6,-21],[6,-15],[6,-3],[2,18],[2,9],[5,9],[18,23],[3,7],[-1,4],[-1,4],[-1,16],[-3,8],[-1,9],[4,10],[8,6],[25,-2],[21,8],[10,-4],[1,-21],[5,-2]],[[4096,1769],[-4,-4],[-16,-9],[-24,-33],[-8,-8],[-9,-2],[-18,7],[-8,-5],[-7,-11],[0,-7],[3,-8],[1,-16],[0,-15],[-1,-10],[-1,-8],[-4,-12],[0,-9],[3,-11],[2,-14],[-2,-15],[-5,-11],[-10,-19],[-4,-16],[-1,-37],[12,-1],[99,157],[2,2]],[[4096,2023],[-87,-5],[-112,-11],[-112,-11],[-119,-10],[-43,-27],[-73,-11],[-19,-12],[-9,-12],[-19,-39],[-8,-6],[-44,-6],[-23,5],[-49,35],[-9,11],[-8,7],[-8,4],[-7,7],[1,20],[-9,4],[-24,36],[23,-5],[6,-5],[8,-2],[7,7],[6,12],[8,10],[13,5],[15,-3],[16,-10],[13,-16],[23,-43],[13,-13],[7,18],[3,20],[29,72],[13,24],[2,12],[5,13],[10,20],[52,60],[16,12],[17,5],[18,-3],[16,-11],[13,-23],[7,-9],[7,6],[6,11],[8,7],[8,1],[7,-6],[-3,-9],[8,-8],[18,-1],[9,-7],[5,-10],[10,-28],[5,-11],[7,-9],[7,-1],[36,17],[79,5],[136,-25],[18,11],[51,-6]],[[4096,2203],[-46,30],[-60,2],[-89,30],[-111,71],[-104,24],[-103,24],[-99,16],[-97,40],[-84,8],[-133,21],[-38,27],[-42,14],[-144,-13],[-20,12],[-120,15],[-60,7],[-113,-20],[-91,28],[-91,28],[-28,22],[-38,10],[-32,38],[-19,34],[-8,11],[-42,28],[-76,4],[-20,11],[-43,2],[-20,12],[-20,-2],[-20,11],[-48,-7],[-5,-9],[1,-21],[4,-11],[17,-19],[6,-10],[1,-6],[-1,-15],[0,-5],[2,-4],[68,-59],[13,-31],[8,-6],[16,-6],[14,-18],[8,-22],[0,-27],[-12,-32],[3,-9],[-8,-23],[-6,-10],[-6,-8],[7,-8],[16,-8],[42,0],[-15,-11],[-49,-12],[-11,-15],[-10,-21],[-30,-8],[-80,-42],[-84,-8],[-99,-13],[-83,29],[-110,-7],[-16,-12],[-42,-71],[-5,-3],[-10,-1],[-5,-3],[-2,-5],[-4,-16],[-3,-4],[-6,-6],[-20,-44],[-24,-39],[-11,-28],[-5,-36],[-2,-11],[-8,-21],[-2,-13],[2,-13],[13,-33],[22,-43],[19,-21],[19,-10],[20,-3],[-6,16],[-20,5],[-7,12],[-1,20],[7,2],[19,-14],[21,-8],[53,3],[9,13],[-35,-4],[-10,13],[31,44],[16,15],[106,-4],[106,-5],[19,-13],[8,-33],[-9,-24],[-22,-15],[-24,-7],[-15,1],[-35,30],[-20,5],[-9,-23],[-7,-26],[-42,-65],[-5,-29],[1,-26],[3,-24],[0,-23],[-11,-34],[-18,-19],[-18,-6],[-57,17],[-33,-17],[0,-8],[86,-12],[12,-8],[16,-20],[5,-11],[7,-19],[10,-16],[25,-1],[11,-11],[-7,-1],[-9,-6],[-8,-13],[-3,-18],[-2,-14],[-10,-19],[-4,-12],[4,-9],[2,-9],[0,-9],[-3,-6],[5,-10],[2,-45],[6,-33],[0,-23],[2,-9],[8,-15],[19,-59],[8,-16],[60,-78],[-2,-6],[-4,-14],[-2,-6],[17,-14],[3,-9],[0,-15],[-6,-1],[-6,4],[-5,5],[-12,8],[-24,1],[-12,9],[-7,-1],[-27,-22],[-16,-20],[-12,8],[-23,29],[-13,8],[-52,0],[-8,-8],[-15,-35],[-3,-9],[-1,-20],[-2,-8],[-7,-8],[-15,-8],[-41,0],[-20,15],[-7,1],[15,24],[-6,13],[-13,22],[-6,15],[3,8],[-7,18],[-8,48],[-4,21],[-13,19],[-33,9],[-15,9],[-44,52],[-15,6],[-14,-5],[-45,-45],[7,-7],[5,-8],[3,-13],[-2,-21],[-5,-17],[-50,-16],[-10,25],[-3,10],[0,14],[7,18],[9,11],[19,12],[-102,-16],[-44,-22],[-22,-28],[-1,-40],[-2,-13],[0,-25],[-1,-11],[-4,-13],[-18,-30],[-22,-44],[-13,-18],[-15,-4],[0,-8],[6,-3],[10,-17],[5,-4],[7,6],[7,10],[7,6],[8,-6],[-8,-10],[-3,-6],[-2,-8],[8,0],[13,-20],[8,-5],[107,0],[6,-3],[10,-12],[5,-2],[0,-8],[-14,-9],[-21,2],[-20,9],[-15,13],[-7,2],[-56,-37],[-1,-12],[80,-7],[9,-10],[-8,-25],[-12,-14],[-12,-4],[-17,8],[-3,-7],[-1,-10],[-2,-6],[-7,-6],[-36,1],[-50,34],[-11,-9],[-10,-13],[-13,-7],[7,-11],[6,-7],[6,-5],[14,-2],[7,-5],[3,-10],[-5,-17],[21,22],[6,3],[-2,-9],[20,-2],[10,-4],[9,-10],[-4,-9],[7,-5],[7,-10],[7,-14],[3,-20],[-13,-4],[-11,-9],[-11,-5],[-12,10],[8,13],[2,3],[-15,9],[-8,1],[-7,-6],[-5,-11],[-3,-9],[-3,-5],[-6,-4],[-11,0],[-11,8],[-7,19],[1,31],[-9,3],[-42,35],[-22,5],[-12,11],[-2,9],[3,6],[9,5],[7,-2],[13,-12],[7,-3],[10,1],[11,5],[10,13],[7,23],[-6,-1],[-7,-5],[-6,-2],[-6,8],[5,8],[3,9],[3,11],[2,13],[-33,-45],[-8,-6],[-12,-1],[-10,5],[-2,14],[-34,21],[-11,12],[8,8],[15,-4],[7,12],[-5,2],[-6,6],[-4,10],[3,11],[8,11],[4,7],[2,12],[-16,1],[-16,7],[-5,5],[-12,20],[-26,-18],[-17,9],[9,13],[4,9],[-2,9],[-21,18],[-53,15],[-9,8],[-10,15],[-11,11],[-23,7],[-11,9],[-22,50],[-10,15],[-10,9],[-20,9],[-11,1],[-10,-4],[-9,-7],[-8,-10],[-6,-15],[-4,-17],[-6,-12],[-9,-1],[4,25],[-1,14],[-5,7],[-10,3],[2,0],[-1,49],[-26,21],[-51,9],[-116,62],[-133,-14],[-27,-23],[-45,-13],[-17,-13],[-13,-20],[17,-12],[9,-9],[4,-21],[-38,0],[-30,23],[-10,3],[-8,-3],[-6,-8],[-10,-22],[-9,-11],[-5,0],[-11,23],[-15,5],[-12,-13]],[[1061,1137],[-3,4],[-13,21],[-6,5],[-54,16],[-13,-4],[-22,-16],[-11,-4],[-39,12],[-92,-12],[-33,-35],[-38,-16],[-12,-20],[19,-8],[109,-100],[17,9],[-5,16],[4,0],[3,2],[6,7],[-13,13],[-27,16],[-13,12],[9,9],[10,2],[10,-5],[18,-17],[32,4],[14,-11],[24,-45],[39,-22],[9,2],[18,12],[63,76],[9,20],[-16,50],[-3,7]],[[3086,3256],[-1,8],[0,6],[0,6],[1,8],[-1,12],[-3,4],[-2,1],[-2,3],[-1,14],[0,14],[-1,15],[-3,15],[10,5],[25,37],[-19,43],[-17,51],[-11,25],[-92,120],[-45,19],[-8,9],[-23,40],[-7,6],[-16,8],[-109,138],[-37,26],[-76,22],[-83,61],[-164,-12],[-82,-51],[-59,6],[-10,8],[-3,2],[-3,1],[1,5],[-14,-1],[-70,-75],[-13,-21],[-12,-26],[-10,-30],[-11,-45],[-6,-21],[-22,-57],[-7,-25],[-8,-34],[-11,-28],[-12,-22],[-49,-93],[-94,-39],[-56,8],[-64,15],[-50,-64],[7,-58],[11,-37],[54,-15],[71,25],[47,43],[77,27],[105,5],[94,-47],[95,-48],[74,-38],[120,-35],[137,-36],[46,-6],[71,-26],[79,9],[152,-53],[85,14],[43,23],[14,28],[-9,25],[-8,32],[-15,51]],[[458,4021],[2,38],[-17,31],[-6,6]],[[290,4096],[89,-98],[7,-22],[2,-15],[5,-11],[20,-23],[4,-2],[4,2],[2,6],[2,6],[2,6],[15,7],[12,15],[8,23],[-4,31]],[[1896,4096],[43,-97],[41,-37],[39,9],[7,5],[22,28],[18,8],[18,0],[7,3],[19,22],[18,7],[35,1],[17,9],[18,23],[4,10],[2,9]],[[1896,4096],[308,0],[-2,-9],[-4,-10],[-18,-23],[-17,-9],[-35,-1],[-18,-7],[-19,-22],[-7,-3],[-18,0],[-18,-8],[-22,-28],[-7,-5],[-39,-9],[-41,37],[-43,97]],[[3086,3256],[15,-51],[8,-32],[9,-25],[-14,-28],[-43,-23],[-85,-14],[-152,53],[-79,-9],[-71,26],[-46,6],[-137,36],[-120,35],[-74,38],[-95,48],[-94,47],[-105,-5],[-77,-27],[-47,-43],[-71,-25],[-54,15],[-11,37],[-7,58],[50,64],[64,-15],[56,-8],[94,39],[49,93],[12,22],[11,28],[8,34],[7,25],[22,57],[6,21],[11,45],[10,30],[12,26],[13,21],[70,75],[14,1],[-1,-5],[3,-1],[3,-2],[10,-8],[59,-6],[82,51],[164,12],[83,-61],[76,-22],[37,-26],[109,-138],[16,-8],[7,-6],[23,-40],[8,-9],[45,-19],[92,-120],[11,-25],[17,-51],[19,-43],[-25,-37],[-10,-5],[3,-15],[1,-15],[0,-14],[1,-14],[2,-3],[2,-1],[3,-4],[1,-12],[-1,-8],[0,-6],[0,-6],[1,-8]],[[1061,1137],[3,-7],[16,-50],[-9,-20],[-63,-76],[-18,-12],[-9,-2],[-39,22],[-24,45],[-14,11],[-32,-4],[-18,17],[-10,5],[-10,-2],[-9,-9],[13,-12],[27,-16],[13,-13],[-6,-7],[-3,-2],[-4,0],[5,-16],[-17,-9],[-109,100],[-19,8],[12,20],[38,16],[33,35],[92,12],[39,-12],[11,4],[22,16],[13,4],[54,-16],[6,-5],[13,-21],[3,-4]],[[290,4096],[147,0],[6,-6],[17,-31],[-2,-38],[4,-31],[-8,-23],[-12,-15],[-15,-7],[-2,-6],[-2,-6],[-2,-6],[-4,-2],[-4,2],[-20,23],[-5,11],[-2,15],[-7,22],[-89,98]],[[4096,1517],[0,-1517],[-4096,0],[0,1101],[12,13],[15,-5],[11,-23],[5,0],[9,11],[10,22],[6,8],[8,3],[10,-3],[30,-23],[38,0],[-4,21],[-9,9],[-17,12],[13,20],[17,13],[45,13],[27,23],[133,14],[116,-62],[51,-9],[26,-21],[1,-49],[-2,0],[10,-3],[5,-7],[1,-14],[-4,-25],[9,1],[6,12],[4,17],[6,15],[8,10],[9,7],[10,4],[11,-1],[20,-9],[10,-9],[10,-15],[22,-50],[11,-9],[23,-7],[11,-11],[10,-15],[9,-8],[53,-15],[21,-18],[2,-9],[-4,-9],[-9,-13],[17,-9],[26,18],[12,-20],[5,-5],[16,-7],[16,-1],[-2,-12],[-4,-7],[-8,-11],[-3,-11],[4,-10],[6,-6],[5,-2],[-7,-12],[-15,4],[-8,-8],[11,-12],[34,-21],[2,-14],[10,-5],[12,1],[8,6],[33,45],[-2,-13],[-3,-11],[-3,-9],[-5,-8],[6,-8],[6,2],[7,5],[6,1],[-7,-23],[-10,-13],[-11,-5],[-10,-1],[-7,3],[-13,12],[-7,2],[-9,-5],[-3,-6],[2,-9],[12,-11],[22,-5],[42,-35],[9,-3],[-1,-31],[7,-19],[11,-8],[11,0],[6,4],[3,5],[3,9],[5,11],[7,6],[8,-1],[15,-9],[-2,-3],[-8,-13],[12,-10],[11,5],[11,9],[13,4],[-3,20],[-7,14],[-7,10],[-7,5],[4,9],[-9,10],[-10,4],[-20,2],[2,9],[-6,-3],[-21,-22],[5,17],[-3,10],[-7,5],[-14,2],[-6,5],[-6,7],[-7,11],[13,7],[10,13],[11,9],[50,-34],[36,-1],[7,6],[2,6],[1,10],[3,7],[17,-8],[12,4],[12,14],[8,25],[-9,10],[-80,7],[1,12],[56,37],[7,-2],[15,-13],[20,-9],[21,-2],[14,9],[0,8],[-5,2],[-10,12],[-6,3],[-107,0],[-8,5],[-13,20],[-8,0],[2,8],[3,6],[8,10],[-8,6],[-7,-6],[-7,-10],[-7,-6],[-5,4],[-10,17],[-6,3],[0,8],[15,4],[13,18],[22,44],[18,30],[4,13],[1,11],[0,25],[2,13],[1,40],[22,28],[44,22],[102,16],[-19,-12],[-9,-11],[-7,-18],[0,-14],[3,-10],[10,-25],[50,16],[5,17],[2,21],[-3,13],[-5,8],[-7,7],[45,45],[14,5],[15,-6],[44,-52],[15,-9],[33,-9],[13,-19],[4,-21],[8,-48],[7,-18],[-3,-8],[6,-15],[13,-22],[6,-13],[-15,-24],[7,-1],[20,-15],[41,0],[15,8],[7,8],[2,8],[1,20],[3,9],[15,35],[8,8],[52,0],[13,-8],[23,-29],[12,-8],[16,20],[27,22],[7,1],[12,-9],[24,-1],[3,-2],[9,-6],[5,-5],[6,-4],[6,1],[0,15],[-3,9],[-17,14],[2,6],[4,14],[2,6],[-14,17],[-46,61],[-8,16],[-19,59],[-8,15],[-2,9],[0,23],[-6,33],[-2,45],[-5,10],[3,6],[0,9],[-2,9],[-4,9],[4,12],[10,19],[2,14],[3,18],[8,13],[9,6],[7,1],[-11,11],[-25,1],[-10,16],[-7,19],[-5,11],[-16,20],[-12,8],[-86,12],[0,8],[33,17],[57,-17],[18,6],[18,19],[11,34],[0,23],[-3,24],[-1,26],[5,29],[42,65],[7,26],[9,23],[20,-5],[12,-10],[23,-20],[15,-1],[24,7],[22,15],[9,24],[-8,33],[-19,13],[-66,3],[-40,2],[-106,4],[-16,-15],[-31,-44],[10,-13],[35,4],[-9,-13],[-53,-3],[-21,8],[-19,14],[-7,-2],[1,-20],[7,-12],[20,-5],[6,-16],[-20,3],[-19,10],[-19,21],[-22,43],[-13,33],[-2,13],[2,13],[8,21],[2,11],[5,36],[11,28],[24,39],[20,44],[6,6],[3,4],[4,16],[2,5],[5,3],[10,1],[5,3],[42,71],[16,12],[110,7],[43,-15],[40,-14],[99,13],[84,8],[80,42],[30,8],[10,21],[11,15],[49,12],[15,11],[-42,0],[-16,8],[-7,8],[6,8],[6,10],[8,23],[-3,9],[12,32],[0,27],[-8,22],[-14,18],[-16,6],[-8,6],[-13,31],[-68,59],[-2,4],[0,5],[1,15],[-1,6],[-6,10],[-17,19],[-4,11],[-1,21],[5,9],[48,7],[20,-11],[20,2],[20,-12],[43,-2],[20,-11],[76,-4],[42,-28],[8,-11],[19,-34],[32,-38],[38,-10],[28,-22],[91,-28],[91,-28],[113,20],[60,-7],[120,-15],[20,-12],[144,13],[42,-14],[38,-27],[133,-21],[84,-8],[97,-40],[99,-16],[103,-24],[104,-24],[111,-71],[89,-30],[60,-2],[46,-30],[0,-117],[-51,6],[-18,-11],[-136,25],[-79,-5],[-36,-17],[-7,1],[-7,9],[-5,11],[-10,28],[-5,10],[-9,7],[-18,1],[-8,8],[3,9],[-7,6],[-8,-1],[-8,-7],[-6,-11],[-7,-6],[-7,9],[-13,23],[-16,11],[-18,3],[-17,-5],[-16,-12],[-52,-60],[-10,-20],[-5,-13],[-2,-12],[-13,-24],[-29,-72],[-3,-20],[-7,-18],[-13,13],[-23,43],[-13,16],[-16,10],[-15,3],[-13,-5],[-8,-10],[-6,-12],[-7,-7],[-8,2],[-6,5],[-23,5],[24,-36],[9,-4],[-1,-20],[7,-7],[8,-4],[8,-7],[9,-11],[49,-35],[23,-5],[44,6],[8,6],[19,39],[9,12],[19,12],[73,11],[43,27],[119,10],[112,11],[112,11],[87,5],[0,-171],[-5,2],[-1,21],[-10,4],[-21,-8],[-25,2],[-8,-6],[-4,-10],[1,-9],[3,-8],[1,-16],[1,-4],[1,-4],[-3,-7],[-18,-23],[-5,-9],[-2,-9],[-2,-18],[-6,3],[-6,15],[-6,21],[8,14],[2,17],[-1,18],[-6,16],[-11,7],[-13,-2],[-10,4],[-4,25],[6,10],[13,6],[6,8],[-10,19],[-13,14],[-55,32],[-15,-2],[-14,-13],[32,-33],[6,1],[5,5],[4,-1],[3,-14],[-1,-5],[-3,-17],[-6,-35],[-32,-83],[-2,-2],[-1,1],[-2,0],[0,-8],[0,-7],[1,-2],[2,-2],[2,-4],[2,-15],[4,-14],[8,-19],[9,-2],[19,9],[15,-13],[3,-25],[1,-29],[6,-24],[-2,-12],[-1,-21],[-2,-8],[-5,-11],[-8,-8],[-8,-4],[-66,-5],[-86,-42],[-9,8],[-18,36],[-34,32],[-31,8],[-20,16],[-11,24],[-8,7],[-3,-16],[-1,-14],[-1,-12],[0,-13],[2,-14],[5,-11],[13,-16],[6,-11],[13,-13],[46,-29],[10,-15],[-8,-37],[-16,-11],[-18,-4],[-27,-36],[-37,15],[-14,-14],[12,-33],[-7,-14],[2,-40],[-5,-29],[10,20],[12,12],[12,-1],[9,-22],[-3,-9],[7,1],[13,20],[7,5],[10,-4],[19,-18],[9,-4],[9,5],[8,6],[8,3],[10,-5],[2,-5],[3,-12],[3,-6],[4,-3],[4,0],[4,1],[4,2],[82,94],[59,-14],[35,22],[35,34],[10,6],[21,0],[10,6],[23,27],[21,14],[34,65]],[[4096,1769],[0,-115],[-2,-2],[-99,-157],[-12,1],[1,37],[4,16],[10,19],[5,11],[2,15],[-2,14],[-3,11],[0,9],[4,12],[1,8],[1,10],[0,15],[-1,16],[-3,8],[0,7],[7,11],[8,5],[18,-7],[9,2],[8,8],[24,33],[16,9],[4,4]],[[4096,903],[0,-556],[-18,-23],[-151,-21],[-89,57],[-7,40],[-76,-20],[-72,97],[-223,-177],[-22,14],[47,80],[-6,31],[-73,15],[-13,38],[-1,0],[-11,-36],[-97,96],[35,-8],[1,1],[-35,91],[32,22],[-34,39],[12,27],[54,1],[20,47],[-64,36],[52,67],[-65,-5],[-26,86],[-122,-1],[-8,141],[25,-11],[-14,24],[42,4],[0,63],[22,24],[31,-18],[38,54],[13,-28],[47,29],[0,1],[-24,6],[-8,38],[-19,-17],[-20,27],[14,15],[-71,56],[-34,-3],[-20,63],[-56,-22],[9,-8],[-1,-9],[-61,-51],[-4,-25],[36,-2],[-41,-61],[-32,7],[-7,42],[0,1],[-28,-30],[-11,75],[-32,-17],[11,89],[97,169],[-5,51],[53,41],[-33,71],[44,40],[61,-15],[18,57],[-21,27],[51,24],[0,21],[38,-33],[42,11],[-14,27],[17,-22],[17,13],[-16,34],[35,-40],[1,0],[11,37],[12,-27],[1,0],[35,113],[76,-48],[85,159],[90,250],[288,-87],[172,-82],[0,-683],[-13,-23],[12,13],[1,0],[0,-227],[-137,0],[4,-78],[78,-50],[-73,-95],[19,-88],[109,-55]],[[3854,1317],[0,-1],[44,7],[0,1],[-11,10],[-33,-17]],[[2883,0],[-338,0],[0,99],[52,23],[17,-43],[61,62],[102,-38],[89,20],[38,-40],[-34,-79],[13,-4]]]}