{"objects":{"water":{"type":"GeometryCollection","geometries":[]},"buildings":{"type":"GeometryCollection","geometries":[]},"places":{"type":"GeometryCollection","geometries":[]},"transit":{"type":"GeometryCollection","geometries":[]},"pois":{"type":"GeometryCollection","geometries":[]},"boundaries":{"type":"GeometryCollection","geometries":[]},"roads":{"type":"GeometryCollection","geometries":[]},"earth":{"type":"GeometryCollection","geometries":[{"type":"MultiPolygon","properties":{"sort_rank":10,"source":"naturalearthdata.com","min_zoom":0,"kind":"earth","area":21804330306050},"arcs":[[[0]]]}]},"landuse":{"type":"GeometryCollection","geometries":[{"type":"MultiPolygon","properties":{"kind":"nature_reserve","protect_class":"7","area":293079611893,"sort_rank":23,"source":"openstreetmap.org","min_zoom":4.0,"tier":2,"id":-5637990},"arcs":[[[1]],[[2]]]}]}},"type":"Topology","transform":{"translate":[135.0,66.5132604431],"scale":[0.002746582,0.0010008188]},"arcs":[[[0,0],[0,4096],[4096,0],[0,-4096],[-2289,0],[-1807,0]],[[3275,3992],[25,37],[1,-23],[49,-6],[70,52],[37,-48],[-21,-54],[-153,-6],[-8,48]],[[2545,4096],[338,0],[79,-21],[51,-45],[-88,-63],[-32,-74],[-53,-8],[-91,-103],[-93,12],[18,41],[-36,23],[1,39],[-50,21],[-57,-14],[-22,66],[35,98],[0,28]]]}