{"objects":{"water":{"type":"GeometryCollection","geometries":[]},"buildings":{"type":"GeometryCollection","geometries":[]},"places":{"type":"GeometryCollection","geometries":[{"type":"Point","properties":{"name:pt":"Ust-Nera","collision_rank":362,"name:nl":"Oest-Nera","name:id":null,"name":"Ust Nera","name:hi":null,"name:tr":null,"name:sv":null,"name:ar":"\u0628\u0644\u062f\u064a\u0629 \u0623\u0648\u0633\u062a\u0646\u064a\u0631\u0627","min_zoom":5.0,"name:it":"Ust'-Nera","name:vi":null,"name:ru":"\u0423\u0441\u0442\u044c-\u041d\u0435\u0440\u0430","name:pl":"Ust-Nera","name:hu":"Uszty-Nyera","id":6404,"name:ja":"\u30a6\u30b9\u30c1\uff1d\u30cd\u30e9","name:el":null,"kind":"locality","name:en":"Ust-Nera","population_rank":5,"source":"naturalearthdata.com","name:bn":null,"name:de":"Ust-Nera","name:ko":null,"name:fr":"Oust-Nera","wikidata_id":"Q1025866","population":9148,"name:zh":"\u70cf\u65af\u5b63\u632a\u62c9","name:es":"Ust-Nera"},"coordinates":[2986,2471]}]},"transit":{"type":"GeometryCollection","geometries":[]},"pois":{"type":"GeometryCollection","geometries":[]},"boundaries":{"type":"GeometryCollection","geometries":[{"type":"MultiLineString","properties":{"sort_rank":256,"kind_detail":"4","kind":"region","min_zoom":2.0,"source":"naturalearthdata.com"},"arcs":[[0],[1],[2],[3],[4],[5],[6],[7],[8],[9],[10]]},{"type":"MultiLineString","properties":{"sort_rank":256,"kind_detail":"4","kind":"region","min_zoom":2.0,"source":"naturalearthdata.com"},"arcs":[[11],[12],[13],[14],[15],[16],[17],[18],[19],[20],[21],[22],[23],[24],[25],[26],[27],[28],[29],[30],[31],[32],[33],[34],[35],[36],[37],[38],[39],[40],[41],[42],[43],[44],[45],[46],[47],[48],[49],[50],[51]]},{"type":"MultiLineString","properties":{"sort_rank":256,"kind_detail":"4","kind":"region","min_zoom":2.0,"source":"naturalearthdata.com"},"arcs":[[52],[53],[54],[55],[56],[57],[58],[59],[60],[61],[62],[63]]}]},"roads":{"type":"GeometryCollection","geometries":[{"type":"LineString","properties":{"source":"naturalearthdata.com","kind":"major_road","sort_rank":379,"kind_detail":"secondary","min_zoom":5.0,"id":11283},"arcs":[64]},{"type":"LineString","properties":{"source":"naturalearthdata.com","kind":"major_road","sort_rank":379,"kind_detail":"secondary","min_zoom":5.0,"id":11288},"arcs":[65]},{"type":"LineString","properties":{"source":"naturalearthdata.com","kind":"major_road","sort_rank":379,"kind_detail":"secondary","min_zoom":5.0,"id":11298},"arcs":[66]},{"type":"LineString","properties":{"source":"naturalearthdata.com","kind":"major_road","sort_rank":379,"kind_detail":"secondary","min_zoom":5.0,"id":11319},"arcs":[67]},{"type":"LineString","properties":{"source":"naturalearthdata.com","kind":"major_road","sort_rank":379,"kind_detail":"secondary","min_zoom":5.0,"id":11322},"arcs":[68]},{"type":"LineString","properties":{"source":"naturalearthdata.com","kind":"major_road","sort_rank":379,"kind_detail":"secondary","min_zoom":5.0,"id":11324},"arcs":[69]},{"type":"LineString","properties":{"source":"naturalearthdata.com","kind":"major_road","sort_rank":379,"kind_detail":"secondary","min_zoom":5.0,"id":11352},"arcs":[70]}]},"earth":{"type":"GeometryCollection","geometries":[{"type":"MultiPolygon","properties":{"sort_rank":10,"source":"naturalearthdata.com","min_zoom":0,"kind":"earth","area":46840771247929},"arcs":[[[71]]]}]},"landuse":{"type":"GeometryCollection","geometries":[{"type":"MultiPolygon","properties":{"source":"openstreetmap.org","kind":"nature_reserve","area":45254540845,"tier":2,"min_zoom":4.0,"id":-8590456,"sort_rank":23},"arcs":[[[72]]]}]}},"type":"Topology","transform":{"translate":[135.0,61.6063963714],"scale":[0.002746582,0.0011979649]},"arcs":[[[4096,2039],[-13,-8],[-2,-5],[-3,-7],[-2,-11],[-3,-21],[-2,-6],[-2,-5],[-24,-27],[-14,-8],[-44,-16],[-12,-10],[-37,-11],[-7,-4],[-6,-6],[-9,-11],[-6,-4],[-61,-18],[-4,-3],[-2,-3],[-1,-4],[2,-4],[6,-10],[3,-3],[9,-8],[2,-4],[2,-3],[1,-5],[2,-8],[0,-5],[0,-5],[-1,-21],[0,-5],[1,-4],[1,-4],[2,-4],[1,-4],[1,-5],[0,-4],[0,-6],[0,-4],[1,-5],[0,-5],[-1,-5],[-3,-5],[-3,-4],[-3,-3],[-12,-4],[-3,-3],[-2,-4],[-4,-8],[-7,-18],[-6,-20],[-1,-4],[-21,-34],[-4,-9],[-1,-5],[-1,-6],[0,-18],[-1,-21],[-1,-5],[-6,-24],[-12,-42],[-5,-14],[-2,-5],[-1,-9],[-1,-8],[-1,-8],[-3,-8],[-3,-5],[-23,-37],[-2,-4],[-3,-9],[-2,-13],[-4,-28],[0,-13],[0,-9],[1,-4],[3,-8],[13,-46],[0,-5],[-1,-6],[-2,-9],[-1,-6],[0,-5],[2,-3],[1,-4],[2,-4],[1,-3],[-1,-4],[-2,-3],[-6,-5],[-3,-4],[-1,-5],[1,-6],[1,-5],[3,-3],[7,-5],[3,-2],[1,-3],[1,-1],[0,-1],[0,-1],[0,-4],[1,-4],[2,-3],[2,-4],[1,-5],[0,-6],[0,-10],[0,-6],[1,-5],[2,-4],[5,-10],[2,-4],[1,-4],[1,-5],[-3,-28],[0,-8],[0,-6],[1,-4],[0,-5],[-2,-11],[-9,-45],[-2,-14],[1,-9],[4,-7],[9,-13],[8,-8],[3,-3],[1,-6],[0,-6],[-1,-11],[0,-6],[2,-5],[1,-4],[9,-13],[1,-4],[-1,-5],[-4,-5],[-4,-4],[-3,-4],[-2,-5],[-1,-9],[2,-5],[3,-3],[10,-7],[3,-3],[2,-4],[9,-18],[4,-7],[1,-3],[0,-4],[-15,-11],[-13,-16],[-6,-5],[-6,-2]],[[3776,752],[-9,2],[-7,5],[-13,10],[-3,2],[-4,2]],[[3740,773],[-6,-4],[-7,-8],[-14,-18],[-6,-5],[-4,0]],[[3703,738],[-3,2],[-4,2],[-4,0]],[[3692,742],[-3,-2],[-3,-2],[0,-5],[1,-4],[2,-4],[12,-16],[2,-3],[1,-4],[1,-5],[0,-4],[-1,-7],[-6,-23],[-1,-9],[-2,-7],[0,-5],[1,-5],[2,-4],[1,-3],[4,-7],[2,-4],[1,-4],[0,-5],[-1,-5],[-3,-6],[-6,-5],[-7,-5],[-2,-3],[1,-3],[2,-3],[10,-7],[3,-3],[2,-3],[1,-4],[-2,-4],[-7,-4],[-9,-3],[-1,-5],[-2,-9],[-2,-4],[-20,-10],[-4,-1]],[[3659,523],[-5,1],[-15,8],[-3,1]],[[3636,533],[-2,-1],[0,-2],[1,-3],[4,-7],[1,-5],[0,-4],[-1,-11],[0,-4],[0,-4],[4,-9],[-2,-5],[-3,-7],[-12,-9],[-7,-2]],[[3619,460],[-6,0],[-3,1],[-4,1]],[[3606,462],[-4,-1],[-4,-4],[-4,-7],[-10,-14],[-6,-6],[-4,-2],[-3,-2]],[[3571,426],[-5,0],[-8,2]],[[3558,428],[-4,0],[-2,-3],[-7,-10],[-3,-3],[-2,-3],[-1,-7],[-1,-5],[10,-29]],[[2081,808],[4,-1],[9,-12],[3,-2],[4,-2],[15,-3],[4,-2],[3,-2],[2,-4],[2,-3],[5,-17],[1,-4],[2,-5],[2,-3],[4,-3]],[[2035,675],[9,2],[5,3],[3,4],[3,8],[3,15],[2,4],[8,16],[1,4],[0,5],[0,5],[-1,5],[-1,4],[-2,3],[-7,11],[-2,3],[0,4],[1,4],[1,4],[19,28],[4,1]],[[2157,749],[3,-1],[2,-3],[3,-8],[3,-4],[4,-3],[7,-2]],[[2141,745],[5,1],[6,3],[5,0]],[[2198,735],[4,-1],[3,-3],[0,-5],[1,-5],[0,-5],[-1,-17],[0,-5],[0,-5],[1,-4],[1,-4],[2,-4],[3,-4],[5,-3],[8,-4],[6,0]],[[2179,728],[5,1],[14,6]],[[2256,694],[5,-1],[11,-6]],[[2231,666],[4,1],[3,3],[2,4],[3,10],[3,5],[5,4],[5,1]],[[2289,693],[3,-1],[3,-4],[7,-30],[2,-9],[3,-7],[17,-28],[2,-4],[1,-4],[1,-4],[3,-18],[1,-4],[2,-4],[4,-5],[30,-19],[5,-4],[2,-4],[0,-5],[2,-14],[1,-10],[0,-20],[1,-5],[1,-4],[3,-8],[2,-4],[4,-4],[6,-6],[16,-5],[5,-3],[3,-3],[1,-4],[0,-5],[0,-5],[2,-6],[6,-7],[10,-5],[4,-5],[4,-5],[1,-6],[3,-7],[4,-3],[4,0]],[[2272,687],[5,1],[12,5]],[[1996,689],[13,0],[11,-8],[15,-6]],[[1862,304],[5,1],[5,4],[6,7],[3,5],[1,5],[1,2],[0,1],[0,10],[0,6],[2,4],[4,2],[14,1],[5,3],[6,6],[8,12],[3,8],[0,6],[-2,3],[-2,3],[-4,2],[-2,4],[-2,3],[0,5],[1,4],[16,17],[1,5],[1,5],[-2,14],[1,6],[3,15],[1,5],[-1,5],[-1,4],[-2,4],[-2,4],[0,6],[4,14],[1,6],[0,5],[0,4],[-5,13],[-1,4],[0,5],[0,5],[2,8],[2,9],[1,21],[2,11],[1,10],[9,30],[2,6],[4,8],[10,14],[6,7],[29,8]],[[2990,425],[4,-1],[2,-3],[1,-4],[1,-4],[2,-9],[1,-15],[0,-4],[1,-5],[2,-3],[3,-3],[38,-25],[5,-1]],[[2891,244],[5,0],[10,6],[3,2],[1,4],[1,4],[-2,15],[0,5],[1,5],[1,5],[0,4],[2,6],[4,8],[4,7],[22,29],[2,4],[4,9],[1,5],[1,5],[3,32],[1,6],[2,4],[2,4],[3,2],[3,2],[13,2],[12,6]],[[2489,407],[8,-2],[5,-2],[3,-3],[1,-5],[-1,-4],[-1,-5],[-2,-3],[-11,-12],[-2,-3],[0,-5],[3,-5],[6,-7],[5,-2]],[[2458,395],[4,1],[5,6],[3,2],[8,3],[11,0]],[[2595,405],[12,-2],[6,-3],[4,-4],[-1,-3],[-3,-8],[-1,-4],[1,-4],[2,-4],[4,-6],[25,-26],[3,-3],[1,-3],[1,-3],[-1,-2],[0,-1],[-3,-5],[-2,-4],[-1,-4],[0,-4],[3,-5],[5,-6],[4,-3],[31,-7],[4,-3],[3,-3],[2,-4],[1,-4],[0,-5],[0,-5],[-1,-5],[-3,-9],[-1,-5],[-1,-5],[0,-5],[1,-5],[3,-5],[6,-7],[5,-2]],[[2546,351],[6,0],[7,6],[5,7],[8,14],[2,4],[5,14],[1,4],[3,3],[5,2],[7,0]],[[3358,106],[3,2],[1,5],[3,11],[1,4],[2,4],[5,7],[2,3],[4,3],[7,3],[16,3],[4,2],[2,3],[1,5],[2,11],[2,5],[2,3],[9,7],[10,3],[14,0],[4,2],[22,16],[2,3],[1,4],[0,4],[-2,3],[-4,7],[-2,4],[1,4],[3,3],[11,3],[2,2],[-1,3],[-4,7],[-2,4],[-1,4],[0,4],[1,5],[5,13],[6,25],[2,4],[3,2],[11,4],[10,8],[1,1],[2,2],[5,11],[7,18],[3,3],[3,2],[11,3]],[[3073,366],[4,0],[3,-2],[13,-12],[4,-2]],[[3050,348],[4,1],[4,2],[5,5],[3,4],[3,3],[4,3]],[[3123,356],[5,-1],[4,-3],[3,-3],[3,-7],[2,-4],[0,-4],[0,-3],[-1,-1],[-1,-1],[-5,-2],[-3,-2],[0,-3],[1,-4],[6,-10],[1,-3],[-1,-4],[-2,-3],[-14,-13],[-3,-3],[-1,-4],[0,-4],[2,-3],[7,-5],[2,-3],[3,-3],[1,-3],[2,-5],[0,-4],[1,-5],[0,-5],[1,-5],[3,-5],[4,-5],[5,-3],[5,-1]],[[3097,350],[4,1],[9,3],[13,2]],[[2526,356],[20,-5]],[[2503,349],[5,0],[3,2],[4,2],[5,2],[6,1]],[[3247,320],[3,-1],[2,-2],[4,-13],[4,-11],[0,-5],[-2,-9],[-1,-4],[1,-5],[0,-5],[0,-4],[-1,-5],[-3,-8],[-1,-4],[0,-3],[2,-4],[3,-3],[2,-3],[0,-4],[-1,-4],[-14,-34],[-1,-4],[0,-5],[0,-5],[1,-4],[1,-4],[5,-12],[1,-4],[0,-4],[-2,-9],[0,-5],[1,-4],[2,-3],[4,-7],[5,-7],[9,-9],[4,-2],[3,-1]],[[3215,289],[4,1],[3,3],[18,22],[7,5]],[[1826,315],[9,0],[9,-3],[10,-6],[4,-2],[4,0]],[[1695,0],[1,5],[1,5],[2,19],[2,9],[3,4],[3,3],[8,4],[4,5],[2,5],[0,6],[1,5],[1,6],[3,3],[15,7],[6,7],[17,26],[3,7],[3,8],[3,8],[2,5],[3,4],[13,12],[3,5],[2,4],[7,17],[9,26],[1,5],[0,4],[-1,5],[-1,4],[-5,6],[-1,4],[-2,4],[0,5],[0,5],[1,11],[3,9],[3,8],[6,20],[2,5],[2,3],[3,1],[3,1]],[[2797,300],[8,-4],[6,-1]],[[2704,219],[4,1],[3,2],[3,3],[6,11],[3,3],[6,4],[3,2],[3,3],[2,4],[2,4],[3,9],[2,4],[3,3],[3,1],[23,1],[4,2],[2,3],[2,4],[3,9],[2,5],[4,2],[7,1]],[[2820,297],[3,-2],[7,-11],[3,-1]],[[2811,295],[9,2]],[[3198,292],[17,-3]],[[3153,219],[4,1],[4,1],[3,2],[3,3],[2,4],[3,9],[2,3],[8,3],[3,3],[2,3],[1,5],[1,5],[0,10],[-1,5],[0,4],[0,5],[2,3],[3,3],[5,1]],[[2845,286],[4,0],[3,-2],[1,-4],[2,-4],[16,-11],[3,-4],[6,-9],[6,-6],[5,-2]],[[2833,283],[4,0],[8,3]],[[3328,115],[8,-1],[17,-8],[5,0]],[[3319,106],[3,2],[2,4],[4,3]],[[3295,106],[24,0]],[[3278,100],[17,6]],[[3708,299],[-6,1],[-4,2],[-17,17],[-28,18],[-3,2],[-2,4],[-13,25],[-6,8],[-8,5],[-27,5]],[[3594,386],[-9,-1],[-5,-2],[-13,-9],[-19,-6]],[[3932,336],[-3,2],[-2,3],[-2,3],[-7,16],[-4,12],[-3,5],[-3,2],[-4,0]],[[3904,379],[-16,-5],[-3,-2],[-3,-3],[-1,-4],[-1,-5],[-3,-17],[-1,-5],[-2,-4],[-2,-3],[-1,-2],[-5,-4],[-7,-4],[-18,-7],[-6,-5],[-7,-10],[-4,-4],[-7,-3],[-6,0]],[[4019,285],[-4,2],[-3,3],[-3,7],[-3,7],[-1,4],[0,3],[-1,4],[-5,7],[-9,11],[-25,17],[-6,2]],[[3959,352],[-3,-2],[-12,-9],[-7,-4],[-5,-1]],[[3811,292],[-5,0],[-4,2],[-3,3],[-2,4],[-5,5],[-9,6],[-35,10]],[[3748,322],[-8,-1],[-3,-2],[-11,-11],[-4,-4],[-5,-2],[-9,-3]],[[4064,254],[-3,1],[-1,4],[-1,11],[-5,8],[-14,10],[-10,0]],[[4030,288],[-11,-3]],[[4096,226],[-1,3],[-4,4],[-2,7],[-4,8],[-3,3],[-3,2],[-3,2],[-4,0]],[[4072,255],[-8,-1]],[[1496,1259],[22,0],[17,3],[15,7],[15,14],[12,17],[18,14],[49,34],[27,14],[11,7],[36,17],[39,28],[22,10],[18,10],[6,4],[26,17],[24,14],[7,7],[17,7],[27,3],[38,17],[15,11],[42,17],[18,-4],[15,-7],[24,-10],[22,-3],[17,-4],[9,-7],[15,-3],[12,-7],[48,-31],[21,-10],[24,0],[21,0],[13,3],[39,4],[9,-4],[15,-14],[17,-3],[22,3],[11,-3],[23,3],[10,-3],[20,3],[12,4],[37,14],[14,0],[49,13],[18,0],[12,-3],[24,-28],[35,-34],[31,-21],[11,-10],[34,-21],[30,-13],[15,-4],[29,-3],[36,7],[10,3],[17,10],[9,7],[20,0],[19,-3],[9,0],[18,14],[15,20],[17,14],[6,3],[13,0],[14,-6],[15,-11],[10,-3],[39,10],[42,7],[14,7],[13,0],[8,3],[12,11],[12,20],[9,0],[7,-3],[29,-31],[7,-17],[8,-11],[12,-7],[18,4],[9,-4],[12,-6],[10,-18],[16,-13],[18,-7],[13,0],[9,0],[12,-14],[21,-14],[12,-7],[27,4],[20,-4],[22,-10],[48,-21],[11,0]],[[829,1111],[30,7],[7,3],[9,17],[3,24],[5,7],[21,11],[7,3],[15,0],[8,4],[28,20],[35,21],[17,3],[25,-13],[33,-21],[26,-4],[9,0],[13,-3],[15,-7],[5,0],[9,7],[4,14],[17,7],[4,48],[0,17],[6,17],[12,11],[15,-7],[18,-14],[11,-34],[9,-7],[13,0],[17,7],[13,6],[6,4],[6,14],[9,6],[11,7],[30,-3],[13,-4],[30,-6],[30,-4],[26,-7],[26,-3],[21,0]],[[3493,1262],[13,0],[11,4],[46,38],[21,10],[9,0],[27,0],[20,7],[22,10],[18,14],[15,3],[9,-3],[24,-4],[26,-6],[20,0],[21,-11],[27,-7],[40,-17],[14,-10],[10,-14],[17,-31],[25,-14],[24,-17],[9,-10],[24,-35],[41,-51],[10,-7],[17,-7],[15,0],[12,0],[13,0],[3,0]],[[207,873],[9,7]],[[216,880],[8,-14],[9,-7],[18,-6],[9,-4],[55,7],[35,3],[16,0],[29,11],[15,7],[37,20],[26,18],[37,27],[24,21],[34,20],[10,7],[11,0],[43,0],[41,-3],[12,3],[9,7],[22,11],[6,3],[12,7],[14,7],[31,24],[23,20],[24,35],[3,7]],[[183,832],[3,7],[2,17],[19,17]],[[0,779],[22,8],[14,-3],[12,3],[12,10],[10,7],[15,-3],[8,3],[10,4],[16,14],[16,6],[12,14],[14,0],[10,-7],[12,-3]],[[4096,4096],[0,-4096],[-4096,0],[0,4096],[1807,0],[2289,0]],[[4096,3073],[0,-320],[-36,1],[-75,80],[-59,15],[-22,92],[12,18],[63,-20],[-57,63],[-46,129],[17,28],[203,-1],[0,-17],[-14,-45],[14,-23]]]}