{"objects":{"water":{"type":"GeometryCollection","geometries":[{"type":"MultiPolygon","properties":{"source":"naturalearthdata.com","kind":"ocean","area":990044000000000,"sort_rank":200,"min_zoom":0,"id":1},"arcs":[[[0],[1],[2],[3],[4],[5],[6],[7],[8],[9],[10],[11],[12],[13],[14],[15],[16],[17],[18],[19]]]},{"type":"LineString","properties":{"source":"naturalearthdata.com","kind":"ocean","sort_rank":205,"boundary":true,"min_zoom":0,"id":12},"arcs":[20]},{"type":"LineString","properties":{"source":"naturalearthdata.com","kind":"ocean","sort_rank":205,"boundary":true,"min_zoom":0,"id":13},"arcs":[21]},{"type":"LineString","properties":{"source":"naturalearthdata.com","kind":"ocean","sort_rank":205,"boundary":true,"min_zoom":0,"id":35},"arcs":[22]},{"type":"MultiLineString","properties":{"source":"naturalearthdata.com","kind":"ocean","sort_rank":205,"boundary":true,"min_zoom":0,"id":36},"arcs":[[23],[24]]},{"type":"LineString","properties":{"source":"naturalearthdata.com","kind":"ocean","sort_rank":205,"boundary":true,"min_zoom":0,"id":37},"arcs":[25]},{"type":"LineString","properties":{"source":"naturalearthdata.com","kind":"ocean","sort_rank":205,"boundary":true,"min_zoom":0,"id":200},"arcs":[26]},{"type":"LineString","properties":{"source":"naturalearthdata.com","kind":"ocean","sort_rank":205,"boundary":true,"min_zoom":0,"id":302},"arcs":[27]},{"type":"LineString","properties":{"source":"naturalearthdata.com","kind":"ocean","sort_rank":205,"boundary":true,"min_zoom":0,"id":303},"arcs":[28]},{"type":"LineString","properties":{"source":"naturalearthdata.com","kind":"ocean","sort_rank":205,"boundary":true,"min_zoom":0,"id":304},"arcs":[29]},{"type":"LineString","properties":{"source":"naturalearthdata.com","kind":"ocean","sort_rank":205,"boundary":true,"min_zoom":0,"id":305},"arcs":[30]},{"type":"LineString","properties":{"source":"naturalearthdata.com","kind":"ocean","sort_rank":205,"boundary":true,"min_zoom":0,"id":306},"arcs":[31]},{"type":"LineString","properties":{"source":"naturalearthdata.com","kind":"ocean","sort_rank":205,"boundary":true,"min_zoom":0,"id":307},"arcs":[32]},{"type":"LineString","properties":{"source":"naturalearthdata.com","kind":"ocean","sort_rank":205,"boundary":true,"min_zoom":0,"id":646},"arcs":[33]},{"type":"LineString","properties":{"source":"naturalearthdata.com","kind":"ocean","sort_rank":205,"boundary":true,"min_zoom":0,"id":647},"arcs":[34]},{"type":"LineString","properties":{"source":"naturalearthdata.com","kind":"ocean","sort_rank":205,"boundary":true,"min_zoom":0,"id":649},"arcs":[35]},{"type":"LineString","properties":{"source":"naturalearthdata.com","kind":"ocean","sort_rank":205,"boundary":true,"min_zoom":0,"id":650},"arcs":[36]},{"type":"LineString","properties":{"source":"naturalearthdata.com","kind":"ocean","sort_rank":205,"boundary":true,"min_zoom":0,"id":651},"arcs":[37]},{"type":"LineString","properties":{"source":"naturalearthdata.com","kind":"ocean","sort_rank":205,"boundary":true,"min_zoom":0,"id":652},"arcs":[38]},{"type":"LineString","properties":{"source":"naturalearthdata.com","kind":"ocean","sort_rank":205,"boundary":true,"min_zoom":0,"id":653},"arcs":[39]},{"type":"LineString","properties":{"source":"naturalearthdata.com","kind":"ocean","sort_rank":205,"boundary":true,"min_zoom":0,"id":654},"arcs":[40]}]},"buildings":{"type":"GeometryCollection","geometries":[]},"places":{"type":"GeometryCollection","geometries":[]},"transit":{"type":"GeometryCollection","geometries":[]},"pois":{"type":"GeometryCollection","geometries":[]},"boundaries":{"type":"GeometryCollection","geometries":[]},"roads":{"type":"GeometryCollection","geometries":[]},"earth":{"type":"GeometryCollection","geometries":[{"type":"MultiPolygon","properties":{"sort_rank":10,"source":"naturalearthdata.com","kind":"earth","min_zoom":2.0,"area":650942670114},"arcs":[[[41]],[[42]],[[43]],[[44]],[[45]]]},{"type":"MultiPolygon","properties":{"sort_rank":10,"source":"naturalearthdata.com","kind":"earth","min_zoom":4.0,"area":34679318797},"arcs":[[[46]],[[47]]]},{"type":"MultiPolygon","properties":{"sort_rank":10,"source":"naturalearthdata.com","min_zoom":3.0,"kind":"earth","area":331560690158},"arcs":[[[48]],[[49]],[[50]],[[51]],[[52]],[[53]],[[54]],[[55]],[[56]]]},{"type":"MultiPolygon","properties":{"sort_rank":10,"source":"naturalearthdata.com","min_zoom":1.0,"kind":"earth","area":836420259990},"arcs":[[[57]],[[58]]]},{"type":"MultiPolygon","properties":{"sort_rank":10,"source":"naturalearthdata.com","min_zoom":1.5,"kind":"earth","area":175668452672},"arcs":[[[59]],[[60]]]}]},"landuse":{"type":"GeometryCollection","geometries":[{"type":"MultiPolygon","properties":{"kind":"nature_reserve","protect_class":"2","area":5665841056098,"sort_rank":23,"source":"openstreetmap.org","min_zoom":4.0,"tier":2,"id":-7008461},"arcs":[[[61]]]}]}},"type":"Topology","transform":{"translate":[45.0,79.1713346408],"scale":[0.0054931641,0.0008557008]},"arcs":[[[0,1704],[0,2392],[4096,0],[0,-4096],[-4096,0],[0,1677],[27,-9],[44,-45],[46,-27],[59,38],[10,-34],[7,-66],[15,-44],[43,12],[25,22],[20,76],[9,24],[61,1],[24,55],[10,7],[19,-10],[20,80],[18,15],[16,63],[19,28],[14,-11],[48,-103],[106,-45],[11,4],[0,99],[-25,72],[-19,31],[-18,16],[-19,5],[-62,-13],[-83,48],[-17,-1],[-60,-45],[-40,-69],[-86,-23],[-219,-97],[-23,-27]],[[2596,3135],[-205,-30],[-27,-37],[-7,-57],[-7,-30],[2,-14],[8,-17],[60,23],[194,51],[0,26],[9,52],[-27,33]],[[3146,2963],[-32,-32],[75,-24],[2,-14],[8,-16],[57,-28],[117,-15],[22,15],[24,47],[-3,17],[-10,27],[-167,37],[-93,-14]],[[2268,2771],[-17,-8],[-50,7],[-21,-36],[-47,-102],[-57,-43],[-45,-98],[-68,31],[-58,-21],[20,-97],[26,-47],[86,42],[32,-53],[27,-4],[28,27],[28,46],[62,-69],[53,-51],[58,40],[26,33],[18,67],[-18,56],[-10,76],[93,22],[35,37],[-23,53],[-76,23],[-28,27],[-10,46],[-17,22],[-47,-26]],[[2497,2503],[69,-24],[40,15],[11,23],[-17,48],[-38,37],[-35,-7],[-45,-37],[-4,-27],[19,-28]],[[821,1980],[-48,-52],[-18,-127],[8,-66],[-1,-114],[-18,-50],[-84,-9],[-29,59],[-12,12],[-17,-8],[-18,-21],[-57,-17],[-43,-34],[-47,-65],[-138,-169],[17,-49],[20,-24],[26,-64],[47,-3],[18,10],[18,48],[36,18],[46,-7],[15,-31],[-46,-72],[-17,-46],[19,-35],[37,8],[16,13],[13,26],[13,13],[39,-44],[15,17],[12,56],[4,30],[5,14],[39,-40],[17,-7],[16,8],[6,53],[-3,41],[-6,27],[-7,13],[-42,16],[-3,11],[25,63],[15,18],[126,8],[38,57],[-8,55],[17,30],[79,35],[124,15],[34,74],[101,98],[-20,62],[-25,5],[-98,170],[-21,28],[-67,-4],[-28,19],[-28,-4],[-112,-68]],[[1714,2121],[-9,-96],[-23,-3],[-35,-35],[4,-68],[56,-31],[28,-5],[17,-20],[8,-31],[82,15],[77,-57],[31,-77],[31,-10],[79,5],[91,36],[139,107],[21,43],[-23,32],[-120,109],[-80,100],[-55,36],[-127,-11],[-137,113],[-15,-4],[-40,-148]],[[1082,2263],[-12,50],[-29,23],[-23,-1],[-13,-13],[-3,-16],[-7,-21],[-18,-5],[2,-23],[6,-21],[20,-46],[17,-5],[25,7],[7,29],[28,42]],[[3505,2306],[-8,-45],[-8,-82],[-13,-44],[-43,-20],[-44,0],[-91,-17],[-54,-85],[-41,-48],[-14,-36],[44,-69],[44,-59],[34,-17],[34,3],[214,64],[81,74],[81,131],[-12,44],[-3,47],[4,56],[-13,47],[-25,55],[-26,30],[-41,33],[-41,1],[-49,-27],[-10,-36]],[[3068,2004],[-47,8],[-51,-35],[-90,-43],[-62,-26],[-37,-3],[-8,42],[-25,13],[-69,-14],[-23,-23],[-7,-39],[-10,-20],[-20,-63],[-15,-111],[-3,-52],[3,-60],[8,-19],[55,-87],[45,18],[69,56],[81,-70],[60,-18],[43,100],[56,36],[16,60],[16,17],[56,18],[7,78],[14,55],[6,75],[-11,47],[-12,37],[-45,23]],[[2543,1454],[-89,58],[-174,12],[-82,22],[-11,-30],[13,-27],[18,-58],[5,-32],[1,-47],[12,-157],[9,-42],[11,-22],[74,-41],[29,22],[37,86],[17,6],[6,54],[-1,58],[21,25],[156,28],[-25,53],[-27,32]],[[2648,1107],[-99,-76],[-10,-13],[-5,-68],[33,-23],[12,-19],[7,-18],[23,-12],[65,39],[40,45],[-19,103],[-47,42]],[[1171,876],[0,13],[-4,14],[-15,33],[-16,22],[0,23],[3,44],[-58,54],[-48,-54],[-37,-15],[-69,-64],[66,-66],[113,9],[65,-13]],[[920,1055],[3,41],[45,74],[-1,15],[-11,40],[-67,12],[-60,-83],[6,-27],[70,-88],[15,16]],[[1390,1177],[40,-6],[121,14],[24,43],[23,7],[13,47],[-66,64],[-26,50],[-3,43],[-26,12],[-60,-12],[-25,-64],[-7,-34],[-19,-26],[-55,-24],[-11,-14],[24,-59],[38,-14],[10,-12],[5,-15]],[[2131,1393],[-9,-39],[-115,13],[-6,-25],[4,-135],[-13,-48],[-40,-68],[16,-21],[71,-12],[143,-6],[17,27],[-1,52],[8,64],[1,144],[-8,40],[-25,17],[-43,-3]],[[1885,1340],[-21,9],[-27,-35],[-20,-46],[12,-33],[27,-2],[52,55],[-8,34],[-15,18]],[[1714,1521],[4,30],[-5,49],[-37,25],[-5,15],[-55,36],[-3,-50],[7,-24],[0,-31],[-9,-14],[-7,-32],[85,-64],[25,60]],[[2536,1940],[-5,77],[-16,42],[-10,67],[-25,60],[-21,23],[-58,39],[-16,23],[-9,4],[-72,-101],[-45,18],[-36,-35],[35,-119],[63,-31],[34,-111],[64,-34],[64,4],[40,13],[13,61]],[[2789,2085],[92,-30],[57,24],[61,71],[17,46],[-20,63],[-159,-19],[-79,-84],[-13,-20],[-4,-17],[48,-34]],[[3298,2098],[91,17],[44,0],[43,20],[13,44],[8,82],[8,45],[10,36],[49,27],[41,-1],[41,-33],[26,-30],[25,-55],[13,-47],[-4,-56],[3,-47],[12,-44],[-81,-131],[-81,-74],[-214,-64],[-34,-3],[-34,17],[-44,59],[-44,69],[14,36],[41,48],[54,85]],[[2256,1131],[-11,22],[-9,42],[-12,157],[-1,47],[-5,32],[-18,58],[-13,27],[11,30],[82,-22],[174,-12],[89,-58],[27,-32],[25,-53],[-156,-28],[-21,-25],[1,-58],[-6,-54],[-17,-6],[-37,-86],[-29,-22],[-74,41]],[[3113,1981],[-45,23],[-47,8],[-51,-35],[-90,-43],[-62,-26],[-37,-3],[-8,42],[-25,13],[-69,-14],[-23,-23],[-7,-39],[-10,-20],[-20,-63],[-15,-111],[-3,-52],[3,-60],[8,-19],[55,-87],[45,18],[69,56],[81,-70],[60,-18],[43,100],[56,36],[16,60],[16,17],[56,18],[7,78],[14,55],[6,75],[-11,47],[-12,37]],[[366,1625],[24,55],[10,7],[19,-10],[20,80],[18,15],[16,63],[19,28],[14,-11],[48,-103],[106,-45],[11,4],[0,99],[-25,72],[-19,31],[-18,16],[-19,5],[-62,-13],[-83,48],[-17,-1],[-60,-45],[-40,-69],[-86,-23],[-219,-97],[-23,-27]],[[0,1677],[27,-9],[44,-45],[46,-27],[59,38],[10,-34],[7,-66],[15,-44],[43,12],[25,22],[20,76],[9,24],[61,1]],[[1175,1839],[-98,170],[-21,28],[-67,-4],[-28,19],[-28,-4],[-112,-68],[-48,-52],[-18,-127],[8,-66],[-1,-114],[-18,-50],[-84,-9],[-29,59],[-12,12],[-17,-8],[-18,-21],[-57,-17],[-43,-34],[-47,-65],[-138,-169],[17,-49],[20,-24],[26,-64],[47,-3],[18,10],[18,48],[36,18],[46,-7],[15,-31],[-46,-72],[-17,-46],[19,-35],[37,8],[16,13],[13,26],[13,13],[39,-44],[15,17],[12,56],[4,30],[5,14],[39,-40],[17,-7],[16,8],[6,53],[-3,41],[-6,27],[-7,13],[-42,16],[-3,11],[25,63],[15,18],[126,8],[38,57],[-8,55],[17,30],[79,35],[124,15],[34,74],[101,98],[-20,62],[-25,5]],[[1864,1349],[-27,-35],[-20,-46],[12,-33],[27,-2],[52,55],[-8,34],[-15,18],[-21,9]],[[2478,2531],[4,27],[45,37],[35,7],[38,-37],[17,-48],[-11,-23],[-40,-15],[-69,24],[-19,28]],[[1620,1602],[-7,24],[3,50],[55,-36],[5,-15],[37,-25],[5,-49],[-4,-30],[-25,-60],[-85,64],[7,32],[9,14],[0,31]],[[2837,2240],[159,19],[20,-63],[-17,-46],[-61,-71],[-57,-24],[-92,30],[-48,34],[4,17],[13,20],[79,84]],[[1337,1218],[-24,59],[11,14],[55,24],[19,26],[7,34],[25,64],[60,12],[26,-12],[3,-43],[26,-50],[66,-64],[-13,-47],[-23,-7],[-24,-43],[-121,-14],[-40,6],[-5,15],[-10,12],[-38,14]],[[1992,1159],[13,48],[-4,135],[6,25],[115,-13],[9,39],[43,3],[25,-17],[8,-40],[-1,-144],[-8,-64],[1,-52],[-17,-27],[-143,6],[-71,12],[-16,21],[40,68]],[[2539,1018],[10,13],[99,76],[47,-42],[19,-103],[-40,-45],[-65,-39],[-23,12],[-7,18],[-12,19],[-33,23],[5,68]],[[968,1170],[-1,15],[-11,40],[-67,12],[-60,-83],[6,-27],[70,-88],[15,16],[3,41],[45,74]],[[1136,958],[0,23],[3,44],[-58,54],[-48,-54],[-37,-15],[-69,-64],[66,-66],[113,9],[65,-13],[0,13],[-4,14],[-15,33],[-16,22]],[[2268,2771],[-17,-8],[-50,7],[-21,-36],[-47,-102],[-57,-43],[-45,-98],[-68,31],[-58,-21],[20,-97],[26,-47],[86,42],[32,-53],[27,-4],[28,27],[28,46],[62,-69],[53,-51],[58,40],[26,33],[18,67],[-18,56],[-10,76],[93,22],[35,37],[-23,53],[-76,23],[-28,27],[-10,46],[-17,22],[-47,-26]],[[1754,2269],[-40,-148],[-9,-96],[-23,-3],[-35,-35],[4,-68],[56,-31],[28,-5],[17,-20],[8,-31],[82,15],[77,-57],[31,-77],[31,-10],[79,5],[91,36],[139,107],[21,43],[-23,32],[-120,109],[-80,100],[-55,36],[-127,-11],[-137,113],[-15,-4]],[[1047,2192],[7,29],[28,42],[-12,50],[-29,23],[-23,-1],[-13,-13],[-3,-16],[-7,-21],[-18,-5],[2,-23],[6,-21],[20,-46],[17,-5],[25,7]],[[2376,2275],[-72,-101],[-45,18],[-36,-35],[35,-119],[63,-31],[34,-111],[64,-34],[64,4],[40,13],[13,61],[-5,77],[-16,42],[-10,67],[-25,60],[-21,23],[-58,39],[-16,23],[-9,4]],[[3256,2849],[117,-15],[22,15],[24,47],[-3,17],[-10,27],[-167,37],[-93,-14],[-32,-32],[75,-24],[2,-14],[8,-16],[57,-28]],[[2614,3024],[0,26],[9,52],[-27,33],[-205,-30],[-27,-37],[-7,-57],[-7,-30],[2,-14],[8,-17],[60,23],[194,51]],[[2332,2775],[10,-46],[28,-27],[76,-23],[23,-53],[-35,-37],[-93,-22],[10,-76],[18,-56],[-18,-67],[-26,-33],[-58,-40],[-53,51],[-62,69],[-28,-46],[-28,-27],[-27,4],[-32,53],[-86,-42],[-26,47],[-20,97],[58,21],[68,-31],[45,98],[57,43],[47,102],[21,36],[50,-7],[17,8],[47,26],[17,-22]],[[1769,2273],[137,-113],[127,11],[55,-36],[80,-100],[120,-109],[23,-32],[-21,-43],[-139,-107],[-91,-36],[-79,-5],[-31,10],[-31,77],[-77,57],[-82,-15],[-8,31],[-17,20],[-28,5],[-56,31],[-4,68],[35,35],[23,3],[9,96],[40,148],[15,4]],[[2480,2186],[25,-60],[10,-67],[16,-42],[5,-77],[-13,-61],[-40,-13],[-64,-4],[-64,34],[-34,111],[-63,31],[-35,119],[36,35],[45,-18],[72,101],[9,-4],[16,-23],[58,-39],[21,-23]],[[2199,1379],[8,-40],[-1,-144],[-8,-64],[1,-52],[-17,-27],[-143,6],[-71,12],[-16,21],[40,68],[13,48],[-4,135],[6,25],[115,-13],[9,39],[43,3],[25,-17]],[[2359,1112],[-29,-22],[-74,41],[-11,22],[-9,42],[-12,157],[-1,47],[-5,32],[-18,58],[-13,27],[11,30],[82,-22],[174,-12],[89,-58],[27,-32],[25,-53],[-156,-28],[-21,-25],[1,-58],[-6,-54],[-17,-6],[-37,-86]],[[1908,1288],[-52,-55],[-27,2],[-12,33],[20,46],[27,35],[21,-9],[15,-18],[8,-34]],[[1047,2192],[-25,-7],[-17,5],[-20,46],[-6,21],[-2,23],[18,5],[7,21],[3,16],[13,13],[23,1],[29,-23],[12,-50],[-28,-42],[-7,-29]],[[1714,1521],[-25,-60],[-85,64],[7,32],[9,14],[0,31],[-7,24],[3,50],[55,-36],[5,-15],[37,-25],[5,-49],[-4,-30]],[[1167,903],[4,-14],[0,-13],[-65,13],[-113,-9],[-66,66],[69,64],[37,15],[48,54],[58,-54],[-3,-44],[0,-23],[16,-22],[15,-33]],[[2674,917],[-65,-39],[-23,12],[-7,18],[-12,19],[-33,23],[5,68],[10,13],[99,76],[47,-42],[19,-103],[-40,-45]],[[920,1055],[-15,-16],[-70,88],[-6,27],[60,83],[67,-12],[11,-40],[1,-15],[-45,-74],[-3,-41]],[[1551,1185],[-121,-14],[-40,6],[-5,15],[-10,12],[-38,14],[-24,59],[11,14],[55,24],[19,26],[7,34],[25,64],[60,12],[26,-12],[3,-43],[26,-50],[66,-64],[-13,-47],[-23,-7],[-24,-43]],[[2606,2494],[-40,-15],[-69,24],[-19,28],[4,27],[45,37],[35,7],[38,-37],[17,-48],[-11,-23]],[[3395,2849],[-22,-15],[-117,15],[-57,28],[-8,16],[-2,14],[-75,24],[32,32],[93,14],[167,-37],[10,-27],[3,-17],[-24,-47]],[[2420,2973],[-60,-23],[-8,17],[-2,14],[7,30],[7,57],[27,37],[205,30],[27,-33],[-9,-52],[0,-26],[-194,-51]],[[2938,2079],[-57,-24],[-92,30],[-48,34],[4,17],[13,20],[79,84],[159,19],[20,-63],[-17,-46],[-61,-71]],[[961,2052],[28,-19],[67,4],[21,-28],[98,-170],[25,-5],[20,-62],[-101,-98],[-34,-74],[-124,-15],[-79,-35],[-17,-30],[8,-55],[-38,-57],[-126,-8],[-15,-18],[-25,-63],[3,-11],[42,-16],[7,-13],[6,-27],[3,-41],[-6,-53],[-16,-8],[-17,7],[-39,40],[-5,-14],[-4,-30],[-12,-56],[-15,-17],[-39,44],[-13,-13],[-13,-26],[-16,-13],[-37,-8],[-19,35],[17,46],[46,72],[-15,31],[-46,7],[-36,-18],[-18,-48],[-18,-10],[-47,3],[-26,64],[-20,24],[-17,49],[138,169],[47,65],[43,34],[57,17],[18,21],[17,8],[12,-12],[29,-59],[84,9],[18,50],[1,114],[-8,66],[18,127],[48,52],[112,68],[28,4]],[[0,1677],[0,27],[23,27],[219,97],[86,23],[40,69],[60,45],[17,1],[83,-48],[62,13],[19,-5],[18,-16],[19,-31],[25,-72],[0,-99],[-11,-4],[-106,45],[-48,103],[-14,11],[-19,-28],[-16,-63],[-18,-15],[-20,-80],[-19,10],[-10,-7],[-24,-55],[-61,-1],[-9,-24],[-20,-76],[-25,-22],[-43,-12],[-15,44],[-7,66],[-10,34],[-59,-38],[-46,27],[-44,45],[-27,9]],[[3125,1944],[11,-47],[-6,-75],[-14,-55],[-7,-78],[-56,-18],[-16,-17],[-16,-60],[-56,-36],[-43,-100],[-60,18],[-81,70],[-69,-56],[-45,-18],[-55,87],[-8,19],[-3,60],[3,52],[15,111],[20,63],[10,20],[7,39],[23,23],[69,14],[25,-13],[8,-42],[37,3],[62,26],[90,43],[51,35],[47,-8],[45,-23],[12,-37]],[[3345,1787],[-34,-3],[-34,17],[-44,59],[-44,69],[14,36],[41,48],[54,85],[91,17],[44,0],[43,20],[13,44],[8,82],[8,45],[10,36],[49,27],[41,-1],[41,-33],[26,-30],[25,-55],[13,-47],[-4,-56],[3,-47],[12,-44],[-81,-131],[-81,-74],[-214,-64]],[[0,384],[0,3506],[3823,0],[0,-3506],[-3823,0]]]}