{"objects":{"water":{"type":"GeometryCollection","geometries":[{"type":"MultiPolygon","properties":{"source":"naturalearthdata.com","kind":"ocean","area":990044000000000,"sort_rank":200,"min_zoom":0,"id":1},"arcs":[[[0]],[[1]],[[2]],[[3],[4]]]},{"type":"LineString","properties":{"source":"naturalearthdata.com","kind":"ocean","sort_rank":205,"boundary":true,"min_zoom":0,"id":252},"arcs":[5]},{"type":"MultiLineString","properties":{"source":"naturalearthdata.com","kind":"ocean","sort_rank":205,"boundary":true,"min_zoom":0,"id":1386},"arcs":[[6],[7],[8],[9]]}]},"buildings":{"type":"GeometryCollection","geometries":[]},"places":{"type":"GeometryCollection","geometries":[]},"transit":{"type":"GeometryCollection","geometries":[]},"pois":{"type":"GeometryCollection","geometries":[]},"boundaries":{"type":"GeometryCollection","geometries":[]},"roads":{"type":"GeometryCollection","geometries":[]},"earth":{"type":"GeometryCollection","geometries":[{"type":"MultiPolygon","properties":{"sort_rank":10,"source":"naturalearthdata.com","min_zoom":3.0,"kind":"earth","area":87663321458},"arcs":[[[10]]]},{"type":"MultiPolygon","properties":{"sort_rank":10,"source":"naturalearthdata.com","min_zoom":0,"kind":"earth","area":198841645716179},"arcs":[[[11]]]}]},"landuse":{"type":"GeometryCollection","geometries":[]}},"type":"Topology","transform":{"translate":[45.0,-74.0195433115],"scale":[0.0054931641,0.0018325886]},"arcs":[[[4096,422],[-32,-30],[-58,35],[-44,11],[-35,4],[-13,46],[45,68],[26,28],[41,168],[18,98],[12,93],[28,157],[12,38],[0,-716]],[[4096,2027],[-42,17],[27,53],[15,25],[0,-95]],[[4096,3388],[-59,23],[-125,2],[-142,26],[-207,53],[-117,51],[-42,10],[-84,-10],[-40,-19],[-60,-47],[-94,39],[-157,20],[-54,22],[-97,62],[-111,-10],[-40,-30],[-73,-14],[-93,139],[-77,36],[-53,33],[-36,34],[-36,15],[-49,-21],[-85,-2],[-24,-10],[-36,-23],[-36,-53],[-38,-28],[-64,36],[107,123],[16,62],[-5,44],[-29,32],[-27,51],[27,13],[39,-31],[57,-29],[30,5],[36,49],[-24,55],[1902,0],[0,-708]],[[964,4096],[-9,-49],[11,-82],[39,-36],[-2,-65],[18,-116],[-10,-24],[-47,12],[-53,-1],[-94,79],[-44,48],[-76,2],[-66,-57],[24,-70],[21,-25],[38,9],[54,-14],[-30,-69],[-77,-92],[-2,-57],[5,-92],[-18,-72],[-32,-34],[-9,39],[0,72],[-21,47],[-45,21],[-47,-30],[-39,-7],[-32,35],[-36,50],[21,57],[31,32],[-9,26],[-36,2],[-49,45],[-59,4],[-19,-19],[-25,-54],[0,-41],[22,-31],[-7,-46],[-45,-21],[-48,-2],[-58,-41],[-68,2],[-36,-19],[0,684],[964,0]],[[611,3992],[-10,-11],[-1,-14],[0,-13],[2,-13],[13,-5],[31,12],[41,3],[2,6],[0,20],[-6,6],[-21,11],[-51,-2]],[[662,3994],[-51,-2],[-10,-11],[-1,-14],[0,-13],[2,-13],[13,-5],[31,12],[41,3],[2,6],[0,20],[-6,6],[-21,11]],[[0,3412],[36,19],[68,-2],[58,41],[48,2],[45,21],[7,46],[-22,31],[0,41],[25,54],[19,19],[59,-4],[49,-45],[36,-2],[9,-26],[-31,-32],[-21,-57],[36,-50],[32,-35],[39,7],[47,30],[45,-21],[21,-47],[0,-72],[9,-39],[32,34],[18,72],[-5,92],[2,57],[77,92],[30,69],[-54,14],[-38,-9],[-21,25],[-24,70],[66,57],[76,-2],[44,-48],[94,-79],[53,1],[47,-12],[10,24],[-18,116],[2,65],[-39,36],[-11,82],[9,49]],[[2194,4096],[24,-55],[-36,-49],[-30,-5],[-57,29],[-39,31],[-27,-13],[27,-51],[29,-32],[5,-44],[-16,-62],[-107,-123],[64,-36],[38,28],[36,53],[36,23],[24,10],[85,2],[49,21],[36,-15],[36,-34],[53,-33],[77,-36],[93,-139],[73,14],[40,30],[111,10],[97,-62],[54,-22],[157,-20],[94,-39],[60,47],[40,19],[84,10],[42,-10],[117,-51],[207,-53],[142,-26],[125,-2],[59,-23]],[[4096,2122],[-15,-25],[-27,-53],[42,-17]],[[4096,1138],[-12,-38],[-28,-157],[-12,-93],[-18,-98],[-41,-168],[-26,-28],[-45,-68],[13,-46],[35,-4],[44,-11],[58,-35],[32,30]],[[646,3948],[-31,-12],[-13,5],[-2,13],[0,13],[1,14],[10,11],[51,2],[21,-11],[6,-6],[0,-20],[-2,-6],[-41,-3]],[[4096,422],[0,-422],[-4096,0],[0,3412],[36,19],[68,-2],[58,41],[48,2],[45,21],[7,46],[-22,31],[0,41],[25,54],[19,19],[59,-4],[49,-45],[36,-2],[9,-26],[-31,-32],[-21,-57],[36,-50],[32,-35],[39,7],[47,30],[45,-21],[21,-47],[0,-72],[9,-39],[32,34],[18,72],[-5,92],[2,57],[77,92],[30,69],[-54,14],[-38,-9],[-21,25],[-24,70],[66,57],[76,-2],[44,-48],[94,-79],[53,1],[47,-12],[10,24],[-18,116],[2,65],[-39,36],[-11,82],[9,49],[1230,0],[24,-55],[-36,-49],[-30,-5],[-57,29],[-39,31],[-27,-13],[27,-51],[29,-32],[5,-44],[-16,-62],[-107,-123],[64,-36],[38,28],[36,53],[36,23],[24,10],[85,2],[49,21],[36,-15],[36,-34],[53,-33],[77,-36],[93,-139],[73,14],[40,30],[111,10],[97,-62],[54,-22],[157,-20],[94,-39],[60,47],[40,19],[84,10],[42,-10],[117,-51],[207,-53],[142,-26],[125,-2],[59,-23],[0,-1266],[-15,-25],[-27,-53],[42,-17],[0,-889],[-12,-38],[-28,-157],[-12,-93],[-18,-98],[-41,-168],[-26,-28],[-45,-68],[13,-46],[35,-4],[44,-11],[58,-35],[32,30]]]}