{"objects":{"water":{"type":"GeometryCollection","geometries":[{"type":"Polygon","properties":{"name:pt":null,"collision_rank":400,"name:nl":null,"name:id":null,"name:hi":null,"name:tr":null,"name:ar":null,"min_zoom":4.0,"name:it":null,"name:vi":null,"name:ru":"\u0422\u0435\u0448\u0435\u043a\u043f\u0443\u043a","name:sv":null,"name:pl":null,"name:hu":null,"id":134,"name:ja":null,"name:el":null,"kind":"lake","name:en":"Teshekpuk Lake","name":"Teshekpuk Lake","area":7345700000,"sort_rank":204,"name:bn":null,"name:de":null,"name:ko":null,"name:fr":"Teshekpuk Lake","source":"naturalearthdata.com","wikidata_id":"Q3518981","name:zh":null,"name:es":null},"arcs":[[2]]},{"type":"MultiPolygon","properties":{"source":"naturalearthdata.com","kind":"ocean","area":990044000000000,"sort_rank":200,"min_zoom":0,"id":1},"arcs":[[[3],[4]]]},{"type":"LineString","properties":{"source":"naturalearthdata.com","min_zoom":4.0,"area":7345700000,"sort_rank":367,"boundary":true,"id":134,"kind":"lake"},"arcs":[5]},{"type":"LineString","properties":{"source":"naturalearthdata.com","kind":"ocean","sort_rank":205,"boundary":true,"min_zoom":0,"id":1128},"arcs":[6]},{"type":"LineString","properties":{"source":"naturalearthdata.com","kind":"ocean","sort_rank":205,"boundary":true,"min_zoom":0,"id":1200},"arcs":[7]},{"type":"LineString","properties":{"source":"naturalearthdata.com","kind":"ocean","sort_rank":205,"boundary":true,"min_zoom":0,"id":1201},"arcs":[8]}]},"buildings":{"type":"GeometryCollection","geometries":[]},"places":{"type":"GeometryCollection","geometries":[]},"transit":{"type":"GeometryCollection","geometries":[]},"pois":{"type":"GeometryCollection","geometries":[]},"boundaries":{"type":"GeometryCollection","geometries":[{"type":"LineString","properties":{"sort_rank":262,"kind_detail":"2","kind":"country","min_zoom":0,"source":"naturalearthdata.com"},"arcs":[0]},{"type":"LineString","properties":{"sort_rank":256,"kind_detail":"4","kind":"region","min_zoom":2.0,"source":"naturalearthdata.com"},"arcs":[1]}]},"roads":{"type":"GeometryCollection","geometries":[]},"earth":{"type":"GeometryCollection","geometries":[{"type":"MultiPolygon","properties":{"sort_rank":10,"source":"naturalearthdata.com","min_zoom":3.0,"kind":"earth","area":261709008765},"arcs":[[[9]]]},{"type":"MultiPolygon","properties":{"sort_rank":10,"source":"naturalearthdata.com","min_zoom":0,"kind":"earth","area":119982075948881},"arcs":[[[10]]]}]},"landuse":{"type":"GeometryCollection","geometries":[{"type":"MultiPolygon","properties":{"kind":"park","protect_class":"1","area":373110785116,"sort_rank":24,"source":"openstreetmap.org","min_zoom":4.0,"tier":2,"id":-6127119},"arcs":[[[11]]]},{"type":"MultiPolygon","properties":{"kind":"nature_reserve","protect_class":"4","area":663803139481,"sort_rank":23,"operator":"US Fish and Wildlife Service","source":"openstreetmap.org","min_zoom":4.0,"tier":2,"id":-8537673},"arcs":[[[12],[13],[14],[15],[16],[17],[18],[19]]]},{"type":"MultiPolygon","properties":{"source":"openstreetmap.org","kind":"park","area":1313138581307,"tier":2,"min_zoom":4.0,"id":-7025660,"sort_rank":24},"arcs":[[[20]]]},{"type":"MultiPolygon","properties":{"source":"openstreetmap.org","kind":"nature_reserve","area":1164576512502,"tier":2,"min_zoom":4.0,"id":-8537784,"sort_rank":23},"arcs":[[[21]],[[22]],[[23]],[[24]]]},{"type":"MultiPolygon","properties":{"kind":"nature_reserve","protect_class":"4","area":816430041478,"sort_rank":23,"source":"openstreetmap.org","min_zoom":4.0,"tier":2,"id":-8890494},"arcs":[[[25]]]},{"type":"Polygon","properties":{"kind":"protected_area","tier":2,"area":784254000000,"sort_rank":17,"source":"openstreetmap.org","min_zoom":4.0,"operator":"U.S. Bureau of Land Management","id":-8870643},"arcs":[[26]]}]}},"type":"Topology","transform":{"translate":[-157.5,66.5132604431],"scale":[0.0054931641,0.0018325886]},"arcs":[[[3003,0],[0,118],[0,159],[0,159],[0,160],[0,159],[0,160],[0,159],[0,160],[0,159],[0,160],[0,159]],[[4096,268],[-48,0],[-53,0],[-52,0],[-52,0],[-8,6],[-4,11],[-6,29],[0,25],[1,16],[0,9],[13,25],[7,34],[1,9],[-4,27],[-3,11],[-3,10],[-3,16],[0,15],[1,35],[-7,34],[-5,13],[-5,9],[-25,27],[-6,20],[-2,24],[0,159],[0,159],[0,159],[0,150]],[[830,2213],[-61,-28],[-69,-21],[-12,8],[-13,-4],[-24,14],[-17,17],[-15,30],[-14,19],[-11,3],[-4,12],[18,10],[23,3],[11,-3],[6,10],[23,15],[37,7],[109,-73],[13,-19]],[[0,2436],[0,1660],[4096,0],[0,-2479],[-26,-5],[-10,-10],[-6,-13],[-4,-55],[-7,-9],[-38,16],[-21,-25],[-14,11],[-40,-109],[11,-17],[20,-17],[16,-10],[14,-2],[-2,-11],[-20,-4],[-32,1],[-9,-5],[-3,-10],[8,-26],[3,-5],[44,-14],[37,-27],[5,-7],[32,-74],[-5,-5],[-19,6],[-92,75],[-46,27],[-69,8],[-40,-5],[-64,34],[-34,7],[-111,71],[-48,32],[-29,36],[-73,54],[-89,108],[-145,58],[-78,-10],[-83,18],[-26,8],[-14,5],[-38,3],[-9,-10],[-13,3],[-21,34],[-32,30],[-108,55],[-23,38],[-52,51],[-93,45],[-11,-11],[-14,-4],[-38,7],[-33,0],[-58,-26],[-64,-8],[-37,-31],[-105,14],[-8,14],[-37,9],[-69,60],[-43,-2],[-41,16],[-84,3],[-58,-11],[-117,25],[-15,13],[-15,34],[-31,7],[-19,22],[-19,0],[-22,-22],[-20,1],[-38,54],[-28,5],[-78,41],[-25,-5],[-25,12],[-59,-2],[-51,-36],[-22,-5],[-24,5],[-26,25],[-21,11],[-58,-25],[-27,-7],[-18,-18],[-131,18],[23,33],[4,14],[5,12],[-73,-2],[-15,7],[-3,25],[-23,3],[-13,18],[6,44],[37,42],[-12,20],[-35,18],[-33,6],[-21,-8],[-81,31],[-48,-23],[-37,1],[-40,-9],[-50,-41],[-36,20],[-38,5],[-34,26],[11,18],[10,32],[-27,34],[-23,19],[-40,8],[-12,-9],[-15,-37],[-48,-65],[-24,-21],[-30,-12],[-18,4],[-13,33],[-19,14],[63,37],[31,36],[10,32],[-12,34],[-31,3],[-119,56],[-18,28],[13,20],[18,10],[-14,6],[-57,-49],[-34,-48],[-41,-75],[-23,-29],[-32,-34]],[[3342,1711],[-27,-28],[6,-10],[24,-22],[15,21],[30,7],[-10,15],[-25,16],[-13,1]],[[830,2213],[-61,-28],[-69,-21],[-12,8],[-13,-4],[-24,14],[-17,17],[-15,30],[-14,19],[-11,3],[-4,12],[18,10],[23,3],[11,-3],[6,10],[23,15],[37,7],[109,-73],[13,-19]],[[3315,1683],[6,-10],[24,-22],[15,21],[30,7],[-10,15],[-25,16],[-13,1],[-27,-28]],[[4096,1617],[-26,-5],[-10,-10],[-6,-13],[-4,-55],[-7,-9],[-38,16],[-21,-25],[-14,11],[-40,-109],[11,-17],[20,-17],[16,-10],[14,-2],[-2,-11],[-20,-4],[-32,1],[-9,-5],[-3,-10],[8,-26],[3,-5],[44,-14],[37,-27],[5,-7],[32,-74],[-5,-5],[-19,6],[-92,75],[-46,27],[-59,7]],[[3833,1300],[-10,1],[-40,-5],[-64,34],[-34,7],[-111,71],[-48,32],[-29,36],[-73,54],[-89,108],[-145,58],[-78,-10],[-83,18],[-26,8],[-14,5],[-38,3],[-9,-10],[-13,3],[-21,34],[-32,30],[-108,55],[-23,38],[-52,51],[-93,45],[-11,-11],[-14,-4],[-38,7],[-33,0],[-58,-26],[-64,-8],[-37,-31],[-105,14],[-8,14],[-37,9],[-69,60],[-43,-2],[-41,16],[-84,3],[-58,-11],[-117,25],[-15,13],[-15,34],[-31,7],[-19,22],[-19,0],[-22,-22],[-20,1],[-38,54],[-28,5],[-78,41],[-25,-5],[-25,12],[-59,-2],[-51,-36],[-22,-5],[-24,5],[-26,25],[-21,11],[-58,-25],[-27,-7],[-18,-18],[-131,18],[23,33],[4,14],[5,12],[-73,-2],[-15,7],[-3,25],[-23,3],[-13,18],[6,44],[37,42],[-12,20],[-35,18],[-33,6],[-21,-8],[-81,31],[-48,-23],[-37,1],[-40,-9],[-50,-41],[-36,20],[-38,5],[-34,26],[11,18],[10,32],[-27,34],[-23,19],[-40,8],[-12,-9],[-15,-37],[-48,-65],[-24,-21],[-30,-12],[-18,4],[-13,33],[-19,14],[63,37],[31,36],[10,32],[-12,34],[-31,3],[-119,56],[-18,28],[13,20],[18,10],[-14,6],[-57,-49],[-34,-48],[-41,-75],[-23,-29],[-32,-34]],[[3360,1672],[-15,-21],[-24,22],[-6,10],[27,28],[13,-1],[25,-16],[10,-15],[-30,-7]],[[4096,1617],[0,-1617],[-4096,0],[0,2436],[32,34],[23,29],[41,75],[34,48],[57,49],[14,-6],[-18,-10],[-13,-20],[18,-28],[119,-56],[31,-3],[12,-34],[-10,-32],[-31,-36],[-63,-37],[19,-14],[13,-33],[18,-4],[30,12],[24,21],[48,65],[15,37],[12,9],[40,-8],[23,-19],[27,-34],[-10,-32],[-11,-18],[34,-26],[38,-5],[36,-20],[50,41],[40,9],[37,-1],[48,23],[81,-31],[21,8],[33,-6],[35,-18],[12,-20],[-37,-42],[-6,-44],[13,-18],[23,-3],[3,-25],[15,-7],[73,2],[-5,-12],[-4,-14],[-23,-33],[131,-18],[18,18],[27,7],[58,25],[21,-11],[26,-25],[24,-5],[22,5],[51,36],[59,2],[25,-12],[25,5],[78,-41],[28,-5],[38,-54],[20,-1],[22,22],[19,0],[19,-22],[31,-7],[15,-34],[15,-13],[117,-25],[58,11],[84,-3],[41,-16],[43,2],[69,-60],[37,-9],[8,-14],[105,-14],[37,31],[64,8],[58,26],[33,0],[38,-7],[14,4],[11,11],[93,-45],[52,-51],[23,-38],[108,-55],[32,-30],[21,-34],[13,-3],[9,10],[38,-3],[14,-5],[26,-8],[83,-18],[78,10],[145,-58],[89,-108],[73,-54],[29,-36],[48,-32],[111,-71],[34,-7],[64,-34],[40,5],[69,-8],[46,-27],[92,-75],[19,-6],[5,5],[-32,74],[-5,7],[-37,27],[-44,14],[-3,5],[-8,26],[3,10],[9,5],[32,-1],[20,4],[2,11],[-14,2],[-16,10],[-20,17],[-11,17],[40,109],[14,-11],[21,25],[38,-16],[7,9],[4,55],[6,13],[10,10],[26,5]],[[3004,931],[0,779],[109,-31],[92,13],[101,-37],[113,-113],[20,-58],[22,9],[-5,-8],[12,-13],[2,20],[20,-24],[-13,-59],[42,-24],[4,-33],[-70,-21],[-32,-74],[-98,-92],[-91,-13],[-21,23],[-1,0],[55,-75],[41,-8],[15,27],[33,-38],[1,0],[3,36],[123,-34],[-23,-59],[-67,-20],[-16,-73],[-124,-96],[-33,10],[-33,81],[-56,48],[-42,-62],[-54,-14],[-29,33]],[[1477,1078],[121,20],[0,95],[53,47],[0,142],[113,0],[29,94],[44,0],[0,47],[88,24],[0,-24],[160,0],[5,32],[-56,64],[15,124],[-41,77],[96,175],[108,-71],[46,-4],[-16,-22],[93,-14],[39,38],[101,46],[119,17],[105,-69],[96,-87],[87,-48],[58,-54],[64,-17],[0,-1506],[-82,-79],[-43,5],[-9,104],[-78,-16],[-7,-55],[-39,-16],[-53,8],[0,32],[-66,-24],[-7,47],[33,8],[6,79],[-20,79],[-41,0],[0,47],[-29,0],[0,94],[-183,0],[-41,-31],[-61,23],[0,-23],[-44,-16],[-35,67],[46,23],[-2,334],[-74,-10],[-69,-59],[-38,-119],[18,-68],[-3,-24],[-20,-55],[-146,-132],[1,232],[-110,0],[0,47],[-34,0],[-1,36],[-64,32],[-11,168],[-29,-11],[-19,25],[-113,-77],[-18,13],[-6,159],[-29,0],[-7,27]],[[2583,1893],[9,-39],[45,0],[-41,69],[41,2],[0,20],[-46,22],[3,-55],[-2,-2],[-2,-2],[-2,-8],[-4,-2],[0,-4],[-1,-1]],[[2458,1942],[6,-15],[3,-26],[117,24],[-15,-24],[12,-8],[4,10],[8,12],[-4,6],[-4,15],[-4,15],[1,11],[-33,-12],[-2,17],[-3,3],[-1,0],[-2,-25],[-30,15],[-17,-23],[-36,5]],[[2450,1938],[0,-1],[6,-10],[-1,-17],[-3,-8],[3,-9],[10,8],[-1,2],[-2,5],[1,1],[-2,1],[0,1],[3,1],[-3,8],[3,4],[-8,4],[-6,10]],[[2410,1920],[0,-19],[43,-8],[-6,38],[-6,-9],[-31,-2]],[[2304,862],[0,-47],[42,0],[0,47],[-42,0]],[[2001,795],[0,-41],[57,0],[-27,29],[-16,4],[-13,8],[-1,0]],[[1619,1185],[0,-24],[43,0],[0,24],[-43,0]],[[91,602],[20,33],[29,-22],[47,181],[109,33],[46,-34],[1,218],[180,-23],[-13,35],[192,-4],[21,55],[107,0],[0,-47],[44,-23],[-21,-95],[133,-31],[-42,-8],[11,-36],[-46,20],[0,-39],[99,0],[20,39],[15,-39],[150,31],[-24,39],[-83,6],[12,65],[68,0],[-14,-56],[60,33],[95,-21],[39,-53],[37,7],[23,-31],[-36,-140],[28,-52],[-9,-67],[-17,-37],[-58,4],[-15,-118],[-37,-55],[21,-16],[-18,-46],[-40,-18],[-73,-11],[-1,144],[32,0],[0,47],[-41,0],[0,95],[-41,0],[0,47],[-41,0],[0,-47],[-241,-1],[17,-118],[-72,6],[1,-47],[-61,0],[-34,-94],[-90,-35],[-36,3],[-15,49],[-38,-2],[10,79],[-247,17],[-50,138],[-94,-29],[-19,71]],[[2812,0],[-1451,0],[-3,45],[80,118],[-14,63],[65,24],[18,-32],[43,8],[57,35],[6,44],[228,-16],[50,32],[131,-55],[75,-136],[-8,-73],[35,-8],[1,0],[-11,31],[75,62],[-21,41],[23,159],[42,63],[6,64],[45,17],[0,23],[61,-23],[41,31],[183,0],[0,-94],[29,0],[0,-47],[41,0],[20,-79],[-6,-79],[-33,-8],[7,-47],[66,24],[0,-32],[53,-8],[39,16],[7,55],[33,0],[-13,-218]],[[0,500],[0,450],[93,35],[20,-63],[134,-17],[0,-42],[51,-29],[-9,-9],[0,-1],[7,3],[46,-34],[1,218],[180,-23],[-13,35],[192,-4],[21,55],[107,0],[0,-47],[44,-23],[-21,-95],[133,-31],[-42,-8],[11,-36],[-46,20],[0,-39],[99,0],[20,39],[15,-39],[150,31],[-24,39],[-83,6],[12,65],[68,0],[-14,-56],[60,33],[95,-21],[39,-53],[37,7],[23,-31],[-36,-140],[28,-52],[-9,-67],[-17,-37],[-58,4],[-15,-118],[-37,-55],[21,-16],[-18,-46],[-40,-18],[-73,-11],[-1,144],[32,0],[0,47],[-41,0],[0,95],[-41,0],[0,47],[-41,0],[0,-47],[-241,-1],[17,-118],[-72,6],[1,-47],[-61,0],[-34,-94],[-90,-35],[-36,3],[-15,49],[-38,-2],[10,79],[-247,17],[-50,138],[-94,-29],[-9,35],[-12,-10],[-45,30],[0,-40],[-44,-46]],[[881,941],[34,86],[43,0],[9,-79],[61,-11],[14,-35],[-44,18],[30,-27],[-27,-23],[-1,23],[-119,48]],[[808,1169],[107,-24],[0,-71],[-71,0],[-14,48],[-22,0],[0,47]],[[182,0],[-182,0],[0,17],[145,10],[33,-8],[4,-19]],[[0,2443],[186,218],[131,-87],[165,-70],[49,-55],[0,-93],[57,-6],[15,-28],[52,63],[121,21],[177,-46],[12,-23],[-51,-58],[10,-43],[130,-30],[2,-33],[-44,-27],[93,-11],[38,-34],[21,18],[-2,-51],[37,-47],[-42,-87],[-78,10],[-14,-56],[36,-190],[-25,-107],[-415,-199],[-13,-50],[-83,70],[-168,-17],[-77,-69],[-7,19],[-40,-11],[0,-486],[-27,18],[1,39],[-144,25],[-10,55],[-93,-35],[0,1493]]]}