{"objects":{"water":{"type":"GeometryCollection","geometries":[{"type":"MultiPolygon","properties":{"source":"naturalearthdata.com","kind":"ocean","area":990044000000000,"sort_rank":200,"min_zoom":0,"id":1},"arcs":[[[0],[1],[2],[3],[4]]]},{"type":"MultiLineString","properties":{"source":"naturalearthdata.com","kind":"ocean","sort_rank":205,"boundary":true,"min_zoom":0,"id":382},"arcs":[[5],[6]]},{"type":"LineString","properties":{"source":"naturalearthdata.com","kind":"ocean","sort_rank":205,"boundary":true,"min_zoom":0,"id":803},"arcs":[7]},{"type":"LineString","properties":{"source":"naturalearthdata.com","kind":"ocean","sort_rank":205,"boundary":true,"min_zoom":0,"id":804},"arcs":[8]},{"type":"LineString","properties":{"source":"naturalearthdata.com","kind":"ocean","sort_rank":205,"boundary":true,"min_zoom":0,"id":805},"arcs":[9]},{"type":"LineString","properties":{"source":"naturalearthdata.com","kind":"ocean","sort_rank":205,"boundary":true,"min_zoom":0,"id":809},"arcs":[10]}]},"buildings":{"type":"GeometryCollection","geometries":[]},"places":{"type":"GeometryCollection","geometries":[]},"transit":{"type":"GeometryCollection","geometries":[]},"pois":{"type":"GeometryCollection","geometries":[]},"boundaries":{"type":"GeometryCollection","geometries":[]},"roads":{"type":"GeometryCollection","geometries":[]},"earth":{"type":"GeometryCollection","geometries":[{"type":"MultiPolygon","properties":{"sort_rank":10,"source":"naturalearthdata.com","min_zoom":1.5,"kind":"earth","area":466505341662},"arcs":[[[11]],[[12]]]},{"type":"MultiPolygon","properties":{"sort_rank":10,"source":"naturalearthdata.com","min_zoom":0.5,"kind":"earth","area":1116398715200},"arcs":[[[13]]]},{"type":"MultiPolygon","properties":{"sort_rank":10,"source":"naturalearthdata.com","min_zoom":3.0,"kind":"earth","area":261709008765},"arcs":[[[14]],[[15]]]}]},"landuse":{"type":"GeometryCollection","geometries":[{"type":"MultiPolygon","properties":{"kind":"national_park","protect_class":"2","area":20348673556490,"sort_rank":18,"source":"openstreetmap.org","min_zoom":3.0,"tier":1,"id":-8515283},"arcs":[[[16]]]},{"type":"Polygon","properties":{"kind":"protected_area","tier":2,"protect_class":"4","area":1985880000,"sort_rank":17,"source":"openstreetmap.org","min_zoom":4.0,"operator":"DNLR, NOAA","id":-6648150},"arcs":[[17],[18]]}]}},"type":"Topology","transform":{"translate":[-157.5,-0.0],"scale":[0.0054931641,0.0053571889]},"arcs":[[[0,351],[0,3745],[4096,0],[0,-4096],[-4096,0],[0,344],[15,-10],[31,-11],[13,2],[-30,21],[3,21],[-21,11],[-10,1],[24,-16],[-6,-3],[-7,-15],[-12,6]],[[342,3764],[-38,21],[-8,-3],[-3,-17],[13,-29],[-16,-22],[-15,-12],[-11,-15],[15,-30],[14,-39],[-3,-48],[5,-10],[36,-19],[10,-1],[8,9],[9,18],[41,28],[46,11],[37,25],[9,14],[-7,8],[-20,14],[-7,16],[-14,3],[-4,24],[-20,22],[-77,32]],[[246,3899],[-23,12],[-14,-2],[-20,-5],[-5,3],[-8,12],[-10,7],[-13,-1],[-7,-15],[2,-8],[13,-15],[13,-6],[12,2],[5,-18],[2,-16],[6,-3],[18,-1],[13,6],[24,3],[17,13],[4,8],[-5,6],[-16,9],[-8,9]],[[118,3878],[8,10],[-7,9],[-6,5],[-11,5],[-20,-3],[11,-17],[3,-12],[12,-3],[10,6]],[[106,3953],[-6,4],[-9,-2],[-39,5],[-6,3],[-1,-9],[-5,-6],[-2,-7],[49,-3],[30,-8],[20,9],[6,10],[-5,1],[-32,3]],[[29,346],[3,21],[-21,11],[-10,1],[24,-16],[-6,-3],[-7,-15],[-12,6]],[[0,344],[15,-10],[31,-11],[13,2],[-30,21]],[[464,3667],[-7,16],[-14,3],[-4,24],[-20,22],[-77,32],[-38,21],[-8,-3],[-3,-17],[13,-29],[-16,-22],[-15,-12],[-11,-15],[15,-30],[14,-39],[-3,-48],[5,-10],[36,-19],[10,-1],[8,9],[9,18],[41,28],[46,11],[37,25],[9,14],[-7,8],[-20,14]],[[106,3953],[-6,4],[-9,-2],[-39,5],[-6,3],[-1,-9],[-5,-6],[-2,-7],[49,-3],[30,-8],[20,9],[6,10],[-5,1],[-32,3]],[[254,3890],[-8,9],[-23,12],[-14,-2],[-20,-5],[-5,3],[-8,12],[-10,7],[-13,-1],[-7,-15],[2,-8],[13,-15],[13,-6],[12,2],[5,-18],[2,-16],[6,-3],[18,-1],[13,6],[24,3],[17,13],[4,8],[-5,6],[-16,9]],[[102,3907],[-20,-3],[11,-17],[3,-12],[12,-3],[10,6],[8,10],[-7,9],[-6,5],[-11,5]],[[184,3907],[5,-3],[20,5],[14,2],[23,-12],[8,-9],[16,-9],[5,-6],[-4,-8],[-17,-13],[-24,-3],[-13,-6],[-18,1],[-6,3],[-2,16],[-5,18],[-12,-2],[-13,6],[-13,15],[-2,8],[7,15],[13,1],[10,-7],[8,-12]],[[52,3960],[39,-5],[9,2],[6,-4],[32,-3],[5,-1],[-6,-10],[-20,-9],[-30,8],[-49,3],[2,7],[5,6],[1,9],[6,-3]],[[349,3549],[-8,-9],[-10,1],[-36,19],[-5,10],[3,48],[-14,39],[-15,30],[11,15],[15,12],[16,22],[-13,29],[3,17],[8,3],[38,-21],[77,-32],[20,-22],[4,-24],[14,-3],[7,-16],[20,-14],[7,-8],[-9,-14],[-37,-25],[-46,-11],[-41,-28],[-9,-18]],[[0,344],[0,7],[12,-6],[7,15],[6,3],[-24,16],[10,-1],[21,-11],[-3,-21],[30,-21],[-13,-2],[-31,11],[-15,10]],[[118,3878],[-10,-6],[-12,3],[-3,12],[-11,17],[20,3],[11,-5],[6,-5],[7,-9],[-8,-10]],[[310,3593],[57,56],[85,-41],[-69,-26],[14,45],[-47,0],[-19,-69],[-21,35]],[[33,3929],[111,20],[4,-51],[41,-19],[9,-37],[-103,24],[-20,32],[18,26],[-60,5]],[[80,3900],[17,-30],[29,14],[-18,21],[-28,-5]]]}