{"objects":{"water":{"type":"GeometryCollection","geometries":[{"type":"MultiPolygon","properties":{"source":"naturalearthdata.com","kind":"ocean","area":989871000000000,"sort_rank":200,"min_zoom":0,"id":1},"arcs":[[[0],[1]],[[2]]]},{"type":"MultiLineString","properties":{"source":"naturalearthdata.com","kind":"ocean","sort_rank":205,"boundary":true,"min_zoom":0,"id":514},"arcs":[[3],[4],[5]]},{"type":"LineString","properties":{"source":"naturalearthdata.com","kind":"ocean","sort_rank":205,"boundary":true,"min_zoom":0,"id":515},"arcs":[6]},{"type":"LineString","properties":{"source":"naturalearthdata.com","kind":"ocean","sort_rank":205,"boundary":true,"min_zoom":0,"id":1511},"arcs":[7]},{"type":"LineString","properties":{"source":"naturalearthdata.com","kind":"ocean","sort_rank":205,"boundary":true,"min_zoom":0,"id":1512},"arcs":[8]}]},"buildings":{"type":"GeometryCollection","geometries":[]},"places":{"type":"GeometryCollection","geometries":[]},"transit":{"type":"GeometryCollection","geometries":[]},"pois":{"type":"GeometryCollection","geometries":[]},"boundaries":{"type":"GeometryCollection","geometries":[]},"roads":{"type":"GeometryCollection","geometries":[]},"earth":{"type":"GeometryCollection","geometries":[{"type":"MultiPolygon","properties":{"sort_rank":10,"source":"naturalearthdata.com","kind":"earth","min_zoom":4.0,"area":112145940633},"arcs":[[[9]]]},{"type":"MultiPolygon","properties":{"sort_rank":10,"source":"naturalearthdata.com","min_zoom":0,"kind":"earth","area":44884805284559},"arcs":[[[10]],[[11]],[[12]],[[13]]]}]},"landuse":{"type":"GeometryCollection","geometries":[{"type":"MultiPolygon","properties":{"kind":"national_park","protect_class":"2","area":19551643767465,"sort_rank":18,"source":"openstreetmap.org","min_zoom":3.0,"tier":1,"id":-8515283},"arcs":[[[14]]]}]}},"type":"Topology","transform":{"translate":[-56.25,82.6762849783],"scale":[0.002746582,0.000318109]},"arcs":[[[4096,536],[0,-207],[-5,14],[-29,39],[-39,-45],[-99,-10],[-100,-10],[-8,-23],[9,-51],[30,-86],[102,-139],[32,-11],[6,-7],[-374,0],[-7,7],[-98,-6],[-8,-1],[-3508,0],[0,4096],[4096,0],[0,-2629],[-28,33],[-13,36],[-7,7],[-8,-15],[-27,-83],[-50,-31],[-8,16],[-5,29],[0,27],[8,14],[-10,16],[-14,-10],[-15,-27],[-11,-32],[-1,-44],[12,-37],[57,-91],[37,-16],[6,-13],[3,-3],[1,-6],[0,-14],[0,-15],[0,-8],[8,-8],[14,2],[8,-16],[-5,-25],[4,-20],[44,-24],[0,-266],[-38,-29],[-3,23],[3,19],[5,18],[5,24],[-16,81],[-121,103],[-121,104],[-42,99],[-25,36],[-26,0],[-13,-59],[-12,-49],[-117,0],[-28,-35],[3,-69],[-6,-24],[-46,9],[-14,-18],[-7,-50],[173,-67],[89,-190],[-158,87],[-157,86],[-17,-44],[17,-7],[33,-64],[66,-50],[16,-32],[-3,-8],[-3,-14],[-3,-19],[-1,-23],[148,-103],[20,-36],[23,5],[21,-23],[117,28],[0,21],[-3,6],[-2,8],[-5,29],[17,17],[122,-51],[109,-46]],[[3058,337],[116,1],[19,25],[14,60],[-24,55],[-142,107],[-142,108],[-29,-34],[-9,-24],[-5,-31],[-3,-49],[0,-78],[5,-59],[12,-36],[13,-19],[175,-26]],[[4096,725],[0,-34],[-23,35],[0,19],[23,-20]],[[4096,1467],[-28,33],[-13,36],[-7,7],[-8,-15],[-27,-83],[-50,-31],[-8,16],[-5,29],[0,27],[8,14],[-10,16],[-14,-10],[-15,-27],[-11,-32],[-1,-44],[12,-37],[57,-91],[37,-16],[6,-13],[3,-3],[1,-6],[0,-14],[0,-15],[0,-8],[8,-8],[14,2],[8,-16],[-5,-25],[4,-20],[44,-24]],[[4096,843],[-38,-29],[-3,23],[3,19],[5,18],[5,24],[-16,81],[-121,103],[-121,104],[-42,99],[-25,36],[-26,0],[-13,-59],[-12,-49],[-117,0],[-28,-35],[3,-69],[-6,-24],[-46,9],[-14,-18],[-7,-50],[173,-67],[89,-190],[-158,87],[-157,86],[-17,-44],[17,-7],[33,-64],[66,-50],[16,-32],[-3,-8],[-3,-14],[-3,-19],[-1,-23],[148,-103],[20,-36],[23,5],[21,-23],[117,28],[0,21],[-3,6],[-2,8],[-5,29],[17,17],[122,-51],[109,-46]],[[4096,691],[-23,35],[0,19],[23,-20]],[[4096,329],[-5,14],[-29,39],[-39,-45],[-99,-10],[-100,-10],[-8,-23],[9,-51],[30,-86],[102,-139],[32,-11],[6,-7]],[[3621,0],[-7,7],[-98,-6],[-8,-1]],[[3058,337],[116,1],[19,25],[14,60],[-24,55],[-142,107],[-142,108],[-29,-34],[-9,-24],[-5,-31],[-3,-49],[0,-78],[5,-59],[12,-36],[13,-19],[175,-26]],[[3058,337],[-175,26],[-13,19],[-12,36],[-5,59],[0,78],[3,49],[5,31],[9,24],[29,34],[142,-108],[142,-107],[24,-55],[-14,-60],[-19,-25],[-116,-1]],[[3621,0],[-113,0],[8,1],[98,6],[7,-7]],[[4096,329],[0,-329],[-101,0],[-6,7],[-32,11],[-102,139],[-30,86],[-9,51],[8,23],[100,10],[99,10],[39,45],[29,-39],[5,-14]],[[4096,691],[0,-155],[-109,46],[-122,51],[-17,-17],[5,-29],[2,-8],[3,-6],[0,-21],[-117,-28],[-21,23],[-23,-5],[-20,36],[-148,103],[1,23],[3,19],[3,14],[3,8],[-16,32],[-66,50],[-33,64],[-17,7],[17,44],[157,-86],[158,-87],[-89,190],[-173,67],[7,50],[14,18],[46,-9],[6,24],[-3,69],[28,35],[117,0],[12,49],[13,59],[26,0],[25,-36],[42,-99],[121,-104],[121,-103],[16,-81],[-5,-24],[-5,-18],[-3,-19],[3,-23],[38,29],[0,-118],[-23,20],[0,-19],[23,-35]],[[4096,1467],[0,-358],[-44,24],[-4,20],[5,25],[-8,16],[-14,-2],[-8,8],[0,8],[0,15],[0,14],[-1,6],[-3,3],[-6,13],[-37,16],[-57,91],[-12,37],[1,44],[11,32],[15,27],[14,10],[10,-16],[-8,-14],[0,-27],[5,-29],[8,-16],[50,31],[27,83],[8,15],[7,-7],[13,-36],[28,-33]],[[4096,2257],[0,-2257],[-3382,0],[947,768],[676,292],[952,748],[536,326],[271,123]]]}