{"objects":{"water":{"type":"GeometryCollection","geometries":[{"type":"MultiPolygon","properties":{"source":"naturalearthdata.com","kind":"ocean","area":989871000000000,"sort_rank":200,"min_zoom":0,"id":1},"arcs":[[[0],[1],[2],[3],[4],[5],[6],[7],[8],[9],[10],[11],[12],[13],[14]]]},{"type":"MultiLineString","properties":{"source":"naturalearthdata.com","kind":"ocean","sort_rank":205,"boundary":true,"min_zoom":0,"id":251},"arcs":[[15],[16],[17]]},{"type":"LineString","properties":{"source":"naturalearthdata.com","kind":"ocean","sort_rank":205,"boundary":true,"min_zoom":0,"id":275},"arcs":[18]},{"type":"LineString","properties":{"source":"naturalearthdata.com","kind":"ocean","sort_rank":205,"boundary":true,"min_zoom":0,"id":276},"arcs":[19]},{"type":"LineString","properties":{"source":"naturalearthdata.com","kind":"ocean","sort_rank":205,"boundary":true,"min_zoom":0,"id":277},"arcs":[20]},{"type":"LineString","properties":{"source":"naturalearthdata.com","kind":"ocean","sort_rank":205,"boundary":true,"min_zoom":0,"id":281},"arcs":[21]},{"type":"LineString","properties":{"source":"naturalearthdata.com","kind":"ocean","sort_rank":205,"boundary":true,"min_zoom":0,"id":282},"arcs":[22]},{"type":"LineString","properties":{"source":"naturalearthdata.com","kind":"ocean","sort_rank":205,"boundary":true,"min_zoom":0,"id":285},"arcs":[23]},{"type":"LineString","properties":{"source":"naturalearthdata.com","kind":"ocean","sort_rank":205,"boundary":true,"min_zoom":0,"id":286},"arcs":[24]},{"type":"MultiLineString","properties":{"source":"naturalearthdata.com","kind":"ocean","sort_rank":205,"boundary":true,"min_zoom":0,"id":288},"arcs":[[25],[26]]},{"type":"LineString","properties":{"source":"naturalearthdata.com","kind":"ocean","sort_rank":205,"boundary":true,"min_zoom":0,"id":290},"arcs":[27]},{"type":"LineString","properties":{"source":"naturalearthdata.com","kind":"ocean","sort_rank":205,"boundary":true,"min_zoom":0,"id":3886},"arcs":[28]},{"type":"LineString","properties":{"source":"naturalearthdata.com","kind":"ocean","sort_rank":205,"boundary":true,"min_zoom":0,"id":3887},"arcs":[29]},{"type":"LineString","properties":{"source":"naturalearthdata.com","kind":"ocean","sort_rank":205,"boundary":true,"min_zoom":0,"id":3901},"arcs":[30]},{"type":"LineString","properties":{"source":"naturalearthdata.com","kind":"ocean","sort_rank":205,"boundary":true,"min_zoom":0,"id":3903},"arcs":[31]},{"type":"LineString","properties":{"source":"naturalearthdata.com","kind":"ocean","sort_rank":205,"boundary":true,"min_zoom":0,"id":3904},"arcs":[32]},{"type":"LineString","properties":{"source":"naturalearthdata.com","kind":"ocean","sort_rank":205,"boundary":true,"min_zoom":0,"id":3905},"arcs":[33]}]},"buildings":{"type":"GeometryCollection","geometries":[]},"places":{"type":"GeometryCollection","geometries":[]},"transit":{"type":"GeometryCollection","geometries":[]},"pois":{"type":"GeometryCollection","geometries":[]},"boundaries":{"type":"GeometryCollection","geometries":[]},"roads":{"type":"GeometryCollection","geometries":[{"type":"LineString","properties":{"source":"naturalearthdata.com","kind":"major_road","sort_rank":381,"kind_detail":"trunk","min_zoom":5.0,"id":109},"arcs":[34]},{"type":"LineString","properties":{"source":"naturalearthdata.com","kind":"major_road","sort_rank":381,"kind_detail":"trunk","min_zoom":5.0,"id":3279},"arcs":[35]},{"type":"LineString","properties":{"source":"naturalearthdata.com","kind":"major_road","sort_rank":381,"kind_detail":"trunk","min_zoom":5.0,"id":3288},"arcs":[36]},{"type":"LineString","properties":{"source":"naturalearthdata.com","kind":"major_road","sort_rank":381,"kind_detail":"trunk","min_zoom":5.0,"id":3291},"arcs":[37]},{"type":"LineString","properties":{"source":"naturalearthdata.com","kind":"major_road","sort_rank":381,"kind_detail":"trunk","min_zoom":5.0,"id":3292},"arcs":[38]}]},"earth":{"type":"GeometryCollection","geometries":[{"type":"MultiPolygon","properties":{"sort_rank":10,"source":"naturalearthdata.com","kind":"earth","min_zoom":4.0,"area":22253576731},"arcs":[[[39]],[[40]]]},{"type":"MultiPolygon","properties":{"sort_rank":10,"source":"naturalearthdata.com","kind":"earth","min_zoom":5.0,"area":20190010356},"arcs":[[[41]]]},{"type":"MultiPolygon","properties":{"sort_rank":10,"source":"naturalearthdata.com","min_zoom":3.0,"kind":"earth","area":57806761440},"arcs":[[[42]],[[43]]]},{"type":"MultiPolygon","properties":{"sort_rank":10,"source":"naturalearthdata.com","min_zoom":0,"kind":"earth","area":26122094535451},"arcs":[[[44]],[[45]],[[46]],[[47]],[[48]]]}]},"landuse":{"type":"GeometryCollection","geometries":[]}},"type":"Topology","transform":{"translate":[-56.25,48.9224992638],"scale":[0.002746582,0.0016733579]},"arcs":[[[0,2786],[0,1310],[4096,0],[0,-4096],[-3216,0],[3,3],[5,2],[0,3],[-16,14],[-12,7],[-3,6],[5,7],[3,0],[8,-7],[5,-1],[11,1],[11,4],[11,7],[8,9],[-6,1],[-25,-1],[-4,1],[-5,5],[-2,4],[1,1],[16,-3],[68,9],[7,5],[3,9],[-1,13],[-3,6],[-5,3],[-4,1],[-2,3],[0,4],[2,6],[2,4],[2,2],[9,-5],[5,-1],[2,4],[2,4],[6,10],[2,4],[-2,9],[0,6],[3,2],[3,1],[7,3],[4,0],[0,12],[14,14],[-1,7],[0,4],[-5,1],[-3,4],[-5,11],[-5,-4],[-6,0],[-5,2],[-4,2],[0,2],[0,5],[0,2],[-1,0],[-5,-1],[-1,1],[-2,2],[-2,1],[-1,2],[-1,5],[-4,3],[-11,1],[-12,4],[-7,10],[5,6],[-6,5],[-17,5],[-10,10],[-7,4],[-8,-2],[-4,4],[-14,7],[-5,2],[-6,3],[-12,13],[-6,4],[-10,-1],[-24,-11],[-9,4],[15,11],[5,2],[-4,2],[-8,1],[-4,3],[-4,7],[-1,0],[-2,-3],[-4,-2],[0,-3],[-2,-5],[-4,-3],[-1,5],[-2,0],[-19,-6],[-3,-9],[-2,-11],[-3,-11],[-6,-10],[-1,-1],[-1,6],[-6,11],[-5,-5],[-2,-8],[-2,-8],[-3,-8],[-3,10],[2,7],[3,7],[2,9],[-10,-7],[-4,1],[0,10],[-12,-7],[-5,1],[2,10],[-18,-1],[-9,-4],[-7,-18],[-6,-13],[-2,-12],[7,-9],[-8,-7],[-9,-7],[-8,-7],[-3,-10],[-1,-9],[-3,-1],[0,7],[8,24],[2,12],[-1,10],[-8,4],[-2,3],[0,8],[3,12],[1,2],[11,12],[-4,7],[0,7],[4,8],[5,7],[-7,2],[-12,-3],[-11,-7],[-7,-9],[9,16],[1,3],[3,16],[1,4],[19,20],[-3,3],[-7,-1],[-14,-6],[-8,-1],[-5,-3],[-6,-8],[-9,-16],[-19,-26],[-5,-9],[2,1],[0,-2],[1,-5],[-1,-3],[-1,-2],[-2,0],[-1,-1],[-4,-9],[-2,-4],[-1,-3],[-3,-3],[-7,-3],[-3,-3],[-3,-4],[-2,-7],[-3,-5],[-1,-10],[-2,-4],[-4,2],[-2,4],[0,6],[0,5],[2,5],[-4,-1],[-4,-4],[-1,-6],[-1,-7],[0,-11],[-1,-4],[-3,-6],[-9,-9],[-5,6],[-1,11],[0,6],[-1,6],[0,36],[2,11],[-1,4],[-6,1],[-3,-3],[-4,-5],[-3,-7],[-2,-6],[-2,-8],[0,-6],[2,-4],[6,-2],[1,-3],[-2,-19],[-1,-5],[-3,-5],[-4,-4],[-4,-1],[-4,2],[-1,4],[-1,5],[-1,2],[-10,-1],[-5,-3],[-9,-21],[-4,-8],[-7,-6],[-6,-4],[-5,1],[12,13],[5,9],[3,9],[-1,9],[-7,30],[-5,-12],[-6,3],[-7,10],[-7,7],[1,-9],[2,-8],[7,-16],[-2,-3],[2,-5],[-52,-33],[-12,-10],[-6,-4],[-6,-2],[-3,-1],[-4,-4],[-2,-5],[0,-6],[2,0],[11,4],[0,-4],[-6,-8],[-5,-13],[-1,-14],[3,-12],[7,-2],[18,13],[9,3],[0,-4],[-27,-25],[-7,-4],[-10,1],[-5,-1],[-6,-3],[-12,-12],[-5,-1],[5,7],[11,10],[6,7],[3,8],[0,8],[-3,5],[-7,0],[7,20],[-5,2],[-11,0],[-2,2],[2,5],[13,12],[3,6],[2,7],[4,6],[4,5],[10,8],[8,2],[5,4],[3,5],[1,8],[0,23],[-4,17],[2,14],[4,14],[6,8],[3,-7],[6,5],[4,10],[-3,8],[5,8],[6,6],[4,7],[2,10],[0,9],[-2,9],[-3,8],[-5,5],[0,3],[6,0],[-8,6],[-6,-2],[-7,-4],[-7,-3],[1,-4],[2,-9],[2,-4],[-4,1],[-3,1],[-3,3],[-3,4],[5,5],[-3,4],[-12,7],[-4,-5],[-5,-2],[-11,-1],[18,-33],[-2,-7],[-1,-9],[1,-10],[2,-7],[11,-18],[0,-3],[-3,-3],[-3,-7],[-5,-7],[-12,-5],[-3,-4],[0,-7],[2,-7],[-1,-2],[-1,-1],[-3,-2],[-1,8],[-2,7],[-3,6],[-3,4],[6,4],[5,2],[5,4],[3,10],[0,7],[-9,-7],[-6,0],[5,9],[-6,-1],[-6,-13],[-6,-17],[-6,-10],[3,16],[-6,4],[-11,-3],[-9,-5],[5,8],[13,11],[23,33],[6,5],[-9,4],[-22,-16],[-11,-4],[0,4],[8,7],[22,30],[-2,4],[-3,-2],[-5,-2],[2,8],[-21,-4],[-6,-4],[-3,-7],[-4,-9],[-3,-3],[-5,11],[-3,-6],[-2,-6],[1,-3],[1,-2],[0,-1],[1,-3],[-7,-1],[-3,-4],[-2,-7],[-1,-10],[-2,-7],[-4,-8],[-9,-12],[-2,8],[1,7],[1,7],[3,7],[-1,9],[5,15],[10,25],[-12,-2],[-10,-10],[-16,-27],[-2,-6],[-2,-9],[-3,-7],[-4,-4],[-6,1],[-2,6],[0,7],[3,6],[0,4],[-3,0],[-7,0],[1,10],[5,11],[1,8],[-20,-11],[-12,-4],[-8,2],[3,3],[3,5],[2,4],[0,1],[4,1],[2,0],[3,-1],[5,0],[3,2],[-3,4],[-6,3],[-2,1],[-3,2],[-4,1],[-7,-1],[2,3],[3,9],[-17,5],[-16,-1],[-32,-12],[-14,-9],[-25,-23],[-14,-5],[-9,-5],[-3,0],[4,7],[13,17],[2,6],[0,4],[1,3],[5,1],[3,2],[7,8],[4,2],[16,4],[16,10],[13,15],[9,20],[-13,0],[-6,2],[-4,7],[18,14],[5,6],[1,4],[1,6],[1,5],[3,2],[3,1],[3,3],[2,3],[1,5],[-14,-3],[-6,1],[-3,6],[-4,-6],[-6,-3],[-6,-3],[-6,-1],[0,5],[6,1],[12,8],[7,3],[0,3],[-1,1],[-2,4],[-4,-3],[-5,-3],[-6,-2],[-6,0],[-5,-2],[-25,-17],[-22,-22],[-9,-12],[-10,-19],[-5,-6],[-3,6],[1,9],[2,8],[2,6],[3,4],[22,20],[10,11],[-2,10],[17,9],[6,7],[-3,8],[4,8],[4,-1],[3,-4],[4,-3],[4,1],[56,37],[34,12],[8,16],[16,6],[26,25],[14,6],[8,1],[8,4],[7,6],[4,9],[0,11],[-3,9],[-7,17],[0,5],[-29,-23],[-4,-2],[-10,-1],[-21,3],[-9,-6],[3,-5],[-2,-4],[-4,-6],[-4,-4],[-4,-2],[-9,0],[-7,4],[-1,3],[-1,4],[-2,4],[-2,1],[-3,0],[-2,-2],[-2,1],[-15,16],[-2,6],[2,0],[-7,14],[-11,9],[-12,4],[-12,1],[-5,-9],[-4,-18],[-7,-14],[-12,5],[12,13],[4,8],[-2,9],[-5,1],[-17,-8],[-5,-5],[-19,-33],[-11,-12],[-14,-6],[16,21],[4,8],[3,9],[7,27],[4,8],[11,14],[2,7],[-1,8],[-6,6],[-6,5],[-4,6],[6,2],[-1,4],[-4,2],[-6,0],[1,3],[1,7],[0,3],[-5,0],[-6,-2],[-6,-4],[-4,-5],[-24,-20],[-3,-9],[0,260],[3,4],[3,21],[5,9],[12,9],[17,21],[1,2],[4,3],[10,15],[1,7],[-4,2],[-8,1],[-7,7],[-3,6],[-2,9],[-1,11],[0,4],[2,5],[0,4],[0,2],[-4,5],[-1,3],[6,10],[2,4],[2,12],[1,12],[-3,8],[-8,1],[4,13],[5,9],[7,5],[9,2],[-3,-15],[-5,-15],[-2,-15],[3,-17],[-1,-3],[-4,-13],[7,-13],[4,-2],[6,7],[0,-6],[-1,-5],[-1,-5],[-3,-5],[9,-3],[5,9],[6,12],[7,6],[0,2],[8,11],[17,28],[8,21],[5,9],[8,7],[4,0],[6,-20],[0,9],[3,7],[4,5],[5,4],[-3,3],[-2,1],[-2,-2],[-3,-2],[-1,7],[2,10],[3,8],[4,4],[2,-4],[1,-7],[3,-6],[6,4],[-2,12],[-2,5],[-3,4],[0,3],[3,4],[2,5],[2,6],[3,6],[12,17],[-3,1],[-4,3],[-4,4],[-1,6],[1,6],[3,-2],[4,-4],[2,-2],[7,2],[6,6],[4,8],[-2,8],[2,5],[3,9],[2,7],[-1,4],[-6,3],[-1,6],[2,7],[1,4],[2,4],[3,1],[0,3],[-3,7],[-8,8],[-5,4],[-4,2],[-27,7],[-7,-5],[-7,-8],[-9,-5],[-17,-1],[0,-5],[0,-4],[0,-3],[0,-1],[2,-3],[3,-9],[-7,1],[-6,6],[-10,18],[-1,4],[-1,4],[-2,3],[-8,2],[-13,7],[6,4],[11,2],[6,3],[-10,7],[-3,4],[4,0],[4,0],[3,2],[2,3],[-1,3],[-2,17],[-4,3],[-17,5],[-6,0],[1,8],[2,14],[-1,3],[0,4],[5,1],[5,-1],[4,-3],[4,-5],[1,4],[1,3],[0,4],[0,5],[9,-6],[8,-10],[8,-6],[10,2],[-3,9],[-2,3],[6,-1],[4,-3],[8,-8],[3,-3],[3,-1],[7,0],[23,5],[44,-9],[8,-5],[8,-8],[8,-7],[8,3],[-3,4],[-1,7],[-1,8],[0,6],[3,-3],[4,-1],[7,0],[2,1],[3,3],[1,3],[-1,1],[-4,2],[-1,4],[1,8],[1,6],[3,0],[9,-6],[3,-5],[3,-2],[6,5],[3,7],[3,14],[4,8],[0,9],[5,13],[2,10],[-10,-3],[-5,5],[-10,9],[-5,6],[18,0],[11,-4],[4,2],[3,7],[1,7],[1,6],[-2,1],[-10,9],[-3,5],[5,-1],[8,-4],[7,-2],[5,7],[-2,10],[-6,4],[-14,2],[-1,-2],[-2,-4],[-2,-1],[-1,9],[-12,6],[-6,-2],[-21,-14],[1,-1],[1,0],[1,-1],[2,-2],[-6,-2],[-7,0],[-7,3],[-3,5],[-1,3],[-2,2],[-1,3],[2,3],[4,7],[-10,-6],[-16,-20],[-8,-6],[5,17],[-6,-5],[-4,-13],[19,-10],[1,-7],[0,-8],[2,-7],[6,-6],[13,-3],[6,-3],[-12,-5],[-14,5],[-14,7],[-12,5],[-25,0],[-13,-3],[-6,0],[-6,3],[10,16],[7,17],[-14,-2],[2,11],[20,31],[-6,-1],[-6,-3],[-5,-2],[-6,2],[-3,7],[-40,-31],[-6,-2],[-15,-12],[-10,-11],[-7,-3],[-30,-11],[-9,-6],[-4,-6],[-5,-6],[-4,-1],[0,182],[6,2],[8,6],[7,8],[6,10],[3,2],[8,8],[8,9],[2,3],[13,4],[13,14],[3,2],[8,2],[30,14],[6,6],[5,9],[2,12],[-3,8],[-15,15],[-7,8],[11,-1],[18,-8],[9,1],[19,9],[9,7],[9,13],[-11,11],[-4,5],[11,5],[11,-1],[11,0],[10,13],[-6,12],[-2,8],[1,9],[4,15],[-9,2],[-15,9],[-8,2],[3,4],[4,5],[4,1],[1,-4],[2,-3],[5,1],[8,4],[17,-4],[8,-1],[8,5],[-26,18],[-7,3],[-8,-1],[-15,-6],[-9,-2],[3,8],[4,5],[6,3],[6,0],[4,3],[5,6],[4,5],[-1,3],[-6,-2],[-9,-6],[-6,0],[-2,1],[-1,5],[-2,2],[-3,1],[-10,-1],[1,3],[2,1],[-4,3],[-5,0],[-4,-2],[-5,-1],[0,4],[6,4],[7,4],[0,4],[-45,10],[-2,3],[-4,10],[-4,3],[-8,2],[-11,9],[-34,5],[-17,10],[-8,8],[-4,10],[10,-2],[70,-37],[22,-5],[26,-14],[23,-6],[4,0],[2,7],[-3,6],[-9,8],[-3,6],[23,2],[6,-4],[3,-4],[6,-5],[6,-3],[6,-2],[6,4],[3,9],[0,8],[-6,6],[6,16],[-1,8],[-11,4],[-17,-2],[-12,2],[6,26],[-10,3],[-27,-2],[4,13],[1,3],[-30,-8],[-32,4],[-4,2],[-4,4],[-3,5],[-2,3],[-2,4],[-4,0],[-9,-2],[-15,4],[-8,0],[-4,-6],[-4,-1],[-32,1],[0,7],[2,-3],[10,-3],[36,18],[13,0],[5,-1],[19,-10],[6,0],[5,3],[-4,8],[-5,4],[-14,0],[3,6],[5,4],[19,12],[-1,2],[-4,7],[-10,8],[-13,2],[-26,0],[10,10],[18,-2],[32,-12],[4,0],[3,0],[2,-1],[8,-9],[3,-3],[3,-2],[4,-2],[17,3],[8,-1],[5,-10],[4,4],[9,7],[5,6],[-3,1],[-4,2],[-3,1],[4,2],[5,2],[3,2],[3,6],[-7,2],[-7,15],[-8,4],[-32,0],[-14,-4],[-8,0],[-7,4],[-5,7],[-4,7],[-5,5],[-8,1],[1,3],[0,1],[-1,1],[0,3],[2,0],[-6,12],[-8,7],[-18,5],[-10,7],[-8,11],[-1,8],[9,-1],[28,-10],[12,-10],[9,-3],[10,0],[10,4],[8,7],[-27,0],[3,6],[5,4],[6,2],[19,0],[4,0],[3,2],[4,4],[3,2],[14,-1],[8,1],[3,7],[-1,13],[-3,8],[-11,14],[3,14],[-8,7],[-12,4],[-8,7],[3,1],[2,2],[2,1],[3,0],[-7,14],[-13,6],[-41,6],[-4,-3],[-12,-13],[-5,-4],[-5,2],[-5,8],[6,1],[6,5],[4,7],[4,8],[-23,4],[-7,0],[0,4],[39,4],[9,-2],[19,-8],[9,-2],[9,2],[9,6],[7,11],[4,14],[-3,8],[-6,7],[-9,4],[-7,1],[0,5],[11,-2],[21,-10],[10,-1],[8,5],[22,24],[-10,12],[5,4],[-2,3],[-12,1],[-4,3],[-5,5],[-4,7],[-3,6],[8,-2],[5,-3],[5,0],[6,7],[9,14],[3,8],[-5,4],[-5,-1],[-2,-4],[-1,-5],[-5,-6],[-6,-1],[-19,9],[6,6],[9,5],[5,8],[-4,12],[-7,4],[-19,-1],[-8,3],[6,3],[30,9],[2,2],[-3,4],[-5,5],[-5,2],[-17,0],[6,5],[6,3],[0,4],[-16,13],[-9,5],[-10,-2],[-7,-6],[-7,-9],[-8,-5],[-10,4],[6,8],[7,5],[14,8],[0,3],[-18,11],[-7,2],[2,16],[-8,11],[-68,34],[-4,5],[0,8],[4,2],[15,0],[47,-9],[10,-6],[-6,-3],[-2,-1],[4,-3],[3,-1],[4,-1],[4,1],[-1,-6],[-1,-2],[4,-3],[4,1],[3,4],[4,6],[-2,1],[0,1],[-1,2],[2,2],[2,4],[1,3],[0,3],[-20,19],[-8,2],[-23,0],[-5,1],[-3,3],[-3,2],[-3,2],[-8,1],[-15,-7],[-10,-2]],[[580,325],[5,5],[-5,8],[-8,3],[-4,-6],[-4,-6],[-14,-8],[-5,-9],[1,-12],[7,-8],[8,-3],[4,1],[2,6],[3,6],[2,6],[-1,6],[-1,6],[2,3],[4,2],[4,0]],[[191,382],[-3,-6],[-1,-9],[0,-9],[1,-5],[9,-3],[11,7],[8,13],[0,12],[-20,2],[-5,-2]],[[244,411],[-1,-1],[-3,-3],[-2,0],[-3,1],[-9,-1],[1,7],[-2,4],[-4,2],[-5,-1],[1,2],[1,6],[-7,0],[-9,-5],[-3,-4],[-2,-11],[-5,-10],[-1,-3],[4,-6],[8,-2],[8,2],[11,8],[16,6],[6,0],[3,2],[0,3],[0,2],[-3,2]],[[498,378],[2,-2],[5,1],[1,-1],[5,-9],[2,-4],[7,-3],[4,-3],[1,-3],[-1,-1],[-7,0],[-6,-2],[-5,-4],[-6,-6],[9,-4],[9,2],[17,6],[9,-4],[4,0],[2,6],[0,8],[1,5],[2,2],[4,4],[8,4],[33,11],[13,7],[9,8],[0,6],[4,7],[2,5],[0,6],[-2,12],[-1,3],[-2,1],[2,5],[-7,-4],[-11,-13],[-9,-9],[-6,4],[1,2],[4,6],[-7,-2],[-5,-5],[-4,-9],[-2,-11],[-3,-8],[-7,-6],[-15,-8],[-6,-1],[-10,2],[-6,4],[1,9],[4,10],[-6,3],[-8,1],[-6,1],[-6,-7],[-12,2],[-4,-8],[1,0],[2,-6],[1,-7],[1,-3]],[[718,390],[4,-1],[1,-1],[2,0],[11,13],[2,1],[5,2],[14,7],[15,1],[5,3],[5,4],[3,4],[3,3],[11,3],[3,4],[3,4],[3,2],[11,-4],[5,0],[3,8],[-8,1],[-6,1],[-5,5],[-4,10],[0,3],[1,2],[2,2],[0,3],[-1,4],[-2,1],[-3,0],[-2,1],[-2,4],[-5,5],[-6,10],[-7,2],[-15,0],[4,-10],[1,-3],[-4,-2],[-5,2],[-4,1],[-4,-5],[-1,-5],[1,-7],[1,-9],[-3,-8],[-5,13],[2,4],[-7,6],[-10,6],[-9,1],[-7,-9],[2,0],[4,0],[2,0],[-1,-2],[-1,-2],[-1,-2],[-2,-2],[2,-5],[2,-4],[3,-2],[3,-2],[-5,-2],[-10,2],[-5,-3],[2,-15],[1,-19],[3,-17],[5,-7]],[[269,1125],[-6,-6],[-17,-10],[-8,-2],[-1,5],[-2,5],[-2,2],[-4,-2],[-2,-6],[0,-5],[1,-4],[0,-3],[-8,-17],[1,-6],[10,-6],[3,4],[3,-2],[3,-4],[3,-6],[21,13],[7,7],[-1,6],[4,5],[12,9],[-3,2],[-1,2],[0,2],[-2,3],[2,0],[1,1],[1,1],[2,2],[4,5],[-5,5],[-9,2],[-7,-2]],[[263,1225],[-5,9],[-8,-1],[-14,-11],[-10,-1],[-4,-2],[3,-7],[7,-12],[0,-5],[-4,-6],[13,-10],[7,-3],[8,0],[-3,10],[-4,5],[-3,5],[3,7],[5,6],[3,3],[3,5],[3,8]],[[327,1770],[7,8],[17,37],[4,12],[2,15],[-6,-3],[-10,-10],[-7,-6],[-4,0],[-11,-6],[-3,-2],[-13,-24],[-3,-17],[6,-5],[21,1]],[[144,766],[-11,0],[0,-4],[6,-3],[8,-1],[4,3],[4,5],[-3,4],[-4,2],[-2,0],[-2,-6]],[[177,783],[-13,-1],[-1,-7],[5,-7],[12,-5],[10,-1],[7,-5],[5,3],[-2,6],[-4,9],[-7,6],[-7,2],[-5,0]],[[145,2301],[-13,1],[-3,-7],[4,-7],[7,-5],[2,-7],[11,-3],[7,3],[0,7],[1,11],[-1,5],[-8,1],[-7,1]],[[161,2441],[-16,-2],[1,-7],[5,-9],[5,-10],[7,-9],[5,2],[1,8],[1,9],[6,7],[-1,5],[-6,-1],[0,3],[4,5],[-4,5],[-5,-1],[-3,-5]],[[154,2484],[-8,1],[-5,-6],[-4,-8],[-1,-11],[2,-7],[9,-2],[11,0],[6,5],[9,-3],[6,4],[-4,9],[7,6],[-2,10],[-6,8],[-7,3],[-13,-9]],[[117,2731],[-17,-5],[-5,-8],[1,-7],[1,-10],[7,-6],[14,-2],[7,-6],[15,-3],[13,-4],[11,-8],[5,0],[-3,4],[-8,6],[2,4],[8,-4],[7,-5],[0,6],[-4,4],[-6,3],[-6,5],[2,7],[2,7],[7,0],[8,-3],[6,-6],[1,3],[-3,5],[-1,6],[-5,7],[-7,1],[-6,4],[-4,2],[-4,-6],[-8,2],[-12,2],[-4,9],[-4,-1],[-5,-3],[-5,0]],[[0,2786],[10,2],[15,7],[8,-1],[3,-2],[3,-2],[3,-3],[5,-1],[23,0],[8,-2],[20,-19],[0,-3],[-1,-3],[-2,-4],[-2,-2],[1,-2],[0,-1],[2,-1],[-4,-6],[-3,-4],[-4,-1],[-4,3],[1,2],[1,6],[-4,-1],[-4,1],[-3,1],[-4,3],[2,1],[6,3],[-10,6],[-47,9],[-15,0],[-4,-2]],[[0,2762],[4,-5],[68,-34],[8,-11],[-2,-16],[7,-2],[18,-11],[0,-3],[-14,-8],[-7,-5],[-6,-8],[10,-4],[8,5],[7,9],[7,6],[10,2],[9,-5],[16,-13],[0,-4],[-6,-3],[-6,-5],[17,0],[5,-2],[5,-5],[3,-4],[-2,-2],[-30,-9],[-6,-3],[8,-3],[19,1],[7,-4],[4,-12],[-5,-8],[-9,-5],[-6,-6],[19,-9],[6,1],[5,6],[1,5],[2,4],[5,1],[5,-4],[-3,-8],[-9,-14],[-6,-7],[-5,0],[-5,3],[-8,2],[3,-6],[4,-7],[5,-5],[4,-3],[12,-1],[2,-3],[-5,-4],[10,-12],[-22,-24],[-8,-5],[-10,1],[-21,10],[-11,2],[0,-5],[7,-1],[9,-4],[6,-7],[3,-8],[-4,-14],[-7,-11],[-9,-6],[-9,-2],[-9,2],[-19,8],[-9,2],[-39,-4],[0,-4],[7,0],[23,-4],[-4,-8],[-4,-7],[-6,-5],[-6,-1],[5,-8],[5,-2],[5,4],[12,13],[4,3],[41,-6],[13,-6],[7,-14],[-3,0],[-2,-1],[-2,-2],[-3,-1],[8,-7],[12,-4],[8,-7],[-3,-14],[11,-14],[3,-8],[1,-13],[-3,-7],[-8,-1],[-14,1],[-3,-2],[-4,-4],[-3,-2],[-4,0],[-19,0],[-6,-2],[-5,-4],[-3,-6],[27,0],[-8,-7],[-10,-4],[-10,0],[-9,3],[-12,10],[-28,10],[-9,1],[1,-8],[8,-11],[10,-7],[18,-5],[8,-7],[6,-12],[-2,0],[0,-3],[1,-1],[0,-1],[-1,-3],[8,-1],[5,-5],[4,-7],[5,-7],[7,-4],[8,0],[14,4],[32,0],[8,-4],[7,-15],[7,-2],[-3,-6],[-3,-2],[-5,-2],[-4,-2],[3,-1],[4,-2],[3,-1],[-5,-6],[-9,-7],[-4,-4],[-5,10],[-8,1],[-17,-3],[-4,2],[-3,2],[-3,3],[-8,9],[-2,1],[-3,0],[-4,0],[-32,12],[-18,2],[-10,-10],[26,0],[13,-2],[10,-8],[4,-7],[1,-2],[-19,-12],[-5,-4],[-3,-6],[14,0],[5,-4],[4,-8],[-5,-3],[-6,0],[-19,10],[-5,1],[-13,0],[-36,-18],[-10,3],[-2,3]],[[0,2161],[32,-1],[4,1],[4,6],[8,0],[15,-4],[9,2],[4,0],[2,-4],[2,-3],[3,-5],[4,-4],[4,-2],[32,-4],[30,8],[-1,-3],[-4,-13],[27,2],[10,-3],[-6,-26],[12,-2],[17,2],[11,-4],[1,-8],[-6,-16],[6,-6],[0,-8],[-3,-9],[-6,-4],[-6,2],[-6,3],[-6,5],[-3,4],[-6,4],[-23,-2],[3,-6],[9,-8],[3,-6],[-2,-7],[-4,0],[-23,6],[-26,14],[-22,5],[-70,37],[-10,2],[4,-10],[8,-8],[17,-10],[34,-5],[11,-9],[8,-2],[4,-3],[4,-10],[2,-3],[45,-10],[0,-4],[-7,-4],[-6,-4],[0,-4],[5,1],[4,2],[5,0],[4,-3],[-2,-1],[-1,-3],[10,1],[3,-1],[2,-2],[1,-5],[2,-1],[6,0],[9,6],[6,2],[1,-3],[-4,-5],[-5,-6],[-4,-3],[-6,0],[-6,-3],[-4,-5],[-3,-8],[9,2],[15,6],[8,1],[7,-3],[26,-18],[-8,-5],[-8,1],[-17,4],[-8,-4],[-5,-1],[-2,3],[-1,4],[-4,-1],[-4,-5],[-3,-4],[8,-2],[15,-9],[9,-2],[-4,-15],[-1,-9],[2,-8],[6,-12],[-10,-13],[-11,0],[-11,1],[-11,-5],[4,-5],[11,-11],[-9,-13],[-9,-7],[-19,-9],[-9,-1],[-18,8],[-11,1],[7,-8],[15,-15],[3,-8],[-2,-12],[-5,-9],[-6,-6],[-30,-14],[-8,-2],[-3,-2],[-13,-14],[-13,-4],[-2,-3],[-8,-9],[-8,-8],[-3,-2],[-6,-10],[-7,-8],[-8,-6],[-6,-2]],[[580,325],[5,5],[-5,8],[-8,3],[-4,-6],[-4,-6],[-14,-8],[-5,-9],[1,-12],[7,-8],[8,-3],[4,1],[2,6],[3,6],[2,6],[-1,6],[-1,6],[2,3],[4,2],[4,0]],[[191,382],[-3,-6],[-1,-9],[0,-9],[1,-5],[9,-3],[11,7],[8,13],[0,12],[-20,2],[-5,-2]],[[244,411],[-1,-1],[-3,-3],[-2,0],[-3,1],[-9,-1],[1,7],[-2,4],[-4,2],[-5,-1],[1,2],[1,6],[-7,0],[-9,-5],[-3,-4],[-2,-11],[-5,-10],[-1,-3],[4,-6],[8,-2],[8,2],[11,8],[16,6],[6,0],[3,2],[0,3],[0,2],[-3,2]],[[498,378],[2,-2],[5,1],[1,-1],[5,-9],[2,-4],[7,-3],[4,-3],[1,-3],[-1,-1],[-7,0],[-6,-2],[-5,-4],[-6,-6],[9,-4],[9,2],[17,6],[9,-4],[4,0],[2,6],[0,8],[1,5],[2,2],[4,4],[8,4],[33,11],[13,7],[9,8],[0,6],[4,7],[2,5],[0,6],[-2,12],[-1,3],[-2,1],[2,5],[-7,-4],[-11,-13],[-9,-9],[-6,4],[1,2],[4,6],[-7,-2],[-5,-5],[-4,-9],[-2,-11],[-3,-8],[-7,-6],[-15,-8],[-6,-1],[-10,2],[-6,4],[1,9],[4,10],[-6,3],[-8,1],[-6,1],[-6,-7],[-12,2],[-4,-8],[1,0],[2,-6],[1,-7],[1,-3]],[[718,390],[4,-1],[1,-1],[2,0],[11,13],[2,1],[5,2],[14,7],[15,1],[5,3],[5,4],[3,4],[3,3],[11,3],[3,4],[3,4],[3,2],[11,-4],[5,0],[3,8],[-8,1],[-6,1],[-5,5],[-4,10],[0,3],[1,2],[2,2],[0,3],[-1,4],[-2,1],[-3,0],[-2,1],[-2,4],[-5,5],[-6,10],[-7,2],[-15,0],[4,-10],[1,-3],[-4,-2],[-5,2],[-4,1],[-4,-5],[-1,-5],[1,-7],[1,-9],[-3,-8],[-5,13],[2,4],[-7,6],[-10,6],[-9,1],[-7,-9],[2,0],[4,0],[2,0],[-1,-2],[-1,-2],[-1,-2],[-2,-2],[2,-5],[2,-4],[3,-2],[3,-2],[-5,-2],[-10,2],[-5,-3],[2,-15],[1,-19],[3,-17],[5,-7]],[[269,1125],[-6,-6],[-17,-10],[-8,-2],[-1,5],[-2,5],[-2,2],[-4,-2],[-2,-6],[0,-5],[1,-4],[0,-3],[-8,-17],[1,-6],[10,-6],[3,4],[3,-2],[3,-4],[3,-6],[21,13],[7,7],[-1,6],[4,5],[12,9],[-3,2],[-1,2],[0,2],[-2,3],[2,0],[1,1],[1,1],[2,2],[4,5],[-5,5],[-9,2],[-7,-2]],[[263,1225],[-5,9],[-8,-1],[-14,-11],[-10,-1],[-4,-2],[3,-7],[7,-12],[0,-5],[-4,-6],[13,-10],[7,-3],[8,0],[-3,10],[-4,5],[-3,5],[3,7],[5,6],[3,3],[3,5],[3,8]],[[880,0],[3,3],[5,2],[0,3],[-16,14],[-12,7],[-3,6],[5,7],[3,0],[8,-7],[5,-1],[11,1],[11,4],[11,7],[8,9],[-6,1],[-25,-1],[-4,1],[-5,5],[-2,4],[1,1],[16,-3],[68,9],[7,5],[3,9],[-1,13],[-3,6],[-5,3],[-4,1],[-2,3],[0,4],[2,6],[2,4],[2,2],[9,-5],[5,-1],[2,4],[2,4],[6,10],[2,4],[-2,9],[0,6],[3,2],[3,1],[7,3],[4,0],[0,12],[14,14],[-1,7],[0,4],[-5,1],[-3,4],[-5,11],[-5,-4],[-6,0],[-5,2],[-4,2],[0,2],[0,5],[0,2],[-1,0],[-5,-1],[-1,1],[-2,2],[-2,1],[-1,2],[-1,5],[-4,3],[-11,1],[-12,4],[-7,10],[5,6],[-6,5],[-17,5],[-10,10],[-7,4],[-8,-2],[-4,4],[-14,7],[-5,2],[-6,3],[-12,13],[-6,4],[-10,-1],[-24,-11],[-9,4],[15,11],[5,2],[-4,2],[-8,1],[-4,3],[-4,7],[-1,0],[-2,-3],[-4,-2],[0,-3],[-2,-5],[-4,-3],[-1,5],[-2,0],[-19,-6],[-3,-9],[-2,-11],[-3,-11],[-6,-10],[-1,-1],[-1,6],[-6,11],[-5,-5],[-2,-8],[-2,-8],[-3,-8],[-3,10],[2,7],[3,7],[2,9],[-10,-7],[-4,1],[0,10],[-12,-7],[-5,1],[2,10],[-18,-1],[-9,-4],[-7,-18],[-6,-13],[-2,-12],[7,-9],[-8,-7],[-9,-7],[-8,-7],[-3,-10],[-1,-9],[-3,-1],[0,7],[8,24],[2,12],[-1,10],[-8,4],[-2,3],[0,8],[3,12],[1,2],[11,12],[-4,7],[0,7],[4,8],[5,7],[-7,2],[-12,-3],[-11,-7],[-7,-9],[9,16],[1,3],[3,16],[1,4],[19,20],[-3,3],[-7,-1],[-14,-6],[-8,-1],[-5,-3],[-6,-8],[-9,-16],[-19,-26],[-5,-9],[2,1],[0,-2],[1,-5],[-1,-3],[-1,-2],[-2,0],[-1,-1],[-4,-9],[-2,-4],[-1,-3],[-3,-3],[-7,-3],[-3,-3],[-3,-4],[-2,-7],[-3,-5],[-1,-10],[-2,-4],[-4,2],[-2,4],[0,6],[0,5],[2,5],[-4,-1],[-4,-4],[-1,-6],[-1,-7],[0,-11],[-1,-4],[-3,-6],[-9,-9],[-5,6],[-1,11],[0,6],[-1,6],[0,36],[2,11],[-1,4],[-6,1],[-3,-3],[-4,-5],[-3,-7],[-2,-6],[-2,-8],[0,-6],[2,-4],[6,-2],[1,-3],[-2,-19],[-1,-5],[-3,-5],[-4,-4],[-4,-1],[-4,2],[-1,4],[-1,5],[-1,2],[-10,-1],[-5,-3],[-9,-21],[-4,-8],[-7,-6],[-6,-4],[-5,1],[12,13],[5,9],[3,9],[-1,9],[-7,30],[-5,-12],[-6,3],[-7,10],[-7,7],[1,-9],[2,-8],[7,-16],[-2,-3],[2,-5],[-52,-33],[-12,-10],[-6,-4],[-6,-2],[-3,-1],[-4,-4],[-2,-5],[0,-6],[2,0],[11,4],[0,-4],[-6,-8],[-5,-13],[-1,-14],[3,-12],[7,-2],[18,13],[9,3],[0,-4],[-27,-25],[-7,-4],[-10,1],[-5,-1],[-6,-3],[-12,-12],[-5,-1],[5,7],[11,10],[6,7],[3,8],[0,8],[-3,5],[-7,0],[7,20],[-5,2],[-11,0],[-2,2],[2,5],[13,12],[3,6],[2,7],[4,6],[4,5],[10,8],[8,2],[5,4],[3,5],[1,8],[0,23],[-4,17],[2,14],[4,14],[6,8],[3,-7],[6,5],[4,10],[-3,8],[5,8],[6,6],[4,7],[2,10],[0,9],[-2,9],[-3,8],[-5,5],[0,3],[6,0],[-8,6],[-6,-2],[-7,-4],[-7,-3],[1,-4],[2,-9],[2,-4],[-4,1],[-3,1],[-3,3],[-3,4],[5,5],[-3,4],[-12,7],[-4,-5],[-5,-2],[-11,-1],[18,-33],[-2,-7],[-1,-9],[1,-10],[2,-7],[11,-18],[0,-3],[-3,-3],[-3,-7],[-5,-7],[-12,-5],[-3,-4],[0,-7],[2,-7],[-1,-2],[-1,-1],[-3,-2],[-1,8],[-2,7],[-3,6],[-3,4],[6,4],[5,2],[5,4],[3,10],[0,7],[-9,-7],[-6,0],[5,9],[-6,-1],[-6,-13],[-6,-17],[-6,-10],[3,16],[-6,4],[-11,-3],[-9,-5],[5,8],[13,11],[23,33],[6,5],[-9,4],[-22,-16],[-11,-4],[0,4],[8,7],[22,30],[-2,4],[-3,-2],[-5,-2],[2,8],[-21,-4],[-6,-4],[-3,-7],[-4,-9],[-3,-3],[-5,11],[-3,-6],[-2,-6],[1,-3],[1,-2],[0,-1],[1,-3],[-7,-1],[-3,-4],[-2,-7],[-1,-10],[-2,-7],[-4,-8],[-9,-12],[-2,8],[1,7],[1,7],[3,7],[-1,9],[5,15],[10,25],[-12,-2],[-10,-10],[-16,-27],[-2,-6],[-2,-9],[-3,-7],[-4,-4],[-6,1],[-2,6],[0,7],[3,6],[0,4],[-3,0],[-7,0],[1,10],[5,11],[1,8],[-20,-11],[-12,-4],[-8,2],[3,3],[3,5],[2,4],[0,1],[4,1],[2,0],[3,-1],[5,0],[3,2],[-3,4],[-6,3],[-2,1],[-3,2],[-4,1],[-7,-1],[2,3],[3,9],[-17,5],[-16,-1],[-32,-12],[-14,-9],[-25,-23],[-14,-5],[-9,-5],[-3,0],[4,7],[13,17],[2,6],[0,4],[1,3],[5,1],[3,2],[7,8],[4,2],[16,4],[16,10],[13,15],[9,20],[-13,0],[-6,2],[-4,7],[18,14],[5,6],[1,4],[1,6],[1,5],[3,2],[3,1],[3,3],[2,3],[1,5],[-14,-3],[-6,1],[-3,6],[-4,-6],[-6,-3],[-6,-3],[-6,-1],[0,5],[6,1],[12,8],[7,3],[0,3],[-1,1],[-2,4],[-4,-3],[-5,-3],[-6,-2],[-6,0],[-5,-2],[-25,-17],[-22,-22],[-9,-12],[-10,-19],[-5,-6],[-3,6],[1,9],[2,8],[2,6],[3,4],[22,20],[10,11],[-2,10],[17,9],[6,7],[-3,8],[4,8],[4,-1],[3,-4],[4,-3],[4,1],[56,37],[34,12],[8,16],[16,6],[26,25],[14,6],[8,1],[8,4],[7,6],[4,9],[0,11],[-3,9],[-7,17],[0,5],[-29,-23],[-4,-2],[-10,-1],[-21,3],[-9,-6],[3,-5],[-2,-4],[-4,-6],[-4,-4],[-4,-2],[-9,0],[-7,4],[-1,3],[-1,4],[-2,4],[-2,1],[-3,0],[-2,-2],[-2,1],[-15,16],[-2,6],[2,0],[-7,14],[-11,9],[-12,4],[-12,1],[-5,-9],[-4,-18],[-7,-14],[-12,5],[12,13],[4,8],[-2,9],[-5,1],[-17,-8],[-5,-5],[-19,-33],[-11,-12],[-14,-6],[16,21],[4,8],[3,9],[7,27],[4,8],[11,14],[2,7],[-1,8],[-6,6],[-6,5],[-4,6],[6,2],[-1,4],[-4,2],[-6,0],[1,3],[1,7],[0,3],[-5,0],[-6,-2],[-6,-4],[-4,-5],[-24,-20],[-3,-9]],[[0,959],[3,4],[3,21],[5,9],[12,9],[17,21],[1,2],[4,3],[10,15],[1,7],[-4,2],[-8,1],[-7,7],[-3,6],[-2,9],[-1,11],[0,4],[2,5],[0,4],[0,2],[-4,5],[-1,3],[6,10],[2,4],[2,12],[1,12],[-3,8],[-8,1],[4,13],[5,9],[7,5],[9,2],[-3,-15],[-5,-15],[-2,-15],[3,-17],[-1,-3],[-4,-13],[7,-13],[4,-2],[6,7],[0,-6],[-1,-5],[-1,-5],[-3,-5],[9,-3],[5,9],[6,12],[7,6],[0,2],[8,11],[17,28],[8,21],[5,9],[8,7],[4,0],[6,-20],[0,9],[3,7],[4,5],[5,4],[-3,3],[-2,1],[-2,-2],[-3,-2],[-1,7],[2,10],[3,8],[4,4],[2,-4],[1,-7],[3,-6],[6,4],[-2,12],[-2,5],[-3,4],[0,3],[3,4],[2,5],[2,6],[3,6],[12,17],[-3,1],[-4,3],[-4,4],[-1,6],[1,6],[3,-2],[4,-4],[2,-2],[7,2],[6,6],[4,8],[-2,8],[2,5],[3,9],[2,7],[-1,4],[-6,3],[-1,6],[2,7],[1,4],[2,4],[3,1],[0,3],[-3,7],[-8,8],[-5,4],[-4,2],[-27,7],[-7,-5],[-7,-8],[-9,-5],[-17,-1],[0,-5],[0,-4],[0,-3],[0,-1],[2,-3],[3,-9],[-7,1],[-6,6],[-10,18],[-1,4],[-1,4],[-2,3],[-8,2],[-13,7],[6,4],[11,2],[6,3],[-10,7],[-3,4],[4,0],[4,0],[3,2],[2,3],[-1,3],[-2,17],[-4,3],[-17,5],[-6,0],[1,8],[2,14],[-1,3],[0,4],[5,1],[5,-1],[4,-3],[4,-5],[1,4],[1,3],[0,4],[0,5],[9,-6],[8,-10],[8,-6],[10,2],[-3,9],[-2,3],[6,-1],[4,-3],[8,-8],[3,-3],[3,-1],[7,0],[23,5],[44,-9],[8,-5],[8,-8],[8,-7],[8,3],[-3,4],[-1,7],[-1,8],[0,6],[3,-3],[4,-1],[7,0],[2,1],[3,3],[1,3],[-1,1],[-4,2],[-1,4],[1,8],[1,6],[3,0],[9,-6],[3,-5],[3,-2],[6,5],[3,7],[3,14],[4,8],[0,9],[5,13],[2,10],[-10,-3],[-5,5],[-10,9],[-5,6],[18,0],[11,-4],[4,2],[3,7],[1,7],[1,6],[-2,1],[-10,9],[-3,5],[5,-1],[8,-4],[7,-2],[5,7],[-2,10],[-6,4],[-14,2],[-1,-2],[-2,-4],[-2,-1],[-1,9],[-12,6],[-6,-2],[-21,-14],[1,-1],[1,0],[1,-1],[2,-2],[-6,-2],[-7,0],[-7,3],[-3,5],[-1,3],[-2,2],[-1,3],[2,3],[4,7],[-10,-6],[-16,-20],[-8,-6],[5,17],[-6,-5],[-4,-13],[19,-10],[1,-7],[0,-8],[2,-7],[6,-6],[13,-3],[6,-3],[-12,-5],[-14,5],[-14,7],[-12,5],[-25,0],[-13,-3],[-6,0],[-6,3],[10,16],[7,17],[-14,-2],[2,11],[20,31],[-6,-1],[-6,-3],[-5,-2],[-6,2],[-3,7],[-40,-31],[-6,-2],[-15,-12],[-10,-11],[-7,-3],[-30,-11],[-9,-6],[-4,-6],[-5,-6],[-4,-1]],[[327,1770],[7,8],[17,37],[4,12],[2,15],[-6,-3],[-10,-10],[-7,-6],[-4,0],[-11,-6],[-3,-2],[-13,-24],[-3,-17],[6,-5],[21,1]],[[144,766],[2,6],[2,0],[4,-2],[3,-4],[-4,-5],[-4,-3],[-8,1],[-6,3],[0,4],[11,0]],[[177,783],[-13,-1],[-1,-7],[5,-7],[12,-5],[10,-1],[7,-5],[5,3],[-2,6],[-4,9],[-7,6],[-7,2],[-5,0]],[[145,2301],[7,-1],[8,-1],[1,-5],[-1,-11],[0,-7],[-7,-3],[-11,3],[-2,7],[-7,5],[-4,7],[3,7],[13,-1]],[[161,2441],[3,5],[5,1],[4,-5],[-4,-5],[0,-3],[6,1],[1,-5],[-6,-7],[-1,-9],[-1,-8],[-5,-2],[-7,9],[-5,10],[-5,9],[-1,7],[16,2]],[[154,2484],[13,9],[7,-3],[6,-8],[2,-10],[-7,-6],[4,-9],[-6,-4],[-9,3],[-6,-5],[-11,0],[-9,2],[-2,7],[1,11],[4,8],[5,6],[8,-1]],[[117,2731],[5,0],[5,3],[4,1],[4,-9],[12,-2],[8,-2],[4,6],[4,-2],[6,-4],[7,-1],[5,-7],[1,-6],[3,-5],[-1,-3],[-6,6],[-8,3],[-7,0],[-2,-7],[-2,-7],[6,-5],[6,-3],[4,-4],[0,-6],[-7,5],[-8,4],[-2,-4],[8,-6],[3,-4],[-5,0],[-11,8],[-13,4],[-15,3],[-7,6],[-14,2],[-7,6],[-1,10],[-1,7],[5,8],[17,5]],[[596,23],[-7,2],[-20,-2],[-28,2],[-21,-6],[-8,2],[-6,5],[-3,15],[-4,5],[-8,5],[-14,1],[-17,11],[-10,10],[-31,44],[-4,3]],[[608,0],[0,1],[-16,22]],[[414,120],[-16,-3],[-11,-7],[-21,-20],[-40,-8],[-24,-25],[-4,5]],[[295,58],[-12,9],[-12,-1],[-8,-6],[-25,-32],[-10,-7],[-9,-3],[-87,1],[-28,7],[-36,13]],[[68,39],[-5,18],[-8,15],[-5,56],[-3,14],[0,28],[5,69],[7,41],[-4,7],[-19,5],[-8,10],[-5,24],[-9,7],[-14,-2]],[[269,1125],[7,2],[9,-2],[5,-5],[-4,-5],[-2,-2],[-1,-1],[-1,-1],[-2,0],[2,-3],[0,-2],[1,-2],[3,-2],[-12,-9],[-4,-5],[1,-6],[-7,-7],[-21,-13],[-3,6],[-3,4],[-3,2],[-3,-4],[-10,6],[-1,6],[8,17],[0,3],[-1,4],[0,5],[2,6],[4,2],[2,-2],[2,-5],[1,-5],[8,2],[17,10],[6,6]],[[327,1770],[-21,-1],[-6,5],[3,17],[13,24],[3,2],[11,6],[4,0],[7,6],[10,10],[6,3],[-2,-15],[-4,-12],[-17,-37],[-7,-8]],[[117,2731],[5,0],[5,3],[4,1],[4,-9],[12,-2],[8,-2],[4,6],[4,-2],[6,-4],[7,-1],[5,-7],[1,-6],[3,-5],[-1,-3],[-6,6],[-8,3],[-7,0],[-2,-7],[-2,-7],[6,-5],[6,-3],[4,-4],[0,-6],[-7,5],[-8,4],[-2,-4],[8,-6],[3,-4],[-5,0],[-11,8],[-13,4],[-15,3],[-7,6],[-14,2],[-7,6],[-1,10],[-1,7],[5,8],[17,5]],[[498,378],[-1,3],[-1,7],[-2,6],[-1,0],[4,8],[12,-2],[6,7],[6,-1],[8,-1],[6,-3],[-4,-10],[-1,-9],[6,-4],[10,-2],[6,1],[15,8],[7,6],[3,8],[2,11],[4,9],[5,5],[7,2],[-4,-6],[-1,-2],[6,-4],[9,9],[11,13],[7,4],[-2,-5],[2,-1],[1,-3],[2,-12],[0,-6],[-2,-5],[-4,-7],[0,-6],[-9,-8],[-13,-7],[-33,-11],[-8,-4],[-4,-4],[-2,-2],[-1,-5],[0,-8],[-2,-6],[-4,0],[-9,4],[-17,-6],[-9,-2],[-9,4],[6,6],[5,4],[6,2],[7,0],[1,1],[-1,3],[-4,3],[-7,3],[-2,4],[-5,9],[-1,1],[-5,-1],[-2,2]],[[718,390],[-5,7],[-3,17],[-1,19],[-2,15],[5,3],[10,-2],[5,2],[-3,2],[-3,2],[-2,4],[-2,5],[2,2],[1,2],[1,2],[1,2],[-2,0],[-4,0],[-2,0],[7,9],[9,-1],[10,-6],[7,-6],[-2,-4],[5,-13],[3,8],[-1,9],[-1,7],[1,5],[4,5],[4,-1],[5,-2],[4,2],[-1,3],[-4,10],[15,0],[7,-2],[6,-10],[5,-5],[2,-4],[2,-1],[3,0],[2,-1],[1,-4],[0,-3],[-2,-2],[-1,-2],[0,-3],[4,-10],[5,-5],[6,-1],[8,-1],[-3,-8],[-5,0],[-11,4],[-3,-2],[-3,-4],[-3,-4],[-11,-3],[-3,-3],[-3,-4],[-5,-4],[-5,-3],[-15,-1],[-14,-7],[-5,-2],[-2,-1],[-11,-13],[-2,0],[-1,1],[-4,1]],[[0,2770],[0,16],[10,2],[15,7],[8,-1],[3,-2],[3,-2],[3,-3],[5,-1],[23,0],[8,-2],[20,-19],[0,-3],[-1,-3],[-2,-4],[-2,-2],[1,-2],[0,-1],[2,-1],[-4,-6],[-3,-4],[-4,-1],[-4,3],[1,2],[1,6],[-4,-1],[-4,1],[-3,1],[-4,3],[2,1],[6,3],[-10,6],[-47,9],[-15,0],[-4,-2]],[[0,2168],[0,594],[4,-5],[68,-34],[8,-11],[-2,-16],[7,-2],[18,-11],[0,-3],[-14,-8],[-7,-5],[-6,-8],[10,-4],[8,5],[7,9],[7,6],[10,2],[9,-5],[16,-13],[0,-4],[-6,-3],[-6,-5],[17,0],[5,-2],[5,-5],[3,-4],[-2,-2],[-30,-9],[-6,-3],[8,-3],[19,1],[7,-4],[4,-12],[-5,-8],[-9,-5],[-6,-6],[19,-9],[6,1],[5,6],[1,5],[2,4],[5,1],[5,-4],[-3,-8],[-9,-14],[-6,-7],[-5,0],[-5,3],[-8,2],[3,-6],[4,-7],[5,-5],[4,-3],[12,-1],[2,-3],[-5,-4],[10,-12],[-22,-24],[-8,-5],[-10,1],[-21,10],[-11,2],[0,-5],[7,-1],[9,-4],[6,-7],[3,-8],[-4,-14],[-7,-11],[-9,-6],[-9,-2],[-9,2],[-19,8],[-9,2],[-39,-4],[0,-4],[7,0],[23,-4],[-4,-8],[-4,-7],[-6,-5],[-6,-1],[5,-8],[5,-2],[5,4],[12,13],[4,3],[41,-6],[13,-6],[7,-14],[-3,0],[-2,-1],[-2,-2],[-3,-1],[8,-7],[12,-4],[8,-7],[-3,-14],[11,-14],[3,-8],[1,-13],[-3,-7],[-8,-1],[-14,1],[-3,-2],[-4,-4],[-3,-2],[-4,0],[-19,0],[-6,-2],[-5,-4],[-3,-6],[27,0],[-8,-7],[-10,-4],[-10,0],[-9,3],[-12,10],[-28,10],[-9,1],[1,-8],[8,-11],[10,-7],[18,-5],[8,-7],[6,-12],[-2,0],[0,-3],[1,-1],[0,-1],[-1,-3],[8,-1],[5,-5],[4,-7],[5,-7],[7,-4],[8,0],[14,4],[32,0],[8,-4],[7,-15],[7,-2],[-3,-6],[-3,-2],[-5,-2],[-4,-2],[3,-1],[4,-2],[3,-1],[-5,-6],[-9,-7],[-4,-4],[-5,10],[-8,1],[-17,-3],[-4,2],[-3,2],[-3,3],[-8,9],[-2,1],[-3,0],[-4,0],[-32,12],[-18,2],[-10,-10],[26,0],[13,-2],[10,-8],[4,-7],[1,-2],[-19,-12],[-5,-4],[-3,-6],[14,0],[5,-4],[4,-8],[-5,-3],[-6,0],[-19,10],[-5,1],[-13,0],[-36,-18],[-10,3],[-2,3]],[[0,1710],[0,451],[32,-1],[4,1],[4,6],[8,0],[15,-4],[9,2],[4,0],[2,-4],[2,-3],[3,-5],[4,-4],[4,-2],[32,-4],[30,8],[-1,-3],[-4,-13],[27,2],[10,-3],[-6,-26],[12,-2],[17,2],[11,-4],[1,-8],[-6,-16],[6,-6],[0,-8],[-3,-9],[-6,-4],[-6,2],[-6,3],[-6,5],[-3,4],[-6,4],[-23,-2],[3,-6],[9,-8],[3,-6],[-2,-7],[-4,0],[-23,6],[-26,14],[-22,5],[-70,37],[-10,2],[4,-10],[8,-8],[17,-10],[34,-5],[11,-9],[8,-2],[4,-3],[4,-10],[2,-3],[45,-10],[0,-4],[-7,-4],[-6,-4],[0,-4],[5,1],[4,2],[5,0],[4,-3],[-2,-1],[-1,-3],[10,1],[3,-1],[2,-2],[1,-5],[2,-1],[6,0],[9,6],[6,2],[1,-3],[-4,-5],[-5,-6],[-4,-3],[-6,0],[-6,-3],[-4,-5],[-3,-8],[9,2],[15,6],[8,1],[7,-3],[18,-13],[8,-5],[-8,-4],[0,-1],[-8,1],[-17,4],[-8,-4],[-5,-1],[-2,3],[-1,4],[-4,-1],[-4,-5],[-3,-4],[8,-2],[15,-9],[9,-2],[-4,-15],[-1,-9],[2,-8],[6,-12],[-10,-13],[-11,0],[-11,1],[-11,-5],[4,-5],[11,-11],[-9,-13],[-9,-7],[-19,-9],[-9,-1],[-18,8],[-11,1],[7,-8],[15,-15],[3,-8],[-2,-12],[-5,-9],[-6,-6],[-30,-14],[-8,-2],[-3,-2],[-13,-14],[-13,-4],[-2,-3],[-8,-9],[-8,-8],[-3,-2],[-6,-10],[-7,-8],[-8,-6],[-6,-2]],[[0,959],[0,569],[4,1],[5,6],[4,6],[9,6],[30,11],[7,3],[10,11],[15,12],[6,2],[40,31],[3,-7],[6,-2],[5,2],[6,3],[6,1],[-20,-31],[-2,-11],[14,2],[-7,-17],[-10,-16],[6,-3],[6,0],[13,3],[25,0],[12,-5],[14,-7],[14,-5],[12,5],[-6,3],[-13,3],[-6,6],[-2,7],[0,8],[-1,7],[-19,10],[4,13],[6,5],[-5,-17],[8,6],[16,20],[10,6],[-4,-7],[-2,-3],[1,-3],[2,-2],[1,-3],[3,-5],[7,-3],[7,0],[6,2],[-2,2],[-1,1],[-1,0],[-1,1],[21,14],[6,2],[12,-6],[1,-9],[2,1],[2,4],[1,2],[14,-2],[6,-4],[2,-10],[-5,-7],[-7,2],[-8,4],[-5,1],[3,-5],[10,-9],[2,-1],[-1,-6],[-1,-7],[-3,-7],[-4,-2],[-11,4],[-18,0],[5,-6],[10,-9],[5,-5],[10,3],[-2,-10],[-5,-13],[0,-9],[-4,-8],[-3,-14],[-3,-7],[-6,-5],[-3,2],[-3,5],[-9,6],[-3,0],[-1,-6],[-1,-8],[1,-4],[4,-2],[1,-1],[-1,-3],[-3,-3],[-2,-1],[-7,0],[-4,1],[-3,3],[0,-6],[1,-8],[1,-7],[3,-4],[-8,-3],[-8,7],[-8,8],[-8,5],[-44,9],[-23,-5],[-7,0],[-3,1],[-3,3],[-8,8],[-4,3],[-6,1],[2,-3],[3,-9],[-10,-2],[-8,6],[-8,10],[-9,6],[0,-5],[0,-4],[-1,-3],[-1,-4],[-4,5],[-4,3],[-5,1],[-5,-1],[0,-4],[1,-3],[-2,-14],[-1,-8],[6,0],[17,-5],[4,-3],[2,-17],[1,-3],[-2,-3],[-3,-2],[-4,0],[-4,0],[3,-4],[10,-7],[-6,-3],[-11,-2],[-6,-4],[13,-7],[8,-2],[2,-3],[1,-4],[1,-4],[10,-18],[6,-6],[7,-1],[-3,9],[-2,3],[0,1],[0,3],[0,4],[0,5],[17,1],[9,5],[7,8],[7,5],[27,-7],[4,-2],[5,-4],[8,-8],[3,-7],[0,-3],[-3,-1],[-2,-4],[-1,-4],[-2,-7],[1,-6],[6,-3],[1,-4],[-2,-7],[-3,-9],[-2,-5],[2,-8],[-4,-8],[-6,-6],[-7,-2],[-2,2],[-4,4],[-3,2],[-1,-6],[1,-6],[4,-4],[4,-3],[3,-1],[-12,-17],[-3,-6],[-2,-6],[-2,-5],[-3,-4],[0,-3],[3,-4],[2,-5],[2,-12],[-6,-4],[-3,6],[-1,7],[-2,4],[-4,-4],[-3,-8],[-2,-10],[1,-7],[3,2],[2,2],[2,-1],[3,-3],[-5,-4],[-4,-5],[-3,-7],[0,-9],[-6,20],[-4,0],[-8,-7],[-5,-9],[-8,-21],[-17,-28],[-8,-11],[0,-2],[-7,-6],[-6,-12],[-5,-9],[-9,3],[3,5],[1,5],[1,5],[0,6],[-6,-7],[-4,2],[-7,13],[4,13],[1,3],[-3,17],[2,15],[5,15],[3,15],[-9,-2],[-7,-5],[-5,-9],[-4,-13],[8,-1],[3,-8],[-1,-12],[-2,-12],[-2,-4],[-6,-10],[1,-3],[4,-5],[0,-2],[0,-4],[-2,-5],[0,-4],[1,-11],[2,-9],[3,-6],[7,-7],[8,-1],[4,-2],[-1,-7],[-10,-15],[-4,-3],[-1,-2],[-17,-21],[-12,-9],[-5,-9],[-3,-21],[-3,-4]],[[880,0],[-880,0],[0,699],[3,9],[24,20],[4,5],[6,4],[6,2],[5,0],[0,-3],[-1,-7],[-1,-3],[6,0],[4,-2],[1,-4],[-6,-2],[4,-6],[6,-5],[6,-6],[1,-8],[-2,-7],[-11,-14],[-4,-8],[-7,-27],[-3,-9],[-4,-8],[-16,-21],[14,6],[11,12],[19,33],[5,5],[17,8],[5,-1],[2,-9],[-4,-8],[-12,-13],[12,-5],[7,14],[4,18],[5,9],[12,-1],[12,-4],[11,-9],[7,-14],[-2,0],[2,-6],[15,-16],[2,-1],[2,2],[3,0],[2,-1],[2,-4],[1,-4],[1,-3],[7,-4],[9,0],[4,2],[4,4],[4,6],[2,4],[-3,5],[9,6],[21,-3],[10,1],[4,2],[29,23],[0,-5],[7,-17],[3,-9],[0,-11],[-4,-9],[-7,-6],[-8,-4],[-8,-1],[-14,-6],[-26,-25],[-16,-6],[-8,-16],[-34,-12],[-56,-37],[-4,-1],[-4,3],[-3,4],[-4,1],[-4,-8],[3,-8],[-6,-7],[-17,-9],[2,-10],[-10,-11],[-22,-20],[-3,-4],[-2,-6],[-2,-8],[-1,-9],[3,-6],[5,6],[10,19],[9,12],[22,22],[25,17],[5,2],[6,0],[6,2],[5,3],[4,3],[2,-4],[1,-1],[0,-3],[-7,-3],[-12,-8],[-6,-1],[0,-5],[6,1],[6,3],[6,3],[4,6],[3,-6],[6,-1],[14,3],[-1,-5],[-2,-3],[-3,-3],[-3,-1],[-3,-2],[-1,-5],[-1,-6],[-1,-4],[-5,-6],[-18,-14],[4,-7],[6,-2],[13,0],[-9,-20],[-13,-15],[-16,-10],[-16,-4],[-4,-2],[-7,-8],[-3,-2],[-5,-1],[-1,-3],[0,-4],[-2,-6],[-13,-17],[-4,-7],[3,0],[9,5],[14,5],[25,23],[14,9],[32,12],[16,1],[17,-5],[-3,-9],[-2,-3],[7,1],[4,-1],[3,-2],[2,-1],[6,-3],[3,-4],[-3,-2],[-5,0],[-3,1],[-2,0],[-4,-1],[0,-1],[-2,-4],[-3,-5],[-3,-3],[8,-2],[12,4],[20,11],[-1,-8],[-5,-11],[-1,-10],[7,0],[3,0],[0,-4],[-3,-6],[0,-7],[2,-6],[6,-1],[4,4],[3,7],[2,9],[2,6],[16,27],[10,10],[12,2],[-10,-25],[-5,-15],[1,-9],[-3,-7],[-1,-7],[-1,-7],[2,-8],[9,12],[4,8],[2,7],[1,10],[2,7],[3,4],[7,1],[-1,3],[0,1],[-1,2],[-1,3],[2,6],[3,6],[5,-11],[3,3],[4,9],[3,7],[6,4],[21,4],[-2,-8],[5,2],[3,2],[2,-4],[-22,-30],[-8,-7],[0,-4],[11,4],[22,16],[9,-4],[-6,-5],[-23,-33],[-13,-11],[-5,-8],[9,5],[11,3],[6,-4],[-3,-16],[6,10],[6,17],[6,13],[6,1],[-5,-9],[6,0],[9,7],[0,-7],[-3,-10],[-5,-4],[-5,-2],[-6,-4],[3,-4],[3,-6],[2,-7],[1,-8],[3,2],[1,1],[1,2],[-2,7],[0,7],[3,4],[12,5],[5,7],[3,7],[3,3],[0,3],[-11,18],[-2,7],[-1,10],[1,9],[2,7],[-18,33],[11,1],[5,2],[4,5],[12,-7],[3,-4],[-5,-5],[3,-4],[3,-3],[3,-1],[4,-1],[-2,4],[-2,9],[-1,4],[7,3],[7,4],[6,2],[8,-6],[-6,0],[0,-3],[5,-5],[3,-8],[2,-9],[0,-9],[-2,-10],[-4,-7],[-6,-6],[-5,-8],[3,-8],[-4,-10],[-6,-5],[-3,7],[-6,-8],[-4,-14],[-2,-14],[4,-17],[0,-23],[-1,-8],[-3,-5],[-5,-4],[-8,-2],[-10,-8],[-4,-5],[-4,-6],[-2,-7],[-3,-6],[-13,-12],[-2,-5],[2,-2],[11,0],[5,-2],[-7,-20],[7,0],[3,-5],[0,-8],[-3,-8],[-6,-7],[-11,-10],[-5,-7],[5,1],[12,12],[6,3],[5,1],[10,-1],[7,4],[27,25],[0,4],[-9,-3],[-18,-13],[-7,2],[-3,12],[1,14],[5,13],[6,8],[0,4],[-11,-4],[-2,0],[0,6],[2,5],[4,4],[3,1],[6,2],[6,4],[12,10],[52,33],[-2,5],[2,3],[-7,16],[-2,8],[-1,9],[7,-7],[7,-10],[6,-3],[5,12],[7,-30],[1,-9],[-3,-9],[-5,-9],[-12,-13],[5,-1],[6,4],[7,6],[4,8],[9,21],[5,3],[10,1],[1,-2],[1,-5],[1,-4],[4,-2],[4,1],[4,4],[3,5],[1,5],[2,19],[-1,3],[-6,2],[-2,4],[0,6],[2,8],[2,6],[3,7],[4,5],[3,3],[6,-1],[1,-4],[-2,-11],[0,-36],[1,-6],[0,-6],[1,-11],[5,-6],[9,9],[3,6],[1,4],[0,11],[1,7],[1,6],[4,4],[4,1],[-2,-5],[0,-5],[0,-6],[2,-4],[4,-2],[2,4],[1,10],[3,5],[2,7],[3,4],[3,3],[7,3],[3,3],[1,3],[2,4],[4,9],[1,1],[2,0],[1,2],[1,3],[-1,5],[0,2],[-2,-1],[5,9],[19,26],[9,16],[6,8],[5,3],[8,1],[14,6],[7,1],[3,-3],[-19,-20],[-1,-4],[-3,-16],[-1,-3],[-9,-16],[7,9],[11,7],[12,3],[7,-2],[-5,-7],[-4,-8],[0,-7],[4,-7],[-11,-12],[-1,-2],[-3,-12],[0,-8],[2,-3],[8,-4],[1,-10],[-2,-12],[-8,-24],[0,-7],[3,1],[1,9],[3,10],[8,7],[9,7],[8,7],[-7,9],[2,12],[6,13],[7,18],[9,4],[18,1],[-2,-10],[5,-1],[12,7],[0,-10],[4,-1],[10,7],[-2,-9],[-3,-7],[-2,-7],[3,-10],[3,8],[2,8],[2,8],[5,5],[6,-11],[1,-6],[1,1],[6,10],[3,11],[2,11],[3,9],[19,6],[2,0],[1,-5],[4,3],[2,5],[0,3],[4,2],[2,3],[1,0],[4,-7],[4,-3],[8,-1],[4,-2],[-5,-2],[-15,-11],[9,-4],[24,11],[10,1],[6,-4],[12,-13],[6,-3],[5,-2],[14,-7],[4,-4],[8,2],[7,-4],[10,-10],[17,-5],[6,-5],[-5,-6],[7,-10],[12,-4],[11,-1],[4,-3],[1,-5],[1,-2],[2,-1],[2,-2],[1,-1],[5,1],[1,0],[0,-2],[0,-5],[0,-2],[4,-2],[5,-2],[6,0],[5,4],[5,-11],[3,-4],[5,-1],[0,-4],[1,-7],[-14,-14],[0,-12],[-4,0],[-7,-3],[-3,-1],[-3,-2],[0,-6],[2,-9],[-2,-4],[-6,-10],[-2,-4],[-2,-4],[-5,1],[-9,5],[-2,-2],[-2,-4],[-2,-6],[0,-4],[2,-3],[4,-1],[5,-3],[3,-6],[1,-13],[-3,-9],[-7,-5],[-68,-9],[-16,3],[-1,-1],[2,-4],[5,-5],[4,-1],[25,1],[6,-1],[-8,-9],[-11,-7],[-11,-4],[-11,-1],[-5,1],[-8,7],[-3,0],[-5,-7],[3,-6],[12,-7],[16,-14],[0,-3],[-5,-2],[-3,-3]]]}