{"objects":{"water":{"type":"GeometryCollection","geometries":[{"type":"MultiPolygon","properties":{"source":"naturalearthdata.com","kind":"ocean","area":989871000000000,"sort_rank":200,"min_zoom":0,"id":1},"arcs":[[[0],[1]]]},{"type":"LineString","properties":{"source":"naturalearthdata.com","kind":"ocean","sort_rank":205,"boundary":true,"min_zoom":0,"id":2597},"arcs":[2]},{"type":"MultiLineString","properties":{"source":"naturalearthdata.com","kind":"ocean","sort_rank":205,"boundary":true,"min_zoom":0,"id":2600},"arcs":[[3],[4]]},{"type":"LineString","properties":{"source":"naturalearthdata.com","kind":"ocean","sort_rank":205,"boundary":true,"min_zoom":0,"id":2601},"arcs":[5]}]},"buildings":{"type":"GeometryCollection","geometries":[]},"places":{"type":"GeometryCollection","geometries":[]},"transit":{"type":"GeometryCollection","geometries":[]},"pois":{"type":"GeometryCollection","geometries":[]},"boundaries":{"type":"GeometryCollection","geometries":[]},"roads":{"type":"GeometryCollection","geometries":[]},"earth":{"type":"GeometryCollection","geometries":[{"type":"MultiPolygon","properties":{"sort_rank":10,"source":"naturalearthdata.com","kind":"earth","min_zoom":2.0,"area":47523454427},"arcs":[[[6]]]},{"type":"MultiPolygon","properties":{"sort_rank":10,"source":"naturalearthdata.com","min_zoom":3.0,"kind":"earth","area":34889604215},"arcs":[[[7]],[[8]]]}]},"landuse":{"type":"GeometryCollection","geometries":[]}},"type":"Topology","transform":{"translate":[-56.25,-66.5132604431],"scale":[0.002746582,0.0011979649]},"arcs":[[[0,2929],[0,1167],[4096,0],[0,-4096],[-4096,0],[0,2592],[3,1],[53,15],[18,17],[9,18],[9,11],[19,-6],[8,13],[4,7],[1,7],[1,6],[2,4],[5,1],[6,-2],[4,-6],[4,-7],[4,-5],[5,-3],[6,-2],[6,0],[4,5],[2,8],[-1,6],[-5,14],[60,-40],[16,-3],[35,9],[23,-5],[41,-20],[23,-5],[27,4],[23,12],[17,20],[8,30],[-4,32],[-12,20],[-15,11],[-12,4],[-82,13],[-6,-2],[-4,-5],[-3,-6],[-3,-3],[-5,-1],[-34,24],[5,8],[5,8],[6,5],[5,1],[-10,4],[-25,16],[-21,-1],[-33,-14],[-92,0],[-98,-38],[-2,-1],[0,19],[12,8],[54,62],[12,25],[-4,33],[-21,11],[-53,0]],[[193,2536],[-10,39],[-21,18],[-76,-4],[-70,-20],[-5,-6],[-4,-16],[-1,-3],[-1,-3],[-1,-3],[-1,-5],[3,-5],[28,-35],[70,-46],[12,2],[3,25],[74,42],[0,20]],[[193,2536],[-10,39],[-21,18],[-76,-4],[-70,-20],[-5,-6],[-4,-16],[-1,-3],[-1,-3],[-1,-3],[-1,-5],[3,-5],[28,-35],[70,-46],[12,2],[3,25],[74,42],[0,20]],[[397,2763],[-82,13],[-6,-2],[-4,-5],[-3,-6],[-3,-3],[-5,-1],[-34,24],[5,8],[5,8],[6,5],[5,1],[-10,4],[-25,16],[-21,-1],[-33,-14],[-92,0],[-98,-38],[-2,-1]],[[0,2592],[3,1],[53,15],[18,17],[9,18],[9,11],[19,-6],[8,13],[4,7],[1,7],[1,6],[2,4],[5,1],[6,-2],[4,-6],[4,-7],[4,-5],[5,-3],[6,-2],[6,0],[4,5],[2,8],[-1,6],[-5,14],[60,-40],[16,-3],[35,9],[23,-5],[41,-20],[23,-5],[27,4],[23,12],[17,20],[8,30],[-4,32],[-12,20],[-15,11],[-12,4]],[[0,2790],[12,8],[54,62],[12,25],[-4,33],[-21,11],[-53,0]],[[0,2592],[0,179],[2,1],[98,38],[92,0],[33,14],[21,1],[25,-16],[10,-4],[-5,-1],[-6,-5],[-5,-8],[-5,-8],[34,-24],[5,1],[3,3],[3,6],[4,5],[6,2],[82,-13],[12,-4],[15,-11],[12,-20],[4,-32],[-8,-30],[-17,-20],[-23,-12],[-27,-4],[-23,5],[-41,20],[-23,5],[-35,-9],[-16,3],[-60,40],[5,-14],[1,-6],[-2,-8],[-4,-5],[-6,0],[-6,2],[-5,3],[-4,5],[-4,7],[-4,6],[-6,2],[-5,-1],[-2,-4],[-1,-6],[-1,-7],[-4,-7],[-8,-13],[-19,6],[-9,-11],[-9,-18],[-18,-17],[-53,-15],[-3,-1]],[[193,2536],[0,-20],[-74,-42],[-3,-25],[-12,-2],[-70,46],[-28,35],[-3,5],[1,5],[1,3],[1,3],[1,3],[4,16],[5,6],[70,20],[76,4],[21,-18],[10,-39]],[[0,2790],[0,139],[53,0],[21,-11],[4,-33],[-12,-25],[-54,-62],[-12,-8]]]}