{"objects":{"water":{"type":"GeometryCollection","geometries":[{"type":"MultiPolygon","properties":{"source":"naturalearthdata.com","kind":"ocean","area":989871000000000,"sort_rank":200,"min_zoom":0,"id":1},"arcs":[[[0]]]},{"type":"LineString","properties":{"source":"naturalearthdata.com","kind":"ocean","sort_rank":205,"boundary":true,"min_zoom":0,"id":1},"arcs":[1]},{"type":"LineString","properties":{"source":"naturalearthdata.com","kind":"ocean","sort_rank":205,"boundary":true,"min_zoom":0,"id":2},"arcs":[2]}]},"buildings":{"type":"GeometryCollection","geometries":[]},"places":{"type":"GeometryCollection","geometries":[]},"transit":{"type":"GeometryCollection","geometries":[]},"pois":{"type":"GeometryCollection","geometries":[]},"boundaries":{"type":"GeometryCollection","geometries":[]},"roads":{"type":"GeometryCollection","geometries":[]},"earth":{"type":"GeometryCollection","geometries":[{"type":"MultiPolygon","properties":{"sort_rank":10,"source":"naturalearthdata.com","min_zoom":0,"kind":"earth","area":59133836386451},"arcs":[[[3]]]}]},"landuse":{"type":"GeometryCollection","geometries":[]}},"type":"Topology","transform":{"translate":[-56.25,-82.6762849783],"scale":[0.002746582,0.000386492]},"arcs":[[[0,174],[0,3922],[4096,0],[0,-3508],[-10,-11],[-179,-190],[-22,12],[-51,203],[-41,-21],[-42,-104],[-34,-126],[6,-30],[-11,-7],[-169,133],[14,19],[6,23],[4,43],[-65,103],[-21,66],[141,257],[78,211],[5,37],[3,47],[6,54],[8,43],[29,74],[-9,1],[-27,-44],[1,42],[2,35],[4,27],[5,21],[-15,28],[-30,122],[-22,57],[-7,29],[-7,36],[-4,41],[-2,46],[0,30],[8,70],[-18,18],[-141,-108],[-141,-108],[-12,-27],[-32,-128],[-15,-32],[-14,-17],[-15,7],[-24,64],[-12,-1],[-24,-20],[-11,1],[-13,13],[-13,26],[-8,44],[59,33],[58,97],[-38,0],[2,10],[4,30],[2,12],[-13,69],[-18,15],[-166,-11],[-110,78],[-4,-3],[-3,-15],[-4,-44],[-4,-7],[-55,73],[-158,-54],[-159,-54],[-158,-53],[-159,-54],[-159,-53],[-63,88],[-11,3],[-176,-135],[-177,-134],[-166,-127],[-166,-126],[-106,45],[-106,46],[-5,-3],[-6,-10],[-7,-30],[-4,-14],[-10,-14],[-177,-107],[-40,40],[-143,-34],[16,-26],[105,8],[17,-20],[-135,-122],[34,-2],[10,-23],[-24,-31],[-95,-32],[-95,-32],[-22,-43],[-3,-18],[-7,-51],[-3,-12],[-47,2],[-11,-14],[-30,-83],[-4,-25],[-4,-83],[-3,-33],[-4,-14],[-17,-36],[16,-84],[-12,-51],[-18,-19],[-61,29],[-8,18],[-3,17],[-1,18],[-1,16],[-4,8],[-21,7],[-22,34],[-45,-2],[-35,-67],[-18,7],[-5,22],[-1,24],[-2,13],[-24,-38],[-4,-16],[-1,-13],[1,-43],[0,-14],[-2,-10],[-22,-70],[-94,-176]],[[4096,588],[-10,-11],[-179,-190],[-22,12],[-51,203],[-41,-21],[-42,-104],[-34,-126],[6,-30],[-11,-7],[-169,133],[14,19],[6,23],[4,43],[-65,103],[-21,66],[141,257],[78,211],[5,37],[3,47],[6,54],[8,43],[29,74],[-9,1],[-27,-44],[1,42],[2,35],[4,27],[5,21],[-15,28],[-30,122],[-22,57],[-7,29],[-7,36],[-4,41],[-2,46],[0,30],[8,70],[-18,18],[-141,-108],[-141,-108],[-12,-27],[-32,-128],[-15,-32],[-14,-17],[-15,7],[-24,64],[-12,-1],[-24,-20],[-11,1],[-13,13],[-13,26],[-8,44],[59,33],[58,97],[-38,0],[2,10],[4,30],[2,12],[-13,69],[-18,15],[-166,-11],[-110,78],[-4,-3],[-3,-15],[-4,-44],[-4,-7],[-55,73],[-158,-54],[-159,-54],[-158,-53],[-159,-54],[-159,-53],[-63,88],[-11,3],[-176,-135],[-177,-134]],[[1645,1588],[-166,-127],[-166,-126],[-106,45],[-106,46],[-5,-3],[-6,-10],[-7,-30],[-4,-14],[-10,-14],[-177,-107],[-40,40],[-143,-34],[16,-26],[105,8],[17,-20],[-135,-122],[34,-2],[10,-23],[-24,-31],[-95,-32],[-95,-32],[-22,-43],[-3,-18],[-7,-51],[-3,-12],[-47,2],[-11,-14],[-30,-83],[-4,-25],[-4,-83],[-3,-33],[-4,-14],[-17,-36],[16,-84],[-12,-51],[-18,-19],[-61,29],[-8,18],[-3,17],[-1,18],[-1,16],[-4,8],[-21,7],[-22,34],[-45,-2],[-35,-67],[-18,7],[-5,22],[-1,24],[-2,13],[-24,-38],[-4,-16],[-1,-13],[1,-43],[0,-14],[-2,-10],[-22,-70],[-94,-176]],[[4096,588],[0,-588],[-4096,0],[0,174],[94,176],[22,70],[2,10],[0,14],[-1,43],[1,13],[4,16],[24,38],[2,-13],[1,-24],[5,-22],[18,-7],[35,67],[45,2],[22,-34],[21,-7],[4,-8],[1,-16],[1,-18],[3,-17],[8,-18],[61,-29],[18,19],[12,51],[-16,84],[17,36],[4,14],[3,33],[4,83],[4,25],[30,83],[11,14],[47,-2],[3,12],[7,51],[3,18],[22,43],[95,32],[95,32],[24,31],[-10,23],[-34,2],[135,122],[-17,20],[-105,-8],[-16,26],[143,34],[40,-40],[177,107],[10,14],[4,14],[7,30],[6,10],[5,3],[106,-46],[106,-45],[166,126],[166,127],[177,134],[176,135],[11,-3],[41,-57],[22,-31],[159,53],[159,54],[158,53],[159,54],[158,54],[55,-73],[4,7],[4,44],[3,15],[4,3],[110,-78],[166,11],[18,-15],[13,-69],[-2,-12],[-4,-30],[-2,-10],[38,0],[-58,-97],[-59,-33],[8,-44],[13,-26],[13,-13],[11,-1],[24,20],[12,1],[24,-64],[15,-7],[14,17],[15,32],[32,128],[12,27],[141,108],[141,108],[18,-18],[-8,-70],[0,-30],[2,-46],[4,-41],[7,-36],[7,-29],[22,-57],[30,-122],[15,-28],[-5,-21],[-4,-27],[-2,-35],[-1,-42],[27,44],[9,-1],[-29,-74],[-8,-43],[-6,-54],[-3,-47],[-5,-37],[-78,-211],[-141,-257],[21,-66],[65,-103],[-4,-43],[-6,-23],[-14,-19],[169,-133],[11,7],[-6,30],[34,126],[42,104],[41,21],[51,-203],[22,-12],[179,190],[10,11]]]}