{"objects":{"water":{"type":"GeometryCollection","geometries":[{"type":"MultiPolygon","properties":{"source":"naturalearthdata.com","kind":"ocean","area":989871000000000,"sort_rank":200,"min_zoom":0,"id":1},"arcs":[[[0]],[[1]],[[2],[3],[4],[5],[6],[7],[8],[9]],[[10]]]},{"type":"MultiLineString","properties":{"source":"naturalearthdata.com","kind":"ocean","sort_rank":205,"boundary":true,"min_zoom":0,"id":515},"arcs":[[11],[12],[13],[14],[15],[16]]},{"type":"LineString","properties":{"source":"naturalearthdata.com","kind":"ocean","sort_rank":205,"boundary":true,"min_zoom":0,"id":1465},"arcs":[17]},{"type":"LineString","properties":{"source":"naturalearthdata.com","kind":"ocean","sort_rank":205,"boundary":true,"min_zoom":0,"id":1467},"arcs":[18]},{"type":"LineString","properties":{"source":"naturalearthdata.com","kind":"ocean","sort_rank":205,"boundary":true,"min_zoom":0,"id":1468},"arcs":[19]},{"type":"LineString","properties":{"source":"naturalearthdata.com","kind":"ocean","sort_rank":205,"boundary":true,"min_zoom":0,"id":1469},"arcs":[20]},{"type":"LineString","properties":{"source":"naturalearthdata.com","kind":"ocean","sort_rank":205,"boundary":true,"min_zoom":0,"id":1478},"arcs":[21]},{"type":"LineString","properties":{"source":"naturalearthdata.com","kind":"ocean","sort_rank":205,"boundary":true,"min_zoom":0,"id":1486},"arcs":[22]},{"type":"LineString","properties":{"source":"naturalearthdata.com","kind":"ocean","sort_rank":205,"boundary":true,"min_zoom":0,"id":1488},"arcs":[23]}]},"buildings":{"type":"GeometryCollection","geometries":[]},"places":{"type":"GeometryCollection","geometries":[{"type":"Point","properties":{"name:pt":"Sisimiut","collision_rank":362,"name:nl":"Sisimiut","name:id":"Sisimiut","name":"Sisimiut","name:hi":null,"name:tr":"Sisimiut","name:sv":"Sisimiut","name:ar":"\u0633\u064a\u0633\u064a\u0645\u064a\u0648\u062a","min_zoom":5.0,"name:it":"Sisimiut","name:vi":null,"name:ru":"\u0421\u0438\u0441\u0438\u043c\u0438\u0443\u0442","name:pl":"Sisimiut","name:hu":"Sisimiut","id":6590,"name:ja":"\u30b7\u30b7\u30df\u30e5\u30fc\u30c8","name:el":null,"kind":"locality","name:en":"Sisimiut","population_rank":5,"source":"naturalearthdata.com","name:bn":null,"name:de":"Sisimiut","name:ko":"\uc2dc\uc2dc\ubbf8\uc6b0\ud2b8","name:fr":"Sisimiut","wikidata_id":"Q208098","population":5227,"name:zh":"\u897f\u897f\u7f2a\u7279","name:es":"Sisimiut"},"coordinates":[941,436]}]},"transit":{"type":"GeometryCollection","geometries":[]},"pois":{"type":"GeometryCollection","geometries":[]},"boundaries":{"type":"GeometryCollection","geometries":[]},"roads":{"type":"GeometryCollection","geometries":[]},"earth":{"type":"GeometryCollection","geometries":[{"type":"MultiPolygon","properties":{"sort_rank":10,"source":"naturalearthdata.com","min_zoom":0.5,"kind":"earth","area":54586915647},"arcs":[[[24]],[[25]]]},{"type":"MultiPolygon","properties":{"sort_rank":10,"source":"naturalearthdata.com","kind":"earth","min_zoom":2.0,"area":106378174744},"arcs":[[[26]]]},{"type":"MultiPolygon","properties":{"sort_rank":10,"source":"naturalearthdata.com","kind":"earth","min_zoom":4.0,"area":112145940633},"arcs":[[[27]]]},{"type":"MultiPolygon","properties":{"sort_rank":10,"source":"naturalearthdata.com","kind":"earth","min_zoom":5.0,"area":15075057983},"arcs":[[[28]]]},{"type":"MultiPolygon","properties":{"sort_rank":10,"source":"naturalearthdata.com","min_zoom":0,"kind":"earth","area":44884805284559},"arcs":[[[29]],[[30]],[[31]],[[32]]]}]},"landuse":{"type":"GeometryCollection","geometries":[]}},"type":"Topology","transform":{"translate":[-56.25,66.5132604431],"scale":[0.002746582,0.0010008188]},"arcs":[[[1964,4096],[8,0],[-2,-8],[-7,-11],[-3,-8],[25,-13],[12,-10],[10,-18],[-18,4],[-37,23],[-7,0],[4,-14],[7,-10],[5,-12],[-1,-18],[-3,-4],[-4,-3],[-4,0],[-2,4],[-1,12],[-4,5],[-10,0],[-11,5],[-23,23],[-34,11],[-11,9],[-8,13],[2,8],[1,9],[-1,3],[69,0],[20,-12],[7,-1],[7,3],[14,10]],[[1486,4096],[345,0],[-4,-6],[-32,-24],[-10,-11],[8,-16],[31,-21],[6,-24],[12,-8],[40,8],[28,-13],[15,-13],[7,-15],[-55,0],[13,-30],[24,-15],[80,-4],[11,8],[18,31],[9,3],[6,7],[4,27],[14,12],[16,24],[7,6],[4,-2],[9,-8],[2,-5],[2,-10],[-1,-5],[-2,-2],[-1,-6],[-5,-3],[-21,-23],[-6,-12],[-1,-19],[-23,-29],[-9,-14],[7,-10],[9,1],[10,4],[9,-1],[7,-6],[5,-7],[4,-9],[4,-13],[-13,-26],[-16,-9],[-18,1],[-61,31],[-87,10],[-46,36],[-79,33],[-51,-4],[-45,43],[-61,33],[-45,42],[-32,20],[-15,16],[-10,16],[-17,11]],[[0,0],[0,4096],[659,0],[42,-39],[39,-55],[7,-15],[4,-15],[1,-12],[26,-14],[13,-14],[21,-35],[65,-33],[111,-14],[111,-13],[113,-68],[113,-68],[12,-18],[3,-11],[3,-12],[3,-11],[5,-4],[7,-3],[7,-6],[13,-18],[31,-61],[13,-10],[5,-10],[4,-2],[3,1],[2,5],[2,0],[8,-1],[31,-15],[34,6],[7,4],[7,0],[19,-31],[15,-9],[16,0],[32,11],[77,-7],[6,2],[16,12],[5,1],[4,-2],[3,-4],[-4,-12],[-10,-22],[-1,-7],[6,-10],[31,3],[12,-10],[21,22],[34,56],[7,17],[3,6],[5,4],[9,3],[69,-8],[15,-9],[0,-6],[-7,-6],[-3,-1],[13,-12],[30,7],[14,-15],[-44,-28],[-3,3],[-4,8],[-3,10],[-3,7],[-6,7],[-6,4],[-13,2],[-3,-3],[-8,-21],[-6,-8],[-6,-1],[-6,1],[-6,-2],[-16,-24],[-9,-9],[-13,-1],[10,-6],[117,0],[49,28],[31,5],[79,44],[4,4],[3,5],[2,5],[2,4],[5,-1],[3,-3],[6,-12],[4,-5],[53,9],[14,-8],[10,-21],[-32,-30],[-17,-9],[-79,-3],[-9,-20],[7,-7],[-9,-20],[11,-12],[28,-14],[41,-4],[14,-8],[10,-17],[2,-11],[0,-7],[-2,-6],[-3,-7],[-3,-10],[2,-5],[4,-4],[4,-8],[7,-24],[4,-7],[6,-8],[22,-13],[-8,-4],[-7,0],[-15,4],[-30,-2],[-27,14],[-36,5],[-18,9],[-7,2],[-4,-8],[-6,-20],[-17,-23],[-14,-10],[-32,-10],[-11,-18],[11,-30],[21,-6],[42,8],[10,-3],[23,-24],[8,-2],[27,9],[-9,-8],[4,-13],[9,-14],[6,-13],[-6,-7],[-98,46],[-30,5],[-26,-24],[6,-13],[7,-12],[5,-14],[0,-15],[1,-14],[-6,-13],[-8,-10],[-7,-4],[-7,-7],[-3,-16],[2,-16],[8,-9],[15,8],[17,21],[18,15],[19,-10],[-11,1],[-6,-2],[-5,-6],[12,-10],[18,-5],[18,2],[9,6],[12,9],[20,24],[11,9],[19,4],[4,-1],[8,-15],[5,-7],[4,-2],[40,8],[10,-8],[-21,-19],[-11,-4],[-47,8],[-19,-6],[-17,-13],[3,-12],[2,-10],[2,-8],[5,-5],[0,-7],[-15,0],[-18,9],[-17,13],[-14,16],[-9,7],[-9,-3],[-18,-14],[-39,-14],[3,-11],[3,-4],[2,-5],[-1,-13],[-3,-12],[-10,-6],[-4,-10],[1,-15],[21,-40],[-7,-6],[-15,14],[-8,-1],[1,-4],[2,-10],[-23,-1],[-6,-8],[5,-22],[8,-7],[22,-2],[9,-15],[-26,-11],[-27,-3],[-3,-4],[-5,-19],[-4,-4],[-11,4],[-4,1],[-5,-5],[2,-3],[3,-8],[2,-2],[-12,-17],[0,-6],[7,-5],[23,-7],[3,-4],[2,-6],[3,-4],[2,0],[32,-7],[10,1],[7,4],[14,14],[23,10],[30,30],[16,3],[0,-6],[-8,-7],[7,-7],[13,1],[6,-1],[0,4],[-1,2],[10,8],[5,7],[4,10],[0,12],[-7,8],[-14,10],[41,52],[21,19],[23,-9],[-9,-13],[-22,-10],[-7,-11],[0,-12],[3,-10],[1,-12],[-4,-14],[4,-2],[3,-3],[-1,-4],[-3,-5],[3,-8],[1,-3],[3,-2],[-2,-4],[-8,-17],[7,-12],[8,-2],[15,7],[8,-1],[17,-6],[8,0],[-3,0],[23,2],[7,5],[5,7],[5,9],[5,8],[6,4],[11,-8],[2,-19],[-3,-23],[-8,-19],[-7,-7],[-21,-6],[-7,-5],[-6,-5],[-9,-14],[-6,-2],[-25,11],[-39,-6],[-60,13],[-12,-13],[4,-15],[61,-41],[31,-9],[60,18],[13,-7],[5,-8],[13,-35],[0,-6],[-3,-4],[-4,-1],[-9,5],[2,-10],[-1,-8],[-5,-16],[2,-3],[5,-8],[3,-3],[-7,-15],[-10,3],[-18,26],[6,11],[7,19],[3,20],[-4,18],[-12,8],[-14,-11],[-6,-21],[7,-24],[-6,-13],[-7,5],[-12,25],[-6,5],[-7,1],[-8,-3],[-6,-6],[-4,-10],[-2,-7],[2,-3],[2,-4],[2,-18],[2,-6],[5,-5],[5,-2],[10,0],[10,5],[5,0],[5,-5],[2,-5],[1,-9],[2,-10],[3,-7],[7,-13],[0,-10],[-5,-6],[-10,-1],[-6,1],[-2,2],[-1,5],[-2,9],[-4,6],[-10,4],[-10,7],[-21,7],[-3,3],[0,7],[0,9],[-1,8],[-4,16],[-1,9],[2,11],[3,18],[-5,4],[-17,21],[-5,1],[-5,-6],[-6,-5],[-7,6],[2,5],[4,17],[-25,9],[-75,-37],[0,-7],[2,0],[0,-8],[-8,0],[-24,8],[5,7],[12,3],[5,3],[10,28],[48,9],[10,11],[-2,23],[-15,7],[-106,4],[7,-18],[-5,-9],[-17,-7],[6,-9],[3,-12],[6,-27],[-5,-3],[-10,1],[-5,-4],[9,-22],[6,-20],[2,-22],[1,-29],[-3,-9],[-5,-9],[-22,-22],[-4,-7],[-4,-11],[0,-7],[2,-3],[0,-1],[0,-1],[1,-2],[10,8],[21,-1],[9,7],[3,16],[11,14],[15,9],[11,2],[-9,-13],[-21,-23],[-9,-16],[-12,-16],[-28,-10],[-14,-11],[4,-11],[9,-12],[2,-11],[-6,-3],[-4,-9],[-3,-10],[-4,-9],[-7,-6],[-7,-5],[-7,-6],[-4,-14],[16,0],[49,-13],[30,13],[5,4],[26,35],[28,21],[16,22],[14,11],[16,0],[32,-11],[-40,-28],[0,-13],[-7,-13],[-35,-7],[-40,-34],[6,-28],[4,-7],[5,-2],[5,2],[4,-2],[3,-12],[-2,-3],[-1,-3],[-1,-3],[-1,-4],[11,-4],[34,11],[-7,-7],[-19,-11],[-4,-10],[3,-7],[8,-8],[2,-9],[-3,-9],[-7,0],[-12,6],[-3,3],[-3,7],[-5,17],[-8,19],[-21,24],[-9,5],[-9,0],[17,-37],[7,-22],[-5,-9],[-5,-5],[-3,-10],[0,-12],[2,-11],[0,-11],[-6,-4],[-15,-1],[4,5],[3,8],[1,8],[0,5],[-7,-1],[-21,-19],[7,-6],[3,0],[-10,-15],[-55,7],[5,8],[-9,6],[-12,0],[-12,-5],[-9,-9],[0,-7],[22,0],[-4,-15],[-6,-3],[-14,5],[-18,-4],[-17,-10],[0,7],[12,14],[0,6],[-7,3],[-9,-4],[-7,-8],[1,-11],[-14,-20],[-24,0],[-44,13],[-16,-3],[-7,-5],[-8,-9],[-8,-3],[-25,13],[-9,7],[3,6],[4,5],[4,2],[4,1],[0,7],[-18,0],[0,6],[42,5],[14,10],[-27,14],[-29,-5],[-54,-30],[0,-4],[1,-3],[0,-3],[1,-4],[-5,-1],[-4,1],[-5,2],[-3,5],[-4,6],[-3,5],[-2,6],[-5,4],[-154,-46],[-9,-10],[12,-9],[12,-3],[47,14],[11,0],[10,-8],[-8,-1],[-25,-13],[20,-27],[-9,-7],[-31,7],[0,-2],[0,-5],[-1,-5],[-1,-2],[-2,0],[-5,5],[-3,1],[-27,-9],[-14,-13],[-5,-8],[-9,-7],[-21,-1],[-2,-9],[-4,1],[-4,-2],[-4,-4],[-2,-9],[3,-4],[7,-6],[4,-4],[-7,-7],[-25,1],[-15,-8],[-8,-7],[-6,-10],[-5,-6],[-23,-4],[-23,-27],[-10,-2],[-11,7],[-21,22],[-16,8],[-17,-2],[-35,-19],[5,-10],[15,-18],[-2,-9],[-4,-2],[-9,4],[4,-12],[4,-10],[6,-3],[12,16],[18,3],[13,19],[6,-1],[12,-12],[12,-7],[23,-2],[89,30],[16,19],[35,1],[37,14],[0,-7],[-1,-1],[-2,1],[-2,0],[0,-12],[-5,-3],[-12,2],[1,-3],[1,-7],[1,-4],[-5,-3],[-4,-5],[-4,-2],[-13,11],[-14,-1],[-50,-27],[-11,-12],[-7,-16],[6,-7],[8,-2],[16,2],[-13,-14],[-3,-7],[6,-6],[4,1],[9,6],[5,0],[3,-2],[4,-9],[3,-3],[16,-6],[17,0],[17,8],[15,18],[-7,13],[-9,6],[-26,5],[-17,10],[-2,2],[13,5],[43,-6],[36,19],[11,-5],[-7,-10],[-8,-8],[-3,-8],[5,-12],[10,-7],[21,-9],[7,-8],[-6,-11],[-16,-23],[4,0],[8,-10],[9,-3],[60,18],[20,21],[33,-3],[12,4],[18,15],[83,13],[11,-6],[6,1],[11,16],[6,3],[13,-1],[6,2],[12,10],[121,8],[33,14],[-4,1],[-4,6],[9,10],[-4,15],[-17,26],[-13,11],[-62,-6],[-10,7],[-18,29],[-21,9],[-11,9],[20,13],[9,3],[11,-2],[29,-20],[11,-2],[40,14],[32,-4],[140,91],[27,-11],[-5,-12],[-11,-10],[-11,-6],[-7,1],[7,9],[8,4],[-11,8],[-10,-8],[-17,-27],[-5,-5],[-20,-3],[-61,-33],[-4,-6],[-2,-11],[2,-13],[6,-5],[7,-3],[5,-3],[-8,0],[3,-7],[2,-6],[3,-5],[2,-3],[-8,-21],[-2,-7],[0,-6],[0,-8],[1,-7],[-3,-8],[-13,-6],[-6,-9],[-6,-5],[-43,-5],[-8,-4],[-6,-10],[8,-7],[54,2],[9,-5],[16,-28],[10,-3],[20,7],[8,0],[9,-5],[18,-19],[3,-8],[-5,-6],[-11,-3],[-160,27],[0,-6],[8,-3],[11,-18],[7,-7],[20,-8],[12,-18],[6,2],[6,6],[5,4],[6,-4],[11,-19],[6,-4],[12,0],[5,-3],[3,-7],[1,-11],[4,-5],[10,-2],[12,3],[25,15],[13,3],[0,-7],[-31,-18],[-9,-9],[6,-5],[13,-4],[6,-5],[3,-5],[6,-11],[3,-4],[6,-5],[23,-3],[14,-13],[11,-3],[22,6],[12,-3],[8,-10],[-1,-9],[-6,-8],[-9,-7],[16,-7],[33,13],[16,-6],[-1,-9],[-3,-8],[-3,-6],[-3,-4],[4,-6],[5,-2],[11,1],[5,-2],[15,-12],[44,-9],[10,-9],[6,-2],[55,14],[-11,-28],[-20,-8],[-89,22],[-5,-2],[-6,-10],[-4,-2],[-11,0],[-4,-2],[-5,-5],[2,-7],[-14,3],[-5,4],[-23,31],[-2,7],[-9,6],[-54,21],[-16,14],[-33,17],[-23,19],[-18,9],[-13,21],[-9,7],[-18,5],[-130,-12],[-130,-12],[-16,8],[-26,26],[-14,5],[-28,0],[-13,6],[-24,28],[-22,9],[-23,17],[-19,8],[-1,6],[-10,2],[-30,25],[-11,4],[-29,-4],[-6,3],[-11,9],[-5,3],[-19,-7],[-6,-6],[-3,-13],[2,-10],[8,1],[-3,0],[10,2],[15,11],[8,-6],[0,-7],[-2,-1],[-3,-6],[6,-6],[13,-3],[6,-5],[-1,-4],[-1,-6],[1,-7],[6,-3],[30,8],[10,-8],[-7,-8],[1,-8],[6,-7],[35,-23],[10,-2],[-10,-10],[-11,1],[-31,27],[-71,16],[-12,7],[-21,22],[-12,8],[-7,-3],[-9,11],[-29,4],[-12,6],[-26,25],[-14,7],[-13,3],[-57,-15],[-54,-34],[38,0],[8,4],[16,13],[7,-3],[-3,-4],[-4,-9],[-4,-9],[0,-9],[5,-6],[6,4],[10,12],[22,5],[10,6],[1,17],[7,5],[7,0],[6,-6],[5,-13],[-7,-8],[-16,-13],[-7,-13],[10,-16],[48,-34],[65,-70],[26,-19],[101,-18],[101,-18],[13,7],[18,18],[10,5],[10,1],[0,-6],[-15,-30],[-5,-5],[-9,-2],[-16,-9],[-9,-3],[-5,2],[-14,12],[-102,13],[-18,-10],[-12,5],[-1,2],[1,5],[-1,4],[-3,2],[-35,5],[-114,97],[-49,-17],[-19,-19],[-11,-4],[3,-8],[1,-9],[-2,-9],[-2,-9],[82,0],[5,2],[5,9],[3,3],[9,0],[22,-12],[9,-9],[-68,-6],[-31,-15],[-15,7],[-18,-3],[-6,-3],[5,-12],[7,-6],[16,-9],[-13,1],[-6,-3],[-5,-9],[-4,-5],[-12,-1],[-5,-4],[3,-3],[3,-2],[8,-2],[2,-2],[1,-4],[1,-5],[2,-3],[3,1],[17,13],[15,7],[14,-2],[13,-9],[13,-16],[-6,-4],[-19,10],[-10,-1],[-50,-33],[6,-12],[10,-4],[21,3],[0,-7],[-28,-6],[-7,2],[-4,4],[-8,4],[-4,6],[0,8],[4,7],[5,5],[2,4],[-2,11],[-5,3],[-10,0],[-11,11],[-3,2],[-20,0],[-10,-6],[-9,-14],[10,-6],[21,0],[9,-8],[-15,-13],[-5,-7],[0,-7],[16,-11],[52,-3],[-12,-19],[-63,-9],[0,8],[5,0],[4,2],[5,4],[3,7],[-9,-2],[-18,-10],[-10,5],[0,7],[12,-1],[4,5],[2,13],[-2,12],[-3,8],[-4,4],[-4,0],[1,-3],[0,-1],[1,-3],[-5,-6],[-5,1],[-4,4],[-6,1],[-5,-4],[-15,-16],[-33,-19],[-6,-16],[17,-1],[7,-5],[12,-19],[6,-6],[7,-3],[6,0],[-6,-10],[1,-8],[5,-9],[2,-13],[2,-3],[-1,-8],[-4,-10],[-4,-7],[2,-4],[3,-3],[-13,-15],[-40,-26],[50,13],[0,-6],[-10,-3],[-53,-37],[-7,-10],[8,-13],[-4,-9],[2,-8],[4,-7],[5,-2],[-6,-26],[1,-6],[8,-9],[8,1],[2,-4],[-5,-12],[4,-5],[4,0],[33,16],[90,77],[97,139],[22,22],[22,12],[12,0],[3,1],[6,5],[4,1],[5,3],[8,14],[5,3],[59,-7],[13,5],[26,18],[26,7],[6,4],[6,8],[4,8],[7,18],[4,8],[6,5],[43,14],[5,5],[9,12],[12,4],[93,3],[12,5],[29,27],[84,37],[12,-9],[-9,-9],[-3,-5],[2,-6],[-10,-12],[-14,-3],[-24,1],[-12,-5],[-23,-19],[-16,-7],[-13,-14],[-5,-3],[-85,-7],[3,2],[3,5],[0,4],[-4,2],[-4,-1],[-13,-8],[-10,-13],[-5,-5],[-21,-10],[-9,-12],[-5,-11],[-3,-11],[4,-4],[12,-7],[12,-30],[12,-11],[136,-16],[5,6],[5,10],[4,8],[5,4],[27,8],[15,-1],[8,-5],[9,-2],[5,-5],[-1,-10],[-5,-6],[-50,1],[-12,-8],[-11,-18],[4,-5],[4,-2],[9,0],[0,-6],[-7,0],[6,-15],[12,-8],[14,-2],[10,3],[9,7],[9,10],[9,13],[7,15],[5,8],[5,0],[5,-4],[6,-1],[15,12],[5,2],[10,-4],[-3,-9],[-9,-9],[-10,-5],[5,-6],[8,-1],[8,3],[11,16],[7,2],[16,-1],[0,7],[-7,14],[4,14],[15,21],[8,20],[-4,14],[-22,18],[-7,3],[-13,1],[-7,5],[-6,24],[-8,11],[-19,18],[-4,16],[8,5],[17,4],[5,5],[6,-8],[14,-4],[11,-11],[5,-3],[10,-2],[8,3],[10,9],[9,12],[8,13],[9,12],[74,12],[-7,-6],[4,-5],[3,-7],[0,-10],[-2,-13],[27,-20],[-5,-6],[-2,-1],[6,-14],[-1,-13],[-6,-7],[-9,0],[-4,3],[-10,14],[-3,7],[-4,5],[-53,-5],[-43,-16],[-10,-1],[7,-13],[27,-10],[5,-15],[4,-22],[8,-10],[10,-4],[8,-8],[-6,-1],[-16,-14],[0,-6],[18,-19],[7,-2],[9,2],[16,10],[9,2],[19,-9],[7,2],[5,8],[7,20],[5,7],[10,-3],[13,-7],[13,-3],[12,13],[-15,0],[9,14],[48,6],[-3,7],[6,9],[19,11],[-7,0],[-23,21],[-8,3],[-6,-2],[-13,-15],[-16,-8],[-9,0],[-5,8],[4,8],[24,13],[0,7],[-8,0],[7,18],[11,7],[12,-1],[41,-23],[6,-8],[10,3],[26,-10],[12,7],[-3,2],[-5,8],[-2,3],[9,7],[10,-4],[6,-15],[-3,-22],[16,-11],[20,-7],[19,-1],[15,6],[-7,-21],[-1,-10],[-7,-7],[-9,-3],[-8,0],[-24,18],[-81,2],[-7,-4],[-13,-19],[-16,-9],[-14,-19],[-75,-25],[0,-6],[5,0],[-12,-21],[-22,-3],[-38,10],[-24,-8],[-9,2],[-2,3],[-3,4],[-3,4],[-5,2],[-4,-1],[-2,-3],[-2,-7],[-1,-10],[11,0],[61,-51],[7,-4],[24,-3],[29,12],[11,0],[9,-9],[-10,-5],[-19,-19],[-11,-3],[0,-7],[55,7],[48,21],[25,2],[25,12],[31,29],[22,8],[47,37],[11,4],[66,-5],[24,-20],[26,-11],[12,-9],[-12,-15],[-16,-1],[-32,10],[3,11],[2,5],[3,4],[-10,9],[-33,5],[-20,9],[-11,1],[-8,-7],[-14,-21],[-36,-14],[-59,-48],[-73,-26],[-17,-15],[-9,-2],[0,-7],[17,-9],[31,-43],[70,-36],[59,6],[30,-18],[9,-3],[50,10],[17,11],[9,0],[-12,-11],[-25,-12],[-10,-12],[3,-7],[-1,-7],[-10,11],[-95,17],[-6,-2],[-15,-10],[-6,-2],[-7,1],[-20,13],[-22,-1],[-6,5],[-11,11],[-7,4],[-6,2],[-10,6],[-31,42],[-16,15],[-5,8],[-6,5],[-14,-2],[-6,4],[-11,14],[-75,43],[-22,23],[-12,5],[-25,1],[0,-7],[3,0],[10,-6],[-8,-9],[-47,1],[-81,-27],[-40,4],[-9,10],[-1,5],[2,6],[1,6],[-2,7],[-6,7],[-4,2],[-10,4],[-15,14],[-14,7],[-14,17],[-7,1],[-2,-4],[0,-7],[0,-7],[0,-4],[-4,-2],[-8,1],[-3,1],[-43,31],[-27,9],[-21,24],[-12,5],[-52,0],[-33,-18],[-53,-1],[-14,-8],[27,-11],[80,11],[-10,-16],[-13,-7],[-54,-12],[-7,3],[-13,14],[-7,4],[-29,-1],[-29,-13],[-25,-18],[-12,-16],[-10,-21],[7,-4],[11,2],[11,5],[14,18],[10,5],[19,2],[-29,-33],[-16,-11],[-31,-9],[-44,-44],[12,-6],[26,22],[12,-8],[-9,-8],[-67,-28],[-14,-13],[-11,-17],[-2,-2],[-8,-3],[-26,-19],[-35,-11],[-19,-11],[-17,-25],[-8,1],[-3,-1],[-3,-4],[-6,-13],[-4,-3],[-7,-3],[-9,-8],[-8,-11],[-6,-13],[7,-11],[3,-3],[-11,-11],[-9,-14],[-3,-17],[8,-19],[-11,-6],[-3,-6],[6,-26],[-2,-9],[-4,-8],[-3,-14],[7,-5],[8,-2],[0,-7],[-4,-1],[-3,-3],[-3,-4],[-3,-5],[9,-6],[21,6],[8,-7],[-13,-14],[0,-7],[15,0],[34,21],[28,27],[32,18],[46,0],[14,7],[17,28],[17,19],[23,16],[6,1],[-5,-14],[-13,-19],[-4,-15],[43,-16],[91,34],[91,33],[15,11],[22,0],[10,4],[20,14],[102,30],[13,-5],[37,-36],[14,-5],[156,33],[157,33],[-7,-12],[-6,-5],[-15,-3],[-27,-20],[-87,-15],[-5,-6],[-2,-14],[6,-9],[8,-3],[6,-1],[10,-7],[8,-18],[11,-43],[8,-23],[20,-26],[27,-51],[9,-14],[11,-10],[25,-6],[104,59],[111,29],[5,-3],[13,-18],[15,-11],[6,-2],[13,5],[6,0],[6,-5],[-2,0],[1,-1],[1,0],[0,-1],[0,-5],[-26,-12],[-91,18],[-58,-10],[-23,-15],[-17,-6],[-23,-18],[-51,-18],[-13,-1],[-24,11],[-12,12],[-10,15],[-26,65],[-13,16],[-2,8],[-1,8],[-8,26],[-7,17],[-11,13],[-23,15],[-180,11],[-37,30],[-15,0],[-28,-16],[-55,-15],[-12,-10],[-3,-6],[-3,-7],[-4,-5],[-7,-2],[-8,2],[-15,9],[-7,2],[-89,-30],[-11,-9],[-11,-4],[-16,-11],[-28,6],[-6,-4],[-13,-14],[-6,-3],[-87,-7],[-25,-13],[-14,-3],[-22,13],[-15,-3],[-14,-9],[-10,-12],[9,-10],[11,-2],[29,5],[17,-6],[9,-1],[-11,-10],[-109,-5],[-47,-16],[-3,-3],[0,-3],[-1,-6],[-2,-7],[-2,-4],[-6,-2],[-5,3],[-5,0],[-6,-8],[3,-1],[9,-6],[-3,-1],[-3,-3],[-3,-4],[-3,-6],[7,-6],[-6,-1],[-5,-3],[-11,-10],[7,-7],[3,0],[-3,-4],[-7,-16],[150,13],[44,21],[12,1],[-1,-8],[-10,-9],[-58,-25],[-55,7],[-24,-5],[-9,-9],[6,-14],[0,-23],[14,-9],[31,-3],[20,-18],[7,-2],[5,3],[10,13],[5,4],[113,-9],[12,-11],[-17,-10],[-18,-3],[-40,13],[-77,-13],[-45,13],[-21,0],[-3,-3],[-1,-7],[0,-7],[1,-4],[6,-3],[13,-14],[37,-10],[8,-7],[-8,-6],[-3,-5],[-2,-9],[14,-8],[71,8],[22,-5],[5,1],[7,6],[95,10],[13,-5],[-1,-4],[-1,-10],[67,0],[21,-18],[9,-2],[72,19],[13,15],[18,38],[10,15],[14,2],[0,-8],[-10,-12],[-9,-16],[4,-4],[2,-6],[-1,-8],[-3,-8],[8,-9],[41,4],[17,10],[9,2],[-3,-16],[-2,-5],[1,-2],[2,-3],[2,-1],[-6,-5],[-50,-10],[-7,-6],[7,-5],[12,-1],[6,-5],[15,-23],[10,-5],[35,5],[-8,-22],[-15,-7],[-17,1],[-53,38],[-141,3],[-1,-21],[-11,2],[-23,19],[-11,-2],[-12,-10],[-20,-28],[9,-7],[4,-1],[0,-7],[-5,-3],[-7,-6],[-6,-9],[-2,-12],[6,-6],[58,50],[26,7],[6,-3],[12,-9],[7,-2],[25,8],[10,12],[6,4],[5,-7],[5,-16],[1,-10],[-17,-21],[-6,-3],[-12,0],[-6,-2],[-20,-16],[-61,-2],[-8,-2],[-9,-9],[-6,-3],[-11,5],[-24,-6],[-17,10],[-5,-3],[25,-28],[7,-2],[20,2],[7,-2],[13,-9],[8,-2],[71,39],[14,2],[21,-13],[8,0],[30,6],[-2,-10],[-1,-10],[2,-8],[4,-6],[-12,1],[-6,-2],[-4,-6],[1,-2],[1,-5],[-12,0],[-36,14],[-8,-3],[-16,-15],[-80,-16],[-9,10],[-7,6],[-32,-3],[-18,11],[-9,1],[-10,-5],[-51,-48],[-11,-7],[7,-6],[2,0],[0,-7],[-15,-10],[-5,-4],[11,-6],[25,13],[9,-7],[3,5],[3,2],[7,0],[-2,-15],[-4,-6],[-9,1],[-6,-3],[-11,-9],[-6,-2],[8,-13],[52,-10],[15,-9],[38,-2],[12,4],[25,18],[11,5],[62,0],[0,-7],[5,-7],[30,0],[40,-13],[57,8],[15,-8],[0,-8],[-5,-3],[-5,-14],[-5,-3],[-120,16],[-10,10],[-6,2],[-44,-6],[-64,-31],[-75,0],[-8,9],[52,-7],[0,7],[-27,2],[-14,5],[-16,13],[-3,-5],[-3,-6],[-4,-3],[-45,0],[-29,-15],[-965,0]],[[1148,1940],[-12,-4],[-23,-14],[-12,-3],[6,-8],[1,-11],[0,-15],[4,-2],[14,-12],[12,-4],[3,-2],[0,-15],[9,-4],[42,3],[9,5],[15,22],[9,8],[8,11],[3,14],[-2,17],[-5,11],[-6,7],[-7,2],[3,-6],[-10,-5],[-6,16],[-7,21],[-10,9],[-13,0],[-8,-5],[0,-12],[5,-12],[16,-20],[8,-6],[-12,-9],[-10,6],[-12,11],[-12,6]],[[1608,2090],[-4,4],[-7,3],[-8,-7],[10,2],[9,-2]],[[1563,2121],[-3,-17],[-7,-8],[-27,-14],[-5,-6],[0,-6],[-5,-1],[-4,3],[-3,5],[-3,6],[4,12],[18,8],[8,8],[-10,10],[-43,10],[-12,-3],[-21,-18],[-12,-5],[-25,2],[-12,-5],[-8,-19],[0,-7],[1,-12],[1,-10],[3,-5],[4,2],[11,16],[4,1],[11,-4],[44,10],[14,-4],[5,-6],[9,-12],[6,-3],[6,2],[23,19],[47,20],[-3,2],[-2,5],[-1,8],[10,5],[32,1],[0,7],[-6,4],[-43,10],[-6,-11]],[[1420,2127],[9,-8],[10,9],[10,16],[10,11],[10,21],[4,4],[13,6],[4,0],[4,1],[3,2],[4,4],[-17,0],[-8,3],[-8,7],[-3,1],[-7,-9],[-5,-2],[-102,-7],[1,5],[1,4],[1,3],[2,2],[-45,0],[1,-6],[1,-4],[2,-3],[2,-2],[-78,-26],[0,-7],[23,7],[7,-7],[-22,-12],[-73,-13],[-15,-12],[-11,-23],[-9,-36],[23,7],[44,28],[74,20],[24,-8],[7,5],[5,5],[55,15],[24,19],[9,1],[8,-6],[8,-15]],[[1830,3398],[3,-5],[4,-2],[4,0],[4,0],[-10,-19],[-40,-19],[-15,-16],[54,-10],[19,10],[27,24],[15,7],[15,3],[-10,-19],[-32,-36],[-23,-13],[-12,-15],[-20,-34],[2,-23],[-8,-6],[-20,2],[-4,-5],[-4,-7],[-8,-19],[0,-11],[6,-6],[13,-7],[4,-12],[8,-50],[5,-19],[18,-43],[-1,-3],[-2,-22],[12,-17],[16,-10],[12,-2],[7,3],[25,28],[18,9],[8,1],[9,9],[-1,19],[-11,41],[-1,14],[1,10],[7,21],[1,8],[0,12],[0,12],[-3,23],[3,11],[10,12],[17,29],[5,5],[6,-2],[12,-11],[7,-1],[6,5],[8,16],[36,45],[3,6],[0,8],[-1,13],[-6,14],[-43,-4],[5,16],[2,5],[-9,13],[-12,1],[-24,-7],[-10,4],[-27,22],[-4,5],[-24,2],[-20,-9],[-21,4],[-11,-8]],[[1219,2830],[5,7],[25,0],[174,95],[23,-1],[50,31],[15,21],[17,15],[10,7],[43,70],[8,18],[12,13],[6,10],[0,12],[-5,7],[-2,-4],[-13,-7],[-49,34],[4,6],[12,7],[5,1],[2,3],[16,39],[4,13],[-2,14],[-9,20],[-22,28],[-80,34],[3,0],[-37,5],[-44,28],[-32,9],[-40,32],[-36,16],[-13,19],[-25,48],[-36,48],[-12,21],[-15,36],[-9,18],[-14,11],[-19,24],[-28,19],[-25,29],[-25,4],[-14,13],[-42,23],[-103,18],[-48,30],[-144,28],[-11,6],[-45,-11],[-71,-48],[-34,-11],[-5,-7],[-9,-17],[-9,-13],[-9,-16],[-4,-26],[3,-90],[2,-4],[12,-30],[12,-16],[91,-66],[79,-21],[14,-11],[11,-17],[-7,-6],[-137,44],[-15,15],[-38,-4],[-7,-4],[-15,-14],[-14,-8],[0,-11],[2,-14],[4,-11],[5,-9],[15,-18],[-29,0],[-6,-3],[-15,-11],[7,-45],[35,-27],[67,-17],[5,-3],[13,-19],[4,-9],[6,-8],[20,-9],[40,-47],[-8,-8],[-10,7],[-19,21],[-32,11],[-11,10],[-12,22],[-7,8],[-8,3],[-36,-6],[-6,-7],[-12,9],[-11,2],[-11,-3],[-26,-18],[-4,-9],[4,-15],[-3,-2],[-2,-3],[-2,-2],[-3,0],[11,-26],[18,-19],[20,-12],[16,-4],[-4,-16],[-1,-5],[20,-22],[13,-9],[144,-27],[25,10],[9,-3],[43,-18],[50,7],[1,4],[3,6],[1,7],[-1,7],[-3,8],[-1,7],[2,6],[3,6],[7,1],[11,-6],[10,-9],[7,-9],[0,-25],[-14,-19],[-18,-18],[-11,-21],[10,-14],[12,1],[64,35],[12,-8],[-10,-17],[-38,-31],[17,-10],[16,0],[32,17],[10,11],[14,21],[9,24],[-5,19],[5,5],[11,13],[51,16],[27,1],[0,-8],[-15,-7],[-30,-4],[-13,-19],[-13,-27],[-3,-11],[-7,-28],[-4,-6],[0,-7],[16,-14],[59,-7],[-9,-8],[-80,2],[-5,2],[-5,4],[-5,2],[-7,-9],[-43,-14],[-76,17],[-49,-5],[-8,3],[-14,11],[-8,1],[-7,-6],[7,-10],[2,-3],[-12,-9],[-5,-8],[-2,-17],[2,-5],[10,-12],[3,-1],[1,-12],[4,-7],[25,-26],[81,-15],[15,-13],[6,-29],[9,-15],[42,-10],[32,5],[7,-4],[12,-17],[5,-4],[8,0],[15,17],[83,35],[28,27],[99,36],[12,-5]],[[557,3863],[19,-2],[5,5],[-4,18],[-6,14],[-43,44],[-80,31],[-3,-3],[1,-10],[3,-38],[3,-14],[4,-13],[4,-11],[22,-26],[25,-5],[50,10]],[[1490,0],[6,4],[16,30],[26,78],[20,37],[94,61],[80,108],[12,10],[23,8],[28,36],[39,21],[10,17],[4,4],[17,-1],[12,4],[72,62],[30,9],[21,0],[5,2],[11,9],[18,7],[25,22],[100,37],[13,-8],[-7,-7],[-67,-21],[-26,0],[-7,-4],[-13,-12],[-7,-4],[0,-8],[23,2],[21,-16],[7,0],[5,0],[4,0],[12,8],[31,6],[22,-2],[24,-18],[9,-3],[35,5],[28,-5],[10,-10],[-22,-14],[-27,0],[-61,27],[-65,2],[-5,0],[-31,1],[-25,12],[-13,-1],[-5,-4],[-15,-16],[-17,-5],[-24,-24],[-41,-24],[-18,-30],[85,-54],[16,-1],[13,17],[7,8],[30,-18],[96,-13],[-11,-15],[-74,4],[-21,15],[-11,3],[-8,-2],[-16,-10],[-63,-9],[-58,43],[-23,7],[-12,-16],[9,-12],[9,-15],[-8,0],[-22,14],[-27,0],[-10,-7],[-28,-42],[-2,-6],[-20,-12],[-7,-5],[-7,-13],[-24,-25],[8,-9],[9,-7],[9,-4],[9,-1],[-6,-13],[-5,-3],[-56,-1],[-40,-31],[-42,-18],[-13,-12],[-24,-37],[-11,-24],[-2,-18],[-12,-15],[-6,-13],[-2,-13],[2,-9],[-48,0]],[[1916,4096],[20,-12],[7,-1],[7,3],[14,10]],[[1972,4096],[-2,-8],[-7,-11],[-3,-8],[25,-13],[12,-10],[10,-18],[-18,4],[-37,23],[-7,0],[4,-14],[7,-10],[5,-12],[-1,-18],[-3,-4],[-4,-3],[-4,0],[-2,4],[-1,12],[-4,5],[-10,0],[-11,5],[-23,23],[-34,11],[-11,9],[-8,13],[2,8],[1,9],[-1,3]],[[1831,4096],[-4,-6],[-32,-24],[-10,-11],[8,-16],[31,-21],[6,-24],[12,-8],[40,8],[28,-13],[15,-13],[7,-15],[-55,0],[13,-30],[24,-15],[80,-4],[11,8],[18,31],[9,3],[6,7],[4,27],[14,12],[16,24],[7,6],[4,-2],[9,-8],[2,-5],[2,-10],[-1,-5],[-2,-2],[-1,-6],[-5,-3],[-21,-23],[-6,-12],[-1,-19],[-23,-29],[-9,-14],[7,-10],[9,1],[10,4],[9,-1],[7,-6],[5,-7],[4,-9],[4,-13],[-13,-26],[-16,-9],[-18,1],[-61,31],[-87,10],[-46,36],[-79,33],[-51,-4],[-45,43],[-61,33],[-45,42],[-32,20],[-15,16],[-10,16],[-17,11]],[[659,4096],[42,-39],[39,-55],[7,-15],[4,-15],[1,-12],[26,-14],[13,-14],[21,-35],[65,-33],[111,-14],[111,-13],[113,-68],[113,-68],[12,-18],[3,-11],[3,-12],[3,-11],[5,-4],[7,-3],[7,-6],[13,-18],[31,-61],[13,-10],[5,-10],[4,-2],[3,1],[2,5],[2,0],[8,-1],[31,-15],[34,6],[7,4],[7,0],[19,-31],[15,-9],[16,0],[32,11],[77,-7],[6,2],[16,12],[5,1],[4,-2],[3,-4],[-4,-12],[-10,-22],[-1,-7],[6,-10],[31,3],[12,-10],[21,22],[34,56],[7,17],[3,6],[5,4],[9,3],[69,-8],[15,-9],[0,-6],[-7,-6],[-3,-1],[13,-12],[30,7],[14,-15],[-44,-28],[-3,3],[-4,8],[-3,10],[-3,7],[-6,7],[-6,4],[-13,2],[-3,-3],[-8,-21],[-6,-8],[-6,-1],[-6,1],[-6,-2],[-16,-24],[-9,-9],[-13,-1],[10,-6],[117,0],[49,28],[31,5],[79,44],[4,4],[3,5],[2,5],[2,4],[5,-1],[3,-3],[6,-12],[4,-5],[53,9],[14,-8],[10,-21],[-32,-30],[-17,-9],[-79,-3],[-9,-20],[7,-7],[-9,-20],[11,-12],[28,-14],[41,-4],[14,-8],[10,-17],[2,-11],[0,-7],[-2,-6],[-3,-7],[-3,-10],[2,-5],[4,-4],[4,-8],[7,-24],[4,-7],[6,-8],[22,-13],[-8,-4],[-7,0],[-15,4],[-30,-2],[-27,14],[-36,5],[-18,9],[-7,2],[-4,-8],[-6,-20],[-17,-23],[-14,-10],[-32,-10],[-11,-18],[11,-30],[21,-6],[42,8],[10,-3],[23,-24],[8,-2],[27,9],[-9,-8],[4,-13],[9,-14],[6,-13],[-6,-7],[-98,46],[-30,5],[-26,-24],[6,-13],[7,-12],[5,-14],[0,-15],[1,-14],[-6,-13],[-8,-10],[-7,-4],[-7,-7],[-3,-16],[2,-16],[8,-9],[15,8],[17,21],[18,15],[19,-10],[-11,1],[-6,-2],[-5,-6],[12,-10],[18,-5],[18,2],[9,6],[12,9],[20,24],[11,9],[19,4],[4,-1],[8,-15],[5,-7],[4,-2],[40,8],[10,-8],[-21,-19],[-11,-4],[-47,8],[-19,-6],[-17,-13],[3,-12],[2,-10],[2,-8],[5,-5],[0,-7],[-15,0],[-18,9],[-17,13],[-14,16],[-9,7],[-9,-3],[-18,-14],[-39,-14],[3,-11],[3,-4],[2,-5],[-1,-13],[-3,-12],[-10,-6],[-4,-10],[1,-15],[21,-40],[-7,-6],[-15,14],[-8,-1],[1,-4],[2,-10],[-23,-1],[-6,-8],[5,-22],[8,-7],[22,-2],[9,-15],[-26,-11],[-27,-3],[-3,-4],[-5,-19],[-4,-4],[-11,4],[-4,1],[-5,-5],[2,-3],[3,-8],[2,-2],[-12,-17],[0,-6],[7,-5],[23,-7],[3,-4],[2,-6],[3,-4],[2,0],[32,-7],[10,1],[7,4],[14,14],[23,10],[30,30],[16,3],[0,-6],[-8,-7],[7,-7],[13,1],[6,-1],[0,4],[-1,2],[10,8],[5,7],[4,10],[0,12],[-7,8],[-14,10],[41,52],[21,19],[23,-9],[-9,-13],[-22,-10],[-7,-11],[0,-12],[3,-10],[1,-12],[-4,-14],[4,-2],[3,-3],[-1,-4],[-3,-5],[3,-8],[1,-3],[3,-2],[-2,-4],[-8,-17],[7,-12],[8,-2],[15,7],[8,-1],[17,-6],[8,0],[-3,0],[23,2],[7,5],[5,7],[5,9],[5,8],[6,4],[11,-8],[2,-19],[-3,-23],[-8,-19],[-7,-7],[-21,-6],[-7,-5],[-6,-5],[-9,-14],[-6,-2],[-25,11],[-39,-6],[-60,13],[-12,-13],[4,-15],[61,-41],[31,-9],[60,18],[13,-7],[5,-8],[13,-35],[0,-6],[-3,-4],[-4,-1],[-9,5],[2,-10],[-1,-8],[-5,-16],[2,-3],[5,-8],[3,-3],[-7,-15],[-10,3],[-18,26],[6,11],[7,19],[3,20],[-4,18],[-12,8],[-14,-11],[-6,-21],[7,-24],[-6,-13],[-7,5],[-12,25],[-6,5],[-7,1],[-8,-3],[-6,-6],[-4,-10],[-2,-7],[2,-3],[2,-4],[2,-18],[2,-6],[5,-5],[5,-2],[10,0],[10,5],[5,0],[5,-5],[2,-5],[1,-9],[2,-10],[3,-7],[7,-13],[0,-10],[-5,-6],[-10,-1],[-6,1],[-2,2],[-1,5],[-2,9],[-4,6],[-10,4],[-10,7],[-21,7],[-3,3],[0,7],[0,9],[-1,8],[-4,16],[-1,9],[2,11],[3,18],[-5,4],[-17,21],[-5,1],[-5,-6],[-6,-5],[-7,6],[2,5],[4,17],[-25,9],[-75,-37],[0,-7],[2,0],[0,-8],[-8,0],[-24,8],[5,7],[12,3],[5,3],[10,28],[48,9],[10,11],[-2,23],[-15,7],[-106,4],[7,-18],[-5,-9],[-17,-7],[6,-9],[3,-12],[6,-27],[-5,-3],[-10,1],[-5,-4],[9,-22],[6,-20],[2,-22],[1,-29],[-3,-9],[-5,-9],[-22,-22],[-4,-7],[-4,-11],[0,-7],[2,-3],[0,-1],[0,-1],[1,-2],[10,8],[21,-1],[9,7],[3,16],[11,14],[15,9],[11,2],[-9,-13],[-21,-23],[-9,-16],[-12,-16],[-28,-10],[-14,-11],[4,-11],[9,-12],[2,-11],[-6,-3],[-4,-9],[-3,-10],[-4,-9],[-7,-6],[-7,-5],[-7,-6],[-4,-14],[16,0],[49,-13],[30,13],[5,4],[26,35],[28,21],[16,22],[14,11],[16,0],[32,-11],[-40,-28],[0,-13],[-7,-13],[-35,-7],[-40,-34],[6,-28],[4,-7],[5,-2],[5,2],[4,-2],[3,-12],[-2,-3],[-1,-3],[-1,-3],[-1,-4],[11,-4],[34,11],[-7,-7],[-19,-11],[-4,-10],[3,-7],[8,-8],[2,-9],[-3,-9],[-7,0],[-12,6],[-3,3],[-3,7],[-5,17],[-8,19],[-21,24],[-9,5],[-9,0],[17,-37],[7,-22],[-5,-9],[-5,-5],[-3,-10],[0,-12],[2,-11],[0,-11],[-6,-4],[-15,-1],[4,5],[3,8],[1,8],[0,5],[-7,-1],[-21,-19],[7,-6],[3,0],[-10,-15],[-55,7],[5,8],[-9,6],[-12,0],[-12,-5],[-9,-9],[0,-7],[22,0],[-4,-15],[-6,-3],[-14,5],[-18,-4],[-17,-10],[0,7],[12,14],[0,6],[-7,3],[-9,-4],[-7,-8],[1,-11],[-14,-20],[-24,0],[-44,13],[-16,-3],[-7,-5],[-8,-9],[-8,-3],[-25,13],[-9,7],[3,6],[4,5],[4,2],[4,1],[0,7],[-18,0],[0,6],[42,5],[14,10],[-27,14],[-29,-5],[-54,-30],[0,-4],[1,-3],[0,-3],[1,-4],[-5,-1],[-4,1],[-5,2],[-3,5],[-4,6],[-3,5],[-2,6],[-5,4],[-154,-46],[-9,-10],[12,-9],[12,-3],[47,14],[11,0],[10,-8],[-8,-1],[-25,-13],[20,-27],[-9,-7],[-31,7],[0,-2],[0,-5],[-1,-5],[-1,-2],[-2,0],[-5,5],[-3,1],[-27,-9],[-14,-13],[-5,-8],[-9,-7],[-21,-1],[-2,-9],[-4,1],[-4,-2],[-4,-4],[-2,-9],[3,-4],[7,-6],[4,-4],[-7,-7],[-25,1],[-15,-8],[-8,-7],[-6,-10],[-5,-6],[-23,-4],[-23,-27],[-10,-2],[-11,7],[-21,22],[-16,8],[-17,-2],[-35,-19],[5,-10],[15,-18],[-2,-9],[-4,-2],[-9,4],[4,-12],[4,-10],[6,-3],[12,16],[18,3],[13,19],[6,-1],[12,-12],[12,-7],[23,-2],[89,30],[16,19],[35,1],[37,14],[0,-7],[-1,-1],[-2,1],[-2,0],[0,-12],[-5,-3],[-12,2],[1,-3],[1,-7],[1,-4],[-5,-3],[-4,-5],[-4,-2],[-13,11],[-14,-1],[-50,-27],[-11,-12],[-7,-16],[6,-7],[8,-2],[16,2],[-13,-14],[-3,-7],[6,-6],[4,1],[9,6],[5,0],[3,-2],[4,-9],[3,-3],[16,-6],[17,0],[17,8],[15,18],[-7,13],[-9,6],[-26,5],[-17,10],[-2,2],[13,5],[43,-6],[36,19],[11,-5],[-7,-10],[-8,-8],[-3,-8],[5,-12],[10,-7],[21,-9],[7,-8],[-6,-11],[-16,-23],[4,0],[8,-10],[9,-3],[60,18],[20,21],[33,-3],[12,4],[18,15],[83,13],[11,-6],[6,1],[11,16],[6,3],[13,-1],[6,2],[12,10],[121,8],[33,14],[-4,1],[-4,6],[9,10],[-4,15],[-17,26],[-13,11],[-62,-6],[-10,7],[-18,29],[-21,9],[-11,9],[20,13],[9,3],[11,-2],[29,-20],[11,-2],[40,14],[32,-4],[140,91],[27,-11],[-5,-12],[-11,-10],[-11,-6],[-7,1],[7,9],[8,4],[-11,8],[-10,-8],[-17,-27],[-5,-5],[-20,-3],[-61,-33],[-4,-6],[-2,-11],[2,-13],[6,-5],[7,-3],[5,-3],[-8,0],[3,-7],[2,-6],[3,-5],[2,-3],[-8,-21],[-2,-7],[0,-6],[0,-8],[1,-7],[-3,-8],[-13,-6],[-6,-9],[-6,-5],[-43,-5],[-8,-4],[-6,-10],[8,-7],[54,2],[9,-5],[16,-28],[10,-3],[20,7],[8,0],[9,-5],[18,-19],[3,-8],[-5,-6],[-11,-3],[-160,27],[0,-6],[8,-3],[11,-18],[7,-7],[20,-8],[12,-18],[6,2],[6,6],[5,4],[6,-4],[11,-19],[6,-4],[12,0],[5,-3],[3,-7],[1,-11],[4,-5],[10,-2],[12,3],[25,15],[13,3],[0,-7],[-31,-18],[-9,-9],[6,-5],[13,-4],[6,-5],[3,-5],[6,-11],[3,-4],[6,-5],[23,-3],[14,-13],[11,-3],[22,6],[12,-3],[8,-10],[-1,-9],[-6,-8],[-9,-7],[16,-7],[33,13],[16,-6],[-1,-9],[-3,-8],[-3,-6],[-3,-4],[4,-6],[5,-2],[11,1],[5,-2],[15,-12],[44,-9],[10,-9],[6,-2],[55,14],[-11,-28],[-20,-8],[-89,22],[-5,-2],[-6,-10],[-4,-2],[-11,0],[-4,-2],[-5,-5],[2,-7],[-14,3],[-5,4],[-23,31],[-2,7],[-9,6],[-54,21],[-16,14],[-33,17],[-23,19],[-18,9],[-13,21],[-9,7],[-18,5],[-130,-12],[-130,-12],[-16,8],[-26,26],[-14,5],[-28,0],[-13,6],[-24,28],[-22,9],[-23,17],[-19,8],[-1,6],[-10,2],[-30,25],[-11,4],[-29,-4],[-6,3],[-11,9],[-5,3],[-19,-7],[-6,-6],[-3,-13],[2,-10],[8,1],[-3,0],[10,2],[15,11],[8,-6],[0,-7],[-2,-1],[-3,-6],[6,-6],[13,-3],[6,-5],[-1,-4],[-1,-6],[1,-7],[6,-3],[30,8],[10,-8],[-7,-8],[1,-8],[6,-7],[35,-23],[10,-2],[-10,-10],[-11,1],[-31,27],[-71,16],[-12,7],[-21,22],[-12,8],[-7,-3],[-9,11],[-29,4],[-12,6],[-26,25],[-14,7],[-13,3],[-57,-15],[-54,-34],[38,0],[8,4],[16,13],[7,-3],[-3,-4],[-4,-9],[-4,-9],[0,-9],[5,-6],[6,4],[10,12],[22,5],[10,6],[1,17],[7,5],[7,0],[6,-6],[5,-13],[-7,-8],[-16,-13],[-7,-13],[10,-16],[48,-34],[65,-70],[26,-19],[101,-18],[101,-18],[13,7],[18,18],[10,5],[10,1],[0,-6],[-15,-30],[-5,-5],[-9,-2],[-16,-9],[-9,-3],[-5,2],[-14,12],[-102,13],[-18,-10],[-12,5],[-1,2],[1,5],[-1,4],[-3,2],[-35,5],[-114,97],[-49,-17],[-19,-19],[-11,-4],[3,-8],[1,-9],[-2,-9],[-2,-9],[82,0],[5,2],[5,9],[3,3],[9,0],[22,-12],[9,-9],[-68,-6],[-31,-15],[-15,7],[-18,-3],[-6,-3],[5,-12],[7,-6],[16,-9],[-13,1],[-6,-3],[-5,-9],[-4,-5],[-12,-1],[-5,-4],[3,-3],[3,-2],[8,-2],[2,-2],[1,-4],[1,-5],[2,-3],[3,1],[17,13],[15,7],[14,-2],[13,-9],[13,-16],[-6,-4],[-19,10],[-10,-1],[-50,-33],[6,-12],[10,-4],[21,3],[0,-7],[-28,-6],[-7,2],[-4,4],[-8,4],[-4,6],[0,8],[4,7],[5,5],[2,4],[-2,11],[-5,3],[-10,0],[-11,11],[-3,2],[-20,0],[-10,-6],[-9,-14],[10,-6],[21,0],[9,-8],[-15,-13],[-5,-7],[0,-7],[16,-11],[52,-3],[-12,-19],[-63,-9],[0,8],[5,0],[4,2],[5,4],[3,7],[-9,-2],[-18,-10],[-10,5],[0,7],[12,-1],[4,5],[2,13],[-2,12],[-3,8],[-4,4],[-4,0],[1,-3],[0,-1],[1,-3],[-5,-6],[-5,1],[-4,4],[-6,1],[-5,-4],[-15,-16],[-33,-19],[-6,-16],[17,-1],[7,-5],[12,-19],[6,-6],[7,-3],[6,0],[-6,-10],[1,-8],[5,-9],[2,-13],[2,-3],[-1,-8],[-4,-10],[-4,-7],[2,-4],[3,-3],[-13,-15],[-40,-26],[50,13],[0,-6],[-10,-3],[-53,-37],[-7,-10],[8,-13],[-4,-9],[2,-8],[4,-7],[5,-2],[-6,-26],[1,-6],[8,-9],[8,1],[2,-4],[-5,-12],[4,-5],[4,0],[33,16],[90,77],[97,139],[22,22],[22,12],[12,0],[3,1],[6,5],[4,1],[5,3],[8,14],[5,3],[59,-7],[13,5],[26,18],[26,7],[6,4],[6,8],[4,8],[7,18],[4,8],[6,5],[43,14],[5,5],[9,12],[12,4],[93,3],[12,5],[29,27],[84,37],[12,-9],[-9,-9],[-3,-5],[2,-6],[-10,-12],[-14,-3],[-24,1],[-12,-5],[-23,-19],[-16,-7],[-13,-14],[-5,-3],[-85,-7],[3,2],[3,5],[0,4],[-4,2],[-4,-1],[-13,-8],[-10,-13],[-5,-5],[-21,-10],[-9,-12],[-5,-11],[-3,-11],[4,-4],[12,-7],[12,-30],[12,-11],[136,-16],[5,6],[5,10],[4,8],[5,4],[27,8],[15,-1],[8,-5],[9,-2],[5,-5],[-1,-10],[-5,-6],[-50,1],[-12,-8],[-11,-18],[4,-5],[4,-2],[9,0],[0,-6],[-7,0],[6,-15],[12,-8],[14,-2],[10,3],[9,7],[9,10],[9,13],[7,15],[5,8],[5,0],[5,-4],[6,-1],[15,12],[5,2],[10,-4],[-3,-9],[-9,-9],[-10,-5],[5,-6],[8,-1],[8,3],[11,16],[7,2],[16,-1],[0,7],[-7,14],[4,14],[15,21],[8,20],[-4,14],[-22,18],[-7,3],[-13,1],[-7,5],[-6,24],[-8,11],[-19,18],[-4,16],[8,5],[17,4],[5,5],[6,-8],[14,-4],[11,-11],[5,-3],[10,-2],[8,3],[10,9],[9,12],[8,13],[9,12],[74,12],[-7,-6],[4,-5],[3,-7],[0,-10],[-2,-13],[27,-20],[-5,-6],[-2,-1],[6,-14],[-1,-13],[-6,-7],[-9,0],[-4,3],[-10,14],[-3,7],[-4,5],[-53,-5],[-43,-16],[-10,-1],[7,-13],[27,-10],[5,-15],[4,-22],[8,-10],[10,-4],[8,-8],[-6,-1],[-16,-14],[0,-6],[18,-19],[7,-2],[9,2],[16,10],[9,2],[19,-9],[7,2],[5,8],[7,20],[5,7],[10,-3],[13,-7],[13,-3],[12,13],[-15,0],[9,14],[48,6],[-3,7],[6,9],[19,11],[-7,0],[-23,21],[-8,3],[-6,-2],[-13,-15],[-16,-8],[-9,0],[-5,8],[4,8],[24,13],[0,7],[-8,0],[7,18],[11,7],[12,-1],[41,-23],[6,-8],[10,3],[26,-10],[12,7],[-3,2],[-5,8],[-2,3],[9,7],[10,-4],[6,-15],[-3,-22],[16,-11],[20,-7],[19,-1],[15,6],[-7,-21],[-1,-10],[-7,-7],[-9,-3],[-8,0],[-24,18],[-81,2],[-7,-4],[-13,-19],[-16,-9],[-14,-19],[-75,-25],[0,-6],[5,0],[-12,-21],[-22,-3],[-38,10],[-24,-8],[-9,2],[-2,3],[-3,4],[-3,4],[-5,2],[-4,-1],[-2,-3],[-2,-7],[-1,-10],[11,0],[61,-51],[7,-4],[24,-3],[29,12],[11,0],[9,-9],[-10,-5],[-19,-19],[-11,-3],[0,-7],[55,7],[48,21],[25,2],[25,12],[31,29],[22,8],[47,37],[11,4],[66,-5],[24,-20],[26,-11],[12,-9],[-12,-15],[-16,-1],[-32,10],[3,11],[2,5],[3,4],[-10,9],[-33,5],[-20,9],[-11,1],[-8,-7],[-14,-21],[-36,-14],[-59,-48],[-73,-26],[-17,-15],[-9,-2],[0,-7],[17,-9],[31,-43],[70,-36],[59,6],[30,-18],[9,-3],[50,10],[17,11],[9,0],[-12,-11],[-25,-12],[-10,-12],[3,-7],[-1,-7],[-10,11],[-95,17],[-6,-2],[-15,-10],[-6,-2],[-7,1],[-20,13],[-22,-1],[-6,5],[-11,11],[-7,4],[-6,2],[-10,6],[-31,42],[-16,15],[-5,8],[-6,5],[-14,-2],[-6,4],[-11,14],[-75,43],[-22,23],[-12,5],[-25,1],[0,-7],[3,0],[10,-6],[-8,-9],[-47,1],[-81,-27],[-40,4],[-9,10],[-1,5],[2,6],[1,6],[-2,7],[-6,7],[-4,2],[-10,4],[-15,14],[-14,7],[-14,17],[-7,1],[-2,-4],[0,-7],[0,-7],[0,-4],[-4,-2],[-8,1],[-3,1],[-43,31],[-27,9],[-21,24],[-12,5],[-52,0],[-33,-18],[-53,-1],[-14,-8],[27,-11],[80,11],[-10,-16],[-13,-7],[-54,-12],[-7,3],[-13,14],[-7,4],[-29,-1],[-29,-13],[-25,-18],[-12,-16],[-10,-21],[7,-4],[11,2],[11,5],[14,18],[10,5],[19,2],[-29,-33],[-16,-11],[-31,-9],[-44,-44],[12,-6],[26,22],[12,-8],[-9,-8],[-67,-28],[-14,-13],[-11,-17],[-2,-2],[-8,-3],[-26,-19],[-35,-11],[-19,-11],[-17,-25],[-8,1],[-3,-1],[-3,-4],[-6,-13],[-4,-3],[-7,-3],[-9,-8],[-8,-11],[-6,-13],[7,-11],[3,-3],[-11,-11],[-9,-14],[-3,-17],[8,-19],[-11,-6],[-3,-6],[6,-26],[-2,-9],[-4,-8],[-3,-14],[7,-5],[8,-2],[0,-7],[-4,-1],[-3,-3],[-3,-4],[-3,-5],[9,-6],[21,6],[8,-7],[-13,-14],[0,-7],[15,0],[34,21],[28,27],[32,18],[46,0],[14,7],[17,28],[17,19],[23,16],[6,1],[-5,-14],[-13,-19],[-4,-15],[43,-16],[91,34],[91,33],[15,11],[22,0],[10,4],[20,14],[102,30],[13,-5],[37,-36],[14,-5],[156,33],[157,33],[-7,-12],[-6,-5],[-15,-3],[-27,-20],[-87,-15],[-5,-6],[-2,-14],[6,-9],[8,-3],[6,-1],[10,-7],[8,-18],[11,-43],[8,-23],[20,-26],[27,-51],[9,-14],[11,-10],[25,-6],[104,59],[111,29],[5,-3],[13,-18],[15,-11],[6,-2],[13,5],[6,0],[6,-5],[-2,0],[1,-1],[1,0],[0,-1],[0,-5],[-26,-12],[-91,18],[-58,-10],[-23,-15],[-17,-6],[-23,-18],[-51,-18],[-13,-1],[-24,11],[-12,12],[-10,15],[-26,65],[-13,16],[-2,8],[-1,8],[-8,26],[-7,17],[-11,13],[-23,15],[-180,11],[-37,30],[-15,0],[-28,-16],[-55,-15],[-12,-10],[-3,-6],[-3,-7],[-4,-5],[-7,-2],[-8,2],[-15,9],[-7,2],[-89,-30],[-11,-9],[-11,-4],[-16,-11],[-28,6],[-6,-4],[-13,-14],[-6,-3],[-87,-7],[-25,-13],[-14,-3],[-22,13],[-15,-3],[-14,-9],[-10,-12],[9,-10],[11,-2],[29,5],[17,-6],[9,-1],[-11,-10],[-109,-5],[-47,-16],[-3,-3],[0,-3],[-1,-6],[-2,-7],[-2,-4],[-6,-2],[-5,3],[-5,0],[-6,-8],[3,-1],[9,-6],[-3,-1],[-3,-3],[-3,-4],[-3,-6],[7,-6],[-6,-1],[-5,-3],[-11,-10],[7,-7],[3,0],[-3,-4],[-7,-16],[150,13],[44,21],[12,1],[-1,-8],[-10,-9],[-58,-25],[-55,7],[-24,-5],[-9,-9],[6,-14],[0,-23],[14,-9],[31,-3],[20,-18],[7,-2],[5,3],[10,13],[5,4],[113,-9],[12,-11],[-17,-10],[-18,-3],[-40,13],[-77,-13],[-45,13],[-21,0],[-3,-3],[-1,-7],[0,-7],[1,-4],[6,-3],[13,-14],[37,-10],[8,-7],[-8,-6],[-3,-5],[-2,-9],[14,-8],[71,8],[22,-5],[5,1],[7,6],[95,10],[13,-5],[-1,-4],[-1,-10],[67,0],[21,-18],[9,-2],[72,19],[13,15],[18,38],[10,15],[14,2],[0,-8],[-10,-12],[-9,-16],[4,-4],[2,-6],[-1,-8],[-3,-8],[8,-9],[41,4],[17,10],[9,2],[-3,-16],[-2,-5],[1,-2],[2,-3],[2,-1],[-6,-5],[-50,-10],[-7,-6],[7,-5],[12,-1],[6,-5],[15,-23],[10,-5],[35,5],[-8,-22],[-15,-7],[-17,1],[-53,38],[-141,3],[-1,-21],[-11,2],[-23,19],[-11,-2],[-12,-10],[-20,-28],[9,-7],[4,-1],[0,-7],[-5,-3],[-7,-6],[-6,-9],[-2,-12],[6,-6],[58,50],[26,7],[6,-3],[12,-9],[7,-2],[25,8],[10,12],[6,4],[5,-7],[5,-16],[1,-10],[-17,-21],[-6,-3],[-12,0],[-6,-2],[-20,-16],[-61,-2],[-8,-2],[-9,-9],[-6,-3],[-11,5],[-24,-6],[-17,10],[-5,-3],[25,-28],[7,-2],[20,2],[7,-2],[13,-9],[8,-2],[71,39],[14,2],[21,-13],[8,0],[30,6],[-2,-10],[-1,-10],[2,-8],[4,-6],[-12,1],[-6,-2],[-4,-6],[1,-2],[1,-5],[-12,0],[-36,14],[-8,-3],[-16,-15],[-80,-16],[-9,10],[-7,6],[-32,-3],[-18,11],[-9,1],[-10,-5],[-51,-48],[-11,-7],[7,-6],[2,0],[0,-7],[-15,-10],[-5,-4],[11,-6],[25,13],[9,-7],[3,5],[3,2],[7,0],[-2,-15],[-4,-6],[-9,1],[-6,-3],[-11,-9],[-6,-2],[8,-13],[52,-10],[15,-9],[38,-2],[12,4],[25,18],[11,5],[62,0],[0,-7],[5,-7],[30,0],[40,-13],[57,8],[15,-8],[0,-8],[-5,-3],[-5,-14],[-5,-3],[-120,16],[-10,10],[-6,2],[-44,-6],[-64,-31]],[[1062,0],[-8,9],[52,-7],[0,7],[-27,2],[-14,5],[-16,13],[-3,-5],[-3,-6],[-4,-3],[-45,0],[-29,-15]],[[1490,0],[6,4],[16,30],[26,78],[20,37],[94,61],[80,108],[12,10],[23,8],[28,36],[39,21],[10,17],[4,4],[17,-1],[12,4],[72,62],[30,9],[21,0],[5,2],[11,9],[18,7],[25,22],[100,37],[13,-8],[-7,-7],[-67,-21],[-26,0],[-7,-4],[-13,-12],[-7,-4],[0,-8],[23,2],[21,-16],[7,0],[5,0],[4,0],[12,8],[31,6],[22,-2],[24,-18],[9,-3],[35,5],[28,-5],[10,-10],[-22,-14],[-27,0],[-61,27],[-65,2],[-5,0],[-31,1],[-25,12],[-13,-1],[-5,-4],[-15,-16],[-17,-5],[-24,-24],[-41,-24],[-18,-30],[85,-54],[16,-1],[13,17],[7,8],[30,-18],[96,-13],[-11,-15],[-74,4],[-21,15],[-11,3],[-8,-2],[-16,-10],[-63,-9],[-58,43],[-23,7],[-12,-16],[9,-12],[9,-15],[-8,0],[-22,14],[-27,0],[-10,-7],[-28,-42],[-2,-6],[-20,-12],[-7,-5],[-7,-13],[-24,-25],[8,-9],[9,-7],[9,-4],[9,-1],[-6,-13],[-5,-3],[-56,-1],[-40,-31],[-42,-18],[-13,-12],[-24,-37],[-11,-24],[-2,-18],[-12,-15],[-6,-13],[-2,-13],[2,-9]],[[1148,1940],[-12,-4],[-23,-14],[-12,-3],[6,-8],[1,-11],[0,-15],[4,-2],[14,-12],[12,-4],[3,-2],[0,-15],[9,-4],[42,3],[9,5],[15,22],[9,8],[8,11],[3,14],[-2,17],[-5,11],[-6,7],[-7,2],[3,-6],[-10,-5],[-6,16],[-7,21],[-10,9],[-13,0],[-8,-5],[0,-12],[5,-12],[16,-20],[8,-6],[-12,-9],[-10,6],[-12,11],[-12,6]],[[1608,2090],[-4,4],[-7,3],[-8,-7],[10,2],[9,-2]],[[1563,2121],[-3,-17],[-7,-8],[-27,-14],[-5,-6],[0,-6],[-5,-1],[-4,3],[-3,5],[-3,6],[4,12],[18,8],[8,8],[-10,10],[-43,10],[-12,-3],[-21,-18],[-12,-5],[-25,2],[-12,-5],[-8,-19],[0,-7],[1,-12],[1,-10],[3,-5],[4,2],[11,16],[4,1],[11,-4],[44,10],[14,-4],[5,-6],[9,-12],[6,-3],[6,2],[23,19],[47,20],[-3,2],[-2,5],[-1,8],[10,5],[32,1],[0,7],[-6,4],[-43,10],[-6,-11]],[[1420,2127],[9,-8],[10,9],[10,16],[10,11],[10,21],[4,4],[13,6],[4,0],[4,1],[3,2],[4,4],[-17,0],[-8,3],[-8,7],[-3,1],[-7,-9],[-5,-2],[-102,-7],[1,5],[1,4],[1,3],[2,2],[-45,0],[1,-6],[1,-4],[2,-3],[2,-2],[-78,-26],[0,-7],[23,7],[7,-7],[-22,-12],[-73,-13],[-15,-12],[-11,-23],[-9,-36],[23,7],[44,28],[74,20],[24,-8],[7,5],[5,5],[55,15],[24,19],[9,1],[8,-6],[8,-15]],[[1830,3398],[3,-5],[4,-2],[4,0],[4,0],[-10,-19],[-40,-19],[-15,-16],[54,-10],[19,10],[27,24],[15,7],[15,3],[-10,-19],[-32,-36],[-23,-13],[-12,-15],[-20,-34],[2,-23],[-8,-6],[-20,2],[-4,-5],[-4,-7],[-8,-19],[0,-11],[6,-6],[13,-7],[4,-12],[8,-50],[5,-19],[18,-43],[-1,-3],[-2,-22],[12,-17],[16,-10],[12,-2],[7,3],[25,28],[18,9],[8,1],[9,9],[-1,19],[-11,41],[-1,14],[1,10],[7,21],[1,8],[0,12],[0,12],[-3,23],[3,11],[10,12],[17,29],[5,5],[6,-2],[12,-11],[7,-1],[6,5],[8,16],[36,45],[3,6],[0,8],[-1,13],[-6,14],[-43,-4],[5,16],[2,5],[-9,13],[-12,1],[-24,-7],[-10,4],[-27,22],[-4,5],[-24,2],[-20,-9],[-21,4],[-11,-8]],[[1219,2830],[5,7],[25,0],[174,95],[23,-1],[50,31],[15,21],[17,15],[10,7],[43,70],[8,18],[12,13],[6,10],[0,12],[-5,7],[-2,-4],[-13,-7],[-49,34],[4,6],[12,7],[5,1],[2,3],[16,39],[4,13],[-2,14],[-9,20],[-22,28],[-80,34],[3,0],[-37,5],[-44,28],[-32,9],[-40,32],[-36,16],[-13,19],[-25,48],[-36,48],[-12,21],[-15,36],[-9,18],[-14,11],[-19,24],[-28,19],[-25,29],[-25,4],[-14,13],[-42,23],[-103,18],[-48,30],[-144,28],[-11,6],[-45,-11],[-71,-48],[-34,-11],[-5,-7],[-9,-17],[-9,-13],[-9,-16],[-4,-26],[3,-90],[2,-4],[12,-30],[12,-16],[91,-66],[79,-21],[14,-11],[11,-17],[-7,-6],[-137,44],[-15,15],[-38,-4],[-7,-4],[-15,-14],[-14,-8],[0,-11],[2,-14],[4,-11],[5,-9],[15,-18],[-29,0],[-6,-3],[-15,-11],[7,-45],[35,-27],[67,-17],[5,-3],[13,-19],[4,-9],[6,-8],[20,-9],[40,-47],[-8,-8],[-10,7],[-19,21],[-32,11],[-11,10],[-12,22],[-7,8],[-8,3],[-36,-6],[-6,-7],[-12,9],[-11,2],[-11,-3],[-26,-18],[-4,-9],[4,-15],[-3,-2],[-2,-3],[-2,-2],[-3,0],[11,-26],[18,-19],[20,-12],[16,-4],[-4,-16],[-1,-5],[20,-22],[13,-9],[144,-27],[25,10],[9,-3],[43,-18],[50,7],[1,4],[3,6],[1,7],[-1,7],[-3,8],[-1,7],[2,6],[3,6],[7,1],[11,-6],[10,-9],[7,-9],[0,-25],[-14,-19],[-18,-18],[-11,-21],[10,-14],[12,1],[64,35],[12,-8],[-10,-17],[-38,-31],[17,-10],[16,0],[32,17],[10,11],[14,21],[9,24],[-5,19],[5,5],[11,13],[51,16],[27,1],[0,-8],[-15,-7],[-30,-4],[-13,-19],[-13,-27],[-3,-11],[-7,-28],[-4,-6],[0,-7],[16,-14],[59,-7],[-9,-8],[-80,2],[-5,2],[-5,4],[-5,2],[-7,-9],[-43,-14],[-76,17],[-49,-5],[-8,3],[-14,11],[-8,1],[-7,-6],[7,-10],[2,-3],[-12,-9],[-5,-8],[-2,-17],[2,-5],[10,-12],[3,-1],[1,-12],[4,-7],[25,-26],[81,-15],[15,-13],[6,-29],[9,-15],[42,-10],[32,5],[7,-4],[12,-17],[5,-4],[8,0],[15,17],[83,35],[28,27],[99,36],[12,-5]],[[557,3863],[19,-2],[5,5],[-4,18],[-6,14],[-43,44],[-80,31],[-3,-3],[1,-10],[3,-38],[3,-14],[4,-13],[4,-11],[22,-26],[25,-5],[50,10]],[[1148,1940],[12,-6],[12,-11],[10,-6],[12,9],[-8,6],[-16,20],[-5,12],[0,12],[8,5],[13,0],[10,-9],[7,-21],[6,-16],[10,5],[-3,6],[7,-2],[6,-7],[5,-11],[2,-17],[-3,-14],[-8,-11],[-9,-8],[-15,-22],[-9,-5],[-42,-3],[-9,4],[0,15],[-3,2],[-12,4],[-14,12],[-4,2],[0,15],[-1,11],[-6,8],[12,3],[23,14],[12,4]],[[1420,2127],[-8,15],[-8,6],[-9,-1],[-24,-19],[-55,-15],[-5,-5],[-7,-5],[-24,8],[-74,-20],[-44,-28],[-23,-7],[9,36],[11,23],[15,12],[73,13],[22,12],[-7,7],[-23,-7],[0,7],[78,26],[-2,2],[-2,3],[-1,4],[-1,6],[45,0],[-2,-2],[-1,-3],[-1,-4],[-1,-5],[102,7],[5,2],[7,9],[3,-1],[8,-7],[8,-3],[17,0],[-4,-4],[-3,-2],[-4,-1],[-4,0],[-13,-6],[-4,-4],[-10,-21],[-10,-11],[-10,-16],[-10,-9],[-9,8]],[[1830,3398],[11,8],[21,-4],[20,9],[24,-2],[4,-5],[27,-22],[10,-4],[24,7],[12,-1],[9,-13],[-2,-5],[-5,-16],[43,4],[6,-14],[1,-13],[0,-8],[-3,-6],[-36,-45],[-8,-16],[-6,-5],[-7,1],[-12,11],[-6,2],[-5,-5],[-17,-29],[-10,-12],[-3,-11],[3,-23],[0,-12],[0,-12],[-1,-8],[-7,-21],[-1,-10],[1,-14],[11,-41],[1,-19],[-9,-9],[-8,-1],[-18,-9],[-25,-28],[-7,-3],[-12,2],[-16,10],[-12,17],[2,22],[1,3],[-18,43],[-5,19],[-8,50],[-4,12],[-13,7],[-6,6],[0,11],[8,19],[4,7],[4,5],[20,-2],[8,6],[-2,23],[20,34],[12,15],[23,13],[32,36],[10,19],[-15,-3],[-15,-7],[-27,-24],[-19,-10],[-54,10],[15,16],[40,19],[10,19],[-4,0],[-4,0],[-4,2],[-3,5]],[[557,3863],[-50,-10],[-25,5],[-22,26],[-4,11],[-4,13],[-3,14],[-3,38],[-1,10],[3,3],[80,-31],[43,-44],[6,-14],[4,-18],[-5,-5],[-19,2]],[[1563,2121],[6,11],[43,-10],[6,-4],[0,-7],[-32,-1],[-10,-5],[1,-8],[2,-5],[3,-2],[-47,-20],[-23,-19],[-6,-2],[-6,3],[-9,12],[-5,6],[-14,4],[-44,-10],[-11,4],[-4,-1],[-11,-16],[-4,-2],[-3,5],[-1,10],[-1,12],[0,7],[8,19],[12,5],[25,-2],[12,5],[21,18],[12,3],[43,-10],[10,-10],[-8,-8],[-18,-8],[-4,-12],[3,-6],[3,-5],[4,-3],[5,1],[0,6],[5,6],[27,14],[7,8],[3,17]],[[965,0],[29,15],[45,0],[4,3],[3,6],[3,5],[16,-13],[14,-5],[27,-2],[0,-7],[-52,7],[8,-9],[-97,0]],[[1219,2830],[-12,5],[-99,-36],[-28,-27],[-83,-35],[-15,-17],[-8,0],[-5,4],[-12,17],[-7,4],[-32,-5],[-42,10],[-9,15],[-6,29],[-15,13],[-81,15],[-25,26],[-4,7],[-1,12],[-3,1],[-10,12],[-2,5],[2,17],[5,8],[12,9],[-2,3],[-7,10],[7,6],[8,-1],[14,-11],[8,-3],[49,5],[76,-17],[43,14],[7,9],[5,-2],[5,-4],[5,-2],[80,-2],[9,8],[-59,7],[-16,14],[0,7],[4,6],[7,28],[3,11],[13,27],[13,19],[30,4],[15,7],[0,8],[-27,-1],[-51,-16],[-11,-13],[-5,-5],[5,-19],[-9,-24],[-14,-21],[-10,-11],[-32,-17],[-16,0],[-17,10],[38,31],[10,17],[-12,8],[-64,-35],[-12,-1],[-10,14],[11,21],[18,18],[14,19],[0,25],[-7,9],[-10,9],[-11,6],[-7,-1],[-3,-6],[-2,-6],[1,-7],[3,-8],[1,-7],[-1,-7],[-3,-6],[-1,-4],[-50,-7],[-43,18],[-9,3],[-25,-10],[-144,27],[-13,9],[-20,22],[1,5],[4,16],[-16,4],[-20,12],[-18,19],[-11,26],[3,0],[2,2],[2,3],[3,2],[-4,15],[4,9],[26,18],[11,3],[11,-2],[12,-9],[6,7],[36,6],[8,-3],[7,-8],[12,-22],[11,-10],[32,-11],[19,-21],[10,-7],[8,8],[-40,47],[-20,9],[-6,8],[-4,9],[-13,19],[-5,3],[-67,17],[-35,27],[-7,45],[15,11],[6,3],[29,0],[-15,18],[-5,9],[-4,11],[-2,14],[0,11],[14,8],[15,14],[7,4],[38,4],[15,-15],[137,-44],[7,6],[-11,17],[-14,11],[-79,21],[-91,66],[-12,16],[-12,30],[-2,4],[-3,90],[4,26],[9,16],[9,13],[9,17],[5,7],[34,11],[71,48],[45,11],[11,-6],[144,-28],[48,-30],[103,-18],[42,-23],[14,-13],[25,-4],[25,-29],[28,-19],[19,-24],[14,-11],[9,-18],[15,-36],[12,-21],[36,-48],[25,-48],[13,-19],[36,-16],[40,-32],[32,-9],[44,-28],[37,-5],[-3,0],[80,-34],[22,-28],[9,-20],[2,-14],[-4,-13],[-16,-39],[-2,-3],[-5,-1],[-12,-7],[-4,-6],[49,-34],[13,7],[2,4],[5,-7],[0,-12],[-6,-10],[-12,-13],[-8,-18],[-43,-70],[-10,-7],[-17,-15],[-15,-21],[-50,-31],[-23,1],[-174,-95],[-25,0],[-5,-7]],[[1972,4096],[2124,0],[0,-4096],[-2023,0],[-535,0],[-2,9],[2,13],[6,13],[12,15],[2,18],[11,24],[24,37],[13,12],[42,18],[40,31],[56,1],[5,3],[6,13],[-9,1],[-9,4],[-9,7],[-8,9],[24,25],[7,13],[7,5],[20,12],[2,6],[28,42],[10,7],[27,0],[22,-14],[8,0],[-9,15],[-9,12],[12,16],[23,-7],[58,-43],[63,9],[16,10],[8,2],[11,-3],[21,-15],[4,0],[70,-4],[11,15],[-81,11],[-15,2],[-30,18],[-7,-8],[-13,-17],[-16,1],[-85,54],[18,30],[41,24],[24,24],[17,5],[15,16],[5,4],[13,1],[25,-12],[8,0],[23,-1],[5,0],[65,-2],[61,-27],[27,0],[22,14],[-10,10],[-28,5],[-35,-5],[-9,3],[-24,18],[-22,2],[-31,-6],[-12,-8],[-4,0],[-5,0],[-7,0],[-16,12],[-5,4],[-23,-2],[0,8],[7,4],[13,12],[7,4],[1,0],[25,0],[67,21],[7,7],[-13,8],[-86,-32],[-14,-5],[-25,-22],[-18,-7],[-11,-9],[-5,-2],[-21,0],[-30,-9],[-72,-62],[-12,-4],[-17,1],[-4,-4],[-10,-17],[-39,-21],[-28,-36],[-23,-8],[-12,-10],[-80,-108],[-94,-61],[-20,-37],[-26,-78],[-16,-30],[-6,-4],[-353,0],[64,31],[44,6],[6,-2],[10,-10],[120,-16],[5,3],[5,14],[5,3],[0,8],[-15,8],[-57,-8],[-40,13],[-30,0],[-5,7],[0,7],[-62,0],[-11,-5],[-25,-18],[-12,-4],[-38,2],[-15,9],[-52,10],[-8,13],[6,2],[11,9],[6,3],[9,-1],[4,6],[2,15],[-7,0],[-3,-2],[-3,-5],[-9,7],[-25,-13],[-11,6],[5,4],[15,10],[0,7],[-2,0],[-7,6],[11,7],[51,48],[10,5],[9,-1],[18,-11],[32,3],[7,-6],[9,-10],[80,16],[16,15],[8,3],[36,-14],[12,0],[-1,5],[-1,2],[4,6],[6,2],[12,-1],[-4,6],[-2,8],[1,10],[2,10],[-30,-6],[-8,0],[-21,13],[-14,-2],[-71,-39],[-8,2],[-13,9],[-7,2],[-20,-2],[-7,2],[-25,28],[5,3],[17,-10],[24,6],[11,-5],[6,3],[9,9],[8,2],[61,2],[20,16],[6,2],[12,0],[6,3],[17,21],[-1,10],[-5,16],[-5,7],[-6,-4],[-10,-12],[-25,-8],[-7,2],[-12,9],[-6,3],[-26,-7],[-58,-50],[-6,6],[2,12],[6,9],[7,6],[5,3],[0,7],[-4,1],[-9,7],[20,28],[12,10],[11,2],[23,-19],[11,-2],[1,21],[141,-3],[53,-38],[17,-1],[15,7],[8,22],[-35,-5],[-10,5],[-15,23],[-6,5],[-12,1],[-7,5],[7,6],[50,10],[6,5],[-2,1],[-2,3],[-1,2],[2,5],[3,16],[-9,-2],[-17,-10],[-41,-4],[-8,9],[3,8],[1,8],[-2,6],[-4,4],[9,16],[10,12],[0,8],[-14,-2],[-10,-15],[-18,-38],[-13,-15],[-72,-19],[-9,2],[-21,18],[-67,0],[1,10],[1,4],[-13,5],[-95,-10],[-7,-6],[-5,-1],[-22,5],[-71,-8],[-14,8],[2,9],[3,5],[8,6],[-8,7],[-37,10],[-13,14],[-6,3],[-1,4],[0,7],[1,7],[3,3],[21,0],[45,-13],[77,13],[40,-13],[18,3],[17,10],[-12,11],[-113,9],[-5,-4],[-10,-13],[-5,-3],[-7,2],[-20,18],[-31,3],[-14,9],[0,23],[-6,14],[9,9],[24,5],[55,-7],[58,25],[10,9],[1,8],[-12,-1],[-44,-21],[-150,-13],[7,16],[3,4],[-3,0],[-7,7],[11,10],[5,3],[6,1],[-7,6],[3,6],[3,4],[3,3],[3,1],[-9,6],[-3,1],[6,8],[5,0],[5,-3],[6,2],[2,4],[2,7],[1,6],[0,3],[3,3],[47,16],[109,5],[11,10],[-9,1],[-17,6],[-29,-5],[-11,2],[-9,10],[10,12],[14,9],[15,3],[22,-13],[14,3],[25,13],[87,7],[6,3],[13,14],[6,4],[28,-6],[16,11],[11,4],[11,9],[89,30],[7,-2],[15,-9],[8,-2],[7,2],[4,5],[3,7],[3,6],[12,10],[55,15],[28,16],[15,0],[37,-30],[180,-11],[23,-15],[11,-13],[7,-17],[8,-26],[1,-8],[2,-8],[13,-16],[26,-65],[10,-15],[12,-12],[24,-11],[13,1],[51,18],[23,18],[17,6],[23,15],[58,10],[41,-8],[50,-10],[26,12],[0,5],[0,1],[-1,0],[-1,1],[2,0],[-6,5],[-6,0],[-13,-5],[-6,2],[-15,11],[-13,18],[-5,3],[-12,-3],[-99,-26],[-104,-59],[-25,6],[-11,10],[-9,14],[-27,51],[-20,26],[-8,23],[-11,43],[-8,18],[-10,7],[-6,1],[-8,3],[-6,9],[2,14],[5,6],[87,15],[27,20],[15,3],[6,5],[7,12],[-157,-33],[-156,-33],[-14,5],[-37,36],[-13,5],[-102,-30],[-20,-14],[-10,-4],[-22,0],[-15,-11],[-91,-33],[-91,-34],[-43,16],[4,15],[13,19],[5,14],[-6,-1],[-23,-16],[-17,-19],[-17,-28],[-14,-7],[-46,0],[-32,-18],[-28,-27],[-34,-21],[-15,0],[0,7],[13,14],[-8,7],[-21,-6],[-9,6],[3,5],[3,4],[3,3],[4,1],[0,7],[-8,2],[-7,5],[3,14],[4,8],[2,9],[-6,26],[3,6],[11,6],[-8,19],[3,17],[9,14],[11,11],[-3,3],[-7,11],[6,13],[8,11],[9,8],[7,3],[4,3],[6,13],[3,4],[3,1],[8,-1],[17,25],[19,11],[35,11],[26,19],[8,3],[2,2],[11,17],[14,13],[67,28],[9,8],[-12,8],[-26,-22],[-12,6],[44,44],[31,9],[16,11],[29,33],[-19,-2],[-10,-5],[-14,-18],[-11,-5],[-11,-2],[-7,4],[10,21],[12,16],[25,18],[29,13],[29,1],[7,-4],[13,-14],[7,-3],[54,12],[13,7],[10,16],[-80,-11],[-27,11],[14,8],[53,1],[33,18],[52,0],[12,-5],[21,-24],[27,-9],[43,-31],[3,-1],[8,-1],[4,2],[0,4],[0,7],[0,7],[2,4],[7,-1],[14,-17],[14,-7],[15,-14],[10,-4],[4,-2],[6,-7],[2,-7],[-1,-6],[-2,-6],[1,-5],[9,-10],[40,-4],[81,27],[47,-1],[8,9],[-10,6],[-3,0],[0,7],[25,-1],[12,-5],[22,-23],[75,-43],[11,-14],[6,-4],[14,2],[6,-5],[5,-8],[16,-15],[31,-42],[10,-6],[6,-2],[7,-4],[11,-11],[6,-5],[22,1],[20,-13],[7,-1],[1,0],[5,2],[15,10],[6,2],[95,-17],[10,-11],[1,7],[-3,7],[10,12],[25,12],[12,11],[-9,0],[-17,-11],[-50,-10],[-9,3],[-30,18],[-59,-6],[-2,1],[-68,35],[-31,43],[-17,9],[0,7],[9,2],[17,15],[73,26],[17,13],[42,35],[36,14],[14,21],[8,7],[11,-1],[20,-9],[33,-5],[10,-9],[-3,-4],[-2,-5],[-3,-11],[32,-10],[16,1],[12,15],[-12,9],[-26,11],[-24,20],[-66,5],[-11,-4],[-47,-37],[-22,-8],[-18,-17],[-13,-12],[-25,-12],[-25,-2],[-48,-21],[-55,-7],[0,7],[11,3],[19,19],[10,5],[-9,9],[-11,0],[-29,-12],[-24,3],[-7,4],[-61,51],[-11,0],[1,10],[2,7],[2,3],[4,1],[5,-2],[3,-4],[3,-4],[2,-3],[9,-2],[24,8],[38,-10],[22,3],[12,21],[-5,0],[0,6],[75,25],[14,19],[16,9],[13,19],[7,4],[31,-1],[50,-1],[24,-18],[8,0],[9,3],[7,7],[1,10],[7,21],[-15,-6],[-19,1],[-20,7],[-16,11],[3,22],[-6,15],[-10,4],[-9,-7],[2,-3],[5,-8],[3,-2],[-12,-7],[-12,5],[-14,5],[-10,-3],[-6,8],[-41,23],[-12,1],[-11,-7],[-7,-18],[8,0],[0,-7],[-24,-13],[-4,-8],[5,-8],[9,0],[16,8],[13,15],[6,2],[8,-3],[23,-21],[7,0],[-19,-11],[-6,-9],[3,-7],[-48,-6],[-9,-14],[15,0],[-12,-13],[-13,3],[-13,7],[-10,3],[-5,-7],[-7,-20],[-5,-8],[-7,-2],[-19,9],[-9,-2],[-16,-10],[-9,-2],[-7,2],[-18,19],[0,6],[16,14],[6,1],[-8,8],[-10,4],[-8,10],[-4,22],[-5,15],[-27,10],[-7,13],[10,1],[43,16],[53,5],[4,-5],[3,-7],[10,-14],[4,-3],[9,0],[6,7],[1,13],[-6,14],[2,1],[5,6],[-27,20],[2,13],[0,10],[-3,7],[-4,5],[7,6],[-74,-12],[-9,-12],[-8,-13],[-9,-12],[-10,-9],[-8,-3],[-10,2],[-5,3],[-11,11],[-14,4],[-6,8],[-5,-5],[-17,-4],[-8,-5],[4,-16],[19,-18],[8,-11],[6,-24],[7,-5],[13,-1],[7,-3],[22,-18],[4,-14],[-8,-20],[-15,-21],[-4,-14],[7,-14],[0,-7],[-16,1],[-7,-2],[-11,-16],[-8,-3],[-8,1],[-5,6],[10,5],[9,9],[3,9],[-10,4],[-5,-2],[-15,-12],[-6,1],[-5,4],[-5,0],[-5,-8],[-7,-15],[-9,-13],[-9,-10],[-9,-7],[-10,-3],[-14,2],[-12,8],[-6,15],[7,0],[0,6],[-9,0],[-4,2],[-4,5],[11,18],[12,8],[50,-1],[5,6],[1,10],[-5,5],[-9,2],[-8,5],[-15,1],[-27,-8],[-5,-4],[-4,-8],[-5,-10],[-5,-6],[-136,16],[-12,11],[-12,30],[-12,7],[-4,4],[3,11],[5,11],[9,12],[21,10],[5,5],[10,13],[13,8],[4,1],[4,-2],[0,-4],[-3,-5],[-3,-2],[85,7],[5,3],[13,14],[16,7],[23,19],[12,5],[24,-1],[14,3],[10,12],[-2,6],[3,5],[9,9],[-12,9],[-84,-37],[-29,-27],[-12,-5],[-93,-3],[-12,-4],[-9,-12],[-5,-5],[-43,-14],[-6,-5],[-4,-8],[-7,-18],[-4,-8],[-6,-8],[-6,-4],[-26,-7],[-26,-18],[-13,-5],[-59,7],[-5,-3],[-8,-14],[-5,-3],[-4,-1],[-6,-5],[-3,-1],[-12,0],[-22,-12],[-22,-22],[-97,-139],[-90,-77],[-33,-16],[-4,0],[-4,5],[5,12],[-2,4],[-8,-1],[-8,9],[-1,6],[6,26],[-5,2],[-4,7],[-2,8],[4,9],[-8,13],[7,10],[53,37],[10,3],[0,6],[-50,-13],[40,26],[13,15],[-3,3],[-2,4],[4,7],[4,10],[1,8],[-2,3],[-2,13],[-5,9],[-1,8],[6,10],[-6,0],[-7,3],[-6,6],[-12,19],[-7,5],[-17,1],[6,16],[33,19],[15,16],[5,4],[6,-1],[4,-4],[5,-1],[5,6],[-1,3],[0,1],[-1,3],[4,0],[4,-4],[3,-8],[2,-12],[-2,-13],[-4,-5],[-12,1],[0,-7],[10,-5],[18,10],[9,2],[-3,-7],[-5,-4],[-4,-2],[-5,0],[0,-8],[63,9],[12,19],[-52,3],[-16,11],[0,7],[5,7],[15,13],[-9,8],[-21,0],[-10,6],[9,14],[10,6],[20,0],[3,-2],[11,-11],[10,0],[5,-3],[2,-11],[-2,-4],[-5,-5],[-4,-7],[0,-8],[4,-6],[8,-4],[4,-4],[7,-2],[28,6],[0,7],[-21,-3],[-10,4],[-6,12],[50,33],[10,1],[19,-10],[6,4],[-13,16],[-13,9],[-14,2],[-15,-7],[-17,-13],[-3,-1],[-2,3],[-1,5],[-1,4],[-2,2],[-8,2],[-3,2],[-3,3],[5,4],[12,1],[4,5],[5,9],[6,3],[13,-1],[-16,9],[-7,6],[-5,12],[6,3],[18,3],[15,-7],[31,15],[68,6],[-9,9],[-22,12],[-9,0],[-3,-3],[-5,-9],[-5,-2],[-82,0],[2,9],[2,9],[-1,9],[-3,8],[11,4],[19,19],[49,17],[114,-97],[35,-5],[3,-2],[1,-4],[-1,-5],[1,-2],[12,-5],[18,10],[102,-13],[14,-12],[5,-2],[9,3],[16,9],[9,2],[5,5],[15,30],[0,6],[-10,-1],[-10,-5],[-18,-18],[-13,-7],[-101,18],[-101,18],[-26,19],[-65,70],[-48,34],[-10,16],[7,13],[16,13],[7,8],[-5,13],[-6,6],[-7,0],[-7,-5],[-1,-17],[-10,-6],[-22,-5],[-10,-12],[-6,-4],[-5,6],[0,9],[4,9],[4,9],[3,4],[-7,3],[-16,-13],[-8,-4],[-38,0],[54,34],[57,15],[13,-3],[14,-7],[26,-25],[12,-6],[29,-4],[9,-11],[7,3],[12,-8],[21,-22],[12,-7],[71,-16],[31,-27],[11,-1],[10,10],[-10,2],[-35,23],[-6,7],[-1,8],[7,8],[-10,8],[-30,-8],[-6,3],[-1,7],[1,6],[1,4],[-6,5],[-13,3],[-6,6],[3,6],[2,1],[0,7],[-8,6],[-15,-11],[-10,-2],[3,0],[-8,-1],[-2,10],[3,13],[6,6],[19,7],[5,-3],[11,-9],[6,-3],[29,4],[11,-4],[30,-25],[10,-2],[1,-6],[19,-8],[23,-17],[22,-9],[24,-28],[13,-6],[28,0],[14,-5],[26,-26],[16,-8],[130,12],[130,12],[18,-5],[9,-7],[13,-21],[18,-9],[23,-19],[33,-17],[16,-14],[54,-21],[9,-6],[2,-7],[23,-31],[5,-4],[14,-3],[-2,7],[5,5],[1,1],[3,1],[11,0],[4,2],[6,10],[5,2],[89,-22],[20,8],[11,28],[-55,-14],[-6,2],[-10,9],[-44,9],[-15,12],[-5,2],[-11,-1],[-3,2],[-2,0],[-4,6],[3,4],[3,5],[0,1],[3,8],[1,9],[-4,2],[-12,4],[-33,-13],[-16,7],[9,7],[6,8],[1,9],[-8,10],[-12,3],[-22,-6],[-11,3],[-14,13],[-23,3],[-6,5],[-3,4],[-6,11],[-3,5],[-6,5],[-13,4],[-6,5],[9,9],[31,18],[0,7],[-13,-3],[-25,-15],[-12,-3],[-10,2],[-4,5],[-1,11],[-3,7],[-5,3],[-12,0],[-6,4],[-11,19],[-6,4],[-5,-4],[-6,-6],[-6,-2],[-12,18],[-20,8],[-7,7],[-11,18],[-8,3],[0,6],[160,-27],[11,3],[5,6],[-3,8],[-18,19],[-9,5],[-8,0],[-20,-7],[-10,3],[-16,28],[-9,5],[-54,-2],[-8,7],[6,10],[8,4],[43,5],[6,5],[6,9],[13,6],[3,8],[-1,7],[0,8],[0,6],[2,7],[8,21],[-2,3],[-3,5],[-2,6],[-3,7],[8,0],[-5,3],[-7,3],[-6,5],[-2,13],[2,11],[4,6],[61,33],[20,3],[5,5],[17,27],[10,8],[11,-8],[-8,-4],[-7,-9],[7,-1],[11,6],[11,10],[5,12],[-27,11],[-140,-91],[-32,4],[-40,-14],[-11,2],[-29,20],[-11,2],[-9,-3],[-20,-13],[11,-9],[21,-9],[18,-29],[10,-7],[62,6],[13,-11],[17,-26],[4,-15],[-9,-10],[4,-6],[4,-1],[-33,-14],[-121,-8],[-12,-10],[-6,-2],[-13,1],[-6,-3],[-11,-16],[-6,-1],[-11,6],[-83,-13],[-18,-15],[-12,-4],[-33,3],[-20,-21],[-60,-18],[-9,3],[-8,10],[-4,0],[16,23],[6,11],[-7,8],[-21,9],[-10,7],[-5,12],[3,8],[8,8],[7,10],[-11,5],[-36,-19],[-43,6],[-13,-5],[2,-2],[17,-10],[26,-5],[9,-6],[7,-13],[-15,-18],[-17,-8],[-17,0],[-16,6],[-3,3],[-4,9],[-3,2],[-5,0],[-9,-6],[-4,-1],[-6,6],[3,7],[13,14],[-16,-2],[-8,2],[-6,7],[7,16],[11,12],[50,27],[14,1],[13,-11],[4,2],[4,5],[5,3],[-1,4],[-1,7],[-1,3],[12,-2],[5,3],[0,12],[2,0],[2,-1],[1,1],[0,7],[-37,-14],[-35,-1],[-16,-19],[-89,-30],[-23,2],[-12,7],[-12,12],[-6,1],[-13,-19],[-18,-3],[-12,-16],[-6,3],[-4,10],[-4,12],[9,-4],[4,2],[2,9],[-15,18],[-5,10],[35,19],[17,2],[16,-8],[21,-22],[11,-7],[10,2],[23,27],[23,4],[5,6],[6,10],[8,7],[15,8],[25,-1],[7,7],[-4,4],[-7,6],[-3,4],[2,9],[4,4],[4,2],[4,-1],[2,9],[21,1],[9,7],[5,8],[14,13],[27,9],[3,-1],[5,-5],[2,0],[1,2],[1,5],[0,5],[0,2],[31,-7],[9,7],[-20,27],[25,13],[8,1],[-10,8],[-11,0],[-47,-14],[-12,3],[-12,9],[9,10],[154,46],[5,-4],[2,-6],[3,-5],[4,-6],[3,-5],[5,-2],[4,-1],[5,1],[-1,4],[0,3],[-1,3],[0,4],[54,30],[29,5],[27,-14],[-14,-10],[-42,-5],[0,-6],[18,0],[0,-7],[-4,-1],[-4,-2],[-4,-5],[-3,-6],[9,-7],[25,-13],[8,3],[8,9],[7,5],[16,3],[44,-13],[24,0],[14,20],[-1,11],[7,8],[9,4],[7,-3],[0,-6],[-12,-14],[0,-7],[17,10],[18,4],[14,-5],[6,3],[4,15],[-22,0],[0,7],[9,9],[12,5],[12,0],[9,-6],[-5,-8],[55,-7],[10,15],[-3,0],[-7,6],[21,19],[7,1],[0,-5],[-1,-8],[-3,-8],[-4,-5],[15,1],[6,4],[0,11],[-2,11],[0,12],[3,10],[5,5],[5,9],[-7,22],[-17,37],[9,0],[9,-5],[21,-24],[8,-19],[5,-17],[3,-7],[3,-3],[12,-6],[7,0],[3,9],[-2,9],[-8,8],[-3,7],[4,10],[19,11],[7,7],[-34,-11],[-11,4],[1,4],[1,3],[1,3],[2,3],[-3,12],[-4,2],[-5,-2],[-5,2],[-4,7],[-6,28],[40,34],[35,7],[7,13],[0,13],[40,28],[-32,11],[-16,0],[-14,-11],[-16,-22],[-28,-21],[-26,-35],[-5,-4],[-30,-13],[-49,13],[-16,0],[4,14],[7,6],[7,5],[7,6],[4,9],[3,10],[4,9],[6,3],[-2,11],[-9,12],[-4,11],[14,11],[28,10],[12,16],[9,16],[21,23],[9,13],[-11,-2],[-15,-9],[-11,-14],[-3,-16],[-9,-7],[-21,1],[-10,-8],[-1,2],[0,1],[0,1],[-2,3],[0,7],[4,11],[4,7],[22,22],[5,9],[3,9],[-1,29],[-2,22],[-6,20],[-9,22],[5,4],[10,-1],[5,3],[-6,27],[-3,12],[-6,9],[17,7],[5,9],[-7,18],[106,-4],[15,-7],[2,-23],[-10,-11],[-48,-9],[-10,-28],[-5,-3],[-12,-3],[-5,-7],[24,-8],[8,0],[0,8],[-2,0],[0,7],[75,37],[25,-9],[-4,-17],[-2,-5],[7,-6],[6,5],[5,6],[5,-1],[11,-14],[6,-7],[5,-4],[-3,-18],[-2,-11],[1,-9],[4,-16],[1,-8],[0,-9],[0,-7],[3,-3],[21,-7],[10,-7],[10,-4],[4,-6],[2,-9],[1,-5],[2,-2],[6,-1],[10,1],[5,6],[0,10],[-7,13],[-3,7],[-2,10],[-1,9],[-2,5],[-5,5],[-5,0],[-10,-5],[-10,0],[-5,2],[-5,5],[-2,6],[-2,18],[-2,4],[-2,3],[2,7],[4,10],[6,6],[8,3],[7,-1],[6,-5],[12,-25],[7,-5],[6,13],[-7,24],[6,21],[14,11],[12,-8],[4,-18],[-3,-20],[-7,-19],[-6,-11],[18,-26],[10,-3],[7,15],[-3,3],[-5,8],[-2,3],[5,16],[1,8],[-2,10],[9,-5],[4,1],[3,4],[0,6],[-13,35],[-5,8],[-13,7],[-60,-18],[-31,9],[-17,12],[-44,29],[-4,15],[12,13],[36,-7],[24,-6],[39,6],[25,-11],[6,2],[9,14],[6,5],[7,5],[21,6],[7,7],[8,19],[3,23],[-2,19],[-11,8],[-6,-4],[-5,-8],[-5,-9],[-5,-7],[-7,-5],[-23,-2],[3,0],[-8,0],[-17,6],[-8,1],[-15,-7],[-8,2],[-7,12],[8,17],[2,4],[-3,2],[-1,3],[-3,8],[3,5],[1,4],[-3,3],[-4,2],[4,14],[-1,12],[-3,10],[0,12],[7,11],[22,10],[9,13],[-23,9],[-21,-19],[-25,-32],[-16,-20],[14,-10],[2,-2],[5,-6],[0,-12],[-4,-10],[-1,-2],[-4,-5],[-10,-8],[1,-2],[0,-4],[-6,1],[-13,-1],[-7,7],[8,7],[0,6],[-16,-3],[-30,-30],[-23,-10],[-14,-14],[-7,-4],[-10,-1],[-32,7],[-2,0],[-3,4],[-2,6],[-3,4],[-23,7],[-7,5],[0,6],[12,17],[-2,2],[-3,8],[-2,3],[5,5],[4,-1],[11,-4],[4,4],[5,19],[3,4],[27,3],[26,11],[-9,15],[-22,2],[-8,7],[-5,22],[6,8],[23,1],[-2,10],[-1,4],[8,1],[15,-14],[7,6],[-21,40],[-1,15],[4,10],[10,6],[3,12],[1,13],[-2,5],[-3,4],[-3,11],[39,14],[6,5],[12,9],[9,3],[9,-7],[4,-5],[10,-11],[17,-13],[7,-3],[11,-6],[15,0],[0,7],[-5,5],[-2,8],[-2,10],[-1,3],[-2,9],[17,13],[19,6],[47,-8],[11,4],[21,19],[-10,8],[-40,-8],[-4,2],[-5,7],[-8,15],[-4,1],[-19,-4],[-11,-9],[-20,-24],[-8,-6],[-4,-3],[-9,-6],[-18,-2],[-18,5],[-12,10],[5,6],[6,2],[11,-1],[-19,10],[-18,-15],[-17,-21],[-15,-8],[-8,9],[-2,16],[3,16],[7,7],[7,4],[8,10],[6,13],[-1,14],[0,15],[-5,14],[-7,12],[-6,13],[26,24],[30,-5],[50,-23],[48,-23],[6,7],[-6,13],[-9,14],[-4,13],[9,8],[-27,-9],[-8,2],[-9,9],[-14,15],[-10,3],[-42,-8],[-21,6],[-11,30],[11,18],[32,10],[14,10],[17,23],[6,20],[4,8],[7,-2],[7,-3],[11,-6],[36,-5],[27,-14],[30,2],[15,-4],[7,0],[8,4],[-22,13],[-6,8],[-4,7],[-7,24],[-4,8],[-4,4],[-2,5],[3,10],[3,7],[2,6],[0,7],[-2,11],[-10,17],[-14,8],[-41,4],[-26,13],[-2,1],[-11,12],[9,20],[-7,7],[9,20],[2,0],[77,3],[17,9],[32,30],[-10,21],[-14,8],[-53,-9],[-4,5],[-6,12],[-3,3],[-5,1],[-2,-4],[-2,-5],[-3,-5],[-4,-4],[-20,-11],[-59,-33],[-31,-5],[-49,-28],[-117,0],[-10,6],[13,1],[9,9],[16,24],[6,2],[6,-1],[6,1],[6,8],[8,21],[3,3],[13,-2],[6,-4],[6,-7],[3,-7],[3,-10],[4,-8],[3,-3],[44,28],[-14,15],[-30,-7],[-13,12],[3,1],[7,6],[0,6],[-15,9],[-69,8],[-9,-3],[-5,-4],[-3,-6],[-7,-17],[-34,-56],[-21,-22],[-12,10],[-31,-3],[-6,10],[1,7],[10,22],[4,12],[-3,4],[-4,2],[-5,-1],[-16,-12],[-6,-2],[-77,7],[-32,-11],[-16,0],[-15,9],[-19,31],[-7,0],[-7,-4],[-34,-6],[-31,15],[-8,1],[-2,0],[-2,-5],[-3,-1],[-4,2],[-5,10],[-13,10],[-31,61],[-13,18],[-7,6],[-7,3],[-5,4],[-3,11],[-3,12],[-3,11],[-12,18],[-113,68],[-113,68],[-111,13],[-111,14],[-65,33],[-21,35],[-13,14],[-26,14],[-1,12],[-4,15],[-7,15],[-39,55],[-42,39],[827,0],[17,-11],[10,-16],[15,-16],[32,-20],[45,-42],[61,-33],[45,-43],[51,4],[79,-33],[46,-36],[87,-10],[61,-31],[18,-1],[16,9],[4,7],[9,19],[-4,13],[-4,9],[-1,2],[-4,5],[-7,6],[-9,1],[-10,-4],[-9,-1],[-7,10],[9,14],[23,29],[1,19],[6,12],[7,7],[14,16],[5,3],[1,6],[2,2],[1,5],[-2,10],[-2,5],[-9,8],[-4,2],[-6,-5],[-1,-1],[-16,-24],[-14,-12],[-4,-27],[-6,-7],[-9,-3],[-18,-31],[-11,-8],[-80,4],[-24,15],[-13,30],[55,0],[-7,15],[-15,13],[-28,13],[-40,-8],[-12,8],[-6,24],[-31,21],[-8,16],[10,11],[32,24],[4,6],[16,0],[1,-3],[-1,-9],[-2,-8],[8,-13],[11,-9],[34,-11],[23,-23],[11,-5],[10,0],[4,-5],[1,-12],[2,-4],[4,0],[4,3],[3,4],[1,18],[-5,12],[-7,10],[-4,14],[7,0],[37,-23],[18,-4],[-10,18],[-12,10],[-25,13],[3,8],[7,11],[2,8]],[[1916,4096],[48,0],[-14,-10],[-7,-3],[-7,1],[-20,12]]]}