{"objects":{"water":{"type":"GeometryCollection","geometries":[{"type":"MultiPolygon","properties":{"source":"naturalearthdata.com","kind":"ocean","area":989871000000000,"sort_rank":200,"min_zoom":0,"id":1},"arcs":[[[0],[1],[2],[3],[4],[5],[6],[7],[8],[9]],[[10]],[[11]]]},{"type":"MultiLineString","properties":{"source":"naturalearthdata.com","kind":"ocean","sort_rank":205,"boundary":true,"min_zoom":0,"id":515},"arcs":[[12],[13],[14],[15],[16]]},{"type":"LineString","properties":{"source":"naturalearthdata.com","kind":"ocean","sort_rank":205,"boundary":true,"min_zoom":0,"id":891},"arcs":[17]},{"type":"LineString","properties":{"source":"naturalearthdata.com","kind":"ocean","sort_rank":205,"boundary":true,"min_zoom":0,"id":908},"arcs":[18]},{"type":"LineString","properties":{"source":"naturalearthdata.com","kind":"ocean","sort_rank":205,"boundary":true,"min_zoom":0,"id":909},"arcs":[19]},{"type":"LineString","properties":{"source":"naturalearthdata.com","kind":"ocean","sort_rank":205,"boundary":true,"min_zoom":0,"id":910},"arcs":[20]},{"type":"LineString","properties":{"source":"naturalearthdata.com","kind":"ocean","sort_rank":205,"boundary":true,"min_zoom":0,"id":921},"arcs":[21]},{"type":"LineString","properties":{"source":"naturalearthdata.com","kind":"ocean","sort_rank":205,"boundary":true,"min_zoom":0,"id":924},"arcs":[22]},{"type":"LineString","properties":{"source":"naturalearthdata.com","kind":"ocean","sort_rank":205,"boundary":true,"min_zoom":0,"id":926},"arcs":[23]},{"type":"LineString","properties":{"source":"naturalearthdata.com","kind":"ocean","sort_rank":205,"boundary":true,"min_zoom":0,"id":1432},"arcs":[24]},{"type":"LineString","properties":{"source":"naturalearthdata.com","kind":"ocean","sort_rank":205,"boundary":true,"min_zoom":0,"id":1447},"arcs":[25]}]},"buildings":{"type":"GeometryCollection","geometries":[]},"places":{"type":"GeometryCollection","geometries":[{"type":"Point","properties":{"name:pt":"Nuuk","collision_rank":357,"name:nl":"Nuuk","name:id":"Nuuk","name":"Nuuk","name:hi":"\u0928\u0941\u0915","name:tr":"Nuuk","name:sv":"Nuuk","name:ar":"\u0646\u0648\u0643","min_zoom":5.0,"name:it":"Nuuk","name:vi":"Nuuk","country_capital":true,"name:ru":"\u041d\u0443\u0443\u043a","name:pl":"Nuuk","name:hu":"Nuuk","id":6982,"name:ja":"\u30cc\u30fc\u30af","name:el":"\u039d\u03bf\u03c5\u03bf\u03cd\u03ba","kind":"locality","name:en":"Nuuk","population_rank":6,"source":"naturalearthdata.com","name:bn":"\u09a8\u09c1\u0989\u0995","name:de":"Nuuk","name:ko":"\ub204\ud06c","name:fr":"Nuuk","wikidata_id":"Q226","population":14798,"name:zh":"\u52aa\u514b","name:es":"Nuuk"},"coordinates":[1645,2164]}]},"transit":{"type":"GeometryCollection","geometries":[]},"pois":{"type":"GeometryCollection","geometries":[]},"boundaries":{"type":"GeometryCollection","geometries":[]},"roads":{"type":"GeometryCollection","geometries":[]},"earth":{"type":"GeometryCollection","geometries":[{"type":"MultiPolygon","properties":{"sort_rank":10,"source":"naturalearthdata.com","min_zoom":0.5,"kind":"earth","area":240341519138},"arcs":[[[26]],[[27]],[[28]],[[29]]]},{"type":"MultiPolygon","properties":{"sort_rank":10,"source":"naturalearthdata.com","kind":"earth","min_zoom":5.0,"area":20190010356},"arcs":[[[30]],[[31]]]},{"type":"MultiPolygon","properties":{"sort_rank":10,"source":"naturalearthdata.com","min_zoom":0,"kind":"earth","area":26122094535451},"arcs":[[[32]],[[33]],[[34]]]}]},"landuse":{"type":"GeometryCollection","geometries":[]}},"type":"Topology","transform":{"translate":[-56.25,61.6063963714],"scale":[0.002746582,0.0011979649]},"arcs":[[[1490,4096],[48,0],[7,-6],[8,-4],[7,0],[-5,-11],[-8,-3],[-19,2],[-68,-31],[-44,-8],[-45,-42],[-72,-48],[-7,-7],[-4,-10],[-2,-16],[-8,-26],[-94,-75],[-40,-16],[-100,-62],[-30,-36],[14,-11],[48,11],[-3,-6],[-2,-3],[-2,-2],[0,-6],[57,13],[18,-7],[-69,-17],[-25,7],[-9,-2],[-7,-7],[-7,-8],[-7,-6],[-9,-1],[6,-17],[11,-13],[13,-8],[12,-3],[4,2],[7,11],[5,4],[5,2],[17,-2],[-1,-5],[-1,-6],[47,35],[34,15],[21,19],[21,12],[17,-12],[-80,-46],[-14,-12],[-49,-28],[0,-6],[39,-11],[4,-6],[1,-1],[1,0],[0,-1],[0,-4],[-19,6],[-8,-2],[-5,-15],[9,-7],[9,-2],[10,0],[55,26],[13,4],[9,9],[29,15],[20,17],[10,1],[-7,28],[-1,12],[9,-3],[14,-19],[9,-7],[9,3],[42,37],[5,0],[15,-11],[-19,-17],[-8,-13],[1,-9],[13,-21],[8,-11],[11,-4],[73,0],[6,8],[18,50],[10,13],[10,7],[34,6],[106,55],[24,4],[0,-5],[-24,-13],[-12,-12],[-11,-15],[6,-12],[7,-9],[29,-27],[13,-21],[-11,-7],[-13,10],[-24,32],[-17,12],[-16,7],[-16,0],[-80,-43],[-14,-14],[-10,-18],[0,-16],[16,-9],[0,-5],[-14,-8],[-8,-7],[-3,-11],[-1,-8],[-4,0],[-3,2],[-2,3],[-1,4],[0,9],[-1,4],[-7,9],[-8,3],[-18,0],[-57,17],[-31,28],[-15,6],[-29,-11],[-15,-11],[-7,-12],[2,-2],[2,-4],[3,-6],[-7,-4],[-6,3],[-7,5],[-7,2],[-16,-5],[-22,-14],[-15,-4],[-6,-9],[-10,-24],[-4,-7],[6,-5],[6,0],[13,5],[-7,-6],[-27,-14],[-10,-7],[-8,-3],[-6,-8],[-5,-3],[-6,-7],[-3,-3],[-13,1],[-3,-4],[1,-7],[7,-3],[47,7],[17,6],[18,20],[29,16],[7,7],[5,3],[4,0],[5,-1],[8,-6],[-8,-6],[-18,-9],[-14,-19],[-9,-8],[-10,-6],[-29,-5],[-19,-9],[-33,-34],[18,-10],[69,-7],[32,14],[9,7],[5,1],[4,-2],[9,-12],[5,-3],[14,10],[10,24],[15,58],[9,21],[5,-15],[0,-30],[-4,-28],[4,0],[14,-6],[-29,-18],[-13,-16],[-6,-28],[10,0],[21,10],[30,25],[12,5],[9,-6],[-11,-11],[-26,-11],[-46,-34],[-9,-13],[12,-3],[26,19],[12,2],[-25,-27],[-13,-10],[-7,2],[-5,-20],[3,-15],[9,-8],[12,-3],[3,-3],[1,-7],[3,-6],[6,-1],[5,4],[3,7],[4,9],[4,9],[2,3],[7,5],[3,3],[2,3],[0,7],[2,4],[4,9],[5,8],[5,6],[6,3],[3,4],[3,8],[5,17],[9,19],[11,15],[-4,-40],[-15,-30],[-18,-26],[-13,-24],[3,-5],[12,-12],[-14,-9],[-3,-6],[4,-14],[6,-3],[8,2],[9,6],[12,19],[9,12],[10,6],[4,-5],[-3,-8],[-17,-29],[2,-5],[-15,-20],[-5,-9],[16,-30],[4,-4],[7,3],[30,36],[8,3],[18,-2],[8,2],[9,4],[14,10],[4,6],[11,24],[5,5],[32,-2],[8,5],[7,8],[20,6],[23,29],[6,12],[-8,5],[2,24],[-6,20],[-16,36],[8,5],[12,-15],[8,1],[173,93],[69,18],[76,-17],[36,7],[12,-4],[9,-10],[8,-11],[8,-10],[10,13],[17,4],[31,-5],[-1,-2],[-1,-1],[0,-9],[7,-5],[2,-1],[0,-5],[-11,-2],[-24,2],[-12,-6],[7,-18],[11,-3],[22,9],[47,6],[2,-4],[1,-5],[3,-4],[2,-4],[-53,-11],[-23,3],[-22,15],[-39,39],[-12,8],[-15,7],[-16,1],[-17,-12],[-7,1],[-13,6],[-132,-17],[-72,-30],[-11,-9],[-7,-12],[-10,-3],[-40,-28],[-10,-15],[7,-14],[9,-3],[20,5],[8,-3],[14,-12],[9,-2],[-10,-6],[-24,3],[-11,-8],[-1,-5],[-2,-13],[-2,-5],[-4,-6],[-12,-9],[-5,-2],[-3,-2],[-9,-9],[-3,-4],[-5,-9],[-5,-4],[-20,-2],[-42,-23],[-29,-33],[-21,-12],[-22,-5],[-12,-5],[-20,-24],[-10,-5],[-9,-3],[-11,-7],[-10,-11],[-7,-14],[0,-5],[15,-20],[5,-4],[4,3],[6,6],[5,3],[7,-5],[-3,-5],[-2,-2],[0,-5],[8,-5],[0,-7],[-4,0],[-3,-3],[-3,-3],[-3,-5],[8,0],[-6,-11],[-14,-19],[-7,-13],[-1,-9],[5,2],[12,10],[8,0],[3,2],[5,4],[6,11],[17,43],[4,15],[3,18],[4,15],[8,7],[-3,-13],[-1,-13],[2,-11],[5,-10],[3,4],[12,8],[4,6],[9,13],[4,4],[9,2],[4,-7],[0,-11],[-8,-12],[7,-10],[-9,-21],[-14,-22],[-11,-11],[-6,-2],[0,-6],[4,-6],[8,-2],[8,1],[8,3],[8,5],[7,7],[6,3],[19,27],[13,27],[11,14],[11,10],[8,0],[-23,-32],[-32,-65],[-15,-13],[-3,-5],[-1,-8],[1,-5],[2,-4],[3,-6],[2,-12],[3,-7],[5,-4],[6,0],[10,6],[6,0],[0,-6],[-8,-5],[-5,-4],[-3,-5],[-3,-3],[-4,1],[-4,3],[-4,2],[-16,2],[-8,-1],[-7,-6],[-2,-21],[13,-14],[29,-11],[-5,-8],[-5,-10],[3,-2],[7,-9],[1,-9],[5,3],[14,12],[9,-1],[3,-6],[-3,-10],[-7,-12],[26,0],[7,-6],[-4,-9],[-7,-9],[-8,-8],[-6,-3],[-9,-1],[-7,-3],[-14,-13],[-14,-5],[-6,-6],[-2,-14],[3,-9],[22,-17],[-9,-17],[-14,-6],[-2,-12],[4,-7],[6,-4],[5,-5],[38,39],[13,26],[-11,26],[6,10],[4,-5],[4,-10],[4,-6],[7,-2],[16,-10],[6,-6],[-10,-16],[-6,-12],[-2,-3],[-6,-5],[-21,-9],[-12,-13],[-2,-7],[7,-3],[7,1],[20,10],[15,0],[8,5],[3,1],[22,18],[5,5],[1,11],[-2,8],[0,8],[5,10],[7,3],[6,-4],[12,-13],[-5,-6],[0,-5],[4,0],[8,3],[4,2],[-3,10],[-9,11],[-1,11],[-3,7],[-5,1],[-6,0],[-4,0],[8,17],[10,12],[11,7],[11,4],[-2,13],[2,6],[4,4],[1,9],[2,12],[3,8],[4,3],[6,2],[5,-2],[14,-15],[26,-11],[-6,-12],[-3,-4],[-5,-2],[-17,2],[-4,-2],[-1,-4],[-3,-15],[-2,-6],[-7,-13],[0,-6],[6,-1],[-2,-9],[-3,-6],[-4,-5],[-4,-3],[15,2],[29,15],[35,35],[5,8],[6,7],[25,13],[-13,7],[-3,4],[4,6],[6,3],[20,-8],[11,6],[9,13],[9,7],[9,-9],[-7,-12],[-9,-11],[-10,-8],[-16,-6],[-11,-8],[-10,-10],[-4,-11],[-3,-12],[-16,-18],[-7,-10],[-6,-14],[-5,-7],[-6,-4],[-8,-1],[-5,4],[-4,15],[-5,4],[-5,-2],[-2,-4],[-3,-6],[-2,-5],[-4,-5],[-11,-6],[-6,-1],[-10,1],[-4,0],[-50,-27],[-8,-10],[-5,-15],[8,0],[-3,-8],[-2,-1],[-3,2],[-5,1],[-4,-1],[-2,-4],[-10,-32],[-4,-5],[-5,-1],[-9,3],[-15,-1],[-14,-6],[-13,-16],[-8,-28],[4,-1],[3,-4],[2,-6],[1,-9],[1,-8],[5,-4],[20,-7],[4,-6],[-2,-10],[-16,-2],[-24,18],[-4,-6],[2,-15],[5,-12],[4,-12],[11,-6],[7,15],[10,-3],[10,13],[4,8],[2,-12],[-1,-2],[-3,-8],[-5,-7],[-5,-6],[-12,-5],[-18,-9],[-5,-12],[5,-11],[12,4],[-5,-9],[1,-5],[0,-8],[10,-1],[17,5],[2,-6],[-2,-4],[-10,-4],[-6,-4],[-5,-7],[-3,-10],[-13,2],[-10,8],[-7,-5],[1,-12],[4,-11],[8,-9],[3,-12],[4,-11],[10,-13],[-5,-11],[-5,-13],[-7,-11],[-2,-13],[13,-5],[2,-13],[-1,-15],[-9,-16],[-4,-15],[3,-12],[3,-16],[10,-1],[5,14],[2,-7],[5,-10],[0,-12],[4,-10],[8,2],[7,4],[11,6],[12,0],[11,3],[3,3],[-2,1],[-6,4],[5,3],[20,-3],[10,1],[7,4],[16,12],[6,8],[5,8],[9,19],[5,10],[7,6],[15,7],[-5,6],[-4,10],[0,10],[4,8],[0,6],[-8,0],[-5,4],[1,6],[7,7],[22,9],[11,10],[9,31],[26,30],[2,7],[3,10],[3,8],[9,7],[3,8],[2,8],[1,3],[2,9],[5,55],[3,8],[13,23],[4,3],[7,-1],[5,1],[2,9],[2,17],[5,22],[6,19],[5,13],[10,11],[42,26],[13,0],[13,-3],[9,-6],[-1,-2],[-2,-7],[-2,-2],[7,-5],[3,0],[-9,-6],[-9,3],[-7,0],[-5,-15],[-5,-8],[-9,-6],[-7,-10],[-6,-33],[-13,-40],[7,1],[20,-7],[45,12],[4,2],[0,6],[-3,6],[-5,3],[-11,-3],[-5,3],[3,12],[57,16],[11,9],[53,63],[5,2],[5,-3],[1,-8],[1,-7],[3,-4],[11,3],[8,7],[1,9],[-9,9],[-13,2],[-4,5],[4,14],[4,4],[7,4],[5,5],[2,9],[-6,16],[-13,7],[-16,4],[-10,5],[20,19],[6,9],[-3,8],[-3,6],[-3,5],[-4,5],[6,10],[-6,25],[5,16],[-14,8],[-25,-14],[-13,-7],[-8,4],[1,7],[1,14],[1,15],[2,15],[0,7],[-2,14],[-7,5],[-16,6],[0,6],[12,4],[5,4],[3,9],[-11,4],[-8,12],[-6,16],[-5,20],[1,5],[1,5],[0,5],[-3,2],[-1,2],[-2,5],[-1,6],[0,4],[3,5],[4,0],[4,-5],[2,-9],[6,-13],[6,-9],[4,-3],[1,-3],[1,-5],[2,-6],[2,-4],[3,1],[47,35],[5,10],[9,4],[4,0],[5,-4],[-6,-11],[-15,-17],[-30,-26],[-5,-9],[2,-6],[14,-28],[1,-10],[2,-12],[0,-11],[-1,-7],[6,-14],[9,-3],[9,0],[9,-6],[2,-8],[0,-9],[-3,-9],[-5,-9],[9,-11],[1,-5],[-2,-7],[2,-5],[2,-8],[1,-4],[0,-14],[7,-13],[15,-18],[5,-13],[3,-13],[5,-31],[4,-14],[6,-9],[8,-5],[57,-6],[5,2],[4,4],[3,1],[4,-5],[4,-8],[2,-4],[3,-2],[6,0],[7,7],[11,16],[9,18],[4,13],[5,14],[12,7],[23,5],[10,6],[11,11],[11,7],[5,-7],[-48,-42],[-4,-10],[5,-11],[-4,-9],[-6,-5],[-6,-3],[-6,-5],[-4,-7],[-2,-6],[-5,-17],[11,-14],[6,-5],[6,-3],[7,1],[13,8],[8,2],[20,-4],[10,-6],[1,-10],[-5,-6],[-28,-11],[-6,-4],[-5,-8],[-2,-14],[0,-10],[1,-11],[2,-9],[10,-26],[3,-11],[1,-10],[4,-13],[8,-9],[13,-9],[30,-20],[10,-3],[4,-2],[13,-15],[12,-18],[32,-3],[16,-10],[0,-21],[0,-6],[9,-8],[12,-8],[10,-10],[4,-14],[-2,0],[-22,-6],[-20,11],[-51,43],[-5,3],[-11,3],[-10,7],[-10,5],[-27,25],[-47,29],[-8,15],[-20,50],[-4,15],[-9,47],[-5,14],[-10,16],[-12,8],[-26,7],[-7,4],[-13,11],[-6,2],[-67,-17],[0,-6],[19,-11],[8,-2],[31,7],[10,-2],[10,-8],[-4,-4],[-4,-3],[-5,0],[-9,8],[-6,-4],[-6,-6],[-5,-3],[-13,-15],[-6,-2],[-27,5],[-20,10],[-25,2],[-11,-5],[-19,-25],[-10,-11],[14,-17],[34,17],[15,-5],[-3,-5],[10,-9],[12,1],[23,8],[-4,-10],[-6,-11],[-7,-10],[-5,-4],[6,-18],[11,-4],[22,10],[39,8],[11,10],[-6,-16],[-11,-9],[-23,-9],[-27,-19],[-10,-4],[0,-6],[11,-11],[72,-34],[12,-1],[4,1],[11,10],[17,8],[21,19],[9,6],[10,2],[-1,-3],[-1,-6],[0,-3],[2,-1],[4,-2],[3,-2],[1,-3],[-1,-7],[-1,-1],[-2,0],[-7,-8],[-11,-3],[-3,-2],[-1,-3],[1,-6],[0,-5],[-2,-3],[-2,0],[-6,-4],[-3,-1],[-17,3],[-5,-3],[-1,-12],[-9,-1],[-19,7],[-16,0],[-10,7],[-3,0],[-3,-1],[-4,0],[-50,25],[-15,15],[2,-11],[1,-13],[1,-11],[4,-5],[18,-3],[10,-5],[6,-9],[-12,-4],[-39,14],[-8,10],[-8,17],[-16,-1],[-29,-14],[-4,-3],[-5,-9],[-7,-19],[-3,-3],[-7,-4],[-1,-4],[0,-5],[2,-6],[0,-4],[0,-4],[0,-3],[0,-3],[-2,-7],[-2,-2],[-5,-4],[-2,-3],[-9,-16],[-5,-6],[-7,-3],[16,-18],[39,7],[17,-7],[0,-5],[-18,-10],[-6,-2],[-3,-2],[-9,-12],[-3,-3],[-5,3],[-10,12],[-6,2],[-21,0],[-5,-2],[-14,-20],[-5,-5],[-47,-24],[-25,3],[-6,4],[-8,11],[-11,14],[-4,2],[-91,-1],[-25,-8],[-12,-19],[19,3],[6,-3],[-3,-20],[4,-8],[8,0],[38,26],[6,10],[8,4],[13,-3],[12,-6],[29,-24],[9,-13],[-13,3],[-26,16],[-22,3],[-14,-1],[-7,-4],[-18,-24],[-7,-5],[6,-13],[9,-4],[9,-2],[9,-4],[-3,-5],[35,0],[4,-3],[4,-8],[3,-1],[114,40],[114,40],[18,25],[10,9],[6,2],[19,-2],[5,2],[11,8],[10,4],[3,6],[3,7],[3,7],[3,4],[21,15],[8,10],[22,40],[11,11],[11,3],[11,-8],[-21,-21],[-9,-15],[-2,-15],[-8,-8],[-7,-9],[-26,-46],[-3,-11],[-4,-18],[10,8],[33,3],[99,45],[18,-10],[-2,-2],[-3,-7],[-2,-3],[8,-3],[9,0],[9,-3],[6,-11],[-5,-7],[-4,-9],[-2,-11],[-1,-16],[2,-10],[5,-12],[2,-12],[-7,-8],[0,5],[3,9],[-3,5],[-4,4],[-3,5],[-2,8],[-1,9],[0,20],[-5,15],[-11,8],[-24,3],[-11,-4],[-31,-30],[-6,-1],[-15,3],[-5,-5],[-5,-9],[-4,-7],[-5,-4],[-5,-1],[-6,4],[-7,11],[-5,3],[-25,0],[-11,3],[-20,11],[-11,-3],[-53,-50],[-19,-12],[-37,1],[-18,-20],[-11,3],[-22,10],[-87,-20],[-10,-9],[30,-29],[-8,-6],[-8,1],[-25,18],[-8,3],[-51,2],[-14,-6],[-14,-17],[14,-6],[28,-23],[14,-5],[6,1],[18,10],[8,0],[20,-11],[-4,-11],[-8,-2],[-8,1],[-7,-3],[-3,-8],[7,-6],[6,-8],[-1,-15],[7,-7],[6,-5],[0,-5],[-11,-1],[0,-11],[3,-15],[-2,-13],[-6,1],[-9,8],[-8,3],[-4,-12],[7,-21],[20,-4],[23,5],[14,8],[48,53],[52,27],[30,6],[8,6],[0,-6],[-13,-14],[-57,-31],[-39,-34],[-4,-10],[8,-8],[-105,-30],[-11,-13],[-7,-17],[-3,-11],[-1,-12],[2,-9],[6,0],[17,8],[3,8],[19,7],[30,-6],[0,-5],[-54,-11],[-16,-12],[0,-6],[51,-37],[8,-12],[6,-3],[20,7],[-7,-15],[-26,-32],[1,-3],[1,-2],[1,-5],[-4,-2],[-4,-3],[-3,-5],[-1,-8],[7,-5],[4,-1],[4,0],[-2,8],[0,6],[2,3],[3,0],[34,-5],[20,-15],[7,-2],[3,-3],[8,-11],[4,-3],[12,4],[1,12],[-18,51],[-4,19],[1,15],[10,7],[11,5],[19,18],[11,0],[41,-25],[14,-3],[132,40],[10,-6],[-7,-26],[-4,-12],[-4,-8],[-7,-5],[0,9],[1,12],[-4,7],[-112,-23],[-2,-1],[-5,-4],[-2,-1],[-1,2],[-1,7],[-2,2],[-26,9],[-17,12],[-8,3],[-5,-6],[-5,-12],[-6,-7],[-8,8],[-8,-15],[-1,-15],[5,-15],[6,-16],[5,-17],[4,-5],[7,-3],[6,-1],[91,24],[23,-1],[-7,-15],[-12,-8],[-89,-19],[-6,-5],[-5,-7],[-6,-3],[-15,8],[-6,-5],[-7,-13],[-6,-9],[-16,-15],[6,-14],[16,16],[9,-11],[-3,-11],[-7,-18],[-2,-16],[13,-4],[6,6],[9,14],[7,17],[3,12],[2,21],[5,9],[8,3],[8,-1],[-5,-23],[-7,-22],[-9,-18],[-9,-12],[13,-10],[16,3],[15,6],[16,1],[11,-5],[5,-1],[4,2],[3,3],[3,4],[3,3],[8,5],[6,2],[6,-5],[3,-14],[10,9],[72,5],[31,21],[24,7],[24,-4],[21,-15],[-63,-5],[-3,-3],[-5,-12],[-1,-3],[-6,-3],[-127,-13],[3,0],[-92,-6],[-4,-5],[-1,-12],[1,-15],[2,-11],[8,-8],[17,4],[7,-4],[-8,-9],[-7,-3],[-6,-5],[-4,-12],[6,-6],[5,3],[4,6],[6,3],[15,-3],[7,-5],[-3,-10],[-3,-1],[-3,3],[-3,3],[-2,1],[-4,-2],[-6,-8],[-3,-2],[-4,-6],[-3,-13],[-2,-14],[-1,-6],[6,-4],[14,-13],[9,0],[5,5],[5,8],[8,18],[10,16],[15,15],[16,10],[13,2],[-8,-16],[-9,-9],[-9,-6],[-25,-25],[-4,-7],[-1,-9],[1,-10],[2,-7],[4,-3],[10,4],[11,11],[12,14],[7,14],[8,6],[31,8],[7,5],[21,-10],[4,8],[6,13],[12,-4],[20,-17],[-3,-5],[-2,-1],[0,-6],[11,-6],[11,1],[11,7],[19,19],[4,7],[1,9],[3,3],[20,-6],[70,7],[17,-9],[-124,-34],[-18,-15],[0,-5],[7,-1],[2,-8],[-1,-10],[-4,-4],[-12,-4],[-12,-8],[-10,-11],[-1,-3],[0,-4],[0,-3],[-4,-2],[-17,2],[-6,-2],[5,-13],[1,-7],[2,-9],[-3,-2],[-2,-4],[-5,-11],[6,-5],[7,-5],[7,-2],[7,1],[-3,13],[-2,4],[6,5],[5,2],[4,-3],[0,-10],[3,-5],[2,-4],[1,-6],[2,-7],[-45,-29],[6,-4],[13,5],[5,-4],[4,-7],[5,-4],[3,0],[-1,9],[6,5],[3,-3],[5,-17],[4,-3],[19,-5],[13,3],[37,25],[0,12],[6,33],[3,9],[7,1],[32,-21],[-4,-11],[-6,-5],[-14,-1],[-5,-3],[-4,-7],[-7,-18],[-5,-7],[-5,-8],[-7,-6],[-6,-2],[-2,-5],[-15,-36],[0,-5],[-13,-23],[0,-6],[4,-3],[1,-3],[5,-5],[4,-1],[3,-3],[1,-16],[-3,1],[-7,-8],[-3,-9],[5,-5],[9,6],[5,12],[4,15],[7,13],[5,3],[4,1],[3,4],[1,13],[2,10],[4,6],[4,3],[2,3],[20,55],[10,8],[47,7],[64,50],[8,12],[9,11],[12,2],[25,-5],[-15,-24],[-20,-19],[-125,-59],[-7,-17],[-1,-3],[1,-4],[0,-3],[-8,-8],[-19,-34],[-3,-3],[0,-8],[-1,-8],[-2,-6],[-4,-3],[-1,-3],[0,-17],[-1,-6],[-16,-31],[-3,-12],[8,-2],[3,-10],[2,-11],[5,-5],[5,2],[4,5],[7,18],[18,25],[2,13],[-9,16],[0,6],[18,0],[-4,-17],[2,-8],[6,0],[12,18],[24,19],[29,40],[15,15],[16,7],[0,-6],[-11,-11],[-4,-8],[-3,-9],[3,-3],[3,-2],[3,-1],[-18,-12],[-11,-13],[-15,-5],[-6,-7],[-4,-10],[-3,-8],[-4,-19],[-4,-13],[-4,-7],[-10,-14],[0,-10],[-8,-5],[-11,-3],[-8,-5],[-9,-13],[-3,-12],[-1,-14],[-2,-18],[-4,-12],[-10,-22],[-4,-12],[-5,-31],[-4,-14],[-6,-7],[5,-12],[21,-25],[6,-11],[8,-23],[1,-5],[2,-5],[5,-4],[5,-2],[6,1],[5,-1],[5,-7],[3,-5],[11,-12],[4,-4],[11,-2],[5,-3],[10,-17],[-6,-9],[5,-9],[9,-6],[9,1],[6,12],[7,18],[7,12],[3,-10],[-1,-26],[0,-13],[4,-13],[6,-4],[11,0],[8,6],[2,12],[4,2],[4,-3],[3,-7],[1,-9],[-9,-14],[-3,-3],[-6,-1],[-9,3],[-5,-2],[5,-4],[2,-1],[-13,-12],[20,-5],[4,2],[5,10],[2,3],[3,2],[36,5],[21,-5],[3,-2],[4,-5],[2,0],[1,3],[0,4],[1,3],[2,2],[4,7],[6,15],[6,11],[7,-1],[0,-11],[-11,-22],[-1,-11],[7,-2],[31,14],[46,-7],[4,2],[4,3],[3,4],[3,1],[4,-3],[-8,-17],[-9,-10],[-11,-4],[-12,2],[-10,6],[-9,8],[-5,1],[-15,-15],[-24,-5],[-3,-4],[-2,-10],[-2,-8],[1,-1],[-6,-16],[-7,-9],[-9,-5],[-11,-4],[0,-6],[9,0],[17,5],[18,0],[24,-5],[8,0],[9,5],[7,9],[3,17],[3,12],[8,6],[17,2],[0,-6],[-4,-5],[-1,-8],[-1,-8],[-2,-7],[5,-6],[7,4],[8,6],[7,2],[-2,-9],[1,-6],[1,-6],[0,-5],[-1,-8],[-3,-2],[-4,1],[-4,0],[-37,-16],[29,-22],[6,-8],[-98,36],[-28,0],[-7,-6],[1,-15],[8,-3],[10,1],[6,-1],[1,-9],[8,-7],[10,-3],[7,5],[7,7],[9,3],[18,-1],[-3,-11],[-5,-3],[-12,2],[-6,-2],[-11,-7],[-20,-5],[6,-8],[24,-18],[-11,-7],[-25,14],[-12,-1],[-9,-15],[7,-13],[13,-9],[12,-4],[6,2],[11,8],[7,2],[22,14],[6,17],[8,15],[9,10],[11,1],[-2,-9],[-3,-7],[-8,-12],[6,-7],[15,-6],[4,-10],[-15,-2],[-9,-4],[-6,-6],[12,-6],[17,2],[17,7],[10,12],[13,9],[15,-2],[13,2],[8,22],[-1,12],[-1,13],[-1,13],[2,11],[12,33],[6,30],[12,18],[13,8],[11,-7],[-12,-19],[-14,-34],[-8,-33],[6,-17],[9,6],[17,33],[9,7],[5,-6],[-4,-12],[-14,-21],[9,-1],[16,-9],[9,-2],[31,5],[0,-5],[-5,-4],[-11,-14],[-6,-5],[-14,0],[-8,3],[-5,6],[-7,-4],[-26,-36],[-18,-13],[-11,-16],[-6,-3],[-32,6],[-14,-3],[-7,-4],[-12,-15],[-17,-5],[-8,-7],[8,-5],[14,5],[8,-7],[-5,-2],[-13,0],[-4,-3],[-2,-7],[1,-9],[-1,-8],[-6,-5],[0,-5],[3,0],[3,-2],[4,-4],[-17,-14],[-3,-10],[8,-16],[-5,-6],[8,-5],[7,-2],[15,2],[6,5],[5,12],[4,12],[3,5],[2,4],[-1,15],[2,4],[3,1],[18,16],[6,2],[6,0],[8,-2],[0,-6],[-5,-4],[-10,-7],[-5,-6],[-45,-91],[17,-12],[5,-5],[7,-13],[4,-5],[8,-4],[8,3],[7,10],[6,14],[0,6],[-2,9],[2,8],[0,6],[-5,23],[3,19],[8,16],[68,89],[12,11],[12,6],[34,8],[13,-1],[13,-11],[-3,-6],[2,-5],[1,-2],[0,-4],[-33,0],[-11,-5],[-4,-1],[-3,-2],[-5,-8],[-3,-1],[-5,-6],[-3,-13],[-2,-15],[-2,-9],[-7,-8],[-14,-2],[-6,-4],[6,-17],[-7,-4],[-12,0],[-12,-3],[-8,-11],[-5,-14],[1,-14],[5,-12],[2,-12],[-6,-11],[-7,-11],[-4,-12],[7,1],[13,6],[15,-8],[6,4],[6,5],[18,10],[23,30],[12,9],[-7,-15],[-5,-9],[1,-10],[8,-23],[-11,11],[-14,-4],[-25,-18],[-9,-3],[-5,-3],[-3,-6],[-2,-9],[1,-2],[2,-2],[1,-7],[0,-23],[1,-7],[1,-4],[0,-4],[-2,-5],[5,1],[3,4],[4,4],[3,3],[15,-1],[8,7],[5,-1],[3,-5],[-2,-9],[-3,-4],[-5,-2],[-8,-2],[0,-6],[90,16],[26,18],[8,1],[9,-4],[9,-8],[-11,1],[-25,-19],[-29,-7],[-165,0],[-6,1],[-2,-1],[-2550,0],[0,4096],[965,0],[-9,-4],[-4,-6],[17,-17],[-5,-7],[-14,-10],[-3,-9],[-1,-7],[1,-12],[2,-8],[15,26],[13,16],[14,11],[11,0],[0,-5],[-17,-9],[-8,-7],[-7,-10],[-11,-26],[-7,-6],[-8,6],[-3,-7],[-4,-22],[-3,-6],[-2,-4],[-2,-6],[-1,-10],[3,-16],[15,-5],[5,-15],[-2,-6],[-2,-3],[-3,-5],[-1,-10],[11,-19],[9,-6],[14,1],[14,6],[10,7],[0,-6],[8,7],[37,7],[22,15],[9,1],[28,-7],[33,6],[-75,-32],[-53,-6],[-21,-9],[-19,-16],[0,-6],[0,-13],[-9,-17],[-11,-17],[-9,-10],[64,17],[0,-5],[-14,-1],[-45,-23],[18,1],[54,-18],[36,7],[126,74],[44,40],[61,84],[152,110],[8,1],[44,26]],[[2580,79],[-8,-21],[-5,-10],[-6,-6],[26,-21],[9,-2],[8,3],[4,8],[1,13],[-1,16],[-5,7],[-9,9],[-9,5],[-5,-1]],[[2026,1246],[-6,-9],[-14,-10],[-7,-7],[22,-24],[7,-13],[6,21],[6,15],[5,7],[1,16],[-5,8],[-8,2],[-7,-6]],[[2027,1266],[-10,10],[-7,31],[-16,16],[-4,-1],[-3,-5],[-7,-15],[-2,-3],[-18,-12],[-5,-8],[1,-11],[5,-16],[7,-12],[10,-7],[10,1],[9,6],[7,9],[8,6],[5,1],[4,0],[3,2],[3,8]],[[2094,1309],[-5,4],[-4,3],[-4,4],[-2,9],[-11,12],[-12,-7],[-19,-33],[-8,-9],[-1,-5],[1,-9],[4,-9],[5,-5],[5,-3],[5,0],[6,2],[11,12],[33,8],[7,3],[-2,8],[-4,9],[-5,6]],[[1523,2136],[-6,-31],[14,-19],[6,17],[13,-3],[22,10],[18,28],[-5,20],[-15,-5],[-33,-4],[-14,-13]],[[1982,2439],[-9,18],[-13,6],[-56,-1],[-4,-4],[-1,-9],[2,-10],[1,-6],[-13,-19],[-6,-12],[-3,-15],[0,-18],[-12,-15],[-14,-13],[-9,-11],[5,0],[4,-2],[5,-4],[3,-5],[-3,-8],[-3,-5],[-4,-3],[-4,-1],[-4,-3],[-2,-6],[-2,-6],[-4,-7],[5,-11],[12,-19],[-10,-4],[-11,3],[-11,-1],[-6,-15],[9,-5],[5,-5],[3,-8],[-10,-2],[-23,14],[-10,-8],[-1,-16],[9,-11],[12,-8],[9,-3],[10,5],[17,20],[10,4],[6,8],[4,35],[7,8],[10,5],[6,11],[9,30],[14,28],[16,23],[35,26],[14,19],[6,36]],[[1802,2316],[14,15],[5,9],[14,30],[12,12],[2,9],[0,22],[1,9],[4,12],[6,11],[14,19],[1,2],[1,1],[1,0],[0,6],[-62,-6],[-4,-23],[-27,-46],[3,-22],[-15,-9],[-17,-3],[1,-3],[1,-3],[1,-3],[2,-2],[-6,-10],[-8,-5],[-16,-2],[-4,-3],[-2,-6],[0,-6],[4,-2],[29,11],[8,0],[12,-16],[9,-3],[9,1],[7,4]],[[1830,1592],[-9,9],[-13,5],[-12,0],[-9,-8],[0,-4],[-1,-14],[-1,-5],[-4,-6],[-14,-11],[0,-5],[55,14],[15,14],[-1,4],[-2,4],[-2,2],[-2,1]],[[1206,3383],[-87,-24],[-7,-5],[-8,-9],[-5,-9],[3,-8],[12,-14],[9,-13],[14,-5],[25,-8],[8,-2],[15,13],[15,6],[27,27],[5,10],[5,12],[2,15],[-5,12],[-9,3],[-19,-1]],[[2879,0],[-11,0],[2,1],[8,1],[1,-2]],[[1137,4096],[-1,0],[-10,-11],[-5,-4],[-11,-2],[-34,8],[-12,7],[-2,2],[75,0]],[[1137,4096],[-1,0],[-10,-11],[-5,-4],[-11,-2],[-34,8],[-12,7],[-2,2]],[[965,4096],[-9,-4],[-4,-6],[17,-17],[-5,-7],[-14,-10],[-3,-9],[-1,-7],[1,-12],[2,-8],[15,26],[13,16],[14,11],[11,0],[0,-5],[-17,-9],[-8,-7],[-7,-10],[-11,-26],[-7,-6],[-8,6],[-3,-7],[-4,-22],[-3,-6],[-2,-4],[-2,-6],[-1,-10],[3,-16],[15,-5],[5,-15],[-2,-6],[-2,-3],[-3,-5],[-1,-10],[11,-19],[9,-6],[14,1],[14,6],[10,7],[0,-6],[8,7],[37,7],[22,15],[9,1],[28,-7],[33,6],[-75,-32],[-53,-6],[-21,-9],[-19,-16],[0,-6],[0,-13],[-9,-17],[-11,-17],[-9,-10],[64,17],[0,-5],[-14,-1],[-45,-23],[18,1],[54,-18],[36,7],[126,74],[44,40],[61,84],[152,110],[8,1],[44,26]],[[1538,4096],[7,-6],[8,-4],[7,0],[-5,-11],[-8,-3],[-19,2],[-68,-31],[-44,-8],[-45,-42],[-72,-48],[-7,-7],[-4,-10],[-2,-16],[-8,-26],[-94,-75],[-40,-16],[-100,-62],[-30,-36],[14,-11],[48,11],[-3,-6],[-2,-3],[-2,-2],[0,-6],[57,13],[18,-7],[-69,-17],[-25,7],[-9,-2],[-7,-7],[-7,-8],[-7,-6],[-9,-1],[6,-17],[11,-13],[13,-8],[12,-3],[4,2],[7,11],[5,4],[5,2],[17,-2],[-1,-5],[-1,-6],[47,35],[34,15],[21,19],[21,12],[17,-12],[-80,-46],[-14,-12],[-49,-28],[0,-6],[39,-11],[4,-6],[1,-1],[1,0],[0,-1],[0,-4],[-19,6],[-8,-2],[-5,-15],[9,-7],[9,-2],[10,0],[55,26],[13,4],[9,9],[29,15],[20,17],[10,1],[-7,28],[-1,12],[9,-3],[14,-19],[9,-7],[9,3],[42,37],[5,0],[15,-11],[-19,-17],[-8,-13],[1,-9],[13,-21],[8,-11],[11,-4],[73,0],[6,8],[18,50],[10,13],[10,7],[34,6],[106,55],[24,4],[0,-5],[-24,-13],[-12,-12],[-11,-15],[6,-12],[7,-9],[29,-27],[13,-21],[-11,-7],[-13,10],[-24,32],[-17,12],[-16,7],[-16,0],[-80,-43],[-14,-14],[-10,-18],[0,-16],[16,-9],[0,-5],[-14,-8],[-8,-7],[-3,-11],[-1,-8],[-4,0],[-3,2],[-2,3],[-1,4],[0,9],[-1,4],[-7,9],[-8,3],[-18,0],[-57,17],[-31,28],[-15,6],[-29,-11],[-15,-11],[-7,-12],[2,-2],[2,-4],[3,-6],[-7,-4],[-6,3],[-7,5],[-7,2],[-16,-5],[-22,-14],[-15,-4],[-6,-9],[-10,-24],[-4,-7],[6,-5],[6,0],[13,5],[-7,-6],[-27,-14],[-10,-7],[-8,-3],[-6,-8],[-5,-3],[-6,-7],[-3,-3],[-13,1],[-3,-4],[1,-7],[7,-3],[47,7],[17,6],[18,20],[29,16],[7,7],[5,3],[4,0],[5,-1],[8,-6],[-8,-6],[-18,-9],[-14,-19],[-9,-8],[-10,-6],[-29,-5],[-19,-9],[-33,-34],[18,-10],[69,-7],[32,14],[9,7],[5,1],[4,-2],[9,-12],[5,-3],[14,10],[10,24],[15,58],[9,21],[5,-15],[0,-30],[-4,-28],[4,0],[14,-6],[-29,-18],[-13,-16],[-6,-28],[10,0],[21,10],[30,25],[12,5],[9,-6],[-11,-11],[-26,-11],[-46,-34],[-9,-13],[12,-3],[26,19],[12,2],[-25,-27],[-13,-10],[-7,2],[-5,-20],[3,-15],[9,-8],[12,-3],[3,-3],[1,-7],[3,-6],[6,-1],[5,4],[3,7],[4,9],[4,9],[2,3],[7,5],[3,3],[2,3],[0,7],[2,4],[4,9],[5,8],[5,6],[6,3],[3,4],[3,8],[5,17],[9,19],[11,15],[-4,-40],[-15,-30],[-18,-26],[-13,-24],[3,-5],[12,-12],[-14,-9],[-3,-6],[4,-14],[6,-3],[8,2],[9,6],[12,19],[9,12],[10,6],[4,-5],[-3,-8],[-17,-29],[2,-5],[-15,-20],[-5,-9],[16,-30],[4,-4],[7,3],[30,36],[8,3],[18,-2],[8,2],[9,4],[14,10],[4,6],[11,24],[5,5],[32,-2],[8,5],[7,8],[20,6],[23,29],[6,12],[-8,5],[2,24],[-6,20],[-16,36],[8,5],[12,-15],[8,1],[173,93],[69,18],[76,-17],[36,7],[12,-4],[9,-10],[8,-11],[8,-10],[10,13],[17,4],[31,-5],[-1,-2],[-1,-1],[0,-9],[7,-5],[2,-1],[0,-5],[-11,-2],[-24,2],[-12,-6],[7,-18],[11,-3],[22,9],[47,6],[2,-4],[1,-5],[3,-4],[2,-4],[-53,-11],[-23,3],[-22,15],[-39,39],[-12,8],[-15,7],[-16,1],[-17,-12],[-7,1],[-13,6],[-132,-17],[-72,-30],[-11,-9],[-7,-12],[-10,-3],[-40,-28],[-10,-15],[7,-14],[9,-3],[20,5],[8,-3],[14,-12],[9,-2],[-10,-6],[-24,3],[-11,-8],[-1,-5],[-2,-13],[-2,-5],[-4,-6],[-12,-9],[-5,-2],[-3,-2],[-9,-9],[-3,-4],[-5,-9],[-5,-4],[-20,-2],[-42,-23],[-29,-33],[-21,-12],[-22,-5],[-12,-5],[-20,-24],[-10,-5],[-9,-3],[-11,-7],[-10,-11],[-7,-14],[0,-5],[15,-20],[5,-4],[4,3],[6,6],[5,3],[7,-5],[-3,-5],[-2,-2],[0,-5],[8,-5],[0,-7],[-4,0],[-3,-3],[-3,-3],[-3,-5],[8,0],[-6,-11],[-14,-19],[-7,-13],[-1,-9],[5,2],[12,10],[8,0],[3,2],[5,4],[6,11],[17,43],[4,15],[3,18],[4,15],[8,7],[-3,-13],[-1,-13],[2,-11],[5,-10],[3,4],[12,8],[4,6],[9,13],[4,4],[9,2],[4,-7],[0,-11],[-8,-12],[7,-10],[-9,-21],[-14,-22],[-11,-11],[-6,-2],[0,-6],[4,-6],[8,-2],[8,1],[8,3],[8,5],[7,7],[6,3],[19,27],[13,27],[11,14],[11,10],[8,0],[-23,-32],[-32,-65],[-15,-13],[-3,-5],[-1,-8],[1,-5],[2,-4],[3,-6],[2,-12],[3,-7],[5,-4],[6,0],[10,6],[6,0],[0,-6],[-8,-5],[-5,-4],[-3,-5],[-3,-3],[-4,1],[-4,3],[-4,2],[-16,2],[-8,-1],[-7,-6],[-2,-21],[13,-14],[29,-11],[-5,-8],[-5,-10],[3,-2],[7,-9],[1,-9],[5,3],[14,12],[9,-1],[3,-6],[-3,-10],[-7,-12],[26,0],[7,-6],[-4,-9],[-7,-9],[-8,-8],[-6,-3],[-9,-1],[-7,-3],[-14,-13],[-14,-5],[-6,-6],[-2,-14],[3,-9],[22,-17],[-9,-17],[-14,-6],[-2,-12],[4,-7],[6,-4],[5,-5],[38,39],[13,26],[-11,26],[6,10],[4,-5],[4,-10],[4,-6],[7,-2],[16,-10],[6,-6],[-10,-16],[-6,-12],[-2,-3],[-6,-5],[-21,-9],[-12,-13],[-2,-7],[7,-3],[7,1],[20,10],[15,0],[8,5],[3,1],[22,18],[5,5],[1,11],[-2,8],[0,8],[5,10],[7,3],[6,-4],[12,-13],[-5,-6],[0,-5],[4,0],[8,3],[4,2],[-3,10],[-9,11],[-1,11],[-3,7],[-5,1],[-6,0],[-4,0],[8,17],[10,12],[11,7],[11,4],[-2,13],[2,6],[4,4],[1,9],[2,12],[3,8],[4,3],[6,2],[5,-2],[14,-15],[26,-11],[-6,-12],[-3,-4],[-5,-2],[-17,2],[-4,-2],[-1,-4],[-3,-15],[-2,-6],[-7,-13],[0,-6],[6,-1],[-2,-9],[-3,-6],[-4,-5],[-4,-3],[15,2],[29,15],[35,35],[5,8],[6,7],[25,13],[-13,7],[-3,4],[4,6],[6,3],[20,-8],[11,6],[9,13],[9,7],[9,-9],[-7,-12],[-9,-11],[-10,-8],[-16,-6],[-11,-8],[-10,-10],[-4,-11],[-3,-12],[-16,-18],[-7,-10],[-6,-14],[-5,-7],[-6,-4],[-8,-1],[-5,4],[-4,15],[-5,4],[-5,-2],[-2,-4],[-3,-6],[-2,-5],[-4,-5],[-11,-6],[-6,-1],[-10,1],[-4,0],[-50,-27],[-8,-10],[-5,-15],[8,0],[-3,-8],[-2,-1],[-3,2],[-5,1],[-4,-1],[-2,-4],[-10,-32],[-4,-5],[-5,-1],[-9,3],[-15,-1],[-14,-6],[-13,-16],[-8,-28],[4,-1],[3,-4],[2,-6],[1,-9],[1,-8],[5,-4],[20,-7],[4,-6],[-2,-10],[-16,-2],[-24,18],[-4,-6],[2,-15],[5,-12],[4,-12],[11,-6],[7,15],[10,-3],[10,13],[4,8],[2,-12],[-1,-2],[-3,-8],[-5,-7],[-5,-6],[-12,-5],[-18,-9],[-5,-12],[5,-11],[12,4],[-5,-9],[1,-5],[0,-8],[10,-1],[17,5],[2,-6],[-2,-4],[-10,-4],[-6,-4],[-5,-7],[-3,-10],[-13,2],[-10,8],[-7,-5],[1,-12],[4,-11],[8,-9],[3,-12],[4,-11],[10,-13],[-5,-11],[-5,-13],[-7,-11],[-2,-13],[13,-5],[2,-13],[-1,-15],[-9,-16],[-4,-15],[3,-12],[3,-16],[10,-1],[5,14],[2,-7],[5,-10],[0,-12],[4,-10],[8,2],[7,4],[11,6],[12,0],[11,3],[3,3],[-2,1],[-6,4],[5,3],[20,-3],[10,1],[7,4],[16,12],[6,8],[5,8],[9,19],[5,10],[7,6],[15,7],[-5,6],[-4,10],[0,10],[4,8],[0,6],[-8,0],[-5,4],[1,6],[7,7],[22,9],[11,10],[9,31],[26,30],[2,7],[3,10],[3,8],[9,7],[3,8],[2,8],[1,3],[2,9],[5,55],[3,8],[13,23],[4,3],[7,-1],[5,1],[2,9],[2,17],[5,22],[6,19],[5,13],[10,11],[42,26],[13,0],[13,-3],[9,-6],[-1,-2],[-2,-7],[-2,-2],[7,-5],[3,0],[-9,-6],[-9,3],[-7,0],[-5,-15],[-5,-8],[-9,-6],[-7,-10],[-6,-33],[-13,-40],[7,1],[20,-7],[45,12],[4,2],[0,6],[-3,6],[-5,3],[-11,-3],[-5,3],[3,12],[57,16],[11,9],[53,63],[5,2],[5,-3],[1,-8],[1,-7],[3,-4],[11,3],[8,7],[1,9],[-9,9],[-13,2],[-4,5],[4,14],[4,4],[7,4],[5,5],[2,9],[-6,16],[-13,7],[-16,4],[-10,5],[20,19],[6,9],[-3,8],[-3,6],[-3,5],[-4,5],[6,10],[-6,25],[5,16],[-14,8],[-25,-14],[-13,-7],[-8,4],[1,7],[1,14],[1,15],[2,15],[0,7],[-2,14],[-7,5],[-16,6],[0,6],[12,4],[5,4],[3,9],[-11,4],[-8,12],[-6,16],[-5,20],[1,5],[1,5],[0,5],[-3,2],[-1,2],[-2,5],[-1,6],[0,4],[3,5],[4,0],[4,-5],[2,-9],[6,-13],[6,-9],[4,-3],[1,-3],[1,-5],[2,-6],[2,-4],[3,1],[47,35],[5,10],[9,4],[4,0],[5,-4],[-6,-11],[-15,-17],[-30,-26],[-5,-9],[2,-6],[14,-28],[1,-10],[2,-12],[0,-11],[-1,-7],[6,-14],[9,-3],[9,0],[9,-6],[2,-8],[0,-9],[-3,-9],[-5,-9],[9,-11],[1,-5],[-2,-7],[2,-5],[2,-8],[1,-4],[0,-14],[7,-13],[15,-18],[5,-13],[3,-13],[5,-31],[4,-14],[6,-9],[8,-5],[57,-6],[5,2],[4,4],[3,1],[4,-5],[4,-8],[2,-4],[3,-2],[6,0],[7,7],[11,16],[9,18],[4,13],[5,14],[12,7],[23,5],[10,6],[11,11],[11,7],[5,-7],[-48,-42],[-4,-10],[5,-11],[-4,-9],[-6,-5],[-6,-3],[-6,-5],[-4,-7],[-2,-6],[-5,-17],[11,-14],[6,-5],[6,-3],[7,1],[13,8],[8,2],[20,-4],[10,-6],[1,-10],[-5,-6],[-28,-11],[-6,-4],[-5,-8],[-2,-14],[0,-10],[1,-11],[2,-9],[10,-26],[3,-11],[1,-10],[4,-13],[8,-9],[13,-9],[30,-20],[10,-3],[4,-2],[13,-15],[12,-18],[32,-3],[16,-10],[0,-21],[0,-6],[9,-8],[12,-8],[10,-10],[4,-14],[-2,0],[-22,-6],[-20,11],[-51,43],[-5,3],[-11,3],[-10,7],[-10,5],[-27,25],[-47,29],[-8,15],[-20,50],[-4,15],[-9,47],[-5,14],[-10,16],[-12,8],[-26,7],[-7,4],[-13,11],[-6,2],[-67,-17],[0,-6],[19,-11],[8,-2],[31,7],[10,-2],[10,-8],[-4,-4],[-4,-3],[-5,0],[-9,8],[-6,-4],[-6,-6],[-5,-3],[-13,-15],[-6,-2],[-27,5],[-20,10],[-25,2],[-11,-5],[-19,-25],[-10,-11],[14,-17],[34,17],[15,-5],[-3,-5],[10,-9],[12,1],[23,8],[-4,-10],[-6,-11],[-7,-10],[-5,-4],[6,-18],[11,-4],[22,10],[39,8],[11,10],[-6,-16],[-11,-9],[-23,-9],[-27,-19],[-10,-4],[0,-6],[11,-11],[72,-34],[12,-1],[4,1],[11,10],[17,8],[21,19],[9,6],[10,2],[-1,-3],[-1,-6],[0,-3],[2,-1],[4,-2],[3,-2],[1,-3],[-1,-7],[-1,-1],[-2,0],[-7,-8],[-11,-3],[-3,-2],[-1,-3],[1,-6],[0,-5],[-2,-3],[-2,0],[-6,-4],[-3,-1],[-17,3],[-5,-3],[-1,-12],[-9,-1],[-19,7],[-16,0],[-10,7],[-3,0],[-3,-1],[-4,0],[-50,25],[-15,15],[2,-11],[1,-13],[1,-11],[4,-5],[18,-3],[10,-5],[6,-9],[-12,-4],[-39,14],[-8,10],[-8,17],[-16,-1],[-29,-14],[-4,-3],[-5,-9],[-7,-19],[-3,-3],[-7,-4],[-1,-4],[0,-5],[2,-6],[0,-4],[0,-4],[0,-3],[0,-3],[-2,-7],[-2,-2],[-5,-4],[-2,-3],[-9,-16],[-5,-6],[-7,-3],[16,-18],[39,7],[17,-7],[0,-5],[-18,-10],[-6,-2],[-3,-2],[-9,-12],[-3,-3],[-5,3],[-10,12],[-6,2],[-21,0],[-5,-2],[-14,-20],[-5,-5],[-47,-24],[-25,3],[-6,4],[-8,11],[-11,14],[-4,2],[-91,-1],[-25,-8],[-12,-19],[19,3],[6,-3],[-3,-20],[4,-8],[8,0],[38,26],[6,10],[8,4],[13,-3],[12,-6],[29,-24],[9,-13],[-13,3],[-26,16],[-22,3],[-14,-1],[-7,-4],[-18,-24],[-7,-5],[6,-13],[9,-4],[9,-2],[9,-4],[-3,-5],[35,0],[4,-3],[4,-8],[3,-1],[114,40],[114,40],[18,25],[10,9],[6,2],[19,-2],[5,2],[11,8],[10,4],[3,6],[3,7],[3,7],[3,4],[21,15],[8,10],[22,40],[11,11],[11,3],[11,-8],[-21,-21],[-9,-15],[-2,-15],[-8,-8],[-7,-9],[-26,-46],[-3,-11],[-4,-18],[10,8],[33,3],[99,45],[18,-10],[-2,-2],[-3,-7],[-2,-3],[8,-3],[9,0],[9,-3],[6,-11],[-5,-7],[-4,-9],[-2,-11],[-1,-16],[2,-10],[5,-12],[2,-12],[-7,-8],[0,5],[3,9],[-3,5],[-4,4],[-3,5],[-2,8],[-1,9],[0,20],[-5,15],[-11,8],[-24,3],[-11,-4],[-31,-30],[-6,-1],[-15,3],[-5,-5],[-5,-9],[-4,-7],[-5,-4],[-5,-1],[-6,4],[-7,11],[-5,3],[-25,0],[-11,3],[-20,11],[-11,-3],[-53,-50],[-19,-12],[-37,1],[-18,-20],[-11,3],[-22,10],[-87,-20],[-10,-9],[30,-29],[-8,-6],[-8,1],[-25,18],[-8,3],[-51,2],[-14,-6],[-14,-17],[14,-6],[28,-23],[14,-5],[6,1],[18,10],[8,0],[20,-11],[-4,-11],[-8,-2],[-8,1],[-7,-3],[-3,-8],[7,-6],[6,-8],[-1,-15],[7,-7],[6,-5],[0,-5],[-11,-1],[0,-11],[3,-15],[-2,-13],[-6,1],[-9,8],[-8,3],[-4,-12],[7,-21],[20,-4],[23,5],[14,8],[48,53],[52,27],[30,6],[8,6],[0,-6],[-13,-14],[-57,-31],[-39,-34],[-4,-10],[8,-8],[-105,-30],[-11,-13],[-7,-17],[-3,-11],[-1,-12],[2,-9],[6,0],[17,8],[3,8],[19,7],[30,-6],[0,-5],[-54,-11],[-16,-12],[0,-6],[51,-37],[8,-12],[6,-3],[20,7],[-7,-15],[-26,-32],[1,-3],[1,-2],[1,-5],[-4,-2],[-4,-3],[-3,-5],[-1,-8],[7,-5],[4,-1],[4,0],[-2,8],[0,6],[2,3],[3,0],[34,-5],[20,-15],[7,-2],[3,-3],[8,-11],[4,-3],[12,4],[1,12],[-18,51],[-4,19],[1,15],[10,7],[11,5],[19,18],[11,0],[41,-25],[14,-3],[132,40],[10,-6],[-7,-26],[-4,-12],[-4,-8],[-7,-5],[0,9],[1,12],[-4,7],[-112,-23],[-2,-1],[-5,-4],[-2,-1],[-1,2],[-1,7],[-2,2],[-26,9],[-17,12],[-8,3],[-5,-6],[-5,-12],[-6,-7],[-8,8],[-8,-15],[-1,-15],[5,-15],[6,-16],[5,-17],[4,-5],[7,-3],[6,-1],[91,24],[23,-1],[-7,-15],[-12,-8],[-89,-19],[-6,-5],[-5,-7],[-6,-3],[-15,8],[-6,-5],[-7,-13],[-6,-9],[-16,-15],[6,-14],[16,16],[9,-11],[-3,-11],[-7,-18],[-2,-16],[13,-4],[6,6],[9,14],[7,17],[3,12],[2,21],[5,9],[8,3],[8,-1],[-5,-23],[-7,-22],[-9,-18],[-9,-12],[13,-10],[16,3],[15,6],[16,1],[11,-5],[5,-1],[4,2],[3,3],[3,4],[3,3],[8,5],[6,2],[6,-5],[3,-14],[10,9],[72,5],[31,21],[24,7],[24,-4],[21,-15],[-63,-5],[-3,-3],[-5,-12],[-1,-3],[-6,-3],[-127,-13],[3,0],[-92,-6],[-4,-5],[-1,-12],[1,-15],[2,-11],[8,-8],[17,4],[7,-4],[-8,-9],[-7,-3],[-6,-5],[-4,-12],[6,-6],[5,3],[4,6],[6,3],[15,-3],[7,-5],[-3,-10],[-3,-1],[-3,3],[-3,3],[-2,1],[-4,-2],[-6,-8],[-3,-2],[-4,-6],[-3,-13],[-2,-14],[-1,-6],[6,-4],[14,-13],[9,0],[5,5],[5,8],[8,18],[10,16],[15,15],[16,10],[13,2],[-8,-16],[-9,-9],[-9,-6],[-25,-25],[-4,-7],[-1,-9],[1,-10],[2,-7],[4,-3],[10,4],[11,11],[12,14],[7,14],[8,6],[31,8],[7,5],[21,-10],[4,8],[6,13],[12,-4],[20,-17],[-3,-5],[-2,-1],[0,-6],[11,-6],[11,1],[11,7],[19,19],[4,7],[1,9],[3,3],[20,-6],[70,7],[17,-9],[-124,-34],[-18,-15],[0,-5],[7,-1],[2,-8],[-1,-10],[-4,-4],[-12,-4],[-12,-8],[-10,-11],[-1,-3],[0,-4],[0,-3],[-4,-2],[-17,2],[-6,-2],[5,-13],[1,-7],[2,-9],[-3,-2],[-2,-4],[-5,-11],[6,-5],[7,-5],[7,-2],[7,1],[-3,13],[-2,4],[6,5],[5,2],[4,-3],[0,-10],[3,-5],[2,-4],[1,-6],[2,-7],[-45,-29],[6,-4],[13,5],[5,-4],[4,-7],[5,-4],[3,0],[-1,9],[6,5],[3,-3],[5,-17],[4,-3],[19,-5],[13,3],[37,25],[0,12],[6,33],[3,9],[7,1],[32,-21],[-4,-11],[-6,-5],[-14,-1],[-5,-3],[-4,-7],[-7,-18],[-5,-7],[-5,-8],[-7,-6],[-6,-2],[-2,-5],[-15,-36],[0,-5],[-13,-23],[0,-6],[4,-3],[1,-3],[5,-5],[4,-1],[3,-3],[1,-16],[-3,1],[-7,-8],[-3,-9],[5,-5],[9,6],[5,12],[4,15],[7,13],[5,3],[4,1],[3,4],[1,13],[2,10],[4,6],[4,3],[2,3],[20,55],[10,8],[47,7],[64,50],[8,12],[9,11],[12,2],[25,-5],[-15,-24],[-20,-19],[-125,-59],[-7,-17],[-1,-3],[1,-4],[0,-3],[-8,-8],[-19,-34],[-3,-3],[0,-8],[-1,-8],[-2,-6],[-4,-3],[-1,-3],[0,-17],[-1,-6],[-16,-31],[-3,-12],[8,-2],[3,-10],[2,-11],[5,-5],[5,2],[4,5],[7,18],[18,25],[2,13],[-9,16],[0,6],[18,0],[-4,-17],[2,-8],[6,0],[12,18],[24,19],[29,40],[15,15],[16,7],[0,-6],[-11,-11],[-4,-8],[-3,-9],[3,-3],[3,-2],[3,-1],[-18,-12],[-11,-13],[-15,-5],[-6,-7],[-4,-10],[-3,-8],[-4,-19],[-4,-13],[-4,-7],[-10,-14],[0,-10],[-8,-5],[-11,-3],[-8,-5],[-9,-13],[-3,-12],[-1,-14],[-2,-18],[-4,-12],[-10,-22],[-4,-12],[-5,-31],[-4,-14],[-6,-7],[5,-12],[21,-25],[6,-11],[8,-23],[1,-5],[2,-5],[5,-4],[5,-2],[6,1],[5,-1],[5,-7],[3,-5],[11,-12],[4,-4],[11,-2],[5,-3],[10,-17],[-6,-9],[5,-9],[9,-6],[9,1],[6,12],[7,18],[7,12],[3,-10],[-1,-26],[0,-13],[4,-13],[6,-4],[11,0],[8,6],[2,12],[4,2],[4,-3],[3,-7],[1,-9],[-9,-14],[-3,-3],[-6,-1],[-9,3],[-5,-2],[5,-4],[2,-1],[-13,-12],[20,-5],[4,2],[5,10],[2,3],[3,2],[36,5],[21,-5],[3,-2],[4,-5],[2,0],[1,3],[0,4],[1,3],[2,2],[4,7],[6,15],[6,11],[7,-1],[0,-11],[-11,-22],[-1,-11],[7,-2],[31,14],[46,-7],[4,2],[4,3],[3,4],[3,1],[4,-3],[-8,-17],[-9,-10],[-11,-4],[-12,2],[-10,6],[-9,8],[-5,1],[-15,-15],[-24,-5],[-3,-4],[-2,-10],[-2,-8],[1,-1],[-6,-16],[-7,-9],[-9,-5],[-11,-4],[0,-6],[9,0],[17,5],[18,0],[24,-5],[8,0],[9,5],[7,9],[3,17],[3,12],[8,6],[17,2],[0,-6],[-4,-5],[-1,-8],[-1,-8],[-2,-7],[5,-6],[7,4],[8,6],[7,2],[-2,-9],[1,-6],[1,-6],[0,-5],[-1,-8],[-3,-2],[-4,1],[-4,0],[-37,-16],[29,-22],[6,-8],[-98,36],[-28,0],[-7,-6],[1,-15],[8,-3],[10,1],[6,-1],[1,-9],[8,-7],[10,-3],[7,5],[7,7],[9,3],[18,-1],[-3,-11],[-5,-3],[-12,2],[-6,-2],[-11,-7],[-20,-5],[6,-8],[24,-18],[-11,-7],[-25,14],[-12,-1],[-9,-15],[7,-13],[13,-9],[12,-4],[6,2],[11,8],[7,2],[22,14],[6,17],[8,15],[9,10],[11,1],[-2,-9],[-3,-7],[-8,-12],[6,-7],[15,-6],[4,-10],[-15,-2],[-9,-4],[-6,-6],[12,-6],[17,2],[17,7],[10,12],[13,9],[15,-2],[13,2],[8,22],[-1,12],[-1,13],[-1,13],[2,11],[12,33],[6,30],[12,18],[13,8],[11,-7],[-12,-19],[-14,-34],[-8,-33],[6,-17],[9,6],[17,33],[9,7],[5,-6],[-4,-12],[-14,-21],[9,-1],[16,-9],[9,-2],[31,5],[0,-5],[-5,-4],[-11,-14],[-6,-5],[-14,0],[-8,3],[-5,6],[-7,-4],[-26,-36],[-18,-13],[-11,-16],[-6,-3],[-32,6],[-14,-3],[-7,-4],[-12,-15],[-17,-5],[-8,-7],[8,-5],[14,5],[8,-7],[-5,-2],[-13,0],[-4,-3],[-2,-7],[1,-9],[-1,-8],[-6,-5],[0,-5],[3,0],[3,-2],[4,-4],[-17,-14],[-3,-10],[8,-16],[-5,-6],[8,-5],[7,-2],[15,2],[6,5],[5,12],[4,12],[3,5],[2,4],[-1,15],[2,4],[3,1],[18,16],[6,2],[6,0],[8,-2],[0,-6],[-5,-4],[-10,-7],[-5,-6],[-45,-91],[17,-12],[5,-5],[7,-13],[4,-5],[8,-4],[8,3],[7,10],[6,14],[0,6],[-2,9],[2,8],[0,6],[-5,23],[3,19],[8,16],[68,89],[12,11],[12,6],[34,8],[13,-1],[13,-11],[-3,-6],[2,-5],[1,-2],[0,-4],[-33,0],[-11,-5],[-4,-1],[-3,-2],[-5,-8],[-3,-1],[-5,-6],[-3,-13],[-2,-15],[-2,-9],[-7,-8],[-14,-2],[-6,-4],[6,-17],[-7,-4],[-12,0],[-12,-3],[-8,-11],[-5,-14],[1,-14],[5,-12],[2,-12],[-6,-11],[-7,-11],[-4,-12],[7,1],[13,6],[15,-8],[6,4],[6,5],[18,10],[23,30],[12,9],[-7,-15],[-5,-9],[1,-10],[8,-23],[-11,11],[-14,-4],[-25,-18],[-9,-3],[-5,-3],[-3,-6],[-2,-9],[1,-2],[2,-2],[1,-7],[0,-23],[1,-7],[1,-4],[0,-4],[-2,-5],[5,1],[3,4],[4,4],[3,3],[15,-1],[8,7],[5,-1],[3,-5],[-2,-9],[-3,-4],[-5,-2],[-8,-2],[0,-6],[90,16],[26,18],[8,1],[9,-4],[9,-8],[-11,1],[-25,-19],[-29,-7]],[[2558,0],[-6,1],[-2,-1]],[[2868,0],[2,1],[8,1],[1,-2]],[[2580,79],[-8,-21],[-5,-10],[-6,-6],[26,-21],[9,-2],[8,3],[4,8],[1,13],[-1,16],[-5,7],[-9,9],[-9,5],[-5,-1]],[[2026,1246],[-6,-9],[-14,-10],[-7,-7],[22,-24],[7,-13],[6,21],[6,15],[5,7],[1,16],[-5,8],[-8,2],[-7,-6]],[[2027,1266],[-10,10],[-7,31],[-16,16],[-4,-1],[-3,-5],[-7,-15],[-2,-3],[-18,-12],[-5,-8],[1,-11],[5,-16],[7,-12],[10,-7],[10,1],[9,6],[7,9],[8,6],[5,1],[4,0],[3,2],[3,8]],[[2094,1309],[-5,4],[-4,3],[-4,4],[-2,9],[-11,12],[-12,-7],[-19,-33],[-8,-9],[-1,-5],[1,-9],[4,-9],[5,-5],[5,-3],[5,0],[6,2],[11,12],[33,8],[7,3],[-2,8],[-4,9],[-5,6]],[[1523,2136],[-6,-31],[14,-19],[6,17],[13,-3],[22,10],[18,28],[-5,20],[-15,-5],[-33,-4],[-14,-13]],[[1982,2439],[-9,18],[-13,6],[-56,-1],[-4,-4],[-1,-9],[2,-10],[1,-6],[-13,-19],[-6,-12],[-3,-15],[0,-18],[-12,-15],[-14,-13],[-9,-11],[5,0],[4,-2],[5,-4],[3,-5],[-3,-8],[-3,-5],[-4,-3],[-4,-1],[-4,-3],[-2,-6],[-2,-6],[-4,-7],[5,-11],[12,-19],[-10,-4],[-11,3],[-11,-1],[-6,-15],[9,-5],[5,-5],[3,-8],[-10,-2],[-23,14],[-10,-8],[-1,-16],[9,-11],[12,-8],[9,-3],[10,5],[17,20],[10,4],[6,8],[4,35],[7,8],[10,5],[6,11],[9,30],[14,28],[16,23],[35,26],[14,19],[6,36]],[[1802,2316],[14,15],[5,9],[14,30],[12,12],[2,9],[0,22],[1,9],[4,12],[6,11],[14,19],[1,2],[1,1],[1,0],[0,6],[-62,-6],[-4,-23],[-27,-46],[3,-22],[-15,-9],[-17,-3],[1,-3],[1,-3],[1,-3],[2,-2],[-6,-10],[-8,-5],[-16,-2],[-4,-3],[-2,-6],[0,-6],[4,-2],[29,11],[8,0],[12,-16],[9,-3],[9,1],[7,4]],[[1830,1592],[-9,9],[-13,5],[-12,0],[-9,-8],[0,-4],[-1,-14],[-1,-5],[-4,-6],[-14,-11],[0,-5],[55,14],[15,14],[-1,4],[-2,4],[-2,2],[-2,1]],[[1206,3383],[-87,-24],[-7,-5],[-8,-9],[-5,-9],[3,-8],[12,-14],[9,-13],[14,-5],[25,-8],[8,-2],[15,13],[15,6],[27,27],[5,10],[5,12],[2,15],[-5,12],[-9,3],[-19,-1]],[[2027,1266],[-3,-8],[-3,-2],[-4,0],[-5,-1],[-8,-6],[-7,-9],[-9,-6],[-10,-1],[-10,7],[-7,12],[-5,16],[-1,11],[5,8],[18,12],[2,3],[7,15],[3,5],[4,1],[16,-16],[7,-31],[10,-10]],[[2094,1309],[5,-6],[4,-9],[2,-8],[-7,-3],[-33,-8],[-11,-12],[-6,-2],[-5,0],[-5,3],[-5,5],[-4,9],[-1,9],[1,5],[8,9],[19,33],[12,7],[11,-12],[2,-9],[4,-4],[4,-3],[5,-4]],[[1982,2439],[-6,-36],[-14,-19],[-35,-26],[-16,-23],[-14,-28],[-9,-30],[-6,-11],[-10,-5],[-7,-8],[-4,-35],[-6,-8],[-10,-4],[-17,-20],[-10,-5],[-9,3],[-12,8],[-9,11],[1,16],[10,8],[23,-14],[10,2],[-3,8],[-5,5],[-9,5],[6,15],[11,1],[11,-3],[10,4],[-12,19],[-5,11],[4,7],[2,6],[2,6],[4,3],[4,1],[4,3],[3,5],[3,8],[-3,5],[-5,4],[-4,2],[-5,0],[9,11],[14,13],[12,15],[0,18],[3,15],[6,12],[13,19],[-1,6],[-2,10],[1,9],[4,4],[56,1],[13,-6],[9,-18]],[[1802,2316],[-7,-4],[-9,-1],[-9,3],[-12,16],[-8,0],[-29,-11],[-4,2],[0,6],[2,6],[4,3],[16,2],[8,5],[6,10],[-2,2],[-1,3],[-1,3],[-1,3],[17,3],[15,9],[-3,22],[27,46],[4,23],[62,6],[0,-6],[-1,0],[-1,-1],[-1,-2],[-14,-19],[-6,-11],[-4,-12],[-1,-9],[0,-22],[-2,-9],[-12,-12],[-14,-30],[-5,-9],[-14,-15]],[[1523,2136],[14,13],[33,4],[15,5],[5,-20],[-18,-28],[-22,-10],[-13,3],[-6,-17],[-14,19],[6,31]],[[1206,3383],[19,1],[9,-3],[5,-12],[-2,-15],[-5,-12],[-5,-10],[-27,-27],[-15,-6],[-15,-13],[-8,2],[-25,8],[-14,5],[-9,13],[-12,14],[-3,8],[5,9],[8,9],[7,5],[87,24]],[[1490,4096],[-44,-26],[-8,-1],[-152,-110],[-61,-84],[-44,-40],[-126,-74],[-36,-7],[-54,18],[-18,-1],[45,23],[14,1],[0,5],[-64,-17],[9,10],[11,17],[9,17],[0,13],[0,6],[19,16],[21,9],[53,6],[75,32],[-33,-6],[-28,7],[-9,-1],[-22,-15],[-37,-7],[-8,-7],[0,6],[-10,-7],[-14,-6],[-14,-1],[-9,6],[-11,19],[1,10],[3,5],[2,3],[2,6],[-5,15],[-15,5],[-3,16],[1,10],[2,6],[2,4],[3,6],[4,22],[3,7],[8,-6],[7,6],[11,26],[7,10],[8,7],[17,9],[0,5],[-11,0],[-14,-11],[-13,-16],[-15,-26],[-2,8],[-1,12],[1,7],[3,9],[14,10],[5,7],[-17,17],[4,6],[9,4],[97,0],[2,-2],[12,-7],[34,-8],[11,2],[5,4],[10,11],[1,0],[353,0]],[[4096,4096],[0,-4096],[-1217,0],[-1,2],[-8,-1],[-2,-1],[-145,0],[29,7],[25,19],[11,-1],[-9,8],[-9,4],[-8,-1],[-26,-18],[-90,-16],[0,6],[8,2],[5,2],[3,4],[2,9],[-3,5],[-5,1],[-8,-7],[-15,1],[-3,-3],[-4,-4],[-3,-4],[-5,-1],[2,5],[0,4],[-1,4],[-1,7],[0,23],[-1,7],[-2,2],[-1,2],[2,9],[3,6],[5,3],[9,3],[25,18],[14,4],[11,-11],[-8,23],[-1,10],[5,9],[7,15],[-12,-9],[-23,-30],[-18,-10],[-6,-5],[-6,-4],[-15,8],[-13,-6],[-7,-1],[4,12],[7,11],[6,11],[-2,12],[-5,12],[-1,14],[5,14],[8,11],[12,3],[12,0],[7,4],[-6,17],[6,4],[14,2],[7,8],[2,9],[2,15],[3,13],[5,6],[3,1],[5,8],[3,2],[4,1],[11,5],[33,0],[0,4],[-1,2],[-2,5],[3,6],[-13,11],[-13,1],[-34,-8],[-12,-6],[-12,-11],[-68,-89],[-8,-16],[-3,-19],[5,-23],[0,-6],[-2,-8],[2,-9],[0,-6],[-6,-14],[-7,-10],[-8,-3],[-8,4],[-4,5],[-7,13],[-5,5],[-17,12],[45,91],[5,6],[10,7],[5,4],[0,6],[-8,2],[-6,0],[-6,-2],[-18,-16],[-3,-1],[-2,-4],[1,-15],[-2,-4],[-3,-5],[-4,-12],[-5,-12],[-6,-5],[-15,-2],[-7,2],[-8,5],[5,6],[-8,16],[3,10],[17,14],[-4,4],[-3,2],[-3,0],[0,5],[6,5],[1,8],[-1,9],[2,7],[4,3],[13,0],[5,2],[-8,7],[-14,-5],[-8,5],[8,7],[17,5],[12,15],[7,4],[14,3],[32,-6],[6,3],[11,16],[18,13],[26,36],[7,4],[5,-6],[8,-3],[14,0],[6,5],[11,14],[5,4],[0,5],[-31,-5],[-9,2],[-16,9],[-9,1],[14,21],[4,12],[-5,6],[-9,-7],[-17,-33],[-9,-6],[-6,17],[8,33],[14,34],[12,19],[-11,7],[-13,-8],[-12,-18],[-6,-30],[-12,-33],[-2,-11],[1,-13],[1,-13],[1,-12],[-8,-22],[-13,-2],[-15,2],[-13,-9],[-10,-12],[-17,-7],[-17,-2],[-12,6],[6,6],[9,4],[15,2],[-4,10],[-15,6],[-6,7],[8,12],[3,7],[2,9],[-11,-1],[-9,-10],[-8,-15],[-6,-17],[-22,-14],[-7,-2],[-11,-8],[-6,-2],[-12,4],[-13,9],[-7,13],[9,15],[12,1],[25,-14],[11,7],[-24,18],[-6,8],[20,5],[11,7],[6,2],[12,-2],[5,3],[3,11],[-18,1],[-9,-3],[-7,-7],[-7,-5],[-10,3],[-8,7],[-1,9],[-6,1],[-10,-1],[-8,3],[-1,15],[7,6],[28,0],[98,-36],[-6,8],[-29,22],[37,16],[4,0],[4,-1],[3,2],[1,8],[0,5],[-1,6],[-1,6],[2,9],[-7,-2],[-8,-6],[-7,-4],[-5,6],[2,7],[1,8],[1,8],[4,5],[0,6],[-17,-2],[-8,-6],[-3,-12],[-3,-17],[-7,-9],[-9,-5],[-8,0],[-24,5],[-18,0],[-17,-5],[-9,0],[0,6],[11,4],[9,5],[7,9],[6,16],[-1,1],[2,8],[2,10],[3,4],[24,5],[15,15],[5,-1],[9,-8],[10,-6],[12,-2],[11,4],[9,10],[8,17],[-4,3],[-3,-1],[-3,-4],[-4,-3],[-4,-2],[-46,7],[-31,-14],[-7,2],[1,11],[11,22],[0,11],[-7,1],[-6,-11],[-6,-15],[-4,-7],[-2,-2],[-1,-3],[0,-4],[-1,-3],[-2,0],[-4,5],[-3,2],[-21,5],[-36,-5],[-3,-2],[-2,-3],[-5,-10],[-4,-2],[-20,5],[13,12],[-2,1],[-5,4],[5,2],[9,-3],[6,1],[3,3],[9,14],[-1,9],[-3,7],[-4,3],[-4,-2],[-2,-12],[-8,-6],[-11,0],[-6,4],[-4,13],[0,13],[1,26],[-3,10],[-7,-12],[-7,-18],[-6,-12],[-9,-1],[-9,6],[-5,9],[6,9],[-10,17],[-5,3],[-11,2],[-4,4],[-11,12],[-3,5],[-5,7],[-5,1],[-6,-1],[-5,2],[-5,4],[-2,5],[-1,5],[-8,23],[-6,11],[-21,25],[-5,12],[6,7],[4,14],[5,31],[4,12],[10,22],[4,12],[2,18],[1,14],[3,12],[9,13],[8,5],[11,3],[8,5],[0,10],[10,14],[4,7],[4,13],[4,19],[3,8],[4,10],[6,7],[15,5],[11,13],[18,12],[-3,1],[-3,2],[-3,3],[3,9],[4,8],[11,11],[0,6],[-16,-7],[-15,-15],[-29,-40],[-24,-19],[-12,-18],[-6,0],[-2,8],[4,17],[-18,0],[0,-6],[9,-16],[-2,-13],[-18,-25],[-7,-18],[-4,-5],[-5,-2],[-5,5],[-2,11],[-3,10],[-8,2],[3,12],[16,31],[1,6],[0,17],[1,3],[4,3],[2,6],[1,8],[0,8],[3,3],[19,34],[8,8],[0,3],[-1,4],[1,3],[7,17],[125,59],[20,19],[15,24],[-25,5],[-12,-2],[-9,-11],[-8,-12],[-64,-50],[-47,-7],[-10,-8],[-20,-55],[-2,-3],[-4,-3],[-4,-6],[-2,-10],[-1,-13],[-3,-4],[-4,-1],[-5,-3],[-7,-13],[-4,-15],[-5,-12],[-9,-6],[-5,5],[3,9],[7,8],[3,-1],[-1,16],[-3,3],[-4,1],[-5,5],[-1,3],[-4,3],[0,6],[13,23],[0,5],[15,36],[2,5],[6,2],[7,6],[5,8],[5,7],[7,18],[4,7],[5,3],[14,1],[6,5],[4,11],[-32,21],[-7,-1],[-3,-9],[-6,-33],[0,-12],[-37,-25],[-13,-3],[-19,5],[-4,3],[-5,17],[-3,3],[-6,-5],[1,-9],[-3,0],[-5,4],[-4,7],[-3,3],[-2,1],[-13,-5],[-6,4],[21,13],[24,16],[-2,7],[-1,6],[-2,4],[-3,5],[0,10],[-4,3],[-5,-2],[-6,-5],[2,-4],[3,-13],[-6,-1],[-1,0],[-7,2],[-7,5],[-6,5],[5,11],[2,4],[3,2],[-2,9],[-1,7],[-5,13],[6,2],[13,-1],[4,-1],[4,2],[0,3],[0,4],[1,3],[10,11],[12,8],[12,4],[4,4],[1,10],[-2,8],[-7,1],[0,5],[18,15],[124,34],[-17,9],[-70,-7],[-20,6],[-3,-3],[-1,-9],[-4,-7],[-19,-19],[-11,-7],[-11,-1],[-11,6],[0,6],[2,1],[3,5],[-19,16],[-1,1],[-12,4],[-6,-13],[-4,-8],[-21,10],[-7,-5],[-31,-8],[-8,-6],[-7,-14],[-12,-14],[-11,-11],[-10,-4],[-4,3],[-2,7],[-1,10],[1,9],[4,7],[25,25],[9,6],[9,9],[8,16],[-13,-2],[-16,-10],[-15,-15],[-10,-16],[-8,-18],[-5,-8],[-5,-5],[-9,0],[-14,13],[-6,4],[1,6],[2,14],[3,13],[4,6],[3,2],[6,8],[4,2],[2,-1],[3,-3],[3,-3],[3,1],[3,10],[-7,5],[-15,3],[-6,-3],[-4,-6],[-5,-3],[-6,6],[4,12],[6,5],[7,3],[8,9],[-7,4],[-17,-4],[-8,8],[-2,11],[-1,15],[1,12],[4,5],[92,6],[-3,0],[104,10],[23,3],[6,3],[1,3],[5,12],[3,3],[63,5],[-21,15],[-24,4],[-24,-7],[-31,-21],[-1,0],[-71,-5],[-10,-9],[-3,14],[-6,5],[-6,-2],[-8,-5],[-3,-3],[-3,-4],[-3,-3],[-4,-2],[-5,1],[-11,5],[-16,-1],[-15,-6],[-16,-3],[-13,10],[9,12],[9,18],[7,22],[5,23],[-8,1],[-8,-3],[-5,-9],[-2,-21],[-3,-12],[-7,-17],[-9,-14],[-6,-6],[-13,4],[2,16],[7,18],[3,11],[-9,11],[-16,-16],[-6,14],[16,15],[6,9],[7,13],[6,5],[15,-8],[6,3],[5,7],[6,5],[89,19],[12,8],[7,15],[-23,1],[-91,-24],[-6,1],[-7,3],[-4,5],[-5,17],[-6,16],[-5,15],[1,15],[8,15],[8,-8],[6,7],[5,12],[5,6],[8,-3],[17,-12],[26,-9],[2,-2],[1,-7],[1,-2],[2,1],[5,4],[2,1],[112,23],[4,-7],[-1,-12],[0,-9],[3,2],[4,3],[4,8],[4,12],[7,26],[-10,6],[-9,-3],[-123,-37],[-14,3],[-41,25],[-11,0],[-19,-18],[-11,-5],[-10,-7],[-1,-15],[4,-19],[18,-51],[-1,-12],[-12,-4],[-4,3],[-8,11],[-3,3],[-7,2],[-20,15],[-34,5],[-3,0],[-2,-3],[0,-6],[2,-8],[-4,0],[-4,1],[-7,5],[1,8],[3,5],[4,3],[4,2],[-1,5],[-1,2],[-1,3],[26,32],[7,15],[-20,-7],[-6,3],[-8,12],[-51,37],[0,6],[16,12],[54,11],[0,5],[-30,6],[-19,-7],[-3,-8],[-17,-8],[-6,0],[-2,9],[1,12],[3,11],[7,17],[11,13],[105,30],[-8,8],[4,10],[39,34],[57,31],[13,14],[0,6],[-8,-6],[-30,-6],[-52,-27],[-48,-53],[-14,-8],[-23,-5],[-20,4],[-7,21],[4,12],[8,-3],[9,-8],[6,-1],[2,13],[-3,15],[0,11],[11,1],[0,5],[-6,5],[-7,7],[1,15],[-6,8],[-7,6],[3,8],[7,3],[8,-1],[8,2],[4,11],[-20,11],[-8,0],[-18,-10],[-6,-1],[-14,5],[-28,23],[-14,6],[14,17],[14,6],[51,-2],[8,-3],[25,-18],[8,-1],[8,6],[-30,29],[10,9],[87,20],[22,-10],[11,-3],[18,20],[37,-1],[19,12],[53,50],[11,3],[20,-11],[11,-3],[4,0],[21,0],[5,-3],[7,-11],[6,-4],[5,1],[5,4],[4,7],[5,9],[5,5],[15,-3],[6,1],[31,30],[11,4],[24,-3],[11,-8],[5,-15],[0,-20],[1,-9],[2,-8],[3,-5],[4,-4],[3,-5],[-3,-9],[0,-5],[7,8],[-2,12],[-5,12],[-2,10],[1,16],[2,11],[4,9],[5,7],[-6,11],[-9,3],[-9,0],[-8,3],[2,3],[3,7],[2,2],[-18,10],[-99,-45],[-33,-3],[-10,-8],[4,18],[3,11],[26,46],[7,9],[8,8],[2,15],[9,15],[21,21],[-11,8],[-11,-3],[-11,-11],[-22,-40],[-8,-10],[-18,-13],[-3,-2],[-3,-4],[-3,-7],[-3,-7],[-3,-6],[-10,-4],[-11,-8],[-5,-2],[-19,2],[-6,-2],[-10,-9],[-18,-25],[-114,-40],[-114,-40],[-3,1],[-4,8],[-4,3],[-35,0],[3,5],[-9,4],[-9,2],[-9,4],[-6,13],[7,5],[18,24],[7,4],[14,1],[22,-3],[26,-16],[13,-3],[-9,13],[-29,24],[-12,6],[-13,3],[-8,-4],[-6,-10],[-38,-26],[-8,0],[-4,8],[3,20],[-6,3],[-19,-3],[12,19],[25,8],[91,1],[4,-2],[11,-14],[8,-11],[6,-4],[25,-3],[47,24],[5,5],[14,20],[5,2],[21,0],[6,-2],[10,-12],[5,-3],[3,3],[9,12],[3,2],[6,2],[18,10],[0,5],[-17,7],[-39,-7],[-16,18],[7,3],[5,6],[9,16],[2,3],[5,4],[2,2],[2,7],[0,3],[0,3],[0,4],[0,4],[-2,6],[0,5],[1,4],[7,4],[3,3],[7,19],[5,9],[4,3],[29,14],[16,1],[8,-17],[8,-10],[39,-14],[12,4],[-6,9],[-10,5],[-18,3],[-4,5],[-1,11],[-1,13],[-2,11],[15,-15],[36,-18],[14,-7],[4,0],[3,1],[3,0],[10,-7],[16,0],[19,-7],[9,1],[1,12],[5,3],[17,-3],[3,1],[6,4],[2,0],[2,3],[0,5],[-1,6],[1,3],[3,2],[11,3],[7,8],[2,0],[1,1],[1,7],[-1,3],[-3,2],[-4,2],[-2,1],[0,3],[1,6],[1,3],[-10,-2],[-9,-6],[-21,-19],[-17,-8],[-11,-10],[-4,-1],[-12,1],[-47,22],[-25,12],[-11,11],[0,6],[10,4],[26,18],[1,1],[23,9],[11,9],[6,16],[-11,-10],[-30,-6],[-9,-2],[-22,-10],[-11,4],[-6,18],[5,4],[7,10],[6,11],[4,10],[-23,-8],[-12,-1],[-10,9],[3,5],[-15,5],[-34,-17],[-14,17],[10,11],[19,25],[11,5],[25,-2],[20,-10],[27,-5],[6,2],[13,14],[0,1],[5,3],[6,6],[6,4],[9,-8],[5,0],[4,3],[4,4],[-10,8],[-10,2],[-19,-4],[-12,-3],[-8,2],[-19,11],[0,6],[39,10],[28,7],[6,-2],[13,-11],[7,-4],[26,-7],[12,-8],[10,-16],[5,-14],[9,-47],[4,-15],[20,-50],[8,-15],[47,-29],[27,-25],[10,-5],[10,-7],[11,-3],[5,-3],[51,-43],[20,-11],[22,6],[2,0],[-4,14],[-10,10],[-12,8],[-9,8],[0,6],[0,21],[-16,10],[-32,3],[-12,18],[-13,15],[-4,2],[-10,3],[-30,20],[-13,9],[-8,9],[-4,13],[-1,10],[-3,11],[-10,26],[-2,9],[-1,11],[0,10],[2,14],[5,8],[6,4],[28,11],[5,6],[-1,10],[-10,6],[-20,4],[-8,-2],[-13,-8],[-7,-1],[-6,3],[-6,5],[-11,14],[5,17],[2,6],[4,7],[6,5],[6,3],[6,5],[4,9],[-5,11],[4,10],[48,42],[-5,7],[-11,-7],[-11,-11],[-10,-6],[-23,-5],[-12,-7],[-5,-14],[-4,-13],[-9,-18],[-11,-16],[-7,-7],[-6,0],[-3,2],[-2,4],[-4,8],[-4,5],[-3,-1],[-4,-4],[-5,-2],[-57,6],[-7,4],[-1,1],[-6,9],[-4,14],[-5,31],[-3,13],[-5,13],[-15,18],[-7,13],[0,14],[-1,4],[-2,8],[-2,5],[2,7],[-1,5],[-9,11],[5,9],[3,9],[0,9],[-2,8],[-9,6],[-9,0],[-9,3],[-6,14],[1,7],[0,11],[-2,12],[-1,10],[-14,28],[-2,6],[5,9],[13,11],[17,15],[15,17],[6,11],[-5,4],[-4,0],[-9,-4],[-5,-10],[-43,-33],[-4,-2],[-3,-1],[-2,3],[0,1],[-2,6],[-1,5],[-1,3],[-4,3],[-6,9],[-6,13],[-2,9],[-4,5],[-4,0],[-3,-5],[0,-4],[1,-6],[2,-5],[1,-2],[3,-2],[0,-5],[-1,-5],[-1,-5],[4,-15],[1,-5],[6,-16],[8,-12],[11,-4],[-3,-9],[-5,-4],[-12,-4],[0,-6],[16,-6],[7,-5],[2,-14],[0,-7],[-2,-15],[-1,-15],[-1,-14],[-1,-7],[8,-4],[13,7],[25,14],[14,-8],[-5,-16],[6,-25],[-6,-10],[4,-5],[3,-5],[3,-6],[3,-8],[-6,-9],[-20,-19],[10,-5],[16,-4],[13,-7],[6,-16],[-2,-9],[-5,-5],[-7,-4],[-4,-4],[-4,-14],[4,-5],[13,-2],[9,-9],[-1,-9],[-8,-7],[-11,-3],[-3,4],[-1,7],[-1,8],[-5,3],[-5,-2],[-53,-63],[-11,-9],[-57,-16],[-3,-12],[5,-3],[11,3],[5,-3],[3,-6],[0,-6],[-4,-2],[-45,-12],[-20,7],[-7,-1],[13,40],[6,33],[7,10],[9,6],[5,8],[5,15],[7,0],[9,-3],[9,6],[-3,0],[-7,5],[2,2],[2,7],[1,2],[-9,6],[-13,3],[-13,0],[-42,-26],[-10,-11],[-5,-13],[-6,-19],[-5,-22],[-2,-17],[-2,-9],[-5,-1],[-7,1],[-4,-3],[-13,-23],[-3,-8],[-5,-55],[-2,-9],[-1,-3],[-2,-8],[-3,-8],[-9,-7],[-3,-8],[-3,-10],[-2,-7],[-26,-30],[-9,-31],[-11,-10],[-22,-9],[-7,-7],[-1,-6],[5,-4],[8,0],[0,-6],[-4,-8],[0,-10],[4,-10],[5,-6],[-15,-7],[-7,-6],[-5,-10],[-9,-19],[-5,-8],[-6,-8],[-16,-12],[-7,-4],[-10,-1],[-20,3],[-5,-3],[6,-4],[2,-1],[-3,-3],[-11,-3],[-12,0],[-11,-6],[-7,-4],[-8,-2],[-4,10],[0,12],[-5,10],[-2,7],[-5,-14],[-10,1],[-3,16],[-3,12],[4,15],[9,16],[1,15],[-2,13],[-13,5],[2,13],[7,11],[5,13],[5,11],[-10,13],[-4,11],[-3,12],[-8,9],[-4,11],[-1,12],[7,5],[10,-8],[13,-2],[3,10],[5,7],[6,4],[10,4],[2,4],[-2,6],[-17,-5],[-10,1],[0,8],[-1,5],[5,9],[-12,-4],[-5,11],[5,12],[18,9],[12,5],[5,6],[5,7],[3,8],[1,2],[-2,12],[-4,-8],[-10,-13],[-10,3],[-7,-15],[-11,6],[-4,12],[-5,12],[-2,15],[4,6],[24,-18],[16,2],[2,10],[-4,6],[-20,7],[-5,4],[-1,8],[-1,9],[-2,6],[-3,4],[-4,1],[8,28],[13,16],[14,6],[15,1],[9,-3],[5,1],[4,5],[10,32],[2,4],[4,1],[5,-1],[3,-2],[2,1],[3,8],[-8,0],[5,15],[8,10],[50,27],[4,0],[10,-1],[6,1],[11,6],[4,5],[2,5],[3,6],[2,4],[5,2],[5,-4],[4,-15],[5,-4],[8,1],[6,4],[5,7],[6,14],[7,10],[16,18],[3,12],[4,11],[10,10],[11,8],[16,6],[10,8],[9,11],[7,12],[-9,9],[-9,-7],[-9,-13],[-11,-6],[-20,8],[-6,-3],[-4,-6],[3,-4],[13,-7],[-25,-13],[-6,-7],[-5,-8],[-35,-35],[-29,-15],[-15,-2],[4,3],[4,5],[3,6],[2,9],[-6,1],[0,6],[7,13],[2,6],[3,15],[1,4],[4,2],[17,-2],[5,2],[3,4],[6,12],[-26,11],[-14,15],[-5,2],[-6,-2],[-4,-3],[-3,-8],[-2,-12],[-1,-9],[-4,-4],[-2,-6],[2,-13],[-11,-4],[-11,-7],[-10,-12],[-8,-17],[4,0],[6,0],[5,-1],[3,-7],[1,-11],[9,-11],[3,-10],[-4,-2],[-8,-3],[-4,0],[0,5],[5,6],[-12,13],[-6,4],[-7,-3],[-5,-10],[0,-8],[2,-8],[-1,-11],[-5,-5],[-22,-18],[-3,-1],[-8,-5],[-15,0],[-20,-10],[-7,-1],[-7,3],[2,7],[12,13],[21,9],[6,5],[2,3],[6,12],[10,16],[-6,6],[-16,10],[-7,2],[-4,6],[-4,10],[-4,5],[-6,-10],[11,-26],[-13,-26],[-38,-39],[-5,5],[-6,4],[-4,7],[2,12],[14,6],[9,17],[-22,17],[-3,9],[2,14],[6,6],[14,5],[14,13],[7,3],[9,1],[6,3],[8,8],[7,9],[4,9],[-7,6],[-26,0],[7,12],[3,10],[-3,6],[-9,1],[-14,-12],[-5,-3],[-1,9],[-7,9],[-3,2],[5,10],[5,8],[-29,11],[-13,14],[2,21],[7,6],[8,1],[16,-2],[4,-2],[4,-3],[4,-1],[3,3],[3,5],[5,4],[8,5],[0,6],[-6,0],[-10,-6],[-6,0],[-5,4],[-3,7],[-2,12],[-1,3],[-2,3],[-2,4],[-1,5],[1,8],[3,5],[15,13],[32,65],[23,32],[-8,0],[-11,-10],[-11,-14],[-13,-27],[-19,-27],[-6,-3],[-7,-7],[-8,-5],[-8,-3],[-8,-1],[-8,2],[-4,6],[0,6],[6,2],[11,11],[14,22],[9,21],[-7,10],[8,12],[0,11],[-4,7],[-9,-2],[-4,-4],[-9,-13],[-4,-6],[-12,-8],[-3,-4],[-5,10],[-2,11],[1,13],[3,13],[-8,-7],[-4,-15],[-3,-18],[-4,-15],[-17,-43],[-6,-11],[-5,-4],[-3,-2],[-8,0],[-12,-10],[-5,-2],[1,9],[7,13],[14,19],[6,11],[-8,0],[3,5],[3,3],[3,3],[4,0],[0,7],[-8,5],[0,5],[2,2],[3,5],[-7,5],[-5,-3],[-6,-6],[-4,-3],[-5,4],[-15,20],[0,5],[7,14],[10,11],[11,7],[9,3],[10,5],[20,24],[12,5],[22,5],[21,12],[29,33],[42,23],[20,2],[5,4],[5,9],[3,4],[9,9],[3,2],[5,2],[12,9],[4,6],[2,5],[2,13],[1,5],[11,8],[24,-3],[10,6],[-9,2],[-14,12],[-8,3],[-20,-5],[-9,3],[-7,14],[10,15],[40,28],[10,3],[7,12],[11,9],[72,30],[132,17],[13,-6],[7,-1],[17,12],[16,-1],[15,-7],[12,-8],[39,-39],[22,-15],[23,-3],[44,9],[9,2],[-2,4],[-3,4],[-1,5],[-2,4],[-1,0],[-46,-6],[-22,-9],[-11,3],[-7,18],[12,6],[24,-2],[11,2],[0,5],[-2,1],[-7,5],[0,9],[1,1],[1,2],[-31,5],[-17,-4],[-10,-13],[-8,10],[-8,11],[-9,10],[-12,4],[-36,-7],[-76,17],[-69,-18],[-173,-93],[-8,-1],[-12,15],[-8,-5],[16,-36],[6,-20],[-2,-24],[8,-5],[-6,-12],[-23,-29],[-20,-6],[-7,-8],[-8,-5],[-32,2],[-5,-5],[-11,-24],[-4,-6],[-14,-10],[-9,-4],[-8,-2],[-18,2],[-8,-3],[-30,-36],[-7,-3],[-4,4],[-16,30],[5,9],[15,20],[-2,5],[17,29],[3,8],[-4,5],[-10,-6],[-9,-12],[-12,-19],[-9,-6],[-8,-2],[-6,3],[-4,14],[3,6],[14,9],[-12,12],[-3,5],[13,24],[18,26],[15,30],[4,40],[-11,-15],[-9,-19],[-5,-17],[-3,-8],[-3,-4],[-6,-3],[-5,-6],[-5,-8],[-4,-9],[-2,-4],[0,-7],[-2,-3],[-3,-3],[-7,-5],[-2,-3],[-4,-9],[-4,-9],[-3,-7],[-5,-4],[-6,1],[-3,6],[-1,7],[-3,3],[-12,3],[-9,8],[-3,15],[5,20],[7,-2],[13,10],[25,27],[-12,-2],[-26,-19],[-12,3],[9,13],[46,34],[26,11],[11,11],[-9,6],[-12,-5],[-30,-25],[-21,-10],[-10,0],[6,28],[13,16],[29,18],[-14,6],[-4,0],[4,28],[0,30],[-5,15],[-9,-21],[-15,-58],[-10,-24],[-14,-10],[-5,3],[-9,12],[-4,2],[-5,-1],[-9,-7],[-32,-14],[-69,7],[-18,10],[33,34],[19,9],[29,5],[10,6],[9,8],[14,19],[18,9],[8,6],[-8,6],[-5,1],[-4,0],[-5,-3],[-7,-7],[-29,-16],[-18,-20],[-17,-6],[-47,-7],[-7,3],[-1,7],[3,4],[13,-1],[3,3],[6,7],[5,3],[6,8],[8,3],[10,7],[27,14],[7,6],[-13,-5],[-6,0],[-6,5],[4,7],[10,24],[6,9],[15,4],[22,14],[16,5],[7,-2],[7,-5],[6,-3],[7,4],[-3,6],[-2,4],[-2,2],[7,12],[15,11],[29,11],[15,-6],[31,-28],[57,-17],[18,0],[8,-3],[7,-9],[1,-4],[0,-9],[1,-4],[2,-3],[3,-2],[4,0],[1,8],[3,11],[8,7],[14,8],[0,5],[-16,9],[0,16],[10,18],[14,14],[80,43],[16,0],[16,-7],[17,-12],[24,-32],[13,-10],[11,7],[-13,21],[-29,27],[-7,9],[-6,12],[11,15],[12,12],[24,13],[0,5],[-24,-4],[-106,-55],[-34,-6],[-10,-7],[-10,-13],[-18,-50],[-6,-8],[-73,0],[-11,4],[-8,11],[-13,21],[-1,9],[8,13],[19,17],[-15,11],[-5,0],[-42,-37],[-9,-3],[-9,7],[-14,19],[-9,3],[1,-12],[7,-28],[-10,-1],[-20,-17],[-29,-15],[-9,-9],[-13,-4],[-55,-26],[-10,0],[-9,2],[-9,7],[5,15],[8,2],[19,-6],[0,4],[0,1],[-1,0],[-1,1],[-4,6],[-39,11],[0,6],[49,28],[14,12],[80,46],[-17,12],[-21,-12],[-21,-19],[-34,-15],[-47,-35],[1,6],[1,5],[-17,2],[-5,-2],[-5,-4],[-7,-11],[-4,-2],[-12,3],[-13,8],[-11,13],[-6,17],[9,1],[7,6],[7,8],[7,7],[9,2],[25,-7],[69,17],[-18,7],[-57,-13],[0,6],[2,2],[2,3],[3,6],[-48,-11],[-14,11],[30,36],[100,62],[40,16],[94,75],[8,26],[2,16],[4,10],[7,7],[72,48],[45,42],[44,8],[68,31],[19,-2],[8,3],[5,11],[-7,0],[-8,4],[-7,6],[535,0],[2023,0]],[[2558,0],[-8,0],[2,1],[6,-1]]]}