{"objects":{"water":{"type":"GeometryCollection","geometries":[{"type":"MultiPolygon","properties":{"source":"naturalearthdata.com","kind":"ocean","area":989871000000000,"sort_rank":200,"min_zoom":0,"id":1},"arcs":[[[0],[1]]]},{"type":"LineString","properties":{"source":"naturalearthdata.com","kind":"ocean","sort_rank":205,"boundary":true,"min_zoom":0,"id":1044},"arcs":[2]}]},"buildings":{"type":"GeometryCollection","geometries":[]},"places":{"type":"GeometryCollection","geometries":[]},"transit":{"type":"GeometryCollection","geometries":[]},"pois":{"type":"GeometryCollection","geometries":[]},"boundaries":{"type":"GeometryCollection","geometries":[]},"roads":{"type":"GeometryCollection","geometries":[]},"earth":{"type":"GeometryCollection","geometries":[{"type":"MultiPolygon","properties":{"sort_rank":10,"source":"naturalearthdata.com","min_zoom":3.0,"kind":"earth","area":34889604215},"arcs":[[[3]]]}]},"landuse":{"type":"GeometryCollection","geometries":[]}},"type":"Topology","transform":{"translate":[-11.25,-21.9430455334],"scale":[0.002746582,0.0026280868]},"arcs":[[[4096,4096],[0,-4096],[-4096,0],[0,4096],[4096,0]],[[2013,2296],[-6,-3],[-6,-5],[-6,-6],[-2,-5],[-2,-6],[-2,-4],[-1,-4],[4,-5],[5,-3],[7,1],[6,4],[5,5],[1,-1],[2,-1],[1,-1],[1,-3],[5,4],[5,3],[4,3],[4,6],[1,6],[-1,5],[-2,6],[-3,7],[-5,-2],[-11,0],[-4,-1]],[[2013,2296],[-6,-3],[-6,-5],[-6,-6],[-2,-5],[-2,-6],[-2,-4],[-1,-4],[4,-5],[5,-3],[7,1],[6,4],[5,5],[1,-1],[2,-1],[1,-1],[1,-3],[5,4],[5,3],[4,3],[4,6],[1,6],[-1,5],[-2,6],[-3,7],[-5,-2],[-11,0],[-4,-1]],[[2013,2296],[4,1],[11,0],[5,2],[3,-7],[2,-6],[1,-5],[-1,-6],[-4,-6],[-4,-3],[-5,-3],[-5,-4],[-1,3],[-1,1],[-2,1],[-1,1],[-5,-5],[-6,-4],[-7,-1],[-5,3],[-4,5],[1,4],[2,4],[2,6],[2,5],[6,6],[6,5],[6,3]]]}