{"objects":{"water":{"type":"GeometryCollection","geometries":[{"type":"MultiPolygon","properties":{"source":"naturalearthdata.com","kind":"ocean","area":989871000000000,"sort_rank":200,"min_zoom":0,"id":1},"arcs":[[[0],[1]]]},{"type":"LineString","properties":{"source":"naturalearthdata.com","kind":"ocean","sort_rank":205,"boundary":true,"min_zoom":0,"id":1030},"arcs":[2]}]},"buildings":{"type":"GeometryCollection","geometries":[]},"places":{"type":"GeometryCollection","geometries":[]},"transit":{"type":"GeometryCollection","geometries":[]},"pois":{"type":"GeometryCollection","geometries":[]},"boundaries":{"type":"GeometryCollection","geometries":[]},"roads":{"type":"GeometryCollection","geometries":[]},"earth":{"type":"GeometryCollection","geometries":[{"type":"MultiPolygon","properties":{"sort_rank":10,"source":"naturalearthdata.com","kind":"earth","min_zoom":5.0,"area":20337033755},"arcs":[[[3]]]}]},"landuse":{"type":"GeometryCollection","geometries":[]}},"type":"Topology","transform":{"translate":[-11.25,-40.9798980696],"scale":[0.002746582,0.0022040371]},"arcs":[[[4096,4096],[0,-4096],[-4096,0],[0,4096],[4096,0]],[[482,286],[-2,5],[-4,12],[-3,3],[-4,2],[-17,-2],[-5,-1],[-3,-3],[-3,-8],[0,-3],[27,-20],[14,-7],[11,5],[-1,7],[-3,3],[-7,7]],[[482,286],[-2,5],[-4,12],[-3,3],[-4,2],[-17,-2],[-5,-1],[-3,-3],[-3,-8],[0,-3],[27,-20],[14,-7],[11,5],[-1,7],[-3,3],[-7,7]],[[482,286],[7,-7],[3,-3],[1,-7],[-11,-5],[-14,7],[-27,20],[0,3],[3,8],[3,3],[5,1],[17,2],[4,-2],[3,-3],[4,-12],[2,-5]]]}