{"objects":{"water":{"type":"GeometryCollection","geometries":[{"type":"MultiPolygon","properties":{"source":"naturalearthdata.com","kind":"ocean","area":989871000000000,"sort_rank":200,"min_zoom":0,"id":1},"arcs":[[[0],[1]]]},{"type":"LineString","properties":{"source":"naturalearthdata.com","kind":"ocean","sort_rank":205,"boundary":true,"min_zoom":0,"id":2547},"arcs":[2]},{"type":"MultiLineString","properties":{"source":"naturalearthdata.com","kind":"ocean","sort_rank":205,"boundary":true,"min_zoom":0,"id":3060},"arcs":[[3],[4]]}]},"buildings":{"type":"GeometryCollection","geometries":[]},"places":{"type":"GeometryCollection","geometries":[]},"transit":{"type":"GeometryCollection","geometries":[]},"pois":{"type":"GeometryCollection","geometries":[]},"boundaries":{"type":"GeometryCollection","geometries":[]},"roads":{"type":"GeometryCollection","geometries":[]},"earth":{"type":"GeometryCollection","geometries":[{"type":"MultiPolygon","properties":{"sort_rank":10,"source":"naturalearthdata.com","kind":"earth","min_zoom":2.0,"area":270874700878},"arcs":[[[5]]]},{"type":"MultiPolygon","properties":{"sort_rank":10,"source":"naturalearthdata.com","min_zoom":3.0,"kind":"earth","area":28297414695},"arcs":[[[6]]]}]},"landuse":{"type":"GeometryCollection","geometries":[]}},"type":"Topology","transform":{"translate":[-11.25,-70.612614238],"scale":[0.002746582,0.0010008188]},"arcs":[[[4096,4096],[0,-4096],[-2228,0],[72,48],[13,15],[-29,51],[-5,33],[14,43],[-26,19],[-27,-3],[-76,-54],[-20,1],[-38,15],[14,-27],[86,-100],[-1,-4],[-3,-3],[-1,-5],[7,-22],[7,-7],[-1855,0],[0,4096],[4096,0]],[[2847,74],[109,7],[110,8],[30,12],[13,14],[9,25],[4,37],[-2,47],[-6,45],[-8,29],[-42,33],[-56,1],[-57,-20],[-42,-31],[-13,-18],[-35,-74],[-25,-35],[-12,-23],[-6,-33],[6,-9],[6,-7],[17,-8]],[[2847,74],[109,7],[110,8],[30,12],[13,14],[9,25],[4,37],[-2,47],[-6,45],[-8,29],[-42,33],[-56,1],[-57,-20],[-42,-31],[-13,-18],[-35,-74],[-25,-35],[-12,-23],[-6,-33],[6,-9],[6,-7],[17,-8]],[[1933,190],[-26,19],[-27,-3],[-76,-54],[-20,1],[-38,15],[14,-27],[86,-100],[-1,-4],[-3,-3],[-1,-5],[7,-22],[7,-7]],[[1868,0],[72,48],[13,15],[-29,51],[-5,33],[14,43]],[[2847,74],[-17,8],[-6,7],[-6,9],[6,33],[12,23],[25,35],[35,74],[13,18],[42,31],[57,20],[56,-1],[42,-33],[8,-29],[6,-45],[2,-47],[-4,-37],[-9,-25],[-13,-14],[-30,-12],[-110,-8],[-109,-7]],[[1868,0],[-13,0],[-7,7],[-7,22],[1,5],[3,3],[1,4],[-86,100],[-14,27],[38,-15],[20,-1],[76,54],[27,3],[26,-19],[-14,-43],[5,-33],[29,-51],[-13,-15],[-72,-48]]]}