{"objects":{"water":{"type":"GeometryCollection","geometries":[{"type":"MultiPolygon","properties":{"source":"naturalearthdata.com","kind":"ocean","area":989871000000000,"sort_rank":200,"min_zoom":0,"id":1},"arcs":[[[0]]]},{"type":"Point","properties":{"label_placement":true,"name:pt":"Mar da Gronel\u00e2ndia","collision_rank":398,"name:ms":"Laut Greenland","name:ko":"\uadf8\ub9b0\ub780\ub4dc \ud574","name:ar":"\u0628\u062d\u0631 \u063a\u0631\u064a\u0646\u0644\u0627\u0646\u062f","name:cs":"Gr\u00f3nsk\u00e9 mo\u0159e","min_zoom":3.0,"name:it":"Mare di Groenlandia","name:ru":"\u0413\u0440\u0435\u043d\u043b\u0430\u043d\u0434\u0441\u043a\u043e\u0435 \u043c\u043e\u0440\u0435","name:vi":"Bi\u1ec3n Greenland","name:pl":"Morze Grenlandzkie","id":305639396,"name:fa":"\u062f\u0631\u06cc\u0627\u06cc \u06af\u0631\u06cc\u0646\u0644\u0646\u062f","sort_rank":200,"name:fi":"Gr\u00f6nlanninmeri","name:da":"Gr\u00f8nlandshavet","name:de":"Gr\u00f6nlandsee","source":"openstreetmap.org","name:fr":"Mer du Groenland","name:zh":"\u683c\u9675\u5170\u6d77","name:sl":"Grenlandsko morje","name:sk":"Gr\u00f3nske more","name:lt":"Grenlandijos j\u016bra","kind":"sea","name:br":"Mor Greunland","name:uk":"\u0413\u0440\u0435\u043d\u043b\u0430\u043d\u0434\u0441\u044c\u043a\u0435 \u043c\u043e\u0440\u0435","name:sv":"Gr\u00f6nlandshavet","name:hu":"Gr\u00f6nlandi-tenger","name:hr":"Grenlandsko more","name:eo":"Gronlanda Maro","name:en":"Greenland Sea","name":"Greenland Sea","wikidata_id":"Q132868","name:es":"Mar de Groenlandia"},"coordinates":[455,1423]}]},"buildings":{"type":"GeometryCollection","geometries":[]},"places":{"type":"GeometryCollection","geometries":[]},"transit":{"type":"GeometryCollection","geometries":[]},"pois":{"type":"GeometryCollection","geometries":[]},"boundaries":{"type":"GeometryCollection","geometries":[]},"roads":{"type":"GeometryCollection","geometries":[]},"earth":{"type":"GeometryCollection","geometries":[]},"landuse":{"type":"GeometryCollection","geometries":[]}},"type":"Topology","transform":{"translate":[-11.25,74.0195433115],"scale":[0.002746582,0.0006887874]},"arcs":[[[4096,4096],[0,-4096],[-4096,0],[0,4096],[4096,0]]]}