{"objects":{"water":{"type":"GeometryCollection","geometries":[{"type":"MultiPolygon","properties":{"source":"naturalearthdata.com","kind":"ocean","area":989871000000000,"sort_rank":200,"min_zoom":0,"id":1},"arcs":[[[0],[1]]]},{"type":"LineString","properties":{"source":"naturalearthdata.com","kind":"ocean","sort_rank":205,"boundary":true,"min_zoom":0,"id":1919},"arcs":[2]}]},"buildings":{"type":"GeometryCollection","geometries":[]},"places":{"type":"GeometryCollection","geometries":[]},"transit":{"type":"GeometryCollection","geometries":[]},"pois":{"type":"GeometryCollection","geometries":[]},"boundaries":{"type":"GeometryCollection","geometries":[]},"roads":{"type":"GeometryCollection","geometries":[]},"earth":{"type":"GeometryCollection","geometries":[{"type":"MultiPolygon","properties":{"sort_rank":10,"source":"naturalearthdata.com","min_zoom":3.0,"kind":"earth","area":85090767527},"arcs":[[[3]]]}]},"landuse":{"type":"GeometryCollection","geometries":[]}},"type":"Topology","transform":{"translate":[-11.25,70.612614238],"scale":[0.002746582,0.0008317698]},"arcs":[[[4096,4096],[0,-4096],[-4096,0],[0,4096],[4096,0]],[[1197,676],[-8,6],[-7,1],[-15,-7],[-29,4],[-8,-4],[-3,-4],[-8,-17],[-4,-4],[-50,-8],[-18,-24],[-9,-17],[-16,-49],[-3,-7],[-6,-11],[-3,-7],[-11,-37],[-4,-8],[-4,-3],[-8,-1],[-3,-2],[-1,-5],[-2,-6],[-2,-4],[-44,-13],[-14,-12],[0,-2],[-1,-5],[-2,-5],[-2,-4],[-16,-21],[-16,-10],[-30,-5],[-8,-6],[-3,-6],[-3,-8],[-4,-7],[-11,-6],[-13,-22],[-6,-6],[-4,-2],[-10,0],[-12,-7],[3,-16],[16,-35],[-1,-5],[-2,-11],[-2,-8],[9,-6],[13,-1],[12,5],[9,9],[3,8],[6,18],[3,8],[6,7],[13,7],[6,6],[59,90],[15,8],[14,16],[44,22],[9,-1],[18,-12],[8,-3],[144,84],[8,15],[-1,22],[-6,27],[-2,23],[8,10],[11,8],[6,20],[1,24],[-9,22]],[[1197,676],[-8,6],[-7,1],[-15,-7],[-29,4],[-8,-4],[-3,-4],[-8,-17],[-4,-4],[-50,-8],[-18,-24],[-9,-17],[-16,-49],[-3,-7],[-6,-11],[-3,-7],[-11,-37],[-4,-8],[-4,-3],[-8,-1],[-3,-2],[-1,-5],[-2,-6],[-2,-4],[-44,-13],[-14,-12],[0,-2],[-1,-5],[-2,-5],[-2,-4],[-16,-21],[-16,-10],[-30,-5],[-8,-6],[-3,-6],[-3,-8],[-4,-7],[-11,-6],[-13,-22],[-6,-6],[-4,-2],[-10,0],[-12,-7],[3,-16],[16,-35],[-1,-5],[-2,-11],[-2,-8],[9,-6],[13,-1],[12,5],[9,9],[3,8],[6,18],[3,8],[6,7],[13,7],[6,6],[59,90],[15,8],[14,16],[44,22],[9,-1],[18,-12],[8,-3],[144,84],[8,15],[-1,22],[-6,27],[-2,23],[8,10],[11,8],[6,20],[1,24],[-9,22]],[[1197,676],[9,-22],[-1,-24],[-6,-20],[-11,-8],[-8,-10],[2,-23],[6,-27],[1,-22],[-8,-15],[-144,-84],[-8,3],[-18,12],[-9,1],[-44,-22],[-14,-16],[-15,-8],[-59,-90],[-6,-6],[-13,-7],[-6,-7],[-3,-8],[-6,-18],[-3,-8],[-9,-9],[-12,-5],[-13,1],[-9,6],[2,8],[2,11],[1,5],[-16,35],[-3,16],[12,7],[10,0],[4,2],[6,6],[13,22],[11,6],[4,7],[3,8],[3,6],[8,6],[30,5],[16,10],[16,21],[2,4],[2,5],[1,5],[0,2],[14,12],[44,13],[2,4],[2,6],[1,5],[3,2],[8,1],[4,3],[4,8],[11,37],[3,7],[6,11],[3,7],[16,49],[9,17],[18,24],[50,8],[4,4],[8,17],[3,4],[8,4],[29,-4],[15,7],[7,-1],[8,-6]]]}