{"objects":{"water":{"type":"GeometryCollection","geometries":[{"type":"MultiPolygon","properties":{"source":"naturalearthdata.com","kind":"ocean","area":989871000000000,"sort_rank":200,"min_zoom":0,"id":1},"arcs":[[[0],[1],[2]]]},{"type":"MultiLineString","properties":{"source":"naturalearthdata.com","kind":"ocean","sort_rank":205,"boundary":true,"min_zoom":0,"id":23},"arcs":[[3],[4],[5]]},{"type":"LineString","properties":{"source":"naturalearthdata.com","kind":"ocean","sort_rank":205,"boundary":true,"min_zoom":0,"id":24},"arcs":[6]},{"type":"LineString","properties":{"source":"naturalearthdata.com","kind":"ocean","sort_rank":205,"boundary":true,"min_zoom":0,"id":2040},"arcs":[7]},{"type":"LineString","properties":{"source":"naturalearthdata.com","kind":"ocean","sort_rank":205,"boundary":true,"min_zoom":0,"id":2041},"arcs":[8]}]},"buildings":{"type":"GeometryCollection","geometries":[]},"places":{"type":"GeometryCollection","geometries":[]},"transit":{"type":"GeometryCollection","geometries":[]},"pois":{"type":"GeometryCollection","geometries":[]},"boundaries":{"type":"GeometryCollection","geometries":[]},"roads":{"type":"GeometryCollection","geometries":[{"type":"LineString","properties":{"source":"naturalearthdata.com","kind":"major_road","kind_detail":"trunk","sort_rank":381,"landuse_kind":"nature_reserve","min_zoom":5.0,"id":47385},"arcs":[9]},{"type":"MultiLineString","properties":{"source":"naturalearthdata.com","kind":"major_road","sort_rank":381,"kind_detail":"trunk","min_zoom":5.0,"id":47385},"arcs":[[10],[11],[12]]},{"type":"LineString","properties":{"source":"naturalearthdata.com","kind":"major_road","sort_rank":381,"kind_detail":"trunk","min_zoom":5.0,"id":47463},"arcs":[13]},{"type":"LineString","properties":{"source":"naturalearthdata.com","kind":"major_road","sort_rank":381,"kind_detail":"trunk","min_zoom":5.1,"id":47754},"arcs":[14]}]},"earth":{"type":"GeometryCollection","geometries":[{"type":"MultiPolygon","properties":{"sort_rank":10,"source":"naturalearthdata.com","min_zoom":0,"kind":"earth","area":11905472224618},"arcs":[[[15]],[[16]],[[17]]]}]},"landuse":{"type":"GeometryCollection","geometries":[{"type":"MultiPolygon","properties":{"kind":"nature_reserve","protect_class":"6","area":1544505940061,"sort_rank":23,"operator":"Parks Australia","source":"openstreetmap.org","min_zoom":4.0,"tier":2,"id":-8426743},"arcs":[[[18]],[[19]],[[20],[21]]]},{"type":"MultiPolygon","properties":{"kind":"nature_reserve","protect_class":"6","area":136454991234,"sort_rank":23,"operator":"Department of Environment, Water and Natural Resources (South Australia)","source":"openstreetmap.org","min_zoom":4.0,"tier":2,"id":-6193646},"arcs":[[[22]],[[23]]]},{"type":"Polygon","properties":{"kind":"nature_reserve","tier":2,"protect_class":"4","area":1084600000,"sort_rank":23,"source":"openstreetmap.org","min_zoom":4.0,"operator":"Nature Foundation South Australia Inc","id":-8489743},"arcs":[[24]]},{"type":"MultiPolygon","properties":{"kind":"nature_reserve","protect_class":"2","area":762121086789,"sort_rank":23,"operator":"Parks Australia","source":"openstreetmap.org","min_zoom":4.0,"tier":2,"id":-8601871},"arcs":[[[25]],[[26]],[[27]],[[28]],[[29]],[[30],[31],[32]]]},{"type":"Polygon","properties":{"kind":"nature_reserve","tier":2,"protect_class":"1","area":7866970000,"sort_rank":23,"source":"openstreetmap.org","min_zoom":4.0,"operator":"Department of Parks and WIldlife, Western Australia","id":-8143978},"arcs":[[33]]}]}},"type":"Topology","transform":{"translate":[123.75,-40.9798980696],"scale":[0.002746582,0.0022040371]},"arcs":[[[4096,3283],[0,-3283],[-4096,0],[0,3291],[2,6],[22,25],[15,11],[2,2],[1,2],[0,2],[-1,1],[0,1],[5,7],[6,6],[7,4],[8,1],[7,4],[3,9],[1,22],[2,9],[7,20],[2,11],[3,10],[2,6],[0,3],[0,3],[0,4],[14,31],[4,7],[4,8],[3,9],[2,19],[5,16],[7,15],[18,25],[13,13],[8,6],[7,2],[5,4],[15,16],[7,5],[15,6],[59,11],[69,11],[14,5],[32,12],[24,15],[36,44],[7,2],[6,1],[22,8],[58,33],[30,17],[50,17],[23,7],[49,41],[48,38],[24,19],[21,12],[18,10],[11,5],[26,-3],[9,3],[3,3],[5,7],[4,3],[14,4],[4,2],[6,-3],[17,-1],[10,-7],[35,-12],[111,-15],[30,2],[10,5],[12,-5],[42,5],[43,-2],[11,5],[2,-3],[7,3],[65,9],[89,28],[2,2],[7,9],[3,2],[8,1],[65,26],[92,18],[73,30],[61,30],[1361,0],[14,-18],[12,-12],[14,-7],[16,-2],[17,2],[18,8],[9,1],[8,0],[8,-3],[7,-4],[4,-1],[4,2],[-5,8],[-5,6],[-1,6],[3,8],[5,5],[2,1],[109,0],[6,-2],[17,-15],[9,-12],[24,-21],[7,-2],[4,-3],[2,-6],[1,-6],[1,-4],[4,-1],[3,2],[3,3],[3,2],[8,-1],[8,-5],[29,-31],[3,-5],[1,-3],[1,-1],[2,0],[3,0],[7,5],[4,1],[3,-1],[8,-4],[8,-3],[6,-7],[3,-1],[4,2],[9,11],[8,-4],[11,-3],[20,-3],[3,2],[2,3],[2,3],[2,2],[4,-1],[6,-5],[3,-1],[8,3],[-2,5],[-6,7],[-8,4],[-9,1],[-3,2],[-1,5],[1,6],[4,1],[4,0],[4,1],[9,8],[4,-2],[1,-11],[3,-2],[4,-4],[16,-9],[3,0],[4,4],[3,9],[1,10],[1,9],[6,3],[8,-1],[9,-2],[8,-4],[4,-5],[-1,-4],[-3,-3],[-3,-3],[1,-4],[3,-3],[4,0],[3,-2],[1,-5],[0,-5],[-1,-2],[4,-3],[3,-2],[8,-3],[8,-4],[2,0],[1,-2],[0,-12],[2,-5],[3,-3],[4,-1],[2,2],[3,4],[4,3],[5,1],[2,-2],[5,-11],[18,-18],[2,-5],[3,-8],[11,-15],[4,-6],[-2,-9],[-6,-5],[-7,-1],[-3,3],[-2,7],[-5,-5],[-5,-10],[-3,-9],[0,-3],[0,-14],[1,-2],[1,-5],[-1,-2],[-1,-2],[-2,-5],[0,-2],[1,-5],[3,-3],[4,-1],[4,1],[5,2],[2,3],[1,3],[2,4],[8,9],[6,1],[6,-2],[9,-1],[4,3],[4,7],[6,8],[7,3],[4,-1],[7,-4],[3,1],[3,4],[3,2],[4,1],[5,0],[6,-2],[17,-18],[13,-12],[8,-14],[7,-16],[9,-32],[0,-9],[-5,-10],[-3,-10],[-1,-4],[-3,-3],[-7,-6],[-5,-7],[-2,-5],[-2,-11],[-2,-2],[-5,3],[-1,2],[-1,6],[0,6],[0,4],[2,5],[1,4],[5,7],[-9,2],[-27,1],[-11,3],[-5,-1],[-3,-5],[1,-3],[14,-21],[6,-13],[3,-13],[-3,-11],[-3,-3],[-10,-7],[-3,-4],[-4,-7],[-3,-2],[3,-8],[5,-3],[14,-1],[6,-5],[4,-2],[1,2],[2,2],[3,2],[4,1],[5,-4],[5,-7],[3,-9],[-1,-8],[-4,-6],[-12,-3],[-6,-4],[4,-6],[4,-1],[11,1],[8,0],[4,-3],[3,-5],[8,-22],[2,-8],[1,-10],[2,-7],[20,-19],[5,3],[2,4],[1,6],[0,7],[2,3],[3,-3],[4,-5],[0,-3],[8,2],[8,5],[8,4],[12,-2],[23,-16],[17,-4],[6,-5],[9,-15],[3,4],[2,3],[3,2],[4,0],[-3,4],[-3,3],[-3,2],[-1,5],[-2,4],[-4,2],[-10,-1],[-6,3],[-1,8],[4,6],[9,1],[23,-8],[8,-1],[5,-4],[5,-9],[3,-9],[1,-6],[-5,-1],[-9,0],[-6,-2],[4,-8],[3,-3],[9,-4],[4,-3],[12,-16],[13,-13],[5,-7],[4,-19],[11,-30],[2,-9],[2,-9],[1,-21],[-2,-9],[-4,-8],[-2,-9],[3,-9],[-5,-4],[3,-3],[12,-6],[2,-3],[7,-11],[2,-2],[9,-7],[3,-4],[20,-15]],[[3931,3297],[-2,6],[-1,2],[-3,-1],[-1,-1],[-10,-2],[-5,-3],[-1,-2],[0,-6],[0,-4],[-4,-13],[2,-8],[4,4],[8,13],[6,2],[6,1],[2,3],[-1,9]],[[3574,3929],[11,5],[5,1],[1,2],[1,4],[2,4],[5,2],[-2,2],[-3,7],[20,7],[0,3],[-9,0],[-10,-2],[-9,-4],[-7,-4],[-7,-6],[-6,-9],[-1,-9],[9,-3]],[[3803,3849],[-17,18],[-6,2],[-5,0],[-4,-1],[-3,-2],[-3,-4],[-3,-1],[-7,4],[-4,1],[-7,-3],[-6,-8],[-4,-7],[-4,-3],[-9,1],[-6,2],[-6,-1],[-8,-9],[-2,-4],[-1,-3],[-2,-3],[-5,-2],[-4,-1],[-4,1],[-3,3],[-1,5],[0,2],[2,5],[1,2],[1,2],[-1,5],[-1,2],[0,14],[0,3],[3,9],[5,10],[5,5],[2,-7],[3,-3],[7,1],[6,5],[2,9],[-4,6],[-11,15],[-3,8],[-2,5],[-18,18],[-5,11],[-2,2],[-5,-1],[-4,-3],[-3,-4],[-2,-2],[-4,1],[-3,3],[-2,5],[0,12],[-1,2],[-2,0],[-8,4],[-8,3],[-3,2],[-4,3],[1,2],[0,5],[-1,5],[-3,2],[-4,0],[-3,3],[-1,4],[3,3],[3,3],[1,4],[-4,5],[-8,4],[-9,2],[-8,1],[-6,-3],[-1,-9],[-1,-10],[-3,-9],[-4,-4],[-3,0],[-16,9],[-4,4],[-3,2],[-1,11],[-4,2],[-9,-8],[-4,-1],[-4,0],[-4,-1],[-1,-6],[1,-5],[3,-2],[9,-1],[8,-4],[6,-7],[2,-5],[-8,-3],[-3,1],[-6,5],[-4,1],[-2,-2],[-2,-3],[-2,-3],[-3,-2],[-20,3],[-11,3],[-8,4],[-9,-11],[-4,-2],[-3,1],[-6,7],[-8,3],[-8,4],[-3,1],[-4,-1],[-7,-5],[-3,0],[-2,0],[-1,1],[-1,3],[-3,5],[-29,31],[-8,5],[-8,1],[-3,-2],[-3,-3],[-3,-2],[-4,1],[-1,4],[-1,6],[-2,6],[-4,3],[-7,2],[-24,21],[-9,12],[-17,15],[-6,2]],[[3179,4096],[-2,-1],[-5,-5],[-3,-8],[1,-6],[5,-6],[5,-8],[-4,-2],[-4,1],[-7,4],[-8,3],[-8,0],[-9,-1],[-18,-8],[-17,-2],[-16,2],[-14,7],[-12,12],[-14,18]],[[1688,4096],[-61,-30],[-73,-30],[-92,-18],[-65,-26],[-8,-1],[-3,-2],[-7,-9],[-2,-2],[-89,-28],[-65,-9],[-7,-3],[-2,3],[-11,-5],[-43,2],[-42,-5],[-12,5],[-10,-5],[-30,-2],[-111,15],[-35,12],[-10,7],[-17,1],[-6,3],[-4,-2],[-14,-4],[-4,-3],[-5,-7],[-3,-3],[-9,-3],[-26,3],[-11,-5],[-18,-10],[-21,-12],[-24,-19],[-48,-38],[-49,-41],[-23,-7],[-50,-17],[-30,-17],[-58,-33],[-22,-8],[-6,-1],[-7,-2],[-36,-44],[-24,-15],[-32,-12],[-14,-5],[-69,-11],[-59,-11],[-15,-6],[-7,-5],[-15,-16],[-5,-4],[-7,-2],[-8,-6],[-13,-13],[-18,-25],[-7,-15],[-5,-16],[-2,-19],[-3,-9],[-4,-8],[-4,-7],[-14,-31],[0,-4],[0,-3],[0,-3],[-2,-6],[-3,-10],[-2,-11],[-7,-20],[-2,-9],[-1,-22],[-3,-9],[-7,-4],[-8,-1],[-7,-4],[-6,-6],[-5,-7],[0,-1],[1,-1],[0,-2],[-1,-2],[-2,-2],[-15,-11],[-22,-25],[-2,-6]],[[4096,3283],[-20,15],[-3,4],[-9,7],[-2,2],[-7,11],[-2,3],[-12,6],[-3,3],[5,4],[-3,9],[2,9],[4,8],[2,9],[-1,21],[-2,9],[-2,9],[-11,30],[-4,19],[-5,7],[-13,13],[-12,16],[-4,3],[-9,4],[-3,3],[-4,8],[6,2],[9,0],[5,1],[-1,6],[-3,9],[-5,9],[-5,4],[-8,1],[-23,8],[-9,-1],[-4,-6],[1,-8],[6,-3],[10,1],[4,-2],[2,-4],[1,-5],[3,-2],[3,-3],[3,-4],[-4,0],[-3,-2],[-2,-3],[-3,-4],[-9,15],[-6,5],[-17,4],[-23,16],[-12,2],[-8,-4],[-8,-5],[-8,-2],[0,3],[-4,5],[-3,3],[-2,-3],[0,-7],[-1,-6],[-2,-4],[-5,-3],[-20,19],[-2,7],[-1,10],[-2,8],[-8,22],[-3,5],[-4,3],[-8,0],[-11,-1],[-4,1],[-4,6],[6,4],[12,3],[4,6],[1,8],[-3,9],[-5,7],[-5,4],[-4,-1],[-3,-2],[-2,-2],[-1,-2],[-4,2],[-6,5],[-14,1],[-5,3],[-3,8],[3,2],[4,7],[3,4],[10,7],[3,3],[3,11],[-3,13],[-6,13],[-14,21],[-1,3],[3,5],[5,1],[11,-3],[27,-1],[9,-2],[-5,-7],[-1,-4],[-2,-5],[0,-4],[0,-6],[1,-6],[1,-2],[5,-3],[2,2],[2,11],[2,5],[5,7],[7,6],[3,3],[1,4],[3,10],[5,10],[0,9],[-9,32],[-7,16],[-8,14],[-13,12]],[[3931,3297],[-2,6],[-1,2],[-3,-1],[-1,-1],[-10,-2],[-5,-3],[-1,-2],[0,-6],[0,-4],[-4,-13],[2,-8],[4,4],[8,13],[6,2],[6,1],[2,3],[-1,9]],[[3574,3929],[11,5],[5,1],[1,2],[1,4],[2,4],[5,2],[-2,2],[-3,7],[20,7],[0,3],[-9,0],[-10,-2],[-9,-4],[-7,-4],[-7,-6],[-6,-9],[-1,-9],[9,-3]],[[747,4020],[15,8],[20,9],[16,6],[14,6],[21,5],[19,6],[29,5],[37,6],[17,2],[5,-1]],[[0,3878],[7,-5],[13,-8],[17,-7],[45,7],[19,4],[23,2],[27,4],[24,5],[30,6],[62,7],[39,4],[16,4],[42,4],[18,3],[23,6],[30,5],[21,2],[24,4],[42,9],[46,8],[14,2],[39,7],[17,8],[15,11],[13,9],[8,4],[27,9],[15,8],[10,7],[14,10],[7,3]],[[940,4072],[14,-3],[23,4],[22,7],[18,0],[19,2],[19,6],[24,7],[2,1]],[[3525,4096],[8,-2],[10,-10],[12,-5],[24,-17],[24,-13],[12,-10],[5,-9],[4,-11],[21,-6]],[[4096,3708],[-15,6],[-20,9],[-10,4],[-11,7],[-16,21],[-9,5],[-15,15],[-12,23],[-15,17],[-15,22],[-23,26],[-7,8],[-8,4],[-21,1],[-21,4],[-6,2],[-15,21],[-21,13],[-15,17],[-9,7],[-12,8],[-15,15],[-25,13],[-16,9],[-42,19],[-18,3],[-30,6],[-9,0]],[[3645,4013],[12,-9],[30,-38],[8,-15],[12,-17],[15,-22],[18,-13],[18,-9],[26,-6],[16,-9],[21,-21],[15,-17],[11,-20],[1,-8],[3,-20],[5,-30],[1,-17],[-3,-15],[-13,-11],[-9,-2],[-9,-6],[1,-9],[3,-4],[33,-17],[9,-6],[21,-9],[11,-9],[7,-10],[15,-18],[3,-10],[18,-20],[9,-13],[8,-10],[7,-11],[5,-4],[12,-5],[10,-6],[6,-6],[8,-11],[6,-17],[10,-9],[21,-11],[8,-8],[6,-9],[6,-15],[6,-24],[3,-23],[-2,-13],[-3,-22],[-10,-34],[6,-9],[9,-12],[13,-11],[8,-5]],[[3288,4096],[808,0],[0,-813],[-20,15],[-3,4],[-9,7],[-2,2],[-7,11],[-2,3],[-12,6],[-3,3],[5,4],[-3,9],[2,9],[4,8],[2,9],[-1,21],[-2,9],[-2,9],[-11,30],[-4,19],[-5,7],[-13,13],[-12,16],[-4,3],[-9,4],[-3,3],[-4,8],[6,2],[9,0],[5,1],[-1,6],[-3,9],[-5,9],[-5,4],[-8,1],[-23,8],[-9,-1],[-4,-6],[1,-8],[6,-3],[10,1],[4,-2],[2,-4],[1,-5],[3,-2],[3,-3],[3,-4],[-4,0],[-3,-2],[-2,-3],[-3,-4],[-9,15],[-6,5],[-17,4],[-23,16],[-12,2],[-8,-4],[-8,-5],[-8,-2],[0,3],[-4,5],[-3,3],[-2,-3],[0,-7],[-1,-6],[-2,-4],[-5,-3],[-20,19],[-2,7],[-1,10],[-2,8],[-8,22],[-3,5],[-4,3],[-8,0],[-11,-1],[-4,1],[-4,6],[6,4],[12,3],[4,6],[1,8],[-3,9],[-5,7],[-5,4],[-4,-1],[-3,-2],[-2,-2],[-1,-2],[-4,2],[-6,5],[-14,1],[-5,3],[-3,8],[3,2],[4,7],[3,4],[10,7],[3,3],[3,11],[-3,13],[-6,13],[-14,21],[-1,3],[3,5],[5,1],[11,-3],[27,-1],[9,-2],[-5,-7],[-1,-4],[-2,-5],[0,-4],[0,-6],[1,-6],[1,-2],[5,-3],[2,2],[2,11],[2,5],[5,7],[7,6],[3,3],[1,4],[3,10],[5,10],[0,9],[-9,32],[-7,16],[-8,14],[-13,12],[-17,18],[-6,2],[-5,0],[-4,-1],[-3,-2],[-3,-4],[-3,-1],[-7,4],[-4,1],[-7,-3],[-6,-8],[-4,-7],[-4,-3],[-9,1],[-6,2],[-6,-1],[-8,-9],[-2,-4],[-1,-3],[-2,-3],[-5,-2],[-4,-1],[-4,1],[-3,3],[-1,5],[0,2],[2,5],[1,2],[1,2],[-1,5],[-1,2],[0,14],[0,3],[3,9],[5,10],[5,5],[2,-7],[3,-3],[7,1],[6,5],[2,9],[-4,6],[-11,15],[-3,8],[-2,5],[-18,18],[-5,11],[-2,2],[-5,-1],[-4,-3],[-3,-4],[-2,-2],[-4,1],[-3,3],[-2,5],[0,12],[-1,2],[-2,0],[-8,4],[-8,3],[-3,2],[-4,3],[1,2],[0,5],[-1,5],[-3,2],[-4,0],[-3,3],[-1,4],[3,3],[3,3],[1,4],[-4,5],[-8,4],[-9,2],[-8,1],[-6,-3],[-1,-9],[-1,-10],[-3,-9],[-4,-4],[-3,0],[-16,9],[-4,4],[-3,2],[-1,11],[-4,2],[-9,-8],[-4,-1],[-4,0],[-4,-1],[-1,-6],[1,-5],[3,-2],[9,-1],[8,-4],[6,-7],[2,-5],[-8,-3],[-3,1],[-6,5],[-4,1],[-2,-2],[-2,-3],[-2,-3],[-3,-2],[-20,3],[-11,3],[-8,4],[-9,-11],[-4,-2],[-3,1],[-6,7],[-8,3],[-8,4],[-3,1],[-4,-1],[-7,-5],[-3,0],[-2,0],[-1,1],[-1,3],[-3,5],[-29,31],[-8,5],[-8,1],[-3,-2],[-3,-3],[-3,-2],[-4,1],[-1,4],[-1,6],[-2,6],[-4,3],[-7,2],[-24,21],[-9,12],[-17,15],[-6,2]],[[3049,4096],[130,0],[-2,-1],[-5,-5],[-3,-8],[1,-6],[5,-6],[5,-8],[-4,-2],[-4,1],[-7,4],[-8,3],[-8,0],[-9,-1],[-18,-8],[-17,-2],[-16,2],[-14,7],[-12,12],[-14,18]],[[0,3291],[0,805],[1688,0],[-61,-30],[-73,-30],[-92,-18],[-65,-26],[-8,-1],[-3,-2],[-7,-9],[-2,-2],[-89,-28],[-65,-9],[-7,-3],[-2,3],[-11,-5],[-43,2],[-42,-5],[-12,5],[-10,-5],[-30,-2],[-111,15],[-35,12],[-10,7],[-17,1],[-6,3],[-4,-2],[-14,-4],[-4,-3],[-5,-7],[-3,-3],[-9,-3],[-26,3],[-11,-5],[-18,-10],[-21,-12],[-24,-19],[-48,-38],[-49,-41],[-23,-7],[-50,-17],[-30,-17],[-58,-33],[-22,-8],[-6,-1],[-7,-2],[-36,-44],[-24,-15],[-32,-12],[-14,-5],[-69,-11],[-41,-7],[-18,-4],[-15,-6],[-7,-5],[-15,-16],[-5,-4],[-7,-2],[-8,-6],[-13,-13],[-18,-25],[-7,-15],[-5,-16],[-2,-19],[-3,-9],[-4,-8],[-4,-7],[-14,-31],[0,-4],[0,-3],[0,-3],[-2,-6],[-3,-10],[-2,-11],[-7,-20],[-2,-9],[-1,-22],[-3,-9],[-7,-4],[-8,-1],[-7,-4],[-6,-6],[-5,-7],[0,-1],[1,-1],[0,-2],[-1,-2],[-2,-2],[-15,-11],[-22,-25],[-2,-6]],[[4096,2441],[0,-318],[-182,0],[0,-317],[145,-985],[-301,219],[-172,164],[146,602],[0,847],[-91,45],[0,287],[-273,0],[0,915],[44,2],[35,-98],[-43,-3],[-1,-37],[56,-6],[19,24],[223,-56],[59,-126],[86,-98],[-41,0],[0,-244],[182,0],[0,-265],[-177,0],[-5,-280],[0,-23],[109,-68],[0,-181],[182,0]],[[1912,4096],[1089,0],[46,-42],[-20,-47],[25,-23],[-327,0],[0,-121],[-134,0],[0,-832],[231,0],[0,-1171],[-146,235],[-230,527],[0,1241],[-37,0],[0,121],[-497,0],[0,112]],[[0,2838],[0,384],[20,15],[19,67],[52,5],[-29,-64],[29,-22],[0,-385],[-91,0]],[[24,3122],[28,-27],[26,33],[-26,21],[-28,-27]],[[3742,4096],[240,0],[9,-14],[-28,-52],[60,-24],[21,-105],[-43,52],[-36,-12],[-68,28],[-15,34],[-44,0],[0,32],[-51,0],[0,32],[-45,29]],[[3681,4096],[21,0],[-23,-8],[2,8]],[[4075,4001],[21,15],[0,-30],[-21,15]],[[3586,1204],[146,602],[182,0],[145,-985],[-301,219],[-172,164]],[[3805,2993],[0,152],[72,25],[1,-49],[48,0],[0,-128],[-121,0]],[[3186,3772],[0,136],[109,0],[0,-136],[-109,0]],[[2409,4096],[316,0],[0,-233],[-316,0],[0,233]],[[746,3575],[0,303],[73,33],[0,13],[45,8],[12,5],[10,-1],[23,4],[0,-8],[70,-11],[0,-285],[-233,-61]],[[0,2259],[0,963],[20,15],[19,67],[58,8],[10,36],[93,0],[0,-272],[-109,0],[0,-817],[-91,0]],[[62,3245],[26,-22],[34,31],[-6,-32],[10,-5],[23,-8],[27,40],[0,5],[-14,53],[-16,3],[-46,-17],[-38,-48]],[[24,3122],[28,-27],[26,33],[-26,21],[-28,-27]],[[0,3480],[38,20],[167,172],[96,17],[350,183],[96,82],[0,71],[52,31],[141,21],[0,-88],[49,-13],[387,36],[-3,-36],[-114,-28],[-191,-15],[-174,36],[-93,-27],[-152,-117],[-184,-82],[-76,-65],[-210,-64],[-50,-70],[-47,-177],[-82,-51],[0,164]]]}