{"objects":{"water":{"type":"GeometryCollection","geometries":[{"type":"MultiPolygon","properties":{"source":"naturalearthdata.com","kind":"ocean","area":989871000000000,"sort_rank":200,"min_zoom":0,"id":1},"arcs":[[[0]]]},{"type":"MultiLineString","properties":{"source":"naturalearthdata.com","kind":"ocean","sort_rank":205,"boundary":true,"min_zoom":0,"id":3517},"arcs":[[1],[2],[3],[4]]}]},"buildings":{"type":"GeometryCollection","geometries":[]},"places":{"type":"GeometryCollection","geometries":[]},"transit":{"type":"GeometryCollection","geometries":[]},"pois":{"type":"GeometryCollection","geometries":[]},"boundaries":{"type":"GeometryCollection","geometries":[]},"roads":{"type":"GeometryCollection","geometries":[]},"earth":{"type":"GeometryCollection","geometries":[{"type":"MultiPolygon","properties":{"sort_rank":10,"source":"naturalearthdata.com","min_zoom":0,"kind":"earth","area":11905472224618},"arcs":[[[5]],[[6]],[[7]],[[8]]]}]},"landuse":{"type":"GeometryCollection","geometries":[]}},"type":"Topology","transform":{"translate":[123.75,-66.5132604431],"scale":[0.002746582,0.0011979649]},"arcs":[[[0,0],[0,4096],[4096,0],[0,-3970],[-5,4],[-10,12],[-8,1],[-23,-13],[-49,-8],[10,25],[-126,-133],[-18,-14],[-25,0],[2,6],[3,7],[4,7],[4,5],[-63,-25],[-20,7],[44,52],[11,25],[31,38],[27,20],[7,12],[-5,14],[-8,6],[-10,-1],[-27,-12],[-4,1],[-5,5],[-2,6],[-3,17],[-2,5],[-9,4],[-8,-4],[-8,0],[-15,35],[-8,9],[-18,8],[-23,18],[-4,1],[-10,-3],[-5,0],[-10,4],[-9,8],[-7,12],[-6,20],[-7,15],[-11,12],[-12,6],[-67,-2],[-39,21],[-82,3],[-56,-14],[-11,-8],[-27,-33],[-69,-37],[-80,3],[-19,9],[-19,17],[-9,4],[-120,-23],[-36,-33],[-106,-22],[-133,27],[-4,-3],[-11,-14],[-5,-5],[-5,-2],[-20,2],[-10,3],[-5,3],[-4,6],[-8,15],[-4,5],[-10,3],[-21,-5],[-11,3],[-18,9],[-54,3],[-12,4],[-40,27],[-9,-2],[-29,-30],[-8,-10],[-8,-37],[-7,-17],[-11,17],[-25,-9],[-44,-36],[1,6],[1,13],[0,6],[-13,-11],[-7,-1],[-14,14],[-6,2],[-49,-14],[-14,-14],[-11,-31],[-9,-12],[-35,-5],[-13,-9],[-28,-36],[-29,-27],[4,-18],[-2,-24],[-5,-21],[-1076,0],[3,9],[5,5],[11,4],[4,5],[4,6],[8,24],[-28,12],[-10,1],[-17,-9],[-7,2],[-6,17],[14,15],[-7,0],[-14,-5],[-6,-5],[-18,-20],[-5,-4],[-5,2],[-13,8],[-7,2],[-3,6],[2,16],[6,26],[-10,5],[-10,8],[-10,2],[-10,-14],[-1,-14],[3,-66],[-2,-38],[-36,0],[-5,12],[15,9],[-1,15],[-12,14],[-14,4],[-15,-4],[-8,-5],[-7,-9],[-21,26],[-3,37],[-6,28],[-9,18],[-24,7],[-5,7],[-5,9],[-6,6],[-6,2],[-8,0],[-8,-3],[-47,-43],[-12,-17],[-11,-11],[-107,-22],[-28,-26],[-5,-54],[-572,0]],[[4096,126],[-5,4],[-10,12],[-8,1],[-23,-13],[-49,-8],[10,25],[-126,-133],[-18,-14]],[[3842,0],[2,6],[3,7],[4,7],[4,5],[-63,-25],[-20,7],[44,52],[11,25],[31,38],[27,20],[7,12],[-5,14],[-8,6],[-10,-1],[-27,-12],[-4,1],[-5,5],[-2,6],[-3,17],[-2,5],[-9,4],[-8,-4],[-8,0],[-15,35],[-8,9],[-18,8],[-23,18],[-4,1],[-10,-3],[-5,0],[-10,4],[-9,8],[-7,12],[-6,20],[-7,15],[-11,12],[-12,6],[-67,-2],[-39,21],[-82,3],[-56,-14],[-11,-8],[-27,-33],[-69,-37],[-80,3],[-19,9],[-19,17],[-9,4],[-120,-23],[-36,-33],[-106,-22],[-133,27],[-4,-3],[-11,-14],[-5,-5],[-5,-2],[-20,2],[-10,3],[-5,3],[-4,6],[-8,15],[-4,5],[-10,3],[-21,-5],[-11,3],[-18,9],[-54,3],[-12,4],[-40,27],[-9,-2],[-29,-30],[-8,-10],[-8,-37],[-7,-17],[-11,17],[-25,-9],[-44,-36],[1,6],[1,13],[0,6],[-13,-11],[-7,-1],[-14,14],[-6,2],[-49,-14],[-14,-14],[-11,-31],[-9,-12],[-35,-5],[-13,-9],[-28,-36],[-29,-27],[4,-18],[-2,-24],[-5,-21]],[[1095,0],[3,9],[5,5],[11,4],[4,5],[4,6],[8,24],[-28,12],[-10,1],[-17,-9],[-7,2],[-6,17],[14,15],[-7,0],[-14,-5],[-6,-5],[-18,-20],[-5,-4],[-5,2],[-13,8],[-7,2],[-3,6],[2,16],[6,26],[-10,5],[-10,8],[-10,2],[-10,-14],[-1,-14],[3,-66],[-2,-38]],[[930,0],[-5,12],[15,9],[-1,15],[-12,14],[-14,4],[-15,-4],[-8,-5],[-7,-9],[-21,26],[-3,37],[-6,28],[-9,18],[-24,7],[-5,7],[-5,9],[-6,6],[-6,2],[-8,0],[-8,-3],[-47,-43],[-12,-17],[-11,-11],[-107,-22],[-28,-26],[-5,-54]],[[966,0],[2,38],[-3,66],[1,14],[10,14],[10,-2],[10,-8],[10,-5],[-6,-26],[-2,-16],[3,-6],[7,-2],[13,-8],[5,-2],[5,4],[18,20],[6,5],[14,5],[7,0],[-14,-15],[6,-17],[7,-2],[17,9],[10,-1],[28,-12],[-8,-24],[-4,-6],[-4,-5],[-11,-4],[-5,-5],[-3,-9],[-129,0]],[[572,0],[5,54],[28,26],[107,22],[11,11],[12,17],[47,43],[8,3],[8,0],[6,-2],[6,-6],[5,-9],[5,-7],[24,-7],[9,-18],[6,-28],[3,-37],[21,-26],[7,9],[8,5],[15,4],[14,-4],[12,-14],[1,-15],[-15,-9],[5,-12],[-358,0]],[[4096,126],[0,-126],[-229,0],[18,14],[126,133],[-10,-25],[49,8],[23,13],[8,-1],[10,-12],[5,-4]],[[2171,0],[5,21],[2,24],[-4,18],[29,27],[28,36],[13,9],[35,5],[9,12],[11,31],[14,14],[49,14],[6,-2],[14,-14],[7,1],[13,11],[0,-6],[-1,-13],[-1,-6],[44,36],[25,9],[11,-17],[7,17],[8,37],[8,10],[29,30],[9,2],[40,-27],[12,-4],[54,-3],[18,-9],[11,-3],[21,5],[10,-3],[4,-5],[8,-15],[4,-6],[5,-3],[10,-3],[20,-2],[5,2],[5,5],[11,14],[4,3],[133,-27],[106,22],[36,33],[120,23],[9,-4],[19,-17],[19,-9],[80,-3],[69,37],[27,33],[11,8],[56,14],[82,-3],[39,-21],[67,2],[12,-6],[11,-12],[7,-15],[6,-20],[7,-12],[9,-8],[10,-4],[5,0],[10,3],[4,-1],[23,-18],[18,-8],[8,-9],[15,-35],[8,0],[8,4],[9,-4],[2,-5],[3,-17],[2,-6],[5,-5],[4,-1],[27,12],[10,1],[8,-6],[5,-14],[-7,-12],[-27,-20],[-31,-38],[-11,-25],[-44,-52],[20,-7],[63,25],[-4,-5],[-4,-7],[-3,-7],[-2,-6],[-1671,0]]]}