{"objects":{"water":{"type":"GeometryCollection","geometries":[{"type":"MultiPolygon","properties":{"source":"naturalearthdata.com","kind":"ocean","area":989871000000000,"sort_rank":200,"min_zoom":0,"id":1},"arcs":[[[0]],[[1]],[[2]]]},{"type":"MultiLineString","properties":{"source":"naturalearthdata.com","kind":"ocean","sort_rank":205,"boundary":true,"min_zoom":0,"id":3517},"arcs":[[3],[4],[5],[6]]}]},"buildings":{"type":"GeometryCollection","geometries":[]},"places":{"type":"GeometryCollection","geometries":[]},"transit":{"type":"GeometryCollection","geometries":[]},"pois":{"type":"GeometryCollection","geometries":[]},"boundaries":{"type":"GeometryCollection","geometries":[]},"roads":{"type":"GeometryCollection","geometries":[]},"earth":{"type":"GeometryCollection","geometries":[{"type":"Polygon","properties":{"sort_rank":10,"source":"naturalearthdata.com","min_zoom":0,"kind":"earth","area":83319317895524},"arcs":[[7]]}]},"landuse":{"type":"GeometryCollection","geometries":[]}},"type":"Topology","transform":{"translate":[123.75,-70.612614238],"scale":[0.002746582,0.0010008188]},"arcs":[[[2171,4096],[-1,-2],[-7,-17],[-7,-14],[-6,-15],[-6,-13],[-29,-26],[-10,-14],[-4,-15],[-4,-23],[-13,-39],[-2,-26],[12,2],[18,-3],[12,-11],[-3,-21],[-18,-25],[-3,-8],[-5,-20],[-4,-12],[-5,-8],[-21,-20],[-10,-15],[-3,-19],[14,-36],[4,-14],[3,-17],[0,-15],[-3,-8],[-59,-40],[-10,-17],[-9,-26],[-2,-9],[-1,-8],[0,-17],[-1,-8],[-3,-8],[-37,-67],[-13,-7],[-10,19],[-6,33],[-3,11],[-69,77],[-22,9],[-11,-33],[-3,-30],[-6,-20],[-9,-10],[-21,-4],[-38,-23],[-10,1],[-40,27],[-3,7],[-3,22],[-4,10],[-9,7],[-13,-3],[-32,-26],[-8,-3],[-8,2],[-20,19],[-2,7],[-6,40],[-2,10],[-2,3],[-56,-6],[-21,9],[-10,-1],[-52,-36],[-29,8],[-66,-22],[-12,3],[-11,13],[-3,11],[-1,10],[4,28],[-1,7],[-4,7],[-8,10],[11,51],[-60,-49],[-6,-9],[-6,-15],[-4,-17],[-1,-14],[2,-19],[-1,-14],[-2,-13],[-14,-44],[-5,-9],[-6,-2],[-6,11],[0,18],[2,20],[0,13],[-2,6],[-4,5],[-3,5],[-1,8],[4,13],[1,8],[0,8],[0,21],[1,16],[2,14],[6,13],[-30,24],[7,16],[6,21],[10,47],[-29,39],[-5,2],[-97,-38],[-7,0],[-6,14],[-1,15],[4,47],[2,13],[13,17],[29,24],[8,24],[-5,9],[-9,23],[-5,7],[-22,11],[-13,-2],[-36,-22],[11,35],[6,11],[10,8],[18,10],[9,8],[7,16],[5,23],[-1,17],[0,15],[3,9],[1076,0]],[[966,4096],[0,-14],[-4,-25],[-7,-9],[-7,8],[-18,39],[0,1],[36,0]],[[0,4096],[572,0],[0,-4],[-11,-6],[-9,-16],[-6,-23],[-4,-28],[-5,-22],[-9,-19],[-19,-28],[-9,-8],[-36,-12],[-53,-36],[-4,-1],[-2,3],[-4,14],[-2,3],[-8,-1],[-2,-9],[-2,-11],[-3,-10],[-9,-14],[-23,-18],[-17,-6],[-6,0],[-6,2],[-5,7],[-3,7],[-4,17],[-3,5],[-2,0],[-4,-6],[-3,-1],[-21,3],[-11,-2],[-10,-6],[2,5],[2,12],[2,5],[-6,-3],[-10,7],[-5,1],[-14,-6],[-6,-2],[-7,3],[7,19],[3,13],[2,11],[-1,16],[-2,7],[-30,15],[-8,13],[0,28],[-57,7],[-4,-3],[-15,-19],[-6,-4],[-6,1],[11,15],[-7,7],[-5,3],[-6,-3],[-7,-5],[-3,-6],[-2,-5],[-2,-3],[-11,2],[-66,-38],[0,133]],[[3867,4096],[-8,-7],[-18,3],[1,4]],[[2171,4096],[-1,-2],[-7,-17],[-7,-14],[-6,-15],[-6,-13],[-29,-26],[-10,-14],[-4,-15],[-4,-23],[-13,-39],[-2,-26],[12,2],[18,-3],[12,-11],[-3,-21],[-18,-25],[-3,-8],[-5,-20],[-4,-12],[-5,-8],[-21,-20],[-10,-15],[-3,-19],[14,-36],[4,-14],[3,-17],[0,-15],[-3,-8],[-59,-40],[-10,-17],[-9,-26],[-2,-9],[-1,-8],[0,-17],[-1,-8],[-3,-8],[-37,-67],[-13,-7],[-10,19],[-6,33],[-3,11],[-69,77],[-22,9],[-11,-33],[-3,-30],[-6,-20],[-9,-10],[-21,-4],[-38,-23],[-10,1],[-40,27],[-3,7],[-3,22],[-4,10],[-9,7],[-13,-3],[-32,-26],[-8,-3],[-8,2],[-20,19],[-2,7],[-6,40],[-2,10],[-2,3],[-56,-6],[-21,9],[-10,-1],[-52,-36],[-29,8],[-66,-22],[-12,3],[-11,13],[-3,11],[-1,10],[4,28],[-1,7],[-4,7],[-8,10],[11,51],[-60,-49],[-6,-9],[-6,-15],[-4,-17],[-1,-14],[2,-19],[-1,-14],[-2,-13],[-14,-44],[-5,-9],[-6,-2],[-6,11],[0,18],[2,20],[0,13],[-2,6],[-4,5],[-3,5],[-1,8],[4,13],[1,8],[0,8],[0,21],[1,16],[2,14],[6,13],[-30,24],[7,16],[6,21],[10,47],[-29,39],[-5,2],[-97,-38],[-7,0],[-6,14],[-1,15],[4,47],[2,13],[13,17],[29,24],[8,24],[-5,9],[-9,23],[-5,7],[-22,11],[-13,-2],[-36,-22],[11,35],[6,11],[10,8],[18,10],[9,8],[7,16],[5,23],[-1,17],[0,15],[3,9]],[[966,4096],[0,-14],[-4,-25],[-7,-9],[-7,8],[-18,39],[0,1]],[[572,4096],[0,-4],[-11,-6],[-9,-16],[-6,-23],[-4,-28],[-5,-22],[-9,-19],[-19,-28],[-9,-8],[-36,-12],[-53,-36],[-4,-1],[-2,3],[-4,14],[-2,3],[-8,-1],[-2,-9],[-2,-11],[-3,-10],[-9,-14],[-23,-18],[-17,-6],[-6,0],[-6,2],[-5,7],[-3,7],[-4,17],[-3,5],[-2,0],[-4,-6],[-3,-1],[-21,3],[-11,-2],[-10,-6],[2,5],[2,12],[2,5],[-6,-3],[-10,7],[-5,1],[-14,-6],[-6,-2],[-7,3],[7,19],[3,13],[2,11],[-1,16],[-2,7],[-30,15],[-8,13],[0,28],[-57,7],[-4,-3],[-15,-19],[-6,-4],[-6,1],[11,15],[-7,7],[-5,3],[-6,-3],[-7,-5],[-3,-6],[-2,-5],[-2,-3],[-11,2],[-66,-38]],[[0,3963],[66,38],[11,-2],[2,3],[2,5],[3,6],[7,5],[6,3],[5,-3],[7,-7],[-11,-15],[6,-1],[6,4],[15,19],[4,3],[57,-7],[0,-28],[8,-13],[30,-15],[2,-7],[1,-16],[-2,-11],[-3,-13],[-7,-19],[7,-3],[6,2],[14,6],[5,-1],[10,-7],[6,3],[-2,-5],[-2,-12],[-2,-5],[10,6],[11,2],[21,-3],[3,1],[4,6],[2,0],[3,-5],[4,-17],[3,-7],[5,-7],[6,-2],[6,0],[17,6],[23,18],[9,14],[3,10],[2,11],[2,9],[8,1],[2,-3],[4,-14],[2,-3],[4,1],[53,36],[36,12],[9,8],[19,28],[9,19],[5,22],[4,28],[6,23],[9,16],[11,6],[0,4],[358,0],[0,-1],[18,-39],[7,-8],[7,9],[4,25],[0,14],[129,0],[-3,-9],[0,-15],[1,-17],[-5,-23],[-7,-16],[-9,-8],[-18,-10],[-10,-8],[-6,-11],[-11,-35],[36,22],[13,2],[22,-11],[5,-7],[9,-23],[5,-9],[-8,-24],[-29,-24],[-13,-17],[-2,-13],[-4,-47],[1,-15],[6,-14],[7,0],[97,38],[5,-2],[29,-39],[-10,-47],[-6,-21],[-7,-16],[30,-24],[-6,-13],[-2,-14],[-1,-16],[0,-21],[0,-8],[-1,-8],[-4,-13],[1,-8],[3,-5],[4,-5],[2,-6],[0,-13],[-2,-20],[0,-18],[6,-11],[6,2],[5,9],[14,44],[2,13],[1,14],[-2,19],[1,14],[4,17],[6,15],[6,9],[60,49],[-11,-51],[8,-10],[4,-7],[1,-7],[-4,-28],[1,-10],[3,-11],[11,-13],[12,-3],[66,22],[29,-8],[52,36],[10,1],[21,-9],[56,6],[2,-3],[2,-10],[6,-40],[2,-7],[20,-19],[8,-2],[8,3],[32,26],[13,3],[9,-7],[4,-10],[3,-22],[3,-7],[40,-27],[10,-1],[38,23],[21,4],[9,10],[6,20],[3,30],[11,33],[22,-9],[69,-77],[3,-11],[6,-33],[10,-19],[13,7],[37,67],[3,8],[1,8],[0,17],[1,8],[2,9],[9,26],[10,17],[39,27],[20,13],[3,8],[0,15],[-3,17],[-4,14],[-14,36],[3,19],[10,15],[21,20],[5,8],[4,12],[5,20],[3,8],[18,25],[3,21],[-12,11],[-18,3],[-12,-2],[2,26],[13,39],[4,23],[4,15],[10,14],[29,26],[6,13],[6,15],[7,14],[7,17],[1,2],[1671,0],[-1,-4],[18,-3],[8,7],[229,0],[0,-4096],[-4096,0],[0,3963]]]}