{"objects":{"water":{"type":"GeometryCollection","geometries":[{"type":"MultiPolygon","properties":{"source":"naturalearthdata.com","kind":"ocean","area":989871000000000,"sort_rank":200,"min_zoom":0,"id":1},"arcs":[[[0],[1],[2],[3],[4]]]},{"type":"LineString","properties":{"source":"naturalearthdata.com","kind":"ocean","sort_rank":205,"boundary":true,"min_zoom":0,"id":494},"arcs":[5]},{"type":"LineString","properties":{"source":"naturalearthdata.com","kind":"ocean","sort_rank":205,"boundary":true,"min_zoom":0,"id":506},"arcs":[6]},{"type":"LineString","properties":{"source":"naturalearthdata.com","kind":"ocean","sort_rank":205,"boundary":true,"min_zoom":0,"id":1923},"arcs":[7]},{"type":"LineString","properties":{"source":"naturalearthdata.com","kind":"ocean","sort_rank":205,"boundary":true,"min_zoom":0,"id":1924},"arcs":[8]},{"type":"LineString","properties":{"source":"naturalearthdata.com","kind":"ocean","sort_rank":205,"boundary":true,"min_zoom":0,"id":1933},"arcs":[9]}]},"buildings":{"type":"GeometryCollection","geometries":[]},"places":{"type":"GeometryCollection","geometries":[{"type":"Point","properties":{"name:pt":"Tiksi","collision_rank":362,"name:nl":"Tiksi","name:id":"Tiksi","name":"Tiksi","name:hi":null,"name:tr":null,"name:sv":"Tiksi","name:ar":"\u062a\u064a\u0643\u0633\u064a","min_zoom":5.0,"name:it":"Tiksi","name:vi":null,"name:ru":"\u0422\u0438\u043a\u0441\u0438","name:pl":"Tiksi","name:hu":"Tyikszi","id":6896,"name:ja":"\u30c6\u30a3\u30af\u30b7","name:el":"\u03a4\u03af\u03ba\u03c3\u03b9","kind":"locality","name:en":"Tiksi","population_rank":5,"source":"naturalearthdata.com","name:bn":null,"name:de":"Tiksi","name:ko":"\ud2f1\uc2dc","name:fr":"Tiksi","wikidata_id":"Q500895","population":5700,"name:zh":"\u5b63\u514b\u897f","name:es":"Tiksi"},"coordinates":[1851,1219]}]},"transit":{"type":"GeometryCollection","geometries":[]},"pois":{"type":"GeometryCollection","geometries":[]},"boundaries":{"type":"GeometryCollection","geometries":[]},"roads":{"type":"GeometryCollection","geometries":[]},"earth":{"type":"GeometryCollection","geometries":[{"type":"MultiPolygon","properties":{"sort_rank":10,"source":"naturalearthdata.com","min_zoom":0.5,"kind":"earth","area":294431309478},"arcs":[[[10]],[[11]]]},{"type":"MultiPolygon","properties":{"sort_rank":10,"source":"naturalearthdata.com","kind":"earth","min_zoom":4.0,"area":15774806584},"arcs":[[[12]]]},{"type":"MultiPolygon","properties":{"sort_rank":10,"source":"naturalearthdata.com","kind":"earth","min_zoom":5.0,"area":12407346672},"arcs":[[[13]]]},{"type":"MultiPolygon","properties":{"sort_rank":10,"source":"naturalearthdata.com","min_zoom":0,"kind":"earth","area":21804330306050},"arcs":[[[14]]]}]},"landuse":{"type":"GeometryCollection","geometries":[]}},"type":"Topology","transform":{"translate":[123.75,70.612614238],"scale":[0.002746582,0.0008317698]},"arcs":[[[0,3610],[0,486],[4096,0],[0,-2995],[-24,-27],[-15,-11],[-14,-4],[-16,-14],[-11,-25],[-1,-39],[-7,-6],[-22,-3],[8,-28],[12,-19],[6,-18],[-9,-29],[-8,-17],[-10,-24],[-7,-27],[-3,-26],[-6,39],[7,21],[13,15],[11,24],[3,17],[-2,8],[-47,42],[-9,4],[-9,-5],[-26,-30],[-117,-7],[-94,34],[-38,29],[-56,16],[-82,64],[-100,107],[-14,23],[-5,10],[-2,12],[-2,17],[-3,14],[-4,7],[-20,46],[-11,40],[-29,17],[-64,43],[-5,9],[-2,22],[2,18],[5,11],[6,8],[25,6],[-3,17],[-8,22],[-3,19],[0,13],[8,25],[26,10],[23,-10],[3,28],[33,25],[27,1],[19,-19],[26,-38],[27,-34],[19,-56],[-5,63],[-30,42],[-29,45],[-41,15],[-26,-6],[-30,-22],[-37,6],[-34,-8],[-31,-24],[-34,-51],[-100,-242],[-7,-23],[-17,-72],[-34,-103],[-5,-23],[-8,-48],[-7,-34],[-2,-15],[-2,-15],[1,-9],[-1,-11],[-3,-15],[-23,-74],[-7,-26],[-2,-31],[8,-15],[70,-29],[5,-6],[6,-12],[-72,17],[-33,-9],[-18,-17],[-8,-31],[5,0],[5,-3],[5,-9],[2,-14],[-3,-14],[-6,-4],[-14,2],[-11,-5],[-7,-10],[-2,-16],[5,-26],[-17,-42],[-41,-152],[-24,-62],[-55,-96],[-61,-69],[-33,-14],[-34,1],[-48,20],[-8,9],[-3,13],[1,15],[5,23],[1,15],[-3,33],[-18,42],[-4,29],[-2,22],[-4,14],[-4,11],[-2,11],[-3,22],[-7,8],[-10,-4],[-7,-14],[-3,-15],[0,-19],[0,-19],[0,-13],[-6,-24],[-9,-15],[-10,-9],[-10,-2],[-36,15],[-9,10],[0,5],[-1,19],[-1,9],[-5,10],[-3,5],[-61,16],[-49,34],[10,2],[8,11],[2,17],[-7,21],[-14,13],[-4,12],[3,24],[-6,1],[-5,6],[-9,18],[-9,13],[-5,3],[-6,0],[-12,-4],[-23,-17],[-12,-3],[0,12],[2,11],[2,7],[3,3],[-27,20],[-88,-29],[7,13],[16,8],[7,8],[11,20],[9,25],[-6,13],[-7,10],[-3,5],[0,6],[0,6],[0,6],[-2,12],[0,13],[0,13],[-4,11],[-5,9],[-8,23],[-5,9],[-9,11],[-45,29],[-15,16],[-14,21],[-12,27],[-5,21],[-8,50],[-8,34],[-4,26],[-3,12],[-7,10],[-17,14],[-5,13],[1,14],[5,21],[2,15],[-3,14],[-6,12],[-11,19],[-5,12],[-9,24],[-6,9],[-11,2],[-69,-29],[-19,7],[-12,31],[-8,43],[4,25],[12,19],[16,16],[22,10],[46,-5],[29,26],[27,12],[14,18],[7,3],[66,-50],[11,-3],[9,7],[-63,80],[-14,9],[-8,9],[-5,18],[0,15],[1,12],[1,13],[1,14],[-6,23],[-39,59],[-37,86],[-6,10],[-8,8],[-5,-1],[-1,-17],[2,-11],[14,-34],[5,-25],[2,-23],[4,-23],[8,-24],[18,-38],[7,-28],[-2,-28],[-16,-31],[-55,-31],[-13,-22],[-4,-3],[-5,2],[-26,43],[-26,63],[-13,15],[-21,14],[-10,14],[-1,18],[3,19],[-2,16],[-4,17],[0,18],[-4,7],[-4,18],[-3,7],[-7,8],[-22,8],[-5,5],[-4,5],[-3,7],[-3,9],[-3,20],[-2,9],[-4,2],[-5,-1],[-4,2],[-3,21],[2,21],[2,20],[-1,21],[-4,9],[-21,24],[-17,29],[-6,4],[-4,4],[-8,30],[-14,34],[-21,29],[-21,0],[-11,6],[-14,23],[-12,14],[-44,32],[-48,18],[-12,23],[24,-5],[12,1],[7,13],[-9,12],[-26,53],[-12,12],[-7,17],[-18,23],[45,10],[25,-11],[106,-135],[138,-69],[15,-19],[-19,-16],[-9,-12],[0,-21],[90,-62],[13,-4],[15,-15],[27,-61],[15,-14],[42,4],[13,11],[11,15],[5,3],[7,0],[20,-15],[6,-3],[42,6],[45,43],[12,1],[0,9],[-12,8],[-38,-1],[-16,-13],[-6,-3],[-12,8],[-6,1],[6,14],[8,6],[9,3],[8,6],[11,20],[40,50],[9,1],[10,-3],[9,2],[7,16],[-16,23],[-6,3],[-13,-2],[-30,8],[-10,7],[0,18],[-6,8],[-3,1],[2,24],[10,12],[43,2],[5,7],[1,12],[-3,8],[-5,6],[-4,3],[5,7],[3,2],[-44,52],[-24,16],[-22,6],[11,37],[-5,21],[-52,21],[-101,-20],[-83,21],[-125,89],[-19,6],[-10,8],[-31,39],[-40,29],[-32,51],[20,-6],[159,13],[11,12],[7,20],[5,20],[7,10],[11,-9],[-2,-10],[6,-5],[52,6],[5,-2],[18,-13],[26,-6],[26,-17],[120,-27],[8,8],[-7,7],[-3,1],[12,23],[16,11],[32,7],[-18,18],[-174,46],[-173,46],[-83,-10],[36,40],[6,21],[-11,29],[10,35],[18,22],[140,44],[35,32],[57,10],[67,-9],[46,-13],[44,-26],[30,11],[14,36],[-1,21],[-12,39],[-34,41],[-45,42],[-41,29],[-17,7],[-32,-8],[-17,-10],[-33,-46],[-17,-10],[-7,5],[3,13],[6,14],[6,10],[11,7],[4,4],[2,7],[0,6],[0,7],[0,9],[-1,2],[-4,23],[29,6],[10,-8],[4,13],[0,16],[-3,14],[-9,8],[-24,-12],[-9,4],[10,13],[4,9],[3,11],[-29,5],[-14,8],[-42,40],[-16,6],[-16,-1],[-48,-35],[-11,6],[-13,24],[-17,8],[-33,-3],[27,41],[-2,20],[5,17],[17,29],[-9,8],[-9,0],[-17,-14],[-8,-3],[-15,13],[-8,4],[-81,-16],[8,19],[28,33],[6,18],[-9,13],[-55,24],[8,8],[10,5],[8,9],[6,19],[-174,31],[-22,-7],[-98,58],[-47,12],[-56,-11],[-14,-7],[-11,-18],[14,-1],[7,-4],[6,-5],[5,-7],[2,-6],[-1,-7],[0,-11],[-1,-6],[-4,-17],[0,-10],[1,-6],[9,-27],[-29,17],[-7,-5],[-1,-10],[3,-13],[1,-14],[-5,-25],[-8,-6],[-8,10],[-8,57],[-12,6],[-13,-8],[-10,-13],[-3,-10],[0,-12],[1,-13],[-1,-10],[-7,-9],[-10,-3],[-18,3],[30,-78],[5,-17],[-3,-13],[-14,-20],[-17,-50],[-3,10],[0,16],[1,17],[9,17],[2,15],[-15,62],[-9,20],[-11,9],[-22,4],[2,14],[2,5],[3,5],[-12,18],[-11,2],[-39,-31],[-45,-5],[8,9],[19,1],[8,15],[-7,20],[-10,12],[-11,7],[-10,2],[7,27],[12,-5],[13,-15],[6,9],[7,6],[8,-4],[7,-10],[5,-16],[12,16],[6,10],[5,15],[-5,16],[1,16],[4,14],[5,12],[-19,20],[-18,27],[-6,7],[-7,3],[-15,-6],[-45,-43],[-26,-5],[-7,-7],[-3,-12],[1,-10],[3,-9],[2,-6],[-6,-29],[-11,-22],[-12,-9],[-11,10],[12,24],[4,15],[4,19],[2,48],[0,9],[-4,8],[-5,3],[-10,-2],[-4,-3],[-1,-8],[0,-8],[-1,-6],[-7,-10],[-25,-23],[6,-10],[8,-5],[6,-6],[2,-16],[-16,-9],[-11,-1],[-5,10],[-10,12],[-44,-15],[-13,-10],[10,-19],[-3,-17],[-10,-11],[-12,-2],[4,17],[-15,20],[-4,21],[6,21],[39,28],[0,8],[-8,0],[7,20],[3,5],[-7,11],[-28,14],[-29,-7],[-8,7],[8,2],[0,14],[-4,14],[-9,3],[-1,-4],[-2,-4],[-4,-8],[-4,-5],[-4,-1],[-5,5],[-4,6],[-3,5],[0,7],[0,10],[-11,-37],[-17,-16],[-15,6],[-5,28],[-5,-16],[-8,-3],[-7,9],[-2,22],[2,14],[5,17],[7,15],[1,1],[-4,-2],[-5,2],[-4,7],[6,15],[6,17],[-11,0],[-5,3],[-6,6],[4,12],[1,3],[-4,8],[-3,9],[-2,11],[-1,15],[-4,-19],[-8,-3],[-11,2],[-9,-6],[4,-28],[-6,-22],[-11,-14],[-10,-2],[1,20],[-5,26],[2,12],[-4,-7],[-7,-7],[-7,3],[-3,6],[-4,19],[-1,4],[-14,3],[-7,5],[-6,8],[3,5],[2,5],[3,14],[-48,-19],[-12,11],[4,18],[-3,11],[-6,5],[-7,-3],[-10,-9],[-7,2],[-16,17],[-13,5],[-5,4],[-3,5],[-6,14],[-3,4],[-21,10],[-21,-1],[6,6],[6,2],[-3,12],[-5,5],[-11,0],[-6,-2],[-2,-6],[-4,-21],[-4,-9],[-25,-19],[-2,-4],[1,-8],[1,-18],[-7,-12],[-33,-6],[-7,-14],[-6,-23],[-12,-4],[-25,7],[5,13],[14,9],[4,18],[-8,3],[-6,12],[-11,27],[-10,12],[-9,6],[-10,1],[-11,-3],[5,-11],[4,-10],[6,-7],[5,-5],[-8,-24],[-2,-9],[0,-11],[1,-10],[1,-8],[1,-8],[3,-22],[9,-10],[11,-7],[9,-15],[-10,-18],[-9,-1],[-21,11],[-2,-14],[-38,-2],[-11,-8]],[[1331,3494],[49,-4],[28,-18],[29,6],[28,-16],[94,-10],[11,9],[-29,3],[-106,59],[-62,3],[-34,-10],[-13,-14],[5,-8]],[[1850,2456],[-65,24],[-94,-19],[-95,-19],[-11,-11],[3,0],[83,-89],[16,-9],[34,1],[32,-12],[17,-14],[15,-6],[47,22],[-3,6],[-2,2],[5,5],[9,0],[4,3],[10,29],[10,11],[37,2],[-10,32],[-13,24],[-15,13],[-14,5]],[[1663,2645],[122,-25],[122,-25],[80,-11],[46,14],[30,47],[-6,64],[-66,73],[-82,7],[-54,-27],[-40,-31],[-79,-8],[-36,-10],[-36,-49],[-1,-19]],[[304,3971],[-46,9],[10,15],[33,17],[-71,-12],[-22,-20],[5,-5],[5,-3],[5,-1],[5,0],[-7,-13],[-16,-1],[-7,-10],[-2,-18],[3,-10],[6,-4],[6,-1],[7,-6],[7,-11],[8,-9],[9,4],[9,6],[9,2],[8,-5],[8,-13],[2,0],[42,37],[12,24],[-2,13],[-8,8],[-18,7]],[[1331,3494],[49,-4],[28,-18],[29,6],[28,-16],[94,-10],[11,9],[-29,3],[-106,59],[-62,3],[-34,-10],[-13,-14],[5,-8]],[[4096,1101],[-24,-27],[-15,-11],[-14,-4],[-16,-14],[-11,-25],[-1,-39],[-7,-6],[-22,-3],[8,-28],[12,-19],[6,-18],[-9,-29],[-8,-17],[-10,-24],[-7,-27],[-3,-26],[-6,39],[7,21],[13,15],[11,24],[3,17],[-2,8],[-47,42],[-9,4],[-9,-5],[-26,-30],[-117,-7],[-94,34],[-38,29],[-56,16],[-82,64],[-100,107],[-14,23],[-5,10],[-2,12],[-2,17],[-3,14],[-4,7],[-20,46],[-11,40],[-29,17],[-64,43],[-5,9],[-2,22],[2,18],[5,11],[6,8],[25,6],[-3,17],[-8,22],[-3,19],[0,13],[8,25],[26,10],[23,-10],[3,28],[33,25],[27,1],[19,-19],[26,-38],[27,-34],[19,-56],[-5,63],[-30,42],[-29,45],[-41,15],[-26,-6],[-30,-22],[-37,6],[-34,-8],[-31,-24],[-34,-51],[-100,-242],[-7,-23],[-17,-72],[-34,-103],[-5,-23],[-8,-48],[-7,-34],[-2,-15],[-2,-15],[1,-9],[-1,-11],[-3,-15],[-23,-74],[-7,-26],[-2,-31],[8,-15],[70,-29],[5,-6],[6,-12],[-72,17],[-33,-9],[-18,-17],[-8,-31],[5,0],[5,-3],[5,-9],[2,-14],[-3,-14],[-6,-4],[-14,2],[-11,-5],[-7,-10],[-2,-16],[5,-26],[-17,-42],[-41,-152],[-24,-62],[-55,-96],[-61,-69],[-33,-14],[-34,1],[-48,20],[-8,9],[-3,13],[1,15],[5,23],[1,15],[-3,33],[-18,42],[-4,29],[-2,22],[-4,14],[-4,11],[-2,11],[-3,22],[-7,8],[-10,-4],[-7,-14],[-3,-15],[0,-19],[0,-19],[0,-13],[-6,-24],[-9,-15],[-10,-9],[-10,-2],[-36,15],[-9,10],[0,5],[-1,19],[-1,9],[-5,10],[-3,5],[-61,16],[-49,34],[10,2],[8,11],[2,17],[-7,21],[-14,13],[-4,12],[3,24],[-6,1],[-5,6],[-9,18],[-9,13],[-5,3],[-6,0],[-12,-4],[-23,-17],[-12,-3],[0,12],[2,11],[2,7],[3,3],[-27,20],[-88,-29],[7,13],[16,8],[7,8],[11,20],[9,25],[-6,13],[-7,10],[-3,5],[0,6],[0,6],[0,6],[-2,12],[0,13],[0,13],[-4,11],[-5,9],[-8,23],[-5,9],[-9,11],[-45,29],[-15,16],[-14,21],[-12,27],[-5,21],[-8,50],[-8,34],[-4,26],[-3,12],[-7,10],[-17,14],[-5,13],[1,14],[5,21],[2,15],[-3,14],[-6,12],[-11,19],[-5,12],[-9,24],[-6,9],[-11,2],[-69,-29],[-19,7],[-12,31],[-8,43],[4,25],[12,19],[16,16],[22,10],[46,-5],[29,26],[27,12],[14,18],[7,3],[66,-50],[11,-3],[9,7],[-63,80],[-14,9],[-8,9],[-5,18],[0,15],[1,12],[1,13],[1,14],[-6,23],[-39,59],[-37,86],[-6,10],[-8,8],[-5,-1],[-1,-17],[2,-11],[14,-34],[5,-25],[2,-23],[4,-23],[8,-24],[18,-38],[7,-28],[-2,-28],[-16,-31],[-55,-31],[-13,-22],[-4,-3],[-5,2],[-26,43],[-26,63],[-13,15],[-21,14],[-10,14],[-1,18],[3,19],[-2,16],[-4,17],[0,18],[-4,7],[-4,18],[-3,7],[-7,8],[-22,8],[-5,5],[-4,5],[-3,7],[-3,9],[-3,20],[-2,9],[-4,2],[-5,-1],[-4,2],[-3,21],[2,21],[2,20],[-1,21],[-4,9],[-21,24],[-17,29],[-6,4],[-4,4],[-8,30],[-14,34],[-21,29],[-21,0],[-11,6],[-14,23],[-12,14],[-44,32],[-48,18],[-12,23],[24,-5],[12,1],[7,13],[-9,12],[-26,53],[-12,12],[-7,17],[-18,23],[45,10],[25,-11],[106,-135],[138,-69],[15,-19],[-19,-16],[-9,-12],[0,-21],[90,-62],[13,-4],[15,-15],[27,-61],[15,-14],[42,4],[13,11],[11,15],[5,3],[7,0],[20,-15],[6,-3],[42,6],[45,43],[12,1],[0,9],[-12,8],[-38,-1],[-16,-13],[-6,-3],[-12,8],[-6,1],[6,14],[8,6],[9,3],[8,6],[11,20],[40,50],[9,1],[10,-3],[9,2],[7,16],[-16,23],[-6,3],[-13,-2],[-30,8],[-10,7],[0,18],[-6,8],[-3,1],[2,24],[10,12],[43,2],[5,7],[1,12],[-3,8],[-5,6],[-4,3],[5,7],[3,2],[-44,52],[-24,16],[-22,6],[11,37],[-5,21],[-52,21],[-101,-20],[-83,21],[-125,89],[-19,6],[-10,8],[-31,39],[-40,29],[-32,51],[20,-6],[159,13],[11,12],[7,20],[5,20],[7,10],[11,-9],[-2,-10],[6,-5],[52,6],[5,-2],[18,-13],[26,-6],[26,-17],[120,-27],[8,8],[-7,7],[-3,1],[12,23],[16,11],[32,7],[-18,18],[-174,46],[-173,46],[-83,-10],[36,40],[6,21],[-11,29],[10,35],[18,22],[140,44],[35,32],[57,10],[67,-9],[46,-13],[44,-26],[30,11],[14,36],[-1,21],[-12,39],[-34,41],[-45,42],[-41,29],[-17,7],[-32,-8],[-17,-10],[-33,-46],[-17,-10],[-7,5],[3,13],[6,14],[6,10],[11,7],[4,4],[2,7],[0,6],[0,7],[0,9],[-1,2],[-4,23],[29,6],[10,-8],[4,13],[0,16],[-3,14],[-9,8],[-24,-12],[-9,4],[10,13],[4,9],[3,11],[-29,5],[-14,8],[-42,40],[-16,6],[-16,-1],[-48,-35],[-11,6],[-13,24],[-17,8],[-33,-3],[27,41],[-2,20],[5,17],[17,29],[-9,8],[-9,0],[-17,-14],[-8,-3],[-15,13],[-8,4],[-81,-16],[8,19],[28,33],[6,18],[-9,13],[-55,24],[8,8],[10,5],[8,9],[6,19],[-174,31],[-22,-7],[-98,58],[-47,12],[-56,-11],[-14,-7],[-11,-18],[14,-1],[7,-4],[6,-5],[5,-7],[2,-6],[-1,-7],[0,-11],[-1,-6],[-4,-17],[0,-10],[1,-6],[9,-27],[-29,17],[-7,-5],[-1,-10],[3,-13],[1,-14],[-5,-25],[-8,-6],[-8,10],[-8,57],[-12,6],[-13,-8],[-10,-13],[-3,-10],[0,-12],[1,-13],[-1,-10],[-7,-9],[-10,-3],[-18,3],[30,-78],[5,-17],[-3,-13],[-14,-20],[-17,-50],[-3,10],[0,16],[1,17],[9,17],[2,15],[-15,62],[-9,20],[-11,9],[-22,4],[2,14],[2,5],[3,5],[-12,18],[-11,2],[-39,-31],[-45,-5],[8,9],[19,1],[8,15],[-7,20],[-10,12],[-11,7],[-10,2],[7,27],[12,-5],[13,-15],[6,9],[7,6],[8,-4],[7,-10],[5,-16],[12,16],[6,10],[5,15],[-5,16],[1,16],[4,14],[5,12],[-19,20],[-18,27],[-6,7],[-7,3],[-15,-6],[-45,-43],[-26,-5],[-7,-7],[-3,-12],[1,-10],[3,-9],[2,-6],[-6,-29],[-11,-22],[-12,-9],[-11,10],[12,24],[4,15],[4,19],[2,48],[0,9],[-4,8],[-5,3],[-10,-2],[-4,-3],[-1,-8],[0,-8],[-1,-6],[-7,-10],[-25,-23],[6,-10],[8,-5],[6,-6],[2,-16],[-16,-9],[-11,-1],[-5,10],[-10,12],[-44,-15],[-13,-10],[10,-19],[-3,-17],[-10,-11],[-12,-2],[4,17],[-15,20],[-4,21],[6,21],[39,28],[0,8],[-8,0],[7,20],[3,5],[-7,11],[-28,14],[-29,-7],[-8,7],[8,2],[0,14],[-4,14],[-9,3],[-1,-4],[-2,-4],[-4,-8],[-4,-5],[-4,-1],[-5,5],[-4,6],[-3,5],[0,7],[0,10],[-11,-37],[-17,-16],[-15,6],[-5,28],[-5,-16],[-8,-3],[-7,9],[-2,22],[2,14],[5,17],[7,15],[1,1],[-4,-2],[-5,2],[-4,7],[6,15],[6,17],[-11,0],[-5,3],[-6,6],[4,12],[1,3],[-4,8],[-3,9],[-2,11],[-1,15],[-4,-19],[-8,-3],[-11,2],[-9,-6],[4,-28],[-6,-22],[-11,-14],[-10,-2],[1,20],[-5,26],[2,12],[-4,-7],[-7,-7],[-7,3],[-3,6],[-4,19],[-1,4],[-14,3],[-7,5],[-6,8],[3,5],[2,5],[3,14],[-48,-19],[-12,11],[4,18],[-3,11],[-6,5],[-7,-3],[-10,-9],[-7,2],[-16,17],[-13,5],[-5,4],[-3,5],[-6,14],[-3,4],[-21,10],[-21,-1],[6,6],[6,2],[-3,12],[-5,5],[-11,0],[-6,-2],[-2,-6],[-4,-21],[-4,-9],[-25,-19],[-2,-4],[1,-8],[1,-18],[-7,-12],[-33,-6],[-7,-14],[-6,-23],[-12,-4],[-25,7],[5,13],[14,9],[4,18],[-8,3],[-6,12],[-11,27],[-10,12],[-9,6],[-10,1],[-11,-3],[5,-11],[4,-10],[6,-7],[5,-5],[-8,-24],[-2,-9],[0,-11],[1,-10],[1,-8],[1,-8],[3,-22],[9,-10],[11,-7],[9,-15],[-10,-18],[-9,-1],[-21,11],[-2,-14],[-38,-2],[-11,-8]],[[1850,2456],[-65,24],[-94,-19],[-95,-19],[-11,-11],[3,0],[83,-89],[16,-9],[34,1],[32,-12],[17,-14],[15,-6],[47,22],[-3,6],[-2,2],[5,5],[9,0],[4,3],[10,29],[10,11],[37,2],[-10,32],[-13,24],[-15,13],[-14,5]],[[1663,2645],[122,-25],[122,-25],[80,-11],[46,14],[30,47],[-6,64],[-66,73],[-82,7],[-54,-27],[-40,-31],[-79,-8],[-36,-10],[-36,-49],[-1,-19]],[[304,3971],[-46,9],[10,15],[33,17],[-71,-12],[-22,-20],[5,-5],[5,-3],[5,-1],[5,0],[-7,-13],[-16,-1],[-7,-10],[-2,-18],[3,-10],[6,-4],[6,-1],[7,-6],[7,-11],[8,-9],[9,4],[9,6],[9,2],[8,-5],[8,-13],[2,0],[42,37],[12,24],[-2,13],[-8,8],[-18,7]],[[1850,2456],[14,-5],[15,-13],[13,-24],[10,-32],[-37,-2],[-10,-11],[-10,-29],[-4,-3],[-9,0],[-5,-5],[2,-2],[3,-6],[-47,-22],[-15,6],[-17,14],[-32,12],[-34,-1],[-16,9],[-83,89],[-3,0],[11,11],[95,19],[94,19],[65,-24]],[[1663,2645],[1,19],[36,49],[36,10],[79,8],[40,31],[54,27],[82,-7],[66,-73],[6,-64],[-30,-47],[-46,-14],[-80,11],[-122,25],[-122,25]],[[304,3971],[18,-7],[8,-8],[2,-13],[-12,-24],[-42,-37],[-2,0],[-8,13],[-8,5],[-9,-2],[-9,-6],[-9,-4],[-8,9],[-7,11],[-7,6],[-6,1],[-6,4],[-3,10],[2,18],[7,10],[16,1],[7,13],[-5,0],[-5,1],[-5,3],[-5,5],[22,20],[71,12],[-33,-17],[-10,-15],[46,-9]],[[1331,3494],[-5,8],[13,14],[34,10],[62,-3],[106,-59],[29,-3],[-11,-9],[-94,10],[-28,16],[-29,-6],[-28,18],[-49,4]],[[4096,1101],[0,-1101],[-4096,0],[0,3610],[11,8],[38,2],[2,14],[21,-11],[9,1],[10,18],[-9,15],[-11,7],[-9,10],[-3,22],[-1,8],[-1,8],[-1,10],[0,11],[2,9],[8,24],[-5,5],[-6,7],[-4,10],[-5,11],[11,3],[10,-1],[9,-6],[10,-12],[11,-27],[6,-12],[8,-3],[-4,-18],[-14,-9],[-5,-13],[25,-7],[12,4],[6,23],[7,14],[33,6],[7,12],[-1,18],[-1,8],[2,4],[25,19],[4,9],[4,21],[2,6],[6,2],[11,0],[5,-5],[3,-12],[-6,-2],[-6,-6],[21,1],[21,-10],[3,-4],[6,-14],[3,-5],[5,-4],[13,-5],[16,-17],[7,-2],[10,9],[7,3],[6,-5],[3,-11],[-4,-18],[12,-11],[48,19],[-3,-14],[-2,-5],[-3,-5],[6,-8],[7,-5],[14,-3],[1,-4],[4,-19],[3,-6],[7,-3],[7,7],[4,7],[-2,-12],[5,-26],[-1,-20],[10,2],[11,14],[6,22],[-4,28],[9,6],[11,-2],[8,3],[4,19],[1,-15],[2,-11],[3,-9],[4,-8],[-1,-3],[-4,-12],[6,-6],[5,-3],[11,0],[-6,-17],[-6,-15],[4,-7],[5,-2],[4,2],[-1,-1],[-7,-15],[-5,-17],[-2,-14],[2,-22],[7,-9],[8,3],[5,16],[5,-28],[15,-6],[17,16],[11,37],[0,-10],[0,-7],[3,-5],[4,-6],[5,-5],[4,1],[4,5],[4,8],[2,4],[1,4],[9,-3],[4,-14],[0,-14],[-8,-2],[8,-7],[29,7],[28,-14],[7,-11],[-3,-5],[-7,-20],[8,0],[0,-8],[-39,-28],[-6,-21],[4,-21],[15,-20],[-4,-17],[12,2],[10,11],[3,17],[-10,19],[13,10],[44,15],[10,-12],[5,-10],[11,1],[16,9],[-2,16],[-6,6],[-8,5],[-6,10],[25,23],[7,10],[1,6],[0,8],[1,8],[4,3],[10,2],[5,-3],[4,-8],[0,-9],[-2,-48],[-4,-19],[-4,-15],[-12,-24],[11,-10],[12,9],[11,22],[6,29],[-2,6],[-3,9],[-1,10],[3,12],[7,7],[26,5],[45,43],[15,6],[7,-3],[6,-7],[18,-27],[19,-20],[-5,-12],[-4,-14],[-1,-16],[5,-16],[-5,-15],[-6,-10],[-12,-16],[-5,16],[-7,10],[-8,4],[-7,-6],[-6,-9],[-13,15],[-12,5],[-7,-27],[10,-2],[11,-7],[10,-12],[7,-20],[-8,-15],[-19,-1],[-8,-9],[45,5],[39,31],[11,-2],[12,-18],[-3,-5],[-2,-5],[-2,-14],[22,-4],[11,-9],[9,-20],[15,-62],[-2,-15],[-9,-17],[-1,-17],[0,-16],[3,-10],[17,50],[14,20],[3,13],[-5,17],[-30,78],[18,-3],[10,3],[7,9],[1,10],[-1,13],[0,12],[3,10],[10,13],[13,8],[12,-6],[8,-57],[8,-10],[8,6],[5,25],[-1,14],[-3,13],[1,10],[7,5],[29,-17],[-9,27],[-1,6],[0,10],[4,17],[1,6],[0,11],[1,7],[-2,6],[-5,7],[-6,5],[-7,4],[-14,1],[11,18],[14,7],[56,11],[47,-12],[98,-58],[22,7],[174,-31],[-6,-19],[-8,-9],[-10,-5],[-8,-8],[55,-24],[9,-13],[-6,-18],[-28,-33],[-8,-19],[81,16],[8,-4],[15,-13],[8,3],[17,14],[9,0],[9,-8],[-17,-29],[-5,-17],[2,-20],[-27,-41],[33,3],[17,-8],[13,-24],[11,-6],[48,35],[16,1],[16,-6],[20,-19],[22,-21],[14,-8],[29,-5],[-3,-11],[-4,-9],[-10,-13],[9,-4],[24,12],[9,-8],[3,-14],[0,-16],[-4,-13],[-10,8],[-29,-6],[4,-23],[1,-2],[0,-9],[0,-7],[0,-6],[-2,-7],[-4,-4],[-11,-7],[-6,-10],[-6,-14],[-3,-13],[7,-5],[17,10],[33,46],[17,10],[32,8],[17,-7],[41,-29],[45,-42],[17,-21],[17,-20],[12,-39],[1,-21],[-14,-36],[-30,-11],[-44,26],[-46,13],[-67,9],[-57,-10],[-21,-19],[-14,-13],[-140,-44],[-18,-22],[-10,-35],[11,-29],[-6,-21],[-36,-40],[83,10],[130,-35],[43,-11],[174,-46],[18,-18],[-32,-7],[-16,-11],[-12,-23],[3,-1],[7,-7],[-8,-8],[-120,27],[-26,17],[-26,6],[-5,4],[-13,9],[-5,2],[-52,-6],[-6,5],[2,10],[-11,9],[-7,-10],[-5,-20],[-7,-20],[-11,-12],[-159,-13],[-20,6],[32,-51],[40,-29],[31,-39],[10,-8],[19,-6],[125,-89],[37,-9],[46,-12],[101,20],[52,-21],[5,-21],[-11,-37],[22,-6],[24,-16],[44,-52],[-3,-2],[-5,-7],[4,-3],[5,-6],[3,-8],[-1,-12],[-5,-7],[-43,-2],[-10,-12],[-2,-24],[3,-1],[6,-8],[0,-18],[10,-7],[30,-8],[13,2],[6,-3],[16,-23],[-7,-16],[-9,-2],[-10,3],[-9,-1],[-40,-50],[-11,-20],[-8,-6],[-9,-3],[-8,-6],[-6,-14],[6,-1],[12,-8],[6,3],[16,13],[38,1],[12,-8],[0,-9],[-12,-1],[-45,-43],[-42,-6],[-6,3],[-20,15],[-7,0],[-5,-3],[-11,-15],[-13,-11],[-42,-4],[-15,14],[-27,61],[-15,15],[-13,4],[-10,7],[-80,55],[0,21],[9,12],[19,16],[-15,19],[-138,69],[-106,135],[-25,11],[-45,-10],[18,-23],[7,-17],[12,-12],[26,-53],[9,-12],[-7,-13],[-12,-1],[-24,5],[12,-23],[48,-18],[44,-32],[12,-14],[14,-23],[11,-6],[21,0],[21,-29],[14,-34],[8,-30],[4,-4],[6,-4],[17,-29],[21,-24],[4,-9],[1,-21],[-2,-20],[-2,-21],[3,-21],[4,-2],[5,1],[4,-2],[2,-9],[3,-20],[3,-9],[3,-7],[4,-5],[5,-5],[22,-8],[7,-8],[3,-7],[4,-18],[4,-7],[0,-18],[4,-17],[2,-16],[-3,-19],[1,-18],[10,-14],[8,-5],[13,-9],[13,-15],[26,-63],[26,-43],[5,-2],[4,3],[13,22],[55,31],[16,31],[2,28],[-7,28],[-18,38],[-8,24],[-4,23],[-2,23],[-5,25],[-14,34],[-2,11],[1,17],[5,1],[8,-8],[6,-10],[37,-86],[39,-59],[6,-23],[-1,-14],[-1,-13],[-1,-12],[0,-15],[5,-18],[8,-9],[14,-9],[63,-80],[-9,-7],[-11,3],[-66,50],[-7,-3],[-14,-18],[-27,-12],[-29,-26],[-46,5],[-22,-10],[-16,-16],[-12,-19],[-4,-25],[8,-43],[12,-31],[19,-7],[69,29],[11,-2],[6,-9],[9,-24],[5,-12],[11,-19],[6,-12],[3,-14],[-2,-15],[-5,-21],[-1,-14],[5,-13],[17,-14],[7,-10],[3,-12],[4,-26],[8,-34],[8,-50],[5,-21],[12,-27],[14,-21],[15,-16],[45,-29],[9,-11],[5,-9],[8,-23],[5,-9],[4,-11],[0,-13],[0,-13],[2,-12],[0,-6],[0,-6],[0,-6],[3,-5],[7,-10],[6,-13],[-9,-25],[-11,-20],[-7,-8],[-16,-8],[-7,-13],[88,29],[27,-20],[-3,-3],[-2,-7],[-2,-11],[0,-12],[12,3],[23,17],[12,4],[6,0],[5,-3],[9,-13],[9,-18],[5,-6],[6,-1],[-3,-24],[4,-12],[14,-13],[7,-21],[-2,-17],[-8,-11],[-10,-2],[49,-34],[61,-16],[3,-5],[5,-10],[1,-9],[1,-19],[0,-5],[9,-10],[36,-15],[10,2],[10,9],[9,15],[6,24],[0,13],[0,19],[0,19],[3,15],[7,14],[10,4],[7,-8],[3,-22],[2,-11],[4,-11],[4,-14],[2,-22],[4,-29],[18,-42],[3,-33],[-1,-15],[-5,-23],[-1,-15],[3,-13],[8,-9],[48,-20],[34,-1],[33,14],[61,69],[55,96],[24,62],[41,152],[17,42],[-5,26],[2,16],[7,10],[11,5],[14,-2],[6,4],[3,14],[-2,14],[-5,9],[-5,3],[-5,0],[8,31],[18,17],[33,9],[72,-17],[-6,12],[-5,6],[-70,29],[-8,15],[2,31],[7,26],[23,74],[3,15],[1,11],[-1,9],[2,15],[2,15],[7,34],[8,48],[5,23],[34,103],[17,72],[7,23],[100,242],[34,51],[31,24],[34,8],[37,-6],[30,22],[26,6],[41,-15],[29,-45],[30,-42],[5,-63],[-19,56],[-27,34],[-26,38],[-19,19],[-27,-1],[-33,-25],[-3,-28],[-23,10],[-26,-10],[-8,-25],[0,-13],[3,-19],[8,-22],[3,-17],[-25,-6],[-6,-8],[-5,-11],[-2,-18],[2,-22],[5,-9],[64,-43],[29,-17],[11,-40],[20,-46],[4,-7],[3,-14],[2,-17],[2,-12],[5,-10],[14,-23],[100,-107],[82,-64],[56,-16],[38,-29],[94,-34],[117,7],[26,30],[9,5],[9,-4],[47,-42],[2,-8],[-3,-17],[-11,-24],[-13,-15],[-7,-21],[6,-39],[3,26],[7,27],[10,24],[8,17],[9,29],[-6,18],[-12,19],[-8,28],[22,3],[7,6],[1,39],[11,25],[16,14],[14,4],[15,11],[24,27]]]}