{"objects":{"water":{"type":"GeometryCollection","geometries":[]},"buildings":{"type":"GeometryCollection","geometries":[]},"places":{"type":"GeometryCollection","geometries":[{"type":"Point","properties":{"name:ba":"\u042f\u04a1\u0443\u0442 \u0420\u0435\u0441\u043f\u0443\u0431\u043b\u0438\u043a\u0430\u04bb\u044b","collision_rank":397,"name:sk":"Republika Sacha (Jakutsko)","name:ja":"\u30b5\u30cf\u5171\u548c\u56fd (\u30e4\u30af\u30fc\u30c6\u30a3\u30a2)","name:lt":"Jakutija","max_zoom":10.2,"kind":"region","name:tt":"\u042f\u043a\u0443\u0442\u0438\u044f","min_zoom":5,"name:uk":"\u0420\u0435\u0441\u043f\u0443\u0431\u043b\u0456\u043a\u0430 \u0421\u0430\u0445\u0430","name:be":"\u0421\u0430\u0445\u0430 (\u042f\u043a\u0443\u0446\u0456\u044f)","name:ru":"\u0421\u0430\u0445\u0430 (\u042f\u043a\u0443\u0442\u0438\u044f)","name:pl":"Jakucja","name:hu":"Jakutf\u00f6ld","name:hr":"Jakutska","id":503088681,"name":"\u0421\u0430\u0445\u0430 (\u042f\u043a\u0443\u0442\u0438\u044f)","name:eo":"Jakutio","name:en":"Sakha (Yakutia)","population_rank":0,"kind_detail":"state","name:da":"Sakha","name:de":"Sacha (Jakutien)","source":"openstreetmap.org","name:fr":"Iakoutie","wikidata_id":"Q6605","name:zh":"\u8428\u54c8\uff08\u96c5\u5e93\u7279\uff09\u5171\u548c\u56fd","name:es":"Sa\u0125a (Jakutio)"},"coordinates":[2145,428]},{"type":"Point","properties":{"name:pt":"Batagay","collision_rank":365,"name:nl":"Batagay","name:id":null,"name":"Batagay","name:hi":null,"name:tr":null,"name:sv":null,"name:ar":"\u0628\u0627\u062a\u0627\u063a\u0627\u064a","min_zoom":5.0,"name:it":"Batagaj","name:vi":null,"name:ru":"\u0411\u0430\u0442\u0430\u0433\u0430\u0439","name:pl":"Batagaj","name:hu":"Bagataj","id":6402,"name:ja":"\u30d0\u30bf\u30ac\u30a4","name:el":null,"kind":"locality","name:en":"Batagay","population_rank":4,"source":"naturalearthdata.com","name:bn":null,"name:de":"Batagai","name:ko":null,"name:fr":"Bataga\u00ef","wikidata_id":"Q2359080","population":4266,"name:zh":"\u5df4\u5854\u84cb","name:es":null},"coordinates":[3963,1142]}]},"transit":{"type":"GeometryCollection","geometries":[]},"pois":{"type":"GeometryCollection","geometries":[]},"boundaries":{"type":"GeometryCollection","geometries":[]},"roads":{"type":"GeometryCollection","geometries":[]},"earth":{"type":"GeometryCollection","geometries":[{"type":"MultiPolygon","properties":{"sort_rank":10,"source":"naturalearthdata.com","min_zoom":0,"kind":"earth","area":21804330306050},"arcs":[[[0]]]}]},"landuse":{"type":"GeometryCollection","geometries":[]}},"type":"Topology","transform":{"translate":[123.75,66.5132604431],"scale":[0.002746582,0.0010008188]},"arcs":[[[0,0],[0,4096],[4096,0],[0,-4096],[-2289,0],[-1807,0]]]}