{"objects":{"water":{"type":"GeometryCollection","geometries":[]},"buildings":{"type":"GeometryCollection","geometries":[]},"places":{"type":"GeometryCollection","geometries":[{"type":"Point","properties":{"name:pt":"Yakutsk","collision_rank":346,"name:nl":"Jakoetsk","name:id":"Yakutsk","name":"Yakutsk","name:hi":"\u092f\u093e\u0915\u0942\u0924\u094d\u0938\u094d\u0915\u200b","name:tr":"Yakutsk","name:sv":"Jakutsk","name:ar":"\u064a\u0627\u0643\u0648\u062a\u0633\u0643","min_zoom":5.0,"name:it":"Jakutsk","name:vi":"Yakutsk","name:ru":"\u042f\u043a\u0443\u0442\u0441\u043a","name:pl":"Jakuck","name:hu":"Jakutszk","id":6895,"name:ja":"\u30e4\u30af\u30fc\u30c4\u30af","name:el":"\u0393\u03b9\u03b1\u03ba\u03bf\u03cd\u03c4\u03c3\u03ba","kind":"locality","name:en":"Yakutsk","population_rank":10,"source":"naturalearthdata.com","region_capital":true,"name:bn":"\u0987\u09af\u09bc\u09be\u0995\u09c1\u099f\u09b8\u09cd\u0995","name:de":"Jakutsk","name:ko":"\uc57c\ucfe0\uce20\ud06c","name:fr":"Iakoutsk","wikidata_id":"Q6610","population":235600,"name:zh":"\u96c5\u5e93\u8328\u514b","name:es":"Yakutsk"},"coordinates":[2179,358]}]},"transit":{"type":"GeometryCollection","geometries":[]},"pois":{"type":"GeometryCollection","geometries":[]},"boundaries":{"type":"GeometryCollection","geometries":[]},"roads":{"type":"GeometryCollection","geometries":[{"type":"LineString","properties":{"source":"naturalearthdata.com","kind":"major_road","sort_rank":379,"kind_detail":"secondary","min_zoom":5.1,"id":11347},"arcs":[0]},{"type":"LineString","properties":{"source":"naturalearthdata.com","kind":"minor_road","kind_detail":"tertiary","sort_rank":355,"landuse_kind":"urban_area","min_zoom":5.2,"id":11381},"arcs":[1]},{"type":"LineString","properties":{"source":"naturalearthdata.com","kind":"minor_road","sort_rank":355,"kind_detail":"tertiary","min_zoom":5.2,"id":11381},"arcs":[2]},{"type":"LineString","properties":{"source":"naturalearthdata.com","kind":"major_road","sort_rank":379,"kind_detail":"secondary","min_zoom":5.0,"id":11352},"arcs":[3]},{"type":"LineString","properties":{"source":"naturalearthdata.com","kind":"minor_road","sort_rank":355,"kind_detail":"tertiary","min_zoom":5.2,"id":11353},"arcs":[4]},{"type":"LineString","properties":{"source":"naturalearthdata.com","kind":"minor_road","sort_rank":355,"kind_detail":"tertiary","min_zoom":5.2,"id":11354},"arcs":[5]},{"type":"LineString","properties":{"source":"naturalearthdata.com","kind":"minor_road","sort_rank":355,"kind_detail":"tertiary","min_zoom":5.2,"id":11372},"arcs":[6]},{"type":"LineString","properties":{"source":"naturalearthdata.com","kind":"major_road","kind_detail":"secondary","sort_rank":379,"landuse_kind":"urban_area","min_zoom":5.1,"id":11383},"arcs":[7]},{"type":"LineString","properties":{"source":"naturalearthdata.com","kind":"major_road","sort_rank":379,"kind_detail":"secondary","min_zoom":5.1,"id":11383},"arcs":[8]},{"type":"LineString","properties":{"source":"naturalearthdata.com","kind":"major_road","sort_rank":379,"kind_detail":"secondary","min_zoom":5.0,"id":11384},"arcs":[9]},{"type":"LineString","properties":{"source":"naturalearthdata.com","kind":"major_road","sort_rank":379,"kind_detail":"secondary","min_zoom":5.0,"id":11390},"arcs":[10]},{"type":"LineString","properties":{"source":"naturalearthdata.com","kind":"major_road","sort_rank":379,"kind_detail":"secondary","min_zoom":5.0,"id":11392},"arcs":[11]},{"type":"LineString","properties":{"source":"naturalearthdata.com","kind":"minor_road","sort_rank":355,"kind_detail":"tertiary","min_zoom":5.2,"id":11421},"arcs":[12]},{"type":"LineString","properties":{"source":"naturalearthdata.com","kind":"minor_road","kind_detail":"tertiary","sort_rank":355,"landuse_kind":"urban_area","min_zoom":5.2,"id":11483},"arcs":[13]},{"type":"LineString","properties":{"source":"naturalearthdata.com","kind":"minor_road","sort_rank":355,"kind_detail":"tertiary","min_zoom":5.2,"id":11483},"arcs":[14]},{"type":"LineString","properties":{"source":"naturalearthdata.com","kind":"minor_road","sort_rank":355,"kind_detail":"tertiary","min_zoom":5.2,"id":11537},"arcs":[15]},{"type":"LineString","properties":{"source":"naturalearthdata.com","kind":"major_road","sort_rank":379,"kind_detail":"secondary","min_zoom":5.0,"id":11709},"arcs":[16]}]},"earth":{"type":"GeometryCollection","geometries":[{"type":"MultiPolygon","properties":{"sort_rank":10,"source":"naturalearthdata.com","min_zoom":0,"kind":"earth","area":46840771247929},"arcs":[[[17]]]}]},"landuse":{"type":"GeometryCollection","geometries":[{"type":"MultiPolygon","properties":{"source":"naturalearthdata.com","kind":"urban_area","area":329243599297,"sort_rank":11,"min_zoom":4.0,"id":2133},"arcs":[[[18]]]}]}},"type":"Topology","transform":{"translate":[123.75,61.6063963714],"scale":[0.002746582,0.0011979649]},"arcs":[[[0,1381],[10,2],[13,-7],[14,-14],[4,-17],[18,-21],[15,-24],[14,-14],[6,-10],[1,-24],[-3,-10],[-1,-21],[-5,-28],[6,-17],[14,-17],[10,-17],[17,-21],[12,-7],[18,-24],[8,-7],[18,-14],[9,-6],[12,-11],[19,-10],[6,-17],[-7,-42],[13,-20],[9,-7],[23,-28],[19,-31],[12,-10],[26,-7],[9,0],[15,-10],[19,-4],[8,-7],[15,-17],[12,0],[4,0],[21,-20],[14,-11],[10,-3],[24,0],[14,-7],[19,-10],[11,3],[13,10],[5,0],[25,-17],[17,-7],[15,-3],[8,-4],[13,-20],[11,0],[45,-7],[10,-4],[27,-13],[12,-7],[24,-17],[17,-18],[10,-7],[20,-3],[13,-14],[14,-7],[9,0],[13,7],[8,0],[18,-7],[10,-7],[38,-24],[21,4],[9,0],[19,-4],[23,7],[9,0],[19,-10],[10,-4],[19,0],[9,-10],[5,-7],[7,-34]],[[2156,360],[12,21],[7,17],[9,25]],[[2184,423],[5,16],[7,31],[11,31],[12,25],[6,10]],[[3576,625],[9,4],[12,-7],[20,3],[10,7],[12,11],[14,0],[10,-7],[24,-4],[11,-3],[18,-21],[10,-14],[26,-17],[18,-10],[24,-11],[14,-17],[12,4],[18,10],[15,7],[16,3],[6,-7],[9,4],[15,7],[9,-4],[9,-3],[20,-17],[21,-7],[12,7],[6,3],[6,17],[-2,18],[-9,24],[-4,31],[3,20],[13,14],[12,4],[12,-4],[11,-3],[6,7],[-2,20],[2,11],[4,6],[9,7],[11,0],[10,4],[11,14],[9,24],[6,13],[6,4],[6,2]],[[2225,536],[9,17],[6,14],[6,20],[9,21],[12,21],[9,7]],[[2160,928],[0,-34],[3,-17],[8,-31],[10,-31],[2,-11],[0,-31],[-3,-17],[-11,-20],[-3,-18],[6,-20],[12,-21],[3,-17],[6,-42],[8,-24],[0,-7],[12,-31],[12,-20]],[[1070,567],[-1,-17],[-12,-38],[-5,-28],[3,-27],[17,-38],[9,-7]],[[2146,363],[10,-3]],[[1081,412],[6,-4],[12,4],[12,-7],[22,0],[11,-3],[22,13],[21,11],[41,17],[6,10],[13,0],[5,7],[3,10],[-3,21],[1,7],[6,14],[11,14],[19,13],[27,11],[17,3],[18,0],[15,-21],[18,-17],[7,-3],[45,0],[9,-4],[21,-17],[11,-10],[18,-21],[5,0],[21,4],[13,-4],[20,-3],[15,-4],[16,-10],[60,-35],[23,-10],[7,-3],[24,-28],[20,-14],[15,-3],[21,3],[16,4],[29,3],[16,0],[24,4],[39,3],[23,-3],[24,3],[11,7],[28,24],[20,7],[28,3],[15,-3],[15,-3],[27,-11],[38,-17],[38,-11]],[[3160,326],[12,3],[30,0],[39,0],[6,4],[12,10],[17,17],[21,17],[11,7],[9,7],[10,4],[20,17],[19,-4],[11,7],[16,18],[29,20],[31,35],[6,10],[12,10],[11,24],[4,7],[11,7],[43,14],[9,21],[6,6],[8,25],[4,6],[9,7]],[[2549,470],[14,-6],[19,-4],[24,4],[9,-4],[20,-7],[28,4],[18,-4],[24,-10],[17,-7],[33,-24],[19,-7],[11,0],[13,0],[11,-3],[12,-18],[4,0],[17,4],[9,0],[12,-4],[9,-10],[14,-3],[13,-14],[8,-24],[7,-4],[18,-3],[26,0],[7,-4],[33,-17],[20,-10],[18,-4],[18,-3],[19,0],[18,7],[14,7],[15,0],[16,3],[24,21]],[[2246,267],[9,18],[3,13],[3,31],[7,38],[12,14],[26,14],[16,3],[15,10],[15,11],[24,3],[13,4],[13,13],[11,7],[9,0],[10,0],[21,7],[27,11],[42,17],[8,0],[12,-4],[7,-7]],[[2246,267],[19,-13],[11,-11],[10,-14],[23,-13],[21,-21],[18,-21],[19,-27],[15,-24],[8,-11]],[[2156,360],[-2,-27],[0,-17]],[[2154,316],[0,-4],[-6,-10],[-12,-11],[-15,-10],[-12,-10],[-9,-17],[2,-21],[6,-28],[1,-27],[0,-14],[-4,-21],[-2,-20],[-6,-11],[-24,-20],[-22,-14],[-11,-21],[-12,-13],[-15,-14],[-18,-14],[-8,-16]],[[2390,112],[11,-7],[43,-17],[44,-34],[24,-28],[20,-26]],[[2139,0],[33,54],[9,27],[20,21],[4,7],[3,17],[8,14],[18,21],[7,17],[0,10],[-6,14],[-1,10],[13,24],[-1,18],[0,13]],[[4096,4096],[0,-4096],[-4096,0],[0,4096],[1807,0],[2289,0]],[[2209,384],[-29,-73],[-45,9],[33,127],[41,-63]]]}