{"objects":{"water":{"type":"GeometryCollection","geometries":[{"type":"MultiPolygon","properties":{"source":"naturalearthdata.com","kind":"ocean","area":989871000000000,"sort_rank":200,"min_zoom":0,"id":1},"arcs":[[[0],[1],[2],[3],[4],[5],[6]],[[7]],[[8]]]},{"type":"LineString","properties":{"source":"naturalearthdata.com","kind":"ocean","sort_rank":205,"boundary":true,"min_zoom":0,"id":1980},"arcs":[9]},{"type":"MultiLineString","properties":{"source":"naturalearthdata.com","kind":"ocean","sort_rank":205,"boundary":true,"min_zoom":0,"id":1985},"arcs":[[10],[11],[12],[13],[14]]},{"type":"LineString","properties":{"source":"naturalearthdata.com","kind":"ocean","sort_rank":205,"boundary":true,"min_zoom":0,"id":1992},"arcs":[15]},{"type":"MultiLineString","properties":{"source":"naturalearthdata.com","kind":"ocean","sort_rank":205,"boundary":true,"min_zoom":0,"id":1995},"arcs":[[16],[17]]},{"type":"LineString","properties":{"source":"naturalearthdata.com","kind":"ocean","sort_rank":205,"boundary":true,"min_zoom":0,"id":1996},"arcs":[18]},{"type":"LineString","properties":{"source":"naturalearthdata.com","kind":"ocean","sort_rank":205,"boundary":true,"min_zoom":0,"id":1997},"arcs":[19]},{"type":"LineString","properties":{"source":"naturalearthdata.com","kind":"ocean","sort_rank":205,"boundary":true,"min_zoom":0,"id":1998},"arcs":[20]},{"type":"LineString","properties":{"source":"naturalearthdata.com","kind":"ocean","sort_rank":205,"boundary":true,"min_zoom":0,"id":1999},"arcs":[21]}]},"buildings":{"type":"GeometryCollection","geometries":[]},"places":{"type":"GeometryCollection","geometries":[]},"transit":{"type":"GeometryCollection","geometries":[]},"pois":{"type":"GeometryCollection","geometries":[]},"boundaries":{"type":"GeometryCollection","geometries":[]},"roads":{"type":"GeometryCollection","geometries":[]},"earth":{"type":"GeometryCollection","geometries":[{"type":"MultiPolygon","properties":{"sort_rank":10,"source":"naturalearthdata.com","kind":"earth","min_zoom":4.0,"area":36266068607},"arcs":[[[22]],[[23]]]},{"type":"MultiPolygon","properties":{"sort_rank":10,"source":"naturalearthdata.com","kind":"earth","min_zoom":5.0,"area":29754728941},"arcs":[[[24]],[[25]],[[26]],[[27]]]},{"type":"MultiPolygon","properties":{"sort_rank":10,"source":"naturalearthdata.com","min_zoom":0,"kind":"earth","area":11714569654858},"arcs":[[[28]],[[29]],[[30]],[[31]],[[32]]]}]},"landuse":{"type":"GeometryCollection","geometries":[{"type":"MultiPolygon","properties":{"kind":"nature_reserve","protect_class":"1","area":2495102325819,"sort_rank":23,"source":"openstreetmap.org","min_zoom":4.0,"tier":2,"id":-9349959},"arcs":[[[33]]]},{"type":"MultiPolygon","properties":{"source":"openstreetmap.org","kind":"park","area":922633245216,"tier":2,"min_zoom":4.0,"id":40984064,"sort_rank":24},"arcs":[[[34]],[[35]]]}]}},"type":"Topology","transform":{"translate":[11.25,79.1713346408],"scale":[0.002746582,0.0004692088]},"arcs":[[[4096,478],[0,-478],[-1093,0],[-28,27],[-5,2],[-31,10],[-12,-9],[-9,-21],[-2,-9],[-125,0],[0,21],[10,54],[2,29],[-6,16],[-32,57],[-70,-12],[-22,27],[13,23],[57,15],[35,78],[-11,31],[-4,22],[0,34],[4,33],[7,22],[9,14],[7,5],[-6,19],[-7,7],[-7,12],[-2,28],[3,30],[6,6],[2,4],[-9,25],[-7,15],[-16,20],[-7,17],[-2,16],[-3,56],[-2,23],[-11,46],[-61,93],[-39,27],[-19,25],[-19,39],[-38,-3],[-24,-26],[-13,-26],[-13,-33],[-10,-41],[-5,-44],[-8,-42],[-6,-47],[-2,-27],[-2,-22],[-4,-60],[-12,-33],[-13,-22],[-20,-61],[-14,-13],[-27,-8],[-27,-43],[-15,-4],[-8,47],[45,38],[8,35],[-1,23],[-2,15],[-3,12],[-2,16],[1,24],[3,20],[7,36],[-5,35],[-2,61],[-6,20],[-6,3],[-21,-16],[-30,13],[16,24],[19,1],[18,14],[11,64],[-7,15],[24,41],[13,52],[7,18],[16,21],[38,27],[19,34],[10,70],[-24,59],[-14,20],[-18,15],[-16,52],[-76,136],[-20,15],[-15,30],[-12,36],[-59,35],[-47,67],[-111,36],[-29,-45],[-6,-17],[-2,-30],[3,-16],[11,-33],[4,-8],[-10,-40],[-12,-8],[-12,12],[-41,77],[-5,23],[1,16],[8,19],[1,16],[-3,17],[-6,13],[-11,14],[-18,38],[-9,27],[-7,31],[-2,15],[-2,36],[-2,14],[-5,10],[-64,19],[-14,17],[-12,7],[-15,-12],[-41,-63],[-23,-12],[-14,-20],[-7,-4],[2,-18],[3,-13],[4,-9],[4,-4],[-24,-36],[-6,-23],[-5,-30],[-2,-16],[2,-14],[3,-20],[15,-42],[34,-33],[13,-50],[-13,-24],[-141,37],[-13,-17],[-10,-40],[-4,-39],[1,-36],[4,-31],[6,-25],[-3,-9],[-7,-35],[5,-9],[5,-17],[4,-23],[4,-23],[1,-7],[1,-3],[1,-4],[1,-14],[0,-9],[-5,-27],[-2,-8],[17,-37],[5,-21],[-7,-16],[5,-25],[19,-56],[7,-29],[3,-22],[2,-33],[3,-18],[7,-22],[16,-3],[8,-11],[-19,-31],[-3,-13],[-2,-29],[2,-13],[4,-9],[4,-16],[9,-70],[3,-41],[6,-105],[8,-77],[6,-74],[-3,-62],[18,-29],[42,-107],[6,-11],[3,-14],[1,-33],[0,-37],[1,-27],[4,-26],[1,-11],[-178,0],[24,61],[11,42],[1,2],[4,-1],[-6,47],[-10,22],[-22,19],[-9,23],[-12,60],[-8,23],[-25,20],[-15,20],[-6,36],[-3,31],[-7,27],[-5,29],[3,37],[-6,23],[-7,54],[-5,25],[-12,41],[-1,23],[3,40],[-14,24],[-8,21],[-5,27],[3,28],[-2,15],[-3,11],[-3,18],[-3,28],[0,12],[8,34],[-6,18],[-6,14],[-20,18],[-13,31],[-18,17],[-12,25],[-60,191],[-24,48],[-113,80],[-8,-4],[-4,-13],[-9,-36],[-32,-101],[-46,-97],[-11,-31],[5,-12],[6,-3],[11,2],[-14,-20],[-34,-26],[-11,-42],[12,0],[25,-27],[12,-3],[-10,-16],[-64,-8],[-45,-63],[-19,-59],[-6,-14],[6,-27],[19,-60],[-6,-12],[3,-25],[8,-25],[16,-23],[4,-26],[4,-30],[6,-21],[-4,-6],[-3,-10],[-3,-12],[-3,-16],[8,-16],[17,-23],[8,-20],[14,-62],[6,-11],[-20,-115],[-11,-42],[-12,-8],[-15,36],[-8,10],[-12,-8],[-9,2],[-8,20],[-2,26],[7,21],[-2,27],[0,25],[4,51],[-4,0],[-3,8],[-7,47],[-2,7],[-24,38],[-8,19],[-2,27],[-7,16],[-31,30],[-11,4],[-5,8],[-2,9],[-2,26],[-1,10],[-14,20],[-19,8],[-19,-6],[-13,-22],[15,-45],[2,-15],[-3,-25],[-7,-3],[-57,68],[-15,4],[1,20],[2,14],[3,8],[4,2],[-4,32],[-4,27],[7,-1],[14,-13],[7,-2],[6,6],[12,20],[7,5],[7,11],[23,75],[-6,37],[-9,12],[-20,-3],[-40,25],[-39,-24],[-54,13],[-48,-54],[-71,-6],[-35,-38],[-12,-6],[-11,7],[-23,32],[-12,5],[7,43],[11,12],[23,-9],[30,8],[133,167],[6,13],[-5,30],[65,0],[17,16],[9,-15],[173,27],[58,67],[27,80],[-4,21],[-1,20],[1,21],[-1,25],[-1,30],[-2,15],[-23,63],[-16,24],[-17,8],[-78,-52],[-82,2],[-39,-46],[-69,-17],[-36,-37],[-17,-28],[-53,-53],[-31,4],[-54,-62],[-15,18],[14,24],[3,18],[-3,31],[-2,8],[-8,12],[-3,16],[-3,9],[-14,29],[-22,23],[-68,6],[-11,-43],[-3,-16],[0,-34],[3,-22],[6,-13],[5,-4],[-2,-15],[7,-12],[-5,-17],[37,-38],[16,-41],[-1,-74],[-3,-27],[-2,-4],[-13,-7],[-5,5],[-30,79],[-11,10],[-10,-18],[5,-26],[2,-11],[3,-9],[-10,-11],[-12,7],[-23,34],[6,34],[2,10],[-4,-1],[-3,3],[-6,14],[-2,28],[-24,59],[-9,28],[1,9],[2,10],[-1,15],[-7,23],[-18,29],[-5,24],[-14,39],[-16,4],[-39,-24],[-6,-10],[-5,-16],[-5,-23],[-8,-15],[-20,17],[-9,-9],[13,-44],[-13,-46],[-18,0],[-70,47],[-12,-2],[0,2781],[4096,0],[0,-1396],[-16,6],[-25,-30],[-2,-25],[-9,-28],[-7,-39],[-2,-42],[3,-18],[12,-32],[3,-7],[43,-36],[0,-89],[-8,-6],[-10,-30],[5,-47],[1,-39],[-4,-35],[-7,-39],[-11,-34],[-2,-10],[0,-12],[3,-21],[0,-12],[-7,-42],[-6,-30],[27,-63],[6,-25],[-6,-9],[-37,9],[4,-29],[8,-13],[16,-12],[5,-13],[15,-49],[-15,-10],[-26,73],[-17,-20],[9,-24],[9,-34],[-14,-35],[-17,-19],[-17,-3],[-15,14],[3,9],[7,34],[-17,28],[11,29],[4,16],[-8,18],[-14,22],[-13,47],[-15,24],[-8,19],[3,16],[-58,39],[-19,39],[-10,9],[-23,-11],[-42,-65],[-10,-2],[-8,21],[43,104],[21,17],[24,39],[14,13],[7,15],[0,23],[-12,79],[-7,23],[-45,18],[-16,-12],[-9,-44],[5,-3],[13,-25],[-20,-7],[-43,76],[-20,-18],[-3,-9],[-5,-7],[-4,-5],[-4,-2],[-4,-5],[-1,-11],[0,-14],[-1,-11],[-8,-22],[-9,-14],[-8,-8],[-10,-2],[0,16],[5,0],[-6,28],[-2,9],[-4,6],[1,13],[3,12],[2,10],[4,9],[-17,-7],[-32,-53],[-113,-48],[-11,6],[-10,15],[-4,12],[-11,46],[-10,27],[-3,17],[4,29],[6,19],[17,25],[6,14],[-15,14],[-62,-36],[-13,7],[-12,23],[-13,35],[3,14],[2,15],[3,31],[-22,28],[-20,44],[-2,46],[-12,22],[-57,8],[-16,-13],[-11,-34],[-7,-42],[-5,-11],[-8,-4],[-7,6],[-2,17],[3,23],[4,26],[-3,2],[-7,13],[1,8],[1,21],[-11,10],[-11,18],[2,11],[5,35],[-8,10],[-66,3],[2,16],[-13,25],[-53,25],[-7,-19],[-1,-31],[7,-37],[10,-20],[2,-13],[-5,-18],[-5,0],[-15,43],[-28,26],[-15,0],[-12,-18],[-2,-23],[0,-36],[2,-58],[7,-34],[15,-10],[140,-7],[0,-14],[-13,-10],[-25,-45],[-14,-5],[8,-11],[24,-3],[-5,-25],[-9,-8],[-10,-3],[-8,-8],[19,-17],[6,-12],[-6,-13],[-3,-3],[-3,1],[8,-22],[4,-5],[-39,-69],[-6,-20],[9,-27],[30,-6],[11,-25],[-66,-7],[-21,21],[-101,213],[-19,25],[-91,40],[-5,-5],[-9,-21],[-5,-4],[7,-26],[23,-31],[6,-18],[3,-15],[1,-18],[2,-23],[1,-15],[0,-13],[0,-12],[2,-12],[3,-7],[6,-9],[2,-12],[5,-14],[16,-27],[11,-60],[20,-29],[35,-24],[41,10],[21,-11],[15,-43],[-34,-27],[-34,-2],[0,-15],[2,-19],[-5,-18],[-22,-49],[-11,-11],[-11,-1],[-10,11],[-22,62],[-81,92],[-19,54],[-19,20],[-56,21],[25,-44],[-22,-46],[-10,-7],[-13,9],[-28,40],[-46,-5],[-12,-17],[-6,-5],[-19,16],[-74,15],[-18,-15],[-7,0],[-3,6],[-9,22],[-11,-5],[-20,-42],[-24,-21],[-25,-43],[-12,-5],[6,-21],[48,4],[10,-7],[9,-13],[4,-7],[10,43],[16,-20],[16,-43],[14,-24],[78,-29],[-17,-31],[-21,-6],[-21,12],[-18,25],[0,-14],[8,-9],[14,-42],[8,-9],[27,21],[24,-42],[168,-16],[36,53],[-13,-49],[-14,-19],[-14,-10],[-14,-24],[7,-13],[2,-20],[-1,-22],[-6,-17],[-9,0],[-21,36],[-10,7],[3,31],[-7,2],[-19,-27],[-14,-31],[-8,-5],[45,0],[-7,-33],[-13,-18],[-15,-5],[-23,19],[-39,-36],[-43,-3],[-54,-61],[-13,-23],[30,-12],[14,-20],[14,-34],[14,-56],[5,-13],[27,-25],[8,-15],[11,-60],[4,-14],[7,-6],[57,17],[17,-13],[14,-42],[-4,-28],[4,-17],[8,-9],[7,-3],[-5,-23],[-2,-7],[15,-9],[62,28],[105,-18],[25,26],[30,2],[7,-5],[26,-44],[90,17],[29,50],[68,-1],[63,77],[157,21],[156,20],[156,21],[156,20],[-12,-35],[-31,-5],[-12,-47],[35,0],[-9,-15],[-3,-1],[0,-15],[151,82],[27,-2],[21,-36],[-23,-31],[-142,-47],[-19,-38],[4,-12],[5,-20],[0,-18],[-6,-9],[-166,-14],[-167,-15],[-167,-14],[7,-28],[56,-100],[174,-83],[10,-39],[-135,24],[-135,24],[-49,55],[-19,53],[-6,6],[-143,-20],[-67,-52],[5,-50],[6,-43],[8,-30],[121,-89],[22,-46],[43,-46],[97,-11],[97,-11],[8,-18],[5,-35],[32,-61],[-5,-5],[-11,-20],[-6,-4],[9,-28],[125,20],[124,21],[77,-55],[128,41],[129,40],[30,-30]],[[3207,439],[-70,30],[-22,29],[-34,6],[-16,-8],[-15,-27],[5,-2],[15,-28],[-7,-39],[-1,-25],[5,-14],[10,-8],[121,41],[11,-6],[9,-28],[8,-11],[12,2],[11,14],[2,23],[-9,23],[-35,28]],[[2566,2354],[55,-70],[16,-9],[49,49],[4,9],[9,41],[6,10],[7,3],[21,24],[-5,21],[-5,1],[-5,-5],[-5,-2],[-5,5],[-6,17],[-31,46],[-98,48],[-6,-3],[-22,-40],[-12,-37],[-6,-10],[-13,-9],[-6,-17],[-7,-42],[14,-24],[51,-6]],[[3152,2807],[29,2],[21,28],[22,10],[10,17],[-12,28],[-13,20],[-14,10],[-24,-4],[-32,-50],[-7,-26],[3,-19],[8,-12],[9,-4]],[[3462,3098],[-2,22],[-1,8],[5,-1],[4,6],[4,15],[2,24],[-100,13],[-8,-13],[13,-1],[49,-36],[22,-30],[12,-7]],[[3613,3172],[70,44],[-3,15],[-3,13],[-4,9],[-4,5],[1,2],[1,0],[0,3],[0,11],[-43,8],[-56,-38],[-13,1],[8,-55],[15,-23],[18,-2],[13,7]],[[3416,3332],[5,-15],[6,-30],[4,-13],[8,-5],[15,17],[7,-1],[7,-10],[8,-1],[3,-4],[0,-8],[-1,-10],[1,-7],[1,-8],[0,-10],[1,-8],[4,-3],[16,0],[3,6],[5,19],[3,4],[30,7],[6,12],[3,24],[-12,16],[-48,3],[-44,31],[-9,15],[-14,37],[-12,17],[-38,-1],[4,-47],[12,-16],[26,-11]],[[0,993],[0,120],[37,-68],[28,-17],[10,-18],[1,-29],[-9,-9],[-67,21]],[[240,0],[-75,0],[7,35],[-12,62],[-35,119],[-15,19],[10,15],[4,11],[4,18],[-2,16],[35,27],[0,-27],[5,-13],[2,-18],[2,-20],[3,-16],[17,-43],[6,-8],[-3,-15],[10,-25],[17,-20],[15,-1],[8,32],[-4,21],[-26,97],[55,-16],[35,31],[12,-2],[-5,-23],[-2,-6],[3,-30],[1,-15],[3,-13],[-5,-6],[-15,-38],[5,-27],[17,-5],[6,-26],[-17,-16],[-34,1],[-17,-14],[-6,-12],[-3,-14],[-6,-35]],[[3207,439],[-70,30],[-22,29],[-34,6],[-16,-8],[-15,-27],[5,-2],[15,-28],[-7,-39],[-1,-25],[5,-14],[10,-8],[121,41],[11,-6],[9,-28],[8,-11],[12,2],[11,14],[2,23],[-9,23],[-35,28]],[[3003,0],[-28,27],[-5,2],[-31,10],[-12,-9],[-9,-21],[-2,-9]],[[2791,0],[0,21],[10,54],[2,29],[-6,16],[-32,57],[-70,-12],[-22,27],[13,23],[57,15],[35,78],[-11,31],[-4,22],[0,34],[4,33],[7,22],[9,14],[7,5],[-6,19],[-7,7],[-7,12],[-2,28],[3,30],[6,6],[2,4],[-9,25],[-7,15],[-16,20],[-7,17],[-2,16],[-3,56],[-2,23],[-11,46],[-61,93],[-39,27],[-19,25],[-19,39],[-38,-3],[-24,-26],[-13,-26],[-13,-33],[-10,-41],[-5,-44],[-8,-42],[-6,-47],[-2,-27],[-2,-22],[-4,-60],[-12,-33],[-13,-22],[-20,-61],[-14,-13],[-27,-8],[-27,-43],[-15,-4],[-8,47],[45,38],[8,35],[-1,23],[-2,15],[-3,12],[-2,16],[1,24],[3,20],[7,36],[-5,35],[-2,61],[-6,20],[-6,3],[-21,-16],[-30,13],[16,24],[19,1],[18,14],[11,64],[-7,15],[24,41],[13,52],[7,18],[16,21],[38,27],[19,34],[10,70],[-24,59],[-14,20],[-18,15],[-16,52],[-76,136],[-20,15],[-15,30],[-12,36],[-59,35],[-47,67],[-111,36],[-29,-45],[-6,-17],[-2,-30],[3,-16],[11,-33],[4,-8],[-10,-40],[-12,-8],[-12,12],[-41,77],[-5,23],[1,16],[8,19],[1,16],[-3,17],[-6,13],[-11,14],[-18,38],[-9,27],[-7,31],[-2,15],[-2,36],[-2,14],[-5,10],[-64,19],[-14,17],[-12,7],[-15,-12],[-41,-63],[-23,-12],[-14,-20],[-7,-4],[2,-18],[3,-13],[4,-9],[4,-4],[-24,-36],[-6,-23],[-5,-30],[-2,-16],[2,-14],[3,-20],[15,-42],[34,-33],[13,-50],[-13,-24],[-141,37],[-13,-17],[-10,-40],[-4,-39],[1,-36],[4,-31],[6,-25],[-3,-9],[-7,-35],[5,-9],[5,-17],[4,-23],[4,-23],[1,-7],[1,-3],[1,-4],[1,-14],[0,-9],[-5,-27],[-2,-8],[17,-37],[5,-21],[-7,-16],[5,-25],[19,-56],[7,-29],[3,-22],[2,-33],[3,-18],[7,-22],[16,-3],[8,-11],[-19,-31],[-3,-13],[-2,-29],[2,-13],[4,-9],[4,-16],[9,-70],[3,-41],[6,-105],[8,-77],[6,-74],[-3,-62],[18,-29],[42,-107],[6,-11],[3,-14],[1,-33],[0,-37],[1,-27],[4,-26],[1,-11]],[[1613,0],[24,61],[11,42],[1,2],[4,-1],[-6,47],[-10,22],[-22,19],[-9,23],[-12,60],[-8,23],[-25,20],[-15,20],[-6,36],[-3,31],[-7,27],[-5,29],[3,37],[-6,23],[-7,54],[-5,25],[-12,41],[-1,23],[3,40],[-14,24],[-8,21],[-5,27],[3,28],[-2,15],[-3,11],[-3,18],[-3,28],[0,12],[8,34],[-6,18],[-6,14],[-20,18],[-13,31],[-18,17],[-12,25],[-60,191],[-24,48],[-113,80],[-8,-4],[-4,-13],[-9,-36],[-32,-101],[-46,-97],[-11,-31],[5,-12],[6,-3],[11,2],[-14,-20],[-34,-26],[-11,-42],[12,0],[25,-27],[12,-3],[-10,-16],[-64,-8],[-45,-63],[-19,-59],[-6,-14],[6,-27],[19,-60],[-6,-12],[3,-25],[8,-25],[16,-23],[4,-26],[4,-30],[6,-21],[-4,-6],[-3,-10],[-3,-12],[-3,-16],[8,-16],[17,-23],[8,-20],[14,-62],[6,-11],[-20,-115],[-11,-42],[-12,-8],[-15,36],[-8,10],[-12,-8],[-9,2],[-8,20],[-2,26],[7,21],[-2,27],[0,25],[4,51],[-4,0],[-3,8],[-7,47],[-2,7],[-24,38],[-8,19],[-2,27],[-7,16],[-31,30],[-11,4],[-5,8],[-2,9],[-2,26],[-1,10],[-14,20],[-19,8],[-19,-6],[-13,-22],[15,-45],[2,-15],[-3,-25],[-7,-3],[-57,68],[-15,4],[1,20],[2,14],[3,8],[4,2],[-4,32],[-4,27],[7,-1],[14,-13],[7,-2],[6,6],[12,20],[7,5],[7,11],[23,75],[-6,37],[-9,12],[-20,-3],[-40,25],[-39,-24],[-54,13],[-48,-54],[-71,-6],[-35,-38],[-12,-6],[-11,7],[-23,32],[-12,5],[7,43],[11,12],[23,-9],[30,8],[133,167],[6,13],[-5,30],[65,0],[17,16],[9,-15],[173,27],[58,67],[27,80],[-4,21],[-1,20],[1,21],[-1,25],[-1,30],[-2,15],[-23,63],[-16,24],[-17,8],[-78,-52],[-82,2],[-39,-46],[-69,-17],[-36,-37],[-17,-28],[-53,-53],[-31,4],[-54,-62],[-15,18],[14,24],[3,18],[-3,31],[-2,8],[-8,12],[-3,16],[-3,9],[-14,29],[-22,23],[-68,6],[-11,-43],[-3,-16],[0,-34],[3,-22],[6,-13],[5,-4],[-2,-15],[7,-12],[-5,-17],[37,-38],[16,-41],[-1,-74],[-3,-27],[-2,-4],[-13,-7],[-5,5],[-30,79],[-11,10],[-10,-18],[5,-26],[2,-11],[3,-9],[-10,-11],[-12,7],[-23,34],[6,34],[2,10],[-4,-1],[-3,3],[-6,14],[-2,28],[-24,59],[-9,28],[1,9],[2,10],[-1,15],[-7,23],[-18,29],[-5,24],[-14,39],[-16,4],[-39,-24],[-6,-10],[-5,-16],[-5,-23],[-8,-15],[-20,17],[-9,-9],[13,-44],[-13,-46],[-18,0],[-70,47],[-12,-2]],[[0,1113],[37,-68],[28,-17],[10,-18],[1,-29],[-9,-9],[-67,21]],[[165,0],[7,35],[-12,62],[-35,119],[-15,19],[10,15],[4,11],[4,18],[-2,16],[35,27],[0,-27],[5,-13],[2,-18],[2,-20],[3,-16],[17,-43],[6,-8],[-3,-15],[10,-25],[17,-20],[15,-1],[8,32],[-4,21],[-26,97],[55,-16],[35,31],[12,-2],[-5,-23],[-2,-6],[3,-30],[1,-15],[3,-13],[-5,-6],[-15,-38],[5,-27],[17,-5],[6,-26],[-17,-16],[-34,1],[-17,-14],[-6,-12],[-3,-14],[-6,-35]],[[2566,2354],[55,-70],[16,-9],[49,49],[4,9],[9,41],[6,10],[7,3],[21,24],[-5,21],[-5,1],[-5,-5],[-5,-2],[-5,5],[-6,17],[-31,46],[-98,48],[-6,-3],[-22,-40],[-12,-37],[-6,-10],[-13,-9],[-6,-17],[-7,-42],[14,-24],[51,-6]],[[4096,2700],[-16,6],[-25,-30],[-2,-25],[-9,-28],[-7,-39],[-2,-42],[3,-18],[12,-32],[3,-7],[43,-36]],[[4096,2360],[-8,-6],[-10,-30],[5,-47],[1,-39],[-4,-35],[-7,-39],[-11,-34],[-2,-10],[0,-12],[3,-21],[0,-12],[-7,-42],[-6,-30],[27,-63],[6,-25],[-6,-9],[-37,9],[4,-29],[8,-13],[16,-12],[5,-13],[15,-49],[-15,-10],[-26,73],[-17,-20],[9,-24],[9,-34],[-14,-35],[-17,-19],[-17,-3],[-15,14],[3,9],[7,34],[-17,28],[11,29],[4,16],[-8,18],[-14,22],[-13,47],[-15,24],[-8,19],[3,16],[-58,39],[-19,39],[-10,9],[-23,-11],[-42,-65],[-10,-2],[-8,21],[43,104],[21,17],[24,39],[14,13],[7,15],[0,23],[-12,79],[-7,23],[-45,18],[-16,-12],[-9,-44],[5,-3],[13,-25],[-20,-7],[-43,76],[-20,-18],[-3,-9],[-5,-7],[-4,-5],[-4,-2],[-4,-5],[-1,-11],[0,-14],[-1,-11],[-8,-22],[-9,-14],[-8,-8],[-10,-2],[0,16],[5,0],[-6,28],[-2,9],[-4,6],[1,13],[3,12],[2,10],[4,9],[-17,-7],[-32,-53],[-113,-48],[-11,6],[-10,15],[-4,12],[-11,46],[-10,27],[-3,17],[4,29],[6,19],[17,25],[6,14],[-15,14],[-62,-36],[-13,7],[-12,23],[-13,35],[3,14],[2,15],[3,31],[-22,28],[-20,44],[-2,46],[-12,22],[-57,8],[-16,-13],[-11,-34],[-7,-42],[-5,-11],[-8,-4],[-7,6],[-2,17],[3,23],[4,26],[-3,2],[-7,13],[1,8],[1,21],[-11,10],[-11,18],[2,11],[5,35],[-8,10],[-66,3],[2,16],[-13,25],[-53,25],[-7,-19],[-1,-31],[7,-37],[10,-20],[2,-13],[-5,-18],[-5,0],[-15,43],[-28,26],[-15,0],[-12,-18],[-2,-23],[0,-36],[2,-58],[7,-34],[15,-10],[140,-7],[0,-14],[-13,-10],[-25,-45],[-14,-5],[8,-11],[24,-3],[-5,-25],[-9,-8],[-10,-3],[-8,-8],[19,-17],[6,-12],[-6,-13],[-3,-3],[-3,1],[8,-22],[4,-5],[-39,-69],[-6,-20],[9,-27],[30,-6],[11,-25],[-66,-7],[-21,21],[-101,213],[-19,25],[-91,40],[-5,-5],[-9,-21],[-5,-4],[7,-26],[23,-31],[6,-18],[3,-15],[1,-18],[2,-23],[1,-15],[0,-13],[0,-12],[2,-12],[3,-7],[6,-9],[2,-12],[5,-14],[16,-27],[11,-60],[20,-29],[35,-24],[41,10],[21,-11],[15,-43],[-34,-27],[-34,-2],[0,-15],[2,-19],[-5,-18],[-22,-49],[-11,-11],[-11,-1],[-10,11],[-22,62],[-81,92],[-19,54],[-19,20],[-56,21],[25,-44],[-22,-46],[-10,-7],[-13,9],[-28,40],[-46,-5],[-12,-17],[-6,-5],[-19,16],[-74,15],[-18,-15],[-7,0],[-3,6],[-9,22],[-11,-5],[-20,-42],[-24,-21],[-25,-43],[-12,-5],[6,-21],[48,4],[10,-7],[9,-13],[4,-7],[10,43],[16,-20],[16,-43],[14,-24],[78,-29],[-17,-31],[-21,-6],[-21,12],[-18,25],[0,-14],[8,-9],[14,-42],[8,-9],[27,21],[24,-42],[168,-16],[36,53],[-13,-49],[-14,-19],[-14,-10],[-14,-24],[7,-13],[2,-20],[-1,-22],[-6,-17],[-9,0],[-21,36],[-10,7],[3,31],[-7,2],[-19,-27],[-14,-31],[-8,-5],[45,0],[-7,-33],[-13,-18],[-15,-5],[-23,19],[-39,-36],[-43,-3],[-54,-61],[-13,-23],[30,-12],[14,-20],[14,-34],[14,-56],[5,-13],[27,-25],[8,-15],[11,-60],[4,-14],[7,-6],[57,17],[17,-13],[14,-42],[-4,-28],[4,-17],[8,-9],[7,-3],[-5,-23],[-2,-7],[15,-9],[62,28],[105,-18],[25,26],[30,2],[7,-5],[26,-44],[90,17],[29,50],[68,-1],[63,77],[157,21],[156,20],[156,21],[156,20],[-12,-35],[-31,-5],[-12,-47],[35,0],[-9,-15],[-3,-1],[0,-15],[151,82],[27,-2],[21,-36],[-23,-31],[-142,-47],[-19,-38],[4,-12],[5,-20],[0,-18],[-6,-9],[-166,-14],[-167,-15],[-167,-14],[7,-28],[56,-100],[174,-83],[10,-39],[-135,24],[-135,24],[-49,55],[-19,53],[-6,6],[-143,-20],[-67,-52],[5,-50],[6,-43],[8,-30],[121,-89],[22,-46],[43,-46],[97,-11],[97,-11],[8,-18],[5,-35],[32,-61],[-5,-5],[-11,-20],[-6,-4],[9,-28],[125,20],[124,21],[77,-55],[128,41],[129,40],[30,-30]],[[3152,2807],[29,2],[21,28],[22,10],[10,17],[-12,28],[-13,20],[-14,10],[-24,-4],[-32,-50],[-7,-26],[3,-19],[8,-12],[9,-4]],[[3462,3098],[-2,22],[-1,8],[5,-1],[4,6],[4,15],[2,24],[-100,13],[-8,-13],[13,-1],[49,-36],[22,-30],[12,-7]],[[3613,3172],[70,44],[-3,15],[-3,13],[-4,9],[-4,5],[1,2],[1,0],[0,3],[0,11],[-43,8],[-56,-38],[-13,1],[8,-55],[15,-23],[18,-2],[13,7]],[[3416,3332],[5,-15],[6,-30],[4,-13],[8,-5],[15,17],[7,-1],[7,-10],[8,-1],[3,-4],[0,-8],[-1,-10],[1,-7],[1,-8],[0,-10],[1,-8],[4,-3],[16,0],[3,6],[5,19],[3,4],[30,7],[6,12],[3,24],[-12,16],[-48,3],[-44,31],[-9,15],[-14,37],[-12,17],[-38,-1],[4,-47],[12,-16],[26,-11]],[[3207,439],[35,-28],[9,-23],[-2,-23],[-11,-14],[-12,-2],[-8,11],[-9,28],[-11,6],[-121,-41],[-10,8],[-5,14],[1,25],[7,39],[-15,28],[-5,2],[15,27],[16,8],[34,-6],[22,-29],[70,-30]],[[2566,2354],[-51,6],[-14,24],[7,42],[6,17],[13,9],[6,10],[12,37],[22,40],[6,3],[98,-48],[31,-46],[6,-17],[5,-5],[5,2],[5,5],[5,-1],[5,-21],[-21,-24],[-7,-3],[-6,-10],[-9,-41],[-4,-9],[-49,-49],[-16,9],[-55,70]],[[3152,2807],[-9,4],[-8,12],[-3,19],[7,26],[32,50],[24,4],[14,-10],[13,-20],[12,-28],[-10,-17],[-22,-10],[-21,-28],[-29,-2]],[[3613,3172],[-13,-7],[-18,2],[-15,23],[-8,55],[13,-1],[56,38],[43,-8],[0,-11],[0,-3],[-1,0],[-1,-2],[4,-5],[4,-9],[3,-13],[3,-15],[-70,-44]],[[3416,3332],[-26,11],[-12,16],[-4,47],[38,1],[12,-17],[14,-37],[9,-15],[44,-31],[48,-3],[12,-16],[-3,-24],[-6,-12],[-30,-7],[-3,-4],[-5,-19],[-3,-6],[-16,0],[-4,3],[-1,8],[0,10],[-1,8],[-1,7],[1,10],[0,8],[-3,4],[-8,1],[-7,10],[-7,1],[-15,-17],[-8,5],[-4,13],[-6,30],[-5,15]],[[3462,3098],[-12,7],[-22,30],[-49,36],[-13,1],[8,13],[100,-13],[-2,-24],[-4,-15],[-4,-6],[-5,1],[1,-8],[2,-22]],[[0,1113],[0,202],[12,2],[70,-47],[18,0],[13,46],[-13,44],[9,9],[20,-17],[8,15],[5,23],[5,16],[6,10],[39,24],[16,-4],[14,-39],[5,-24],[18,-29],[7,-23],[1,-15],[-2,-10],[-1,-9],[9,-28],[24,-59],[2,-28],[6,-14],[3,-3],[4,1],[-2,-10],[-6,-34],[23,-34],[12,-7],[10,11],[-3,9],[-2,11],[-5,26],[10,18],[11,-10],[30,-79],[5,-5],[13,7],[2,4],[3,27],[1,74],[-16,41],[-37,38],[5,17],[-7,12],[2,15],[-5,4],[-6,13],[-3,22],[0,34],[3,16],[11,43],[68,-6],[22,-23],[14,-29],[3,-9],[3,-16],[8,-12],[2,-8],[3,-31],[-3,-18],[-14,-24],[15,-18],[54,62],[31,-4],[53,53],[17,28],[36,37],[69,17],[39,46],[82,-2],[78,52],[17,-8],[16,-24],[23,-63],[2,-15],[1,-30],[1,-25],[-1,-21],[1,-20],[4,-21],[-27,-80],[-58,-67],[-173,-27],[-9,15],[-17,-16],[-65,0],[5,-30],[-6,-13],[-133,-167],[-30,-8],[-23,9],[-11,-12],[-7,-43],[12,-5],[23,-32],[11,-7],[12,6],[35,38],[71,6],[48,54],[54,-13],[39,24],[40,-25],[20,3],[9,-12],[6,-37],[-23,-75],[-7,-11],[-7,-5],[-12,-20],[-6,-6],[-7,2],[-14,13],[-7,1],[4,-27],[4,-32],[-4,-2],[-3,-8],[-2,-14],[-1,-20],[15,-4],[57,-68],[7,3],[3,25],[-2,15],[-15,45],[13,22],[19,6],[19,-8],[14,-20],[1,-10],[2,-26],[2,-9],[5,-8],[11,-4],[31,-30],[7,-16],[2,-27],[8,-19],[24,-38],[2,-7],[7,-47],[3,-8],[4,0],[-4,-51],[0,-25],[2,-27],[-7,-21],[2,-26],[8,-20],[9,-2],[12,8],[8,-10],[15,-36],[12,8],[11,42],[20,115],[-6,11],[-14,62],[-8,20],[-17,23],[-8,16],[3,16],[3,12],[3,10],[4,6],[-6,21],[-4,30],[-4,26],[-16,23],[-8,25],[-3,25],[6,12],[-19,60],[-6,27],[6,14],[19,59],[45,63],[64,8],[10,16],[-12,3],[-25,27],[-12,0],[11,42],[34,26],[14,20],[-11,-2],[-6,3],[-5,12],[11,31],[46,97],[32,101],[9,36],[4,13],[8,4],[113,-80],[24,-48],[60,-191],[12,-25],[18,-17],[13,-31],[20,-18],[6,-14],[6,-18],[-8,-34],[0,-12],[3,-28],[3,-18],[3,-11],[2,-15],[-3,-28],[5,-27],[8,-21],[14,-24],[-3,-40],[1,-23],[12,-41],[5,-25],[7,-54],[6,-23],[-3,-37],[5,-29],[7,-27],[3,-31],[6,-36],[15,-20],[25,-20],[8,-23],[12,-60],[9,-23],[22,-19],[10,-22],[6,-47],[-4,1],[-1,-2],[-11,-42],[-24,-61],[-1373,0],[6,35],[3,14],[6,12],[17,14],[34,-1],[17,16],[-6,26],[-17,5],[-5,27],[15,38],[5,6],[-3,13],[-1,15],[-3,30],[2,6],[5,23],[-12,2],[-35,-31],[-55,16],[26,-97],[4,-21],[-8,-32],[-15,1],[-17,20],[-10,25],[3,15],[-6,8],[-17,43],[-3,16],[-2,20],[-2,18],[-5,13],[0,27],[-35,-27],[2,-16],[-4,-18],[-4,-11],[-10,-15],[15,-19],[35,-119],[12,-62],[-7,-35],[-165,0],[0,993],[67,-21],[9,9],[-1,29],[-10,18],[-28,17],[-37,68]],[[2791,0],[-1000,0],[-1,11],[-4,26],[-1,27],[0,37],[-1,33],[-3,14],[-6,11],[-42,107],[-18,29],[3,62],[-6,74],[-8,77],[-6,105],[-3,41],[-9,70],[-4,16],[-4,9],[-2,13],[2,29],[3,13],[19,31],[-8,11],[-16,3],[-7,22],[-3,18],[-2,33],[-3,22],[-7,29],[-19,56],[-5,25],[7,16],[-5,21],[-17,37],[2,8],[5,27],[0,9],[-1,14],[-1,4],[-1,3],[-1,7],[-4,23],[-4,23],[-5,17],[-5,9],[7,35],[3,9],[-6,25],[-4,31],[-1,36],[4,39],[10,40],[13,17],[141,-37],[13,24],[-13,50],[-34,33],[-15,42],[-3,20],[-2,14],[2,16],[5,30],[6,23],[24,36],[-4,4],[-4,9],[-3,13],[-2,18],[7,4],[14,20],[23,12],[41,63],[15,12],[12,-7],[14,-17],[64,-19],[5,-10],[2,-14],[2,-36],[2,-15],[7,-31],[9,-27],[18,-38],[11,-14],[6,-13],[3,-17],[-1,-16],[-8,-19],[-1,-16],[5,-23],[41,-77],[12,-12],[12,8],[10,40],[-4,8],[-11,33],[-3,16],[2,30],[6,17],[29,45],[111,-36],[47,-67],[59,-35],[12,-36],[15,-30],[20,-15],[76,-136],[16,-52],[18,-15],[14,-20],[24,-59],[-10,-70],[-19,-34],[-38,-27],[-16,-21],[-7,-18],[-13,-52],[-24,-41],[7,-15],[-11,-64],[-18,-14],[-19,-1],[-16,-24],[30,-13],[21,16],[6,-3],[6,-20],[2,-61],[5,-35],[-7,-36],[-3,-20],[-1,-24],[2,-16],[3,-12],[2,-15],[1,-23],[-8,-35],[-45,-38],[8,-47],[15,4],[27,43],[27,8],[14,13],[20,61],[13,22],[12,33],[4,60],[2,22],[2,27],[6,47],[8,42],[5,44],[10,41],[13,33],[13,26],[24,26],[38,3],[19,-39],[19,-25],[39,-27],[61,-93],[11,-46],[2,-23],[3,-56],[2,-16],[7,-17],[16,-20],[7,-15],[9,-25],[-2,-4],[-6,-6],[-3,-30],[2,-28],[7,-12],[7,-7],[6,-19],[-7,-5],[-9,-14],[-7,-22],[-4,-33],[0,-34],[4,-22],[11,-31],[-35,-78],[-57,-15],[-13,-23],[22,-27],[70,12],[32,-57],[6,-16],[-2,-29],[-10,-54],[0,-21]],[[3003,0],[-87,0],[2,9],[9,21],[12,9],[31,-10],[5,-2],[28,-27]],[[4096,2360],[0,-1882],[-30,30],[-129,-40],[-128,-41],[-77,55],[-124,-21],[-125,-20],[-9,28],[6,4],[11,20],[5,5],[-32,61],[-5,35],[-8,18],[-97,11],[-97,11],[-43,46],[-22,46],[-121,89],[-8,30],[-6,43],[-5,50],[67,52],[143,20],[6,-6],[19,-53],[49,-55],[135,-24],[135,-24],[-10,39],[-174,83],[-56,100],[-7,28],[167,14],[167,15],[166,14],[6,9],[0,18],[-5,20],[-4,12],[19,38],[142,47],[23,31],[-21,36],[-27,2],[-151,-82],[0,15],[3,1],[9,15],[-35,0],[12,47],[31,5],[12,35],[-156,-20],[-156,-21],[-156,-20],[-157,-21],[-63,-77],[-68,1],[-29,-50],[-90,-17],[-26,44],[-7,5],[-30,-2],[-25,-26],[-105,18],[-62,-28],[-15,9],[2,7],[5,23],[-7,3],[-8,9],[-4,17],[4,28],[-14,42],[-17,13],[-57,-17],[-7,6],[-4,14],[-11,60],[-8,15],[-27,25],[-5,13],[-14,56],[-14,34],[-14,20],[-30,12],[13,23],[54,61],[43,3],[39,36],[23,-19],[15,5],[13,18],[7,33],[-45,0],[8,5],[14,31],[19,27],[7,-2],[-3,-31],[10,-7],[21,-36],[9,0],[6,17],[1,22],[-2,20],[-7,13],[14,24],[14,10],[14,19],[13,49],[-36,-53],[-168,16],[-24,42],[-27,-21],[-8,9],[-14,42],[-8,9],[0,14],[18,-25],[21,-12],[21,6],[17,31],[-78,29],[-14,24],[-16,43],[-16,20],[-10,-43],[-4,7],[-9,13],[-10,7],[-48,-4],[-6,21],[12,5],[25,43],[24,21],[20,42],[11,5],[9,-22],[3,-6],[7,0],[18,15],[74,-15],[19,-16],[6,5],[12,17],[46,5],[28,-40],[13,-9],[10,7],[22,46],[-25,44],[56,-21],[19,-20],[19,-54],[81,-92],[22,-62],[10,-11],[11,1],[11,11],[22,49],[5,18],[-2,19],[0,15],[34,2],[34,27],[-15,43],[-21,11],[-41,-10],[-35,24],[-20,29],[-11,60],[-16,27],[-5,14],[-2,12],[-6,9],[-3,7],[-2,12],[0,12],[0,13],[-1,15],[-2,23],[-1,18],[-3,15],[-6,18],[-23,31],[-7,26],[5,4],[9,21],[5,5],[91,-40],[19,-25],[101,-213],[21,-21],[66,7],[-11,25],[-30,6],[-9,27],[6,20],[39,69],[-4,5],[-8,22],[3,-1],[3,3],[6,13],[-6,12],[-19,17],[8,8],[10,3],[9,8],[5,25],[-24,3],[-8,11],[14,5],[25,45],[13,10],[0,14],[-140,7],[-15,10],[-7,34],[-2,58],[0,36],[2,23],[12,18],[15,0],[28,-26],[15,-43],[5,0],[5,18],[-2,13],[-10,20],[-7,37],[1,31],[7,19],[53,-25],[13,-25],[-2,-16],[66,-3],[8,-10],[-5,-35],[-2,-11],[11,-18],[11,-10],[-1,-21],[-1,-8],[7,-13],[3,-2],[-4,-26],[-3,-23],[2,-17],[7,-6],[8,4],[5,11],[7,42],[11,34],[16,13],[57,-8],[12,-22],[2,-46],[20,-44],[22,-28],[-3,-31],[-2,-15],[-3,-14],[13,-35],[12,-23],[13,-7],[62,36],[15,-14],[-6,-14],[-17,-25],[-6,-19],[-4,-29],[3,-17],[10,-27],[11,-46],[4,-12],[10,-15],[11,-6],[113,48],[32,53],[17,7],[-4,-9],[-2,-10],[-3,-12],[-1,-13],[4,-6],[2,-9],[6,-28],[-5,0],[0,-16],[10,2],[8,8],[9,14],[8,22],[1,11],[0,14],[1,11],[4,5],[4,2],[4,5],[5,7],[3,9],[20,18],[43,-76],[20,7],[-13,25],[-5,3],[9,44],[16,12],[45,-18],[7,-23],[12,-79],[0,-23],[-7,-15],[-14,-13],[-24,-39],[-21,-17],[-43,-104],[8,-21],[10,2],[42,65],[23,11],[10,-9],[19,-39],[58,-39],[-3,-16],[8,-19],[15,-24],[13,-47],[14,-22],[8,-18],[-4,-16],[-11,-29],[17,-28],[-7,-34],[-3,-9],[15,-14],[17,3],[17,19],[14,35],[-9,34],[-9,24],[17,20],[26,-73],[15,10],[-15,49],[-5,13],[-16,12],[-8,13],[-4,29],[37,-9],[6,9],[-6,25],[-27,63],[6,30],[7,42],[0,12],[-3,21],[0,12],[2,10],[11,34],[7,39],[4,35],[-1,39],[-5,47],[10,30],[8,6]],[[4096,2700],[0,-251],[-43,36],[-3,7],[-12,32],[-3,18],[2,42],[7,39],[9,28],[2,25],[25,30],[16,-6]],[[4096,3484],[0,-3484],[-1584,0],[-256,228],[-197,1256],[-38,69],[0,885],[101,268],[595,642],[245,461],[147,105],[164,42],[148,-11],[138,-54],[537,-407]],[[1894,0],[-410,0],[-45,425],[299,26],[110,-103],[46,-348]],[[656,0],[-656,0],[0,1960],[167,33],[130,-28],[185,-94],[208,34],[178,229],[95,77],[144,54],[258,25],[0,-283],[-499,-1235],[146,-426],[-55,-117],[-301,-229]]]}