{"objects":{"water":{"type":"GeometryCollection","geometries":[{"type":"MultiPolygon","properties":{"source":"naturalearthdata.com","kind":"ocean","area":989871000000000,"sort_rank":200,"min_zoom":0,"id":1},"arcs":[[[0]],[[1]]]},{"type":"MultiLineString","properties":{"source":"naturalearthdata.com","kind":"ocean","sort_rank":205,"boundary":true,"min_zoom":0,"id":1492},"arcs":[[2],[3],[4]]}]},"buildings":{"type":"GeometryCollection","geometries":[]},"places":{"type":"GeometryCollection","geometries":[]},"transit":{"type":"GeometryCollection","geometries":[]},"pois":{"type":"GeometryCollection","geometries":[]},"boundaries":{"type":"GeometryCollection","geometries":[]},"roads":{"type":"GeometryCollection","geometries":[]},"earth":{"type":"GeometryCollection","geometries":[{"type":"MultiPolygon","properties":{"sort_rank":10,"source":"naturalearthdata.com","kind":"earth","min_zoom":2.0,"area":372226641930},"arcs":[[[5]],[[6]]]}]},"landuse":{"type":"GeometryCollection","geometries":[]}},"type":"Topology","transform":{"translate":[11.25,70.612614238],"scale":[0.002746582,0.0008317698]},"arcs":[[[4096,91],[0,-12],[-3,-3],[-8,1],[-8,7],[-6,11],[-4,14],[-2,6],[-4,1],[-7,0],[-4,-13],[4,-30],[6,-31],[5,-17],[0,-9],[-34,43],[-20,16],[-13,0],[5,-8],[2,-11],[0,-12],[-2,-10],[-8,-11],[-10,0],[-55,34],[-21,3],[-13,-18],[10,-12],[11,-5],[23,0],[-5,-11],[-11,-14],[-3924,0],[0,4096],[4096,0],[0,-3984],[-2,-8],[1,-12],[1,-1]],[[4035,0],[-7,0],[7,1],[0,-1]],[[4096,112],[-2,-8],[1,-12],[1,-1]],[[4096,79],[-3,-3],[-8,1],[-8,7],[-6,11],[-4,14],[-2,6],[-4,1],[-7,0],[-4,-13],[4,-30],[6,-31],[5,-17],[0,-9],[-34,43],[-20,16],[-13,0],[5,-8],[2,-11],[0,-12],[-2,-10],[-8,-11],[-10,0],[-55,34],[-21,3],[-13,-18],[10,-12],[11,-5],[23,0],[-5,-11],[-11,-14]],[[4028,0],[7,1],[0,-1]],[[4096,79],[0,-79],[-61,0],[0,1],[-7,-1],[-104,0],[11,14],[5,11],[-23,0],[-11,5],[-10,12],[13,18],[21,-3],[55,-34],[10,0],[8,11],[2,10],[0,12],[-2,11],[-5,8],[13,0],[20,-16],[34,-43],[0,9],[-5,17],[-6,31],[-4,30],[4,13],[7,0],[4,-1],[2,-6],[4,-14],[6,-11],[8,-7],[8,-1],[3,3]],[[4096,112],[0,-21],[-1,1],[-1,12],[2,8]]]}