{"objects":{"water":{"type":"GeometryCollection","geometries":[{"type":"MultiPolygon","properties":{"source":"naturalearthdata.com","kind":"ocean","area":990044000000000,"sort_rank":200,"min_zoom":0,"id":1},"arcs":[[[0]],[[1]],[[2]]]},{"type":"MultiLineString","properties":{"source":"naturalearthdata.com","kind":"ocean","sort_rank":205,"boundary":true,"min_zoom":0,"id":1199},"arcs":[[3],[4],[5],[6]]},{"type":"LineString","properties":{"source":"naturalearthdata.com","kind":"ocean","sort_rank":205,"boundary":true,"min_zoom":0,"id":1222},"arcs":[7]},{"type":"MultiLineString","properties":{"source":"naturalearthdata.com","kind":"ocean","sort_rank":205,"boundary":true,"min_zoom":0,"id":1344},"arcs":[[8],[9]]},{"type":"MultiLineString","properties":{"source":"naturalearthdata.com","kind":"ocean","sort_rank":205,"boundary":true,"min_zoom":0,"id":1351},"arcs":[[10],[11],[12]]},{"type":"Point","properties":{"label_placement":true,"collision_rank":398,"name:sk":"Lincolnovo more","name:lt":"Linkolno j\u016bra","name:no":"Lincolnsj\u00f8en","name:sv":"Lincolnhavet","name:ar":"\u0628\u062d\u0631 \u0644\u0646\u0643\u0648\u0644\u0646","name:cs":"Lincolnovo mo\u0159e","kind":"sea","min_zoom":3.0,"name:it":"Mare di Lincoln","name:uk":"\u041c\u043e\u0440\u0435 \u041b\u0456\u043d\u043a\u043e\u043b\u044c\u043d\u0430","name:ru":"\u041c\u043e\u0440\u0435 \u041b\u0438\u043d\u043a\u043e\u043b\u044c\u043d\u0430","name:be":"\u041c\u043e\u0440\u0430 \u041b\u0456\u043d\u043a\u0430\u043b\u044c\u043d\u0430","name:pl":"Morze Lincolna","name:hu":"Lincoln-tenger","name:hr":"Linkolnovo more","id":305640308,"name:fa":"\u062f\u0631\u06cc\u0627\u06cc \u0644\u06cc\u0646\u06a9\u0644\u0646","name:eo":"Linkolna Maro","name:en":"Lincoln Sea","name":"Lincoln Sea","sort_rank":200,"name:fi":"Lincolninmeri","name:de":"Lincolnsee","source":"openstreetmap.org","name:fr":"Mer de Lincoln","wikidata_id":"Q243125","name:es":"Mar de Lincoln"},"coordinates":[2913,2667]}]},"buildings":{"type":"GeometryCollection","geometries":[]},"places":{"type":"GeometryCollection","geometries":[]},"transit":{"type":"GeometryCollection","geometries":[]},"pois":{"type":"GeometryCollection","geometries":[]},"boundaries":{"type":"GeometryCollection","geometries":[]},"roads":{"type":"GeometryCollection","geometries":[]},"earth":{"type":"GeometryCollection","geometries":[{"type":"MultiPolygon","properties":{"sort_rank":10,"source":"naturalearthdata.com","min_zoom":0,"kind":"earth","area":608027485394504},"arcs":[[[13]],[[14]],[[15]],[[16]],[[17]],[[18]]]}]},"landuse":{"type":"GeometryCollection","geometries":[]}},"type":"Topology","transform":{"translate":[-90.0,79.1713346408],"scale":[0.0109863281,0.0014354966]},"arcs":[[[4096,2021],[0,-190],[-26,20],[-121,187],[-68,53],[-136,162],[-107,47],[-72,1],[-15,-10],[5,-54],[20,-101],[29,-81],[64,-104],[14,-38],[-10,-14],[-20,-3],[-45,11],[-49,-9],[-41,90],[-37,37],[-93,170],[-22,0],[-8,-49],[1,-93],[16,-56],[-4,-49],[-7,-67],[-9,-50],[-13,-32],[-13,-46],[-12,-24],[-3,16],[0,43],[1,225],[-8,72],[-17,51],[-12,29],[-26,33],[-25,17],[-16,0],[-56,-36],[-13,-11],[-6,-26],[-61,-17],[-34,4],[-103,-41],[-91,-53],[-49,-60],[-1,-17],[41,-43],[23,-43],[31,-73],[34,-64],[62,-90],[29,-51],[18,-45],[4,-22],[-11,2],[-12,11],[-20,33],[-38,77],[-26,36],[-27,21],[-31,48],[-48,94],[-30,41],[-33,13],[-23,21],[-18,3],[-31,-12],[-37,-45],[-16,-32],[-17,-44],[-3,-36],[6,-44],[4,-69],[3,-95],[-6,-80],[-14,-65],[-11,-38],[-8,-12],[-10,0],[-21,15],[-17,24],[-23,15],[-34,14],[-21,3],[-8,-8],[-20,-44],[-2,-42],[13,-101],[6,-34],[-3,-3],[-35,90],[-12,20],[-13,10],[-16,-1],[-56,-39],[-17,-24],[-33,-90],[-27,-49],[-26,-57],[-14,-17],[-15,-8],[-16,-16],[-21,-29],[-22,-38],[-35,-81],[-5,-20],[-13,-73],[-1,-40],[6,-39],[7,-30],[9,-22],[11,-11],[36,3],[14,-5],[28,-30],[16,-4],[23,17],[15,20],[15,6],[22,-2],[23,15],[17,23],[10,3],[10,-6],[11,-15],[2,-9],[-26,-19],[-15,-21],[-15,-28],[-4,-22],[-6,-61],[-7,-101],[-12,-103],[-16,-106],[-12,-67],[-12,-45],[-25,-71],[0,-2],[-789,0],[2,41],[-23,4],[-33,-22],[-24,17],[-23,8],[-31,50],[-15,10],[-17,61],[-34,45],[-17,7],[-4,17],[48,-13],[28,-15],[27,-29],[25,-12],[22,5],[42,26],[35,-3],[20,7],[16,18],[14,8],[36,-4],[9,6],[7,12],[5,22],[3,30],[-3,33],[-16,62],[-6,17],[-15,10],[-37,5],[-45,26],[-11,13],[24,28],[23,4],[31,-24],[33,-13],[92,-93],[20,-5],[23,10],[52,42],[8,15],[17,45],[1,20],[-16,21],[-7,3],[54,61],[19,51],[-1,16],[-18,17],[-10,2],[-68,-35],[-30,10],[-10,14],[0,12],[12,11],[12,3],[12,-5],[18,7],[33,29],[76,32],[5,31],[-41,158],[-4,24],[6,-8],[22,-48],[23,-43],[18,-16],[20,-5],[16,11],[14,28],[40,114],[30,64],[78,126],[95,126],[38,74],[76,96],[59,107],[5,38],[-42,12],[-45,-11],[-235,-162],[-21,-9],[-16,9],[3,22],[161,134],[5,9],[6,20],[3,25],[13,37],[56,9],[28,12],[18,15],[9,33],[16,20],[59,-7],[13,6],[28,36],[49,36],[99,112],[30,26],[18,46],[33,52],[31,66],[6,43],[-9,41],[-8,29],[-8,18],[-20,15],[-71,21],[-70,-48],[0,12],[15,46],[0,22],[-27,62],[-19,28],[-5,13],[2,12],[5,13],[9,16],[-3,15],[-13,14],[-31,11],[-14,-4],[-27,-32],[-6,1],[-12,28],[-13,40],[-12,17],[-7,1],[-12,-9],[-4,-13],[-8,-36],[-5,-13],[-9,1],[-13,18],[-17,10],[-35,-24],[-45,-46],[-23,-16],[-12,-2],[-37,-33],[-30,-11],[-40,-5],[-27,6],[10,16],[138,98],[22,30],[16,32],[0,14],[-15,12],[-74,7],[-20,7],[-28,-6],[-16,4],[-28,31],[-24,-5],[-74,13],[-7,5],[-20,48],[-8,11],[-9,5],[-82,-12],[-19,-11],[-31,-43],[2,-14],[18,-22],[25,-41],[-1,-6],[-18,15],[-25,36],[-52,88],[-8,3],[-67,-17],[-48,-58],[-6,-15],[-4,-22],[0,-28],[19,-42],[42,-62],[10,-24],[-55,35],[-40,56],[-19,36],[-13,36],[-13,23],[-19,17],[-121,24],[-126,-27],[8,-28],[12,-34],[45,-72],[20,-41],[9,-23],[41,-56],[7,-25],[-16,-25],[-25,-26],[-12,11],[-9,37],[-8,28],[-8,19],[-73,116],[-23,32],[-13,9],[-32,7],[-51,-11],[-59,30],[-64,3],[-25,-19],[1,-12],[16,-24],[12,-30],[18,-22],[39,-36],[38,-27],[4,-10],[-26,-4],[-95,22],[-53,44],[-32,7],[-10,-12],[-5,-12],[3,-20],[31,-90],[-5,-10],[-30,16],[-36,33],[-18,5],[-30,-15],[-1,-18],[15,-27],[25,-31],[-3,-9],[-28,-8],[-22,-21],[-17,-26],[0,-22],[18,-41],[23,-41],[49,-59],[121,-115],[46,-67],[19,-54],[-4,-2],[-20,24],[-20,35],[-23,29],[-36,19],[-94,80],[-63,69],[-24,20],[-9,-1],[-6,-12],[-4,-23],[8,-26],[30,-46],[-2,-18],[-26,7],[-12,13],[-22,32],[-15,32],[-38,97],[-21,17],[-49,16],[-17,17],[-18,27],[-13,9],[-35,-31],[-19,-27],[-28,-52],[-12,-6],[-24,-25],[-39,-20],[3,-22],[116,-100],[13,-14],[10,-20],[1,-8],[-33,-1],[-12,-19],[-10,-1],[-21,16],[-25,34],[-20,14],[-23,4],[-19,-12],[-15,-29],[-2,-23],[-18,29],[-17,37],[-21,22],[-39,8],[-46,-25],[-28,-30],[-25,-44],[-21,-26],[-23,-16],[-33,0],[0,2199],[4096,0],[0,-1365],[-11,-9],[-27,-43],[-45,31],[-23,2],[-29,-78],[32,-65],[24,-3],[51,7],[25,14],[3,0],[0,-71],[-6,1],[-27,-9],[-18,-17],[1,-15],[50,-72],[0,-87],[-37,56],[-90,80],[-36,-19],[-44,-6],[-7,-40],[4,-46],[51,-129],[53,-49],[61,-74],[39,-73],[6,4]],[[0,1678],[0,37],[16,1],[-2,-16],[-14,-22]],[[0,938],[0,638],[93,75],[45,16],[35,-4],[46,-23],[-2,-11],[-46,6],[-46,-12],[-24,-19],[-49,-60],[-22,-41],[3,-19],[39,-36],[-5,-8],[-27,-8],[-35,-38],[-3,-33],[17,-42],[15,-22],[21,-5],[46,23],[147,15],[59,29],[68,83],[43,31],[18,6],[24,-6],[-12,-27],[-67,-86],[-60,-61],[-41,-25],[-42,-8],[-94,8],[-68,-41],[-9,-19],[5,-22],[6,-20],[7,-17],[13,-17],[27,-24],[36,-46],[21,-20],[26,-14],[35,10],[23,39],[77,156],[24,43],[17,16],[104,44],[123,35],[-6,-31],[-121,-43],[-51,-38],[-36,-44],[-56,-94],[-17,-43],[-15,-44],[-1,-24],[8,-17],[25,-28],[14,-2],[34,13],[38,-38],[15,-4],[66,4],[18,8],[13,13],[18,31],[21,51],[23,28],[56,15],[26,19],[25,6],[-10,-30],[-40,-68],[-10,-37],[24,-13],[23,1],[74,43],[23,3],[27,19],[79,76],[34,55],[14,28],[6,19],[6,36],[7,53],[8,36],[10,20],[12,7],[12,-6],[18,22],[35,75],[35,50],[99,70],[-14,-31],[-46,-45],[-68,-107],[-16,-37],[-15,-50],[-5,-29],[-3,-35],[15,-21],[50,-11],[56,0],[24,-6],[25,-13],[-1,-9],[-28,-16],[-31,-5],[-80,-35],[-113,-95],[-4,-16],[-34,-68],[-85,-58],[-142,-48],[-22,-15],[-19,-22],[3,-31],[25,-72],[32,-76],[43,-76],[20,-46],[26,-72],[16,-37],[15,-29],[27,-12],[39,3],[15,-7],[-13,-24],[-19,-20],[-18,-4],[-33,10],[-39,27],[-20,22],[-16,26],[-17,42],[-30,87],[-27,59],[-30,43],[-31,65],[-35,57],[-30,23],[-56,12],[-44,-5],[-105,33],[-17,-43],[-11,-94],[11,-73],[7,-121],[25,-71],[10,-14],[53,-23],[17,-18],[16,-36],[23,-82],[29,-82],[12,-52],[17,-54],[17,-37],[-141,0],[25,26],[10,17],[12,36],[-2,30],[-10,41],[-30,100],[-13,57],[-3,2],[-6,-14],[-5,-15],[-13,-61],[-6,-4],[-7,50],[-8,37],[-5,12],[-10,9],[-28,8],[-19,-34],[-6,-5],[-29,-13],[-5,6],[7,34],[7,23],[9,100],[6,62],[-9,50],[-11,53],[-12,3],[-29,23],[-19,5],[-6,7],[5,26],[22,37],[1,14],[-1,65],[-2,33],[-2,16],[-26,31],[-15,9],[-28,-1],[-9,-7],[-11,-21],[-1,-27],[1,-41],[3,-24],[21,-21],[12,-41],[5,-29],[0,-9],[-12,15],[-19,-1],[-29,24],[-15,23],[-16,45],[-2,18],[7,49],[-1,13],[-4,11],[-1,9],[7,23],[-1,12],[-2,15],[-6,22],[-9,15],[-18,5],[-13,-6],[-12,-21],[-5,-2],[-13,14]],[[1937,1456],[3,22],[161,134],[5,9],[6,20],[3,25],[13,37],[56,9],[28,12],[18,15],[9,33],[16,20],[59,-7],[13,6],[28,36],[49,36],[99,112],[30,26],[18,46],[33,52],[31,66],[6,43],[-9,41],[-8,29],[-8,18],[-20,15],[-71,21],[-70,-48],[0,12],[15,46],[0,22],[-27,62],[-19,28],[-5,13],[2,12],[5,13],[9,16],[-3,15],[-13,14],[-31,11],[-14,-4],[-27,-32],[-6,1],[-12,28],[-13,40],[-12,17],[-7,1],[-12,-9],[-4,-13],[-8,-36],[-5,-13],[-9,1],[-13,18],[-17,10],[-35,-24],[-45,-46],[-23,-16],[-12,-2],[-37,-33],[-30,-11],[-40,-5],[-27,6],[10,16],[138,98],[22,30],[16,32],[0,14],[-15,12],[-74,7],[-20,7],[-28,-6],[-16,4],[-28,31],[-24,-5],[-74,13],[-7,5],[-20,48],[-8,11],[-9,5],[-82,-12],[-19,-11],[-31,-43],[2,-14],[18,-22],[25,-41],[-1,-6],[-18,15],[-25,36],[-52,88],[-8,3],[-67,-17],[-48,-58],[-6,-15],[-4,-22],[0,-28],[19,-42],[42,-62],[10,-24],[-55,35],[-40,56],[-19,36],[-13,36],[-13,23],[-19,17],[-121,24],[-126,-27],[8,-28],[12,-34],[45,-72],[20,-41],[9,-23],[41,-56],[7,-25],[-16,-25],[-25,-26],[-12,11],[-9,37],[-8,28],[-8,19],[-73,116],[-23,32],[-13,9],[-32,7],[-51,-11],[-59,30],[-64,3],[-25,-19],[1,-12],[16,-24],[12,-30],[18,-22],[39,-36],[38,-27],[4,-10],[-26,-4],[-95,22],[-53,44],[-32,7],[-10,-12],[-5,-12],[3,-20],[31,-90],[-5,-10],[-30,16],[-36,33],[-18,5],[-30,-15],[-1,-18],[15,-27],[25,-31],[-3,-9],[-28,-8],[-22,-21],[-17,-26],[0,-22],[18,-41],[23,-41],[49,-59],[121,-115],[46,-67],[19,-54],[-4,-2],[-20,24],[-20,35],[-23,29],[-36,19],[-94,80],[-63,69],[-24,20],[-9,-1],[-6,-12],[-4,-23],[8,-26],[30,-46],[-2,-18],[-26,7],[-12,13],[-22,32],[-15,32],[-38,97],[-21,17],[-49,16],[-17,17],[-18,27],[-13,9],[-35,-31],[-19,-27],[-28,-52],[-12,-6],[-24,-25],[-39,-20],[3,-22],[116,-100],[13,-14],[10,-20],[1,-8],[-33,-1],[-12,-19],[-10,-1],[-21,16],[-25,34],[-20,14],[-23,4],[-19,-12],[-15,-29],[-2,-23],[-18,29],[-17,37],[-21,22],[-39,8],[-46,-25],[-28,-30],[-25,-44],[-21,-26],[-23,-16],[-33,0]],[[0,1715],[16,1],[-2,-16],[-14,-22]],[[0,1576],[93,75],[45,16],[35,-4],[46,-23],[-2,-11],[-46,6],[-46,-12],[-24,-19],[-49,-60],[-22,-41],[3,-19],[39,-36],[-5,-8],[-27,-8],[-35,-38],[-3,-33],[17,-42],[15,-22],[21,-5],[46,23],[147,15],[59,29],[68,83],[43,31],[18,6],[24,-6],[-12,-27],[-67,-86],[-60,-61],[-41,-25],[-42,-8],[-94,8],[-68,-41],[-9,-19],[5,-22],[6,-20],[7,-17],[13,-17],[27,-24],[36,-46],[21,-20],[26,-14],[35,10],[23,39],[77,156],[24,43],[17,16],[104,44],[123,35],[-6,-31],[-121,-43],[-51,-38],[-36,-44],[-56,-94],[-17,-43],[-15,-44],[-1,-24],[8,-17],[25,-28],[14,-2],[34,13],[38,-38],[15,-4],[66,4],[18,8],[13,13],[18,31],[21,51],[23,28],[56,15],[26,19],[25,6],[-10,-30],[-40,-68],[-10,-37],[24,-13],[23,1],[74,43],[23,3],[27,19],[79,76],[34,55],[14,28],[6,19],[6,36],[7,53],[8,36],[10,20],[12,7],[12,-6],[18,22],[35,75],[35,50],[99,70],[-14,-31],[-46,-45],[-68,-107],[-16,-37],[-15,-50],[-5,-29],[-3,-35],[15,-21],[50,-11],[56,0],[24,-6],[25,-13],[-1,-9],[-28,-16],[-31,-5],[-80,-35],[-113,-95],[-4,-16],[-34,-68],[-85,-58],[-142,-48],[-22,-15],[-19,-22],[3,-31],[25,-72],[32,-76],[43,-76],[20,-46],[26,-72],[16,-37],[15,-29],[27,-12],[39,3],[15,-7],[-13,-24],[-19,-20],[-18,-4],[-33,10],[-39,27],[-20,22],[-16,26],[-17,42],[-30,87],[-27,59],[-30,43],[-31,65],[-35,57],[-30,23],[-56,12],[-44,-5],[-105,33],[-17,-43],[-11,-94],[11,-73],[7,-121],[25,-71],[10,-14],[53,-23],[17,-18],[16,-36],[23,-82],[29,-82],[12,-52],[17,-54],[17,-37]],[[1411,0],[2,41],[-23,4],[-33,-22],[-24,17],[-23,8],[-31,50],[-15,10],[-17,61],[-34,45],[-17,7],[-4,17],[48,-13],[28,-15],[27,-29],[25,-12],[22,5],[42,26],[35,-3],[20,7],[16,18],[14,8],[36,-4],[9,6],[7,12],[5,22],[3,30],[-3,33],[-16,62],[-6,17],[-15,10],[-37,5],[-45,26],[-11,13],[24,28],[23,4],[31,-24],[33,-13],[92,-93],[20,-5],[23,10],[52,42],[8,15],[17,45],[1,20],[-16,21],[-7,3],[54,61],[19,51],[-1,16],[-18,17],[-10,2],[-68,-35],[-30,10],[-10,14],[0,12],[12,11],[12,3],[12,-5],[18,7],[33,29],[76,32],[5,31],[-41,158],[-4,24],[6,-8],[22,-48],[23,-43],[18,-16],[20,-5],[16,11],[14,28],[40,114],[30,64],[78,126],[95,126],[38,74],[76,96],[59,107],[5,38],[-42,12],[-45,-11],[-235,-162],[-21,-9],[-16,9]],[[404,0],[25,26],[10,17],[12,36],[-2,30],[-10,41],[-30,100],[-13,57],[-3,2],[-6,-14],[-5,-15],[-13,-61],[-6,-4],[-7,50],[-8,37],[-5,12],[-10,9],[-28,8],[-19,-34],[-6,-5],[-29,-13],[-5,6],[7,34],[7,23],[9,100],[6,62],[-9,50],[-11,53],[-12,3],[-29,23],[-19,5],[-6,7],[5,26],[22,37],[1,14],[-1,65],[-2,33],[-2,16],[-26,31],[-15,9],[-28,-1],[-9,-7],[-11,-21],[-1,-27],[1,-41],[3,-24],[21,-21],[12,-41],[5,-29],[0,-9],[-12,15],[-19,-1],[-29,24],[-15,23],[-16,45],[-2,18],[7,49],[-1,13],[-4,11],[-1,9],[7,23],[-1,12],[-2,15],[-6,22],[-9,15],[-18,5],[-13,-6],[-12,-21],[-5,-2],[-13,14]],[[3969,2453],[-36,-19],[-44,-6],[-7,-40],[4,-46],[51,-129],[53,-49],[61,-74],[39,-73],[6,4]],[[4096,2317],[-37,56],[-90,80]],[[2200,0],[0,2],[25,71],[12,45],[12,67],[16,106],[12,103],[7,101],[6,61],[4,22],[15,28],[15,21],[26,19],[-2,9],[-11,15],[-10,6],[-10,-3],[-17,-23],[-23,-15],[-22,2],[-15,-6],[-15,-20],[-23,-17],[-16,4],[-28,30],[-14,5],[-36,-3],[-11,11],[-9,22],[-7,30],[-6,39],[1,40],[13,73],[5,20],[35,81],[22,38],[21,29],[16,16],[15,8],[14,17],[26,57],[27,49],[33,90],[17,24],[56,39],[16,1],[13,-10],[12,-20],[35,-90],[3,3],[-6,34],[-13,101],[2,42],[20,44],[8,8],[21,-3],[34,-14],[23,-15],[17,-24],[21,-15],[10,0],[8,12],[11,38],[14,65],[6,80],[-3,95],[-4,69],[-6,44],[3,36],[17,44],[16,32],[37,45],[31,12],[18,-3],[23,-21],[33,-13],[30,-41],[48,-94],[31,-48],[27,-21],[26,-36],[38,-77],[20,-33],[12,-11],[11,-2],[-4,22],[-18,45],[-29,51],[-62,90],[-34,64],[-31,73],[-23,43],[-41,43],[1,17],[49,60],[91,53],[103,41],[34,-4],[61,17],[6,26],[13,11],[56,36],[16,0],[25,-17],[26,-33],[12,-29],[17,-51],[8,-72],[-1,-225],[0,-43],[3,-16],[12,24],[13,46],[13,32],[9,50],[7,67],[4,49],[-16,56],[-1,93],[8,49],[22,0],[93,-170],[37,-37],[41,-90],[49,9],[45,-11],[20,3],[10,14],[-14,38],[-64,104],[-29,81],[-20,101],[-5,54],[15,10],[72,-1],[107,-47],[136,-162],[68,-53],[121,-187],[26,-20]],[[4096,2404],[-50,72],[-1,15],[18,17],[27,9],[6,-1]],[[4096,2587],[-3,0],[-25,-14],[-51,-7],[-24,3],[-32,65],[29,78],[23,-2],[45,-31],[27,43],[11,9]],[[404,0],[-404,0],[0,938],[13,-14],[5,2],[12,21],[13,6],[18,-5],[9,-15],[6,-22],[2,-15],[1,-12],[-7,-23],[1,-9],[4,-11],[1,-13],[-7,-49],[2,-18],[16,-45],[15,-23],[29,-24],[19,1],[12,-15],[0,9],[-5,29],[-12,41],[-21,21],[-3,24],[-1,41],[1,27],[11,21],[9,7],[28,1],[15,-9],[26,-31],[2,-16],[2,-33],[1,-65],[-1,-14],[-22,-37],[-5,-26],[6,-7],[19,-5],[29,-23],[12,-3],[11,-53],[9,-50],[-6,-62],[-9,-100],[-7,-23],[-7,-34],[5,-6],[29,13],[6,5],[19,34],[28,-8],[10,-9],[5,-12],[8,-37],[7,-50],[6,4],[13,61],[5,15],[6,14],[3,-2],[13,-57],[30,-100],[10,-41],[2,-30],[-12,-36],[-10,-17],[-25,-26]],[[4096,2317],[0,-296],[-6,-4],[-39,73],[-61,74],[-53,49],[-51,129],[-4,46],[7,40],[44,6],[36,19],[90,-80],[37,-56]],[[0,1715],[0,182],[33,0],[23,16],[21,26],[25,44],[28,30],[46,25],[39,-8],[21,-22],[17,-37],[18,-29],[2,23],[15,29],[19,12],[23,-4],[20,-14],[25,-34],[21,-16],[10,1],[12,19],[33,1],[-1,8],[-10,20],[-13,14],[-116,100],[-3,22],[39,20],[24,25],[12,6],[28,52],[19,27],[35,31],[13,-9],[18,-27],[17,-17],[49,-16],[21,-17],[38,-97],[15,-32],[22,-32],[12,-13],[26,-7],[2,18],[-30,46],[-8,26],[4,23],[6,12],[9,1],[24,-20],[63,-69],[94,-80],[36,-19],[23,-29],[20,-35],[20,-24],[4,2],[-19,54],[-46,67],[-121,115],[-49,59],[-23,41],[-18,41],[0,22],[17,26],[22,21],[28,8],[3,9],[-25,31],[-15,27],[1,18],[30,15],[18,-5],[36,-33],[30,-16],[5,10],[-31,90],[-3,20],[5,12],[10,12],[32,-7],[53,-44],[95,-22],[26,4],[-4,10],[-38,27],[-39,36],[-18,22],[-12,30],[-16,24],[-1,12],[25,19],[64,-3],[59,-30],[51,11],[32,-7],[13,-9],[23,-32],[73,-116],[8,-19],[8,-28],[9,-37],[12,-11],[25,26],[16,25],[-7,25],[-41,56],[-9,23],[-20,41],[-45,72],[-12,34],[-8,28],[126,27],[121,-24],[19,-17],[13,-23],[13,-36],[19,-36],[40,-56],[55,-35],[-10,24],[-42,62],[-19,42],[0,28],[4,22],[6,15],[48,58],[67,17],[8,-3],[52,-88],[25,-36],[18,-15],[1,6],[-25,41],[-18,22],[-2,14],[31,43],[19,11],[82,12],[9,-5],[8,-11],[20,-48],[7,-5],[74,-13],[24,5],[28,-31],[16,-4],[28,6],[20,-7],[74,-7],[15,-12],[0,-14],[-16,-32],[-22,-30],[-138,-98],[-10,-16],[27,-6],[40,5],[30,11],[37,33],[12,2],[23,16],[45,46],[35,24],[17,-10],[13,-18],[9,-1],[5,13],[8,36],[4,13],[12,9],[7,-1],[12,-17],[13,-40],[12,-28],[6,-1],[27,32],[14,4],[31,-11],[13,-14],[3,-15],[-9,-16],[-5,-13],[-2,-12],[5,-13],[19,-28],[27,-62],[0,-22],[-15,-46],[0,-12],[70,48],[71,-21],[20,-15],[8,-18],[8,-29],[9,-41],[-6,-43],[-31,-66],[-33,-52],[-18,-46],[-30,-26],[-99,-112],[-49,-36],[-28,-36],[-13,-6],[-59,7],[-16,-20],[-9,-33],[-18,-15],[-28,-12],[-56,-9],[-13,-37],[-3,-25],[-6,-20],[-5,-9],[-161,-134],[-3,-22],[16,-9],[21,9],[235,162],[45,11],[42,-12],[-5,-38],[-59,-107],[-76,-96],[-38,-74],[-95,-126],[-78,-126],[-30,-64],[-40,-114],[-14,-28],[-16,-11],[-20,5],[-18,16],[-23,43],[-22,48],[-6,8],[4,-24],[41,-158],[-5,-31],[-76,-32],[-33,-29],[-18,-7],[-12,5],[-12,-3],[-12,-11],[0,-12],[10,-14],[30,-10],[68,35],[10,-2],[18,-17],[1,-16],[-19,-51],[-54,-61],[7,-3],[16,-21],[-1,-20],[-17,-45],[-8,-15],[-52,-42],[-23,-10],[-20,5],[-92,93],[-33,13],[-31,24],[-23,-4],[-24,-28],[11,-13],[45,-26],[37,-5],[15,-10],[6,-17],[16,-62],[3,-33],[-3,-30],[-5,-22],[-7,-12],[-9,-6],[-36,4],[-14,-8],[-16,-18],[-20,-7],[-35,3],[-42,-26],[-22,-5],[-25,12],[-27,29],[-28,15],[-48,13],[4,-17],[17,-7],[34,-45],[17,-61],[15,-10],[31,-50],[23,-8],[24,-17],[33,22],[23,-4],[-2,-41],[-866,0],[-17,37],[-17,54],[-12,52],[-29,82],[-23,82],[-16,36],[-17,18],[-53,23],[-10,14],[-25,71],[-7,121],[-11,73],[11,94],[17,43],[105,-33],[44,5],[56,-12],[30,-23],[35,-57],[31,-65],[30,-43],[27,-59],[30,-87],[17,-42],[16,-26],[20,-22],[39,-27],[33,-10],[18,4],[19,20],[13,24],[-15,7],[-39,-3],[-27,12],[-15,29],[-16,37],[-26,72],[-20,46],[-43,76],[-32,76],[-25,72],[-3,31],[19,22],[22,15],[142,48],[85,58],[34,68],[4,16],[113,95],[80,35],[31,5],[28,16],[1,9],[-25,13],[-24,6],[-56,0],[-50,11],[-15,21],[3,35],[5,29],[15,50],[16,37],[68,107],[46,45],[14,31],[-99,-70],[-35,-50],[-35,-75],[-18,-22],[-12,6],[-12,-7],[-10,-20],[-8,-36],[-7,-53],[-6,-36],[-6,-19],[-14,-28],[-34,-55],[-79,-76],[-27,-19],[-23,-3],[-74,-43],[-23,-1],[-24,13],[10,37],[40,68],[10,30],[-25,-6],[-26,-19],[-56,-15],[-23,-28],[-21,-51],[-18,-31],[-13,-13],[-18,-8],[-66,-4],[-15,4],[-38,38],[-34,-13],[-14,2],[-25,28],[-8,17],[1,24],[15,44],[17,43],[56,94],[36,44],[51,38],[121,43],[6,31],[-123,-35],[-104,-44],[-17,-16],[-24,-43],[-77,-156],[-23,-39],[-35,-10],[-26,14],[-21,20],[-36,46],[-27,24],[-13,17],[-7,17],[-6,20],[-5,22],[9,19],[68,41],[94,-8],[42,8],[41,25],[60,61],[67,86],[12,27],[-24,6],[-18,-6],[-43,-31],[-68,-83],[-59,-29],[-147,-15],[-46,-23],[-21,5],[-15,22],[-17,42],[3,33],[35,38],[27,8],[5,8],[-39,36],[-3,19],[22,41],[49,60],[24,19],[46,12],[46,-6],[2,11],[-46,23],[-35,4],[-45,-16],[-93,-75],[0,102],[14,22],[2,16],[-16,-1]],[[4096,1831],[0,-1831],[-1896,0],[0,2],[25,71],[12,45],[12,67],[16,106],[12,103],[7,101],[6,61],[4,22],[15,28],[15,21],[26,19],[-2,9],[-11,15],[-10,6],[-10,-3],[-17,-23],[-23,-15],[-22,2],[-15,-6],[-15,-20],[-23,-17],[-16,4],[-28,30],[-14,5],[-36,-3],[-11,11],[-9,22],[-7,30],[-6,39],[1,40],[13,73],[5,20],[35,81],[22,38],[21,29],[16,16],[15,8],[14,17],[26,57],[27,49],[33,90],[17,24],[56,39],[16,1],[13,-10],[12,-20],[35,-90],[3,3],[-6,34],[-13,101],[2,42],[20,44],[8,8],[21,-3],[34,-14],[23,-15],[17,-24],[21,-15],[10,0],[8,12],[11,38],[14,65],[6,80],[-3,95],[-4,69],[-6,44],[3,36],[17,44],[16,32],[37,45],[31,12],[18,-3],[23,-21],[33,-13],[30,-41],[48,-94],[31,-48],[27,-21],[26,-36],[38,-77],[20,-33],[12,-11],[11,-2],[-4,22],[-18,45],[-29,51],[-62,90],[-34,64],[-31,73],[-23,43],[-41,43],[1,17],[49,60],[91,53],[103,41],[34,-4],[61,17],[6,26],[13,11],[56,36],[16,0],[25,-17],[26,-33],[12,-29],[17,-51],[8,-72],[-1,-225],[0,-43],[3,-16],[12,24],[13,46],[13,32],[9,50],[7,67],[4,49],[-16,56],[-1,93],[8,49],[22,0],[93,-170],[37,-37],[41,-90],[49,9],[45,-11],[20,3],[10,14],[-14,38],[-64,104],[-29,81],[-20,101],[-5,54],[15,10],[72,-1],[107,-47],[136,-162],[68,-53],[121,-187],[26,-20]],[[4096,2516],[0,-112],[-50,72],[-1,15],[18,17],[27,9],[6,-1]],[[4096,2731],[0,-144],[-3,0],[-25,-14],[-51,-7],[-24,3],[-32,65],[29,78],[23,-2],[45,-31],[27,43],[11,9]]]}