{"objects":{"water":{"type":"GeometryCollection","geometries":[{"type":"MultiPolygon","properties":{"source":"naturalearthdata.com","kind":"ocean","area":990044000000000,"sort_rank":200,"min_zoom":0,"id":1},"arcs":[[[0],[1],[2],[3]]]},{"type":"LineString","properties":{"source":"naturalearthdata.com","kind":"ocean","sort_rank":205,"boundary":true,"min_zoom":0,"id":53},"arcs":[4]},{"type":"LineString","properties":{"source":"naturalearthdata.com","kind":"ocean","sort_rank":205,"boundary":true,"min_zoom":0,"id":121},"arcs":[5]},{"type":"LineString","properties":{"source":"naturalearthdata.com","kind":"ocean","sort_rank":205,"boundary":true,"min_zoom":0,"id":122},"arcs":[6]},{"type":"LineString","properties":{"source":"naturalearthdata.com","kind":"ocean","sort_rank":205,"boundary":true,"min_zoom":0,"id":123},"arcs":[7]},{"type":"LineString","properties":{"source":"naturalearthdata.com","kind":"ocean","sort_rank":205,"boundary":true,"min_zoom":0,"id":264},"arcs":[8]},{"type":"LineString","properties":{"source":"naturalearthdata.com","kind":"ocean","sort_rank":205,"boundary":true,"min_zoom":0,"id":1386},"arcs":[9]}]},"buildings":{"type":"GeometryCollection","geometries":[]},"places":{"type":"GeometryCollection","geometries":[]},"transit":{"type":"GeometryCollection","geometries":[]},"pois":{"type":"GeometryCollection","geometries":[]},"boundaries":{"type":"GeometryCollection","geometries":[]},"roads":{"type":"GeometryCollection","geometries":[]},"earth":{"type":"GeometryCollection","geometries":[{"type":"MultiPolygon","properties":{"sort_rank":10,"source":"naturalearthdata.com","min_zoom":0,"kind":"earth","area":608027485394504},"arcs":[[[10]],[[11]]]},{"type":"MultiPolygon","properties":{"sort_rank":10,"source":"naturalearthdata.com","kind":"earth","min_zoom":2.0,"area":1753086625268},"arcs":[[[12]],[[13]]]},{"type":"MultiPolygon","properties":{"sort_rank":10,"source":"naturalearthdata.com","min_zoom":1.0,"kind":"earth","area":2911806007992},"arcs":[[[14]]]},{"type":"MultiPolygon","properties":{"sort_rank":10,"source":"naturalearthdata.com","min_zoom":1.5,"kind":"earth","area":864837048178},"arcs":[[[15]]]}]},"landuse":{"type":"GeometryCollection","geometries":[]}},"type":"Topology","transform":{"translate":[-90.0,-85.0511287798],"scale":[0.0109863281,0.0014354966]},"arcs":[[[4096,3302],[0,-1478],[-4,-4],[-68,-39],[-35,-12],[-31,40],[6,80],[23,48],[14,78],[-7,83],[-13,64],[-28,-22],[-41,-17],[-31,0],[-48,55],[-43,23],[-152,-53],[-57,-5],[-50,-28],[-48,-32],[-62,-51],[-35,-14],[-49,7],[-20,-18],[-16,-6],[-23,-15],[-56,-81],[-63,-103],[-46,-10],[-25,-64],[-22,-44],[-94,-144],[-19,-35],[-22,-47],[-45,-113],[-111,-235],[-31,11],[-49,1],[-54,9],[-40,22],[-15,38],[5,43],[9,33],[12,34],[9,60],[-1,74],[-9,36],[-36,-49],[-19,23],[-19,108],[-31,72],[-15,68],[-9,65],[16,17],[42,25],[116,133],[27,53],[-15,8],[-16,1],[-94,-58],[-68,5],[-75,-30],[-28,2],[-57,-49],[-47,2],[-23,37],[-23,26],[-14,-10],[-12,11],[-19,67],[12,96],[-5,36],[-10,16],[-17,12],[9,27],[11,9],[110,10],[52,13],[-5,51],[-56,-5],[-41,12],[-21,7],[-12,32],[55,23],[29,31],[20,-14],[22,9],[43,-12],[19,6],[56,-11],[36,4],[35,29],[-18,41],[-12,14],[-90,3],[-116,22],[-75,42],[-217,218],[-17,12],[-12,40],[-4,48],[-24,25],[-54,-25],[-41,27],[-13,3],[-22,30],[-20,43],[-14,84],[-16,62],[-11,14],[-30,5],[-20,-19],[-13,-25],[-72,-56],[-35,-63],[-43,-44],[-33,16],[-50,54],[-52,-15],[-27,-34],[-25,19],[-14,40],[-10,58],[-14,71],[-5,60],[-14,103],[-11,31],[-14,30],[-25,94],[-14,46],[-32,-26],[-36,-15],[-93,-9],[-66,53],[-69,65],[88,1],[90,-10],[44,11],[29,27],[32,36],[19,57],[28,136],[-6,112],[-11,55],[-25,42],[-269,15],[-64,26],[-24,-19],[-6,-18],[1,-74],[-5,-60],[-16,-3],[-17,11],[-25,70],[-5,72],[-24,88],[906,0],[-12,-52],[-11,-138],[1,-39],[4,-27],[4,-20],[15,-39],[10,-12],[39,-23],[39,-6],[20,2],[20,9],[35,34],[9,70],[-5,52],[27,113],[13,49],[11,27],[1689,0],[0,-1],[-7,-42],[-8,-35],[25,-21],[4,-5],[3,-12],[5,-30],[3,-34],[-4,-35],[-6,-22],[-24,-80],[-47,-135],[-48,-118],[-53,-106],[-4,11],[-2,34],[-9,7],[-10,-22],[-22,-40],[-22,-13],[-11,10],[-16,32],[-4,4],[-8,-56],[-18,-66],[-33,-142],[-8,-20],[-20,-37],[-2,-38],[2,-95],[10,-60],[3,-12],[4,-4],[400,59],[6,22],[7,29],[20,31],[20,17],[381,231]],[[2776,3439],[-26,9],[0,70],[3,44],[4,44],[-15,68],[-64,25],[-41,-47],[-8,-37],[-21,-17],[0,-45],[9,-19],[-5,-12],[-35,-17],[-3,-35],[2,-45],[9,-50],[11,-26],[26,-9],[-11,-35],[-29,-26],[-54,-17],[-27,-3],[-315,-8],[-12,16],[-5,11],[-4,61],[-7,16],[-8,9],[-9,-2],[-10,-9],[-8,-16],[-9,-23],[4,-17],[13,-27],[37,-59],[89,-115],[85,-99],[5,10],[8,46],[6,13],[32,23],[51,15],[7,-22],[8,-75],[4,-22],[25,-47],[58,-39],[132,-41],[28,47],[13,28],[18,46],[10,29],[4,53],[0,69],[4,149],[4,20],[7,42],[7,33],[10,7],[9,1],[-7,32],[-9,25]],[[2223,3678],[-27,23],[-13,79],[-23,9],[-47,3],[-9,18],[-9,9],[-41,6],[-23,22],[-11,-12],[3,-30],[5,-22],[58,-98],[8,-22],[3,-56],[5,-25],[45,-45],[4,-56],[4,-15],[5,-4],[9,3],[16,16],[9,10],[36,60],[-4,81],[-3,46]],[[1988,3882],[66,-16],[16,34],[-4,41],[6,46],[6,11],[9,30],[-37,32],[-21,6],[-29,-9],[-19,-40],[-8,-9],[-9,-25],[-11,-72],[12,-19],[23,-10]],[[2113,3792],[-9,18],[-9,9],[-41,6],[-23,22],[-11,-12],[3,-30],[5,-22],[58,-98],[8,-22],[3,-56],[5,-25],[45,-45],[4,-56],[4,-15],[5,-4],[9,3],[16,16],[9,10],[36,60],[-4,81],[-3,46],[-27,23],[-13,79],[-23,9],[-47,3]],[[1681,4096],[-12,-52],[-11,-138],[1,-39],[4,-27],[4,-20],[15,-39],[10,-12],[39,-23],[39,-6],[20,2],[20,9],[35,34],[9,70],[-5,52],[27,113],[13,49],[11,27]],[[3589,4096],[0,-1],[-7,-42],[-8,-35],[25,-21],[4,-5],[3,-12],[5,-30],[3,-34],[-4,-35],[-6,-22],[-24,-80],[-47,-135],[-48,-118],[-53,-106],[-4,11],[-2,34],[-9,7],[-10,-22],[-22,-40],[-22,-13],[-11,10],[-16,32],[-4,4],[-8,-56],[-18,-66],[-33,-142],[-8,-20],[-20,-37],[-2,-38],[2,-95],[10,-60],[3,-12],[4,-4],[400,59],[6,22],[7,29],[20,31],[20,17],[381,231]],[[2776,3439],[-26,9],[0,70],[3,44],[4,44],[-15,68],[-64,25],[-41,-47],[-8,-37],[-21,-17],[0,-45],[9,-19],[-5,-12],[-35,-17],[-3,-35],[2,-45],[9,-50],[11,-26],[26,-9],[-11,-35],[-29,-26],[-54,-17],[-27,-3],[-315,-8],[-12,16],[-5,11],[-4,61],[-7,16],[-8,9],[-9,-2],[-10,-9],[-8,-16],[-9,-23],[4,-17],[13,-27],[37,-59],[89,-115],[85,-99],[5,10],[8,46],[6,13],[32,23],[51,15],[7,-22],[8,-75],[4,-22],[25,-47],[58,-39],[132,-41],[28,47],[13,28],[18,46],[10,29],[4,53],[0,69],[4,149],[4,20],[7,42],[7,33],[10,7],[9,1],[-7,32],[-9,25]],[[1964,3983],[-11,-72],[12,-19],[23,-10],[66,-16],[16,34],[-4,41],[6,46],[6,11],[9,30],[-37,32],[-21,6],[-29,-9],[-19,-40],[-8,-9],[-9,-25]],[[775,4096],[24,-88],[5,-72],[25,-70],[17,-11],[16,3],[5,60],[-1,74],[6,18],[24,19],[64,-26],[269,-15],[25,-42],[11,-55],[6,-112],[-28,-136],[-19,-57],[-32,-36],[-29,-27],[-44,-11],[-90,10],[-88,-1],[69,-65],[66,-53],[93,9],[36,15],[32,26],[14,-46],[25,-94],[14,-30],[11,-31],[14,-103],[5,-60],[14,-71],[10,-58],[14,-40],[25,-19],[27,34],[52,15],[50,-54],[33,-16],[43,44],[35,63],[72,56],[13,25],[20,19],[30,-5],[11,-14],[16,-62],[14,-84],[20,-43],[22,-30],[13,-3],[41,-27],[54,25],[24,-25],[4,-48],[12,-40],[17,-12],[217,-218],[75,-42],[116,-22],[90,-3],[12,-14],[18,-41],[-35,-29],[-36,-4],[-56,11],[-19,-6],[-43,12],[-22,-9],[-20,14],[-29,-31],[-55,-23],[12,-32],[21,-7],[41,-12],[56,5],[5,-51],[-52,-13],[-110,-10],[-11,-9],[-9,-27],[17,-12],[10,-16],[5,-36],[-12,-96],[19,-67],[12,-11],[14,10],[23,-26],[23,-37],[47,-2],[57,49],[28,-2],[75,30],[68,-5],[94,58],[16,-1],[15,-8],[-27,-53],[-116,-133],[-42,-25],[-16,-17],[9,-65],[15,-68],[31,-72],[19,-108],[19,-23],[36,49],[9,-36],[1,-74],[-9,-60],[-12,-34],[-9,-33],[-5,-43],[15,-38],[40,-22],[54,-9],[49,-1],[31,-11],[111,235],[45,113],[22,47],[19,35],[94,144],[22,44],[25,64],[46,10],[63,103],[56,81],[23,15],[16,6],[20,18],[49,-7],[35,14],[62,51],[48,32],[50,28],[57,5],[152,53],[43,-23],[48,-55],[31,0],[41,17],[28,22],[13,-64],[7,-83],[-14,-78],[-23,-48],[-6,-80],[31,-40],[35,12],[68,39],[4,4]],[[3589,4096],[507,0],[0,-794],[-381,-231],[-20,-17],[-20,-31],[-7,-29],[-6,-22],[-400,-59],[-4,4],[-3,12],[-10,60],[-2,95],[2,38],[20,37],[8,20],[33,142],[18,66],[8,56],[4,-4],[16,-32],[11,-10],[22,13],[22,40],[10,22],[9,-7],[2,-34],[4,-11],[53,106],[48,118],[47,135],[24,80],[6,22],[4,35],[-3,34],[-5,30],[-3,12],[-4,5],[-25,21],[8,35],[7,42],[0,1]],[[4096,1824],[0,-1824],[-4096,0],[0,4096],[775,0],[24,-88],[5,-72],[25,-70],[17,-11],[16,3],[5,60],[-1,74],[6,18],[24,19],[64,-26],[269,-15],[25,-42],[11,-55],[6,-112],[-28,-136],[-19,-57],[-32,-36],[-29,-27],[-44,-11],[-90,10],[-88,-1],[69,-65],[66,-53],[93,9],[36,15],[32,26],[14,-46],[25,-94],[14,-30],[11,-31],[14,-103],[5,-60],[14,-71],[10,-58],[14,-40],[25,-19],[27,34],[52,15],[50,-54],[33,-16],[43,44],[35,63],[72,56],[13,25],[20,19],[30,-5],[11,-14],[16,-62],[14,-84],[20,-43],[22,-30],[13,-3],[41,-27],[54,25],[24,-25],[4,-48],[12,-40],[17,-12],[217,-218],[75,-42],[116,-22],[90,-3],[12,-14],[18,-41],[-35,-29],[-36,-4],[-56,11],[-19,-6],[-43,12],[-22,-9],[-20,14],[-29,-31],[-55,-23],[12,-32],[21,-7],[41,-12],[56,5],[5,-51],[-52,-13],[-110,-10],[-11,-9],[-9,-27],[17,-12],[10,-16],[5,-36],[-12,-96],[19,-67],[12,-11],[14,10],[23,-26],[23,-37],[47,-2],[57,49],[28,-2],[75,30],[68,-5],[94,58],[16,-1],[15,-8],[-27,-53],[-116,-133],[-42,-25],[-16,-17],[9,-65],[15,-68],[31,-72],[19,-108],[19,-23],[36,49],[9,-36],[1,-74],[-9,-60],[-12,-34],[-9,-33],[-5,-43],[15,-38],[40,-22],[54,-9],[49,-1],[31,-11],[111,235],[45,113],[22,47],[19,35],[94,144],[22,44],[25,64],[46,10],[63,103],[56,81],[23,15],[16,6],[20,18],[49,-7],[35,14],[62,51],[48,32],[50,28],[57,5],[152,53],[43,-23],[48,-55],[31,0],[41,17],[28,22],[13,-64],[7,-83],[-14,-78],[-23,-48],[-6,-80],[31,-40],[35,12],[68,39],[4,4]],[[2169,3465],[-9,-3],[-5,4],[-4,15],[-4,56],[-45,45],[-5,25],[-3,56],[-8,22],[-58,98],[-5,22],[-3,30],[11,12],[23,-22],[41,-6],[9,-9],[9,-18],[47,-3],[23,-9],[13,-79],[27,-23],[3,-46],[4,-81],[-36,-60],[-9,-10],[-16,-16]],[[2070,3900],[-16,-34],[-66,16],[-23,10],[-12,19],[11,72],[9,25],[8,9],[19,40],[29,9],[21,-6],[37,-32],[-9,-30],[-6,-11],[-6,-46],[4,-41]],[[2755,3279],[-4,-149],[0,-69],[-4,-53],[-10,-29],[-18,-46],[-13,-28],[-28,-47],[-132,41],[-58,39],[-25,47],[-4,22],[-8,75],[-7,22],[-51,-15],[-32,-23],[-6,-13],[-8,-46],[-5,-10],[-85,99],[-89,115],[-37,59],[-13,27],[-4,17],[9,23],[8,16],[10,9],[9,2],[8,-9],[7,-16],[4,-61],[5,-11],[12,-16],[315,8],[27,3],[54,17],[29,26],[11,35],[-26,9],[-11,26],[-9,50],[-2,45],[3,35],[35,17],[5,12],[-9,19],[0,45],[21,17],[8,37],[41,47],[64,-25],[15,-68],[-4,-44],[-3,-44],[0,-70],[26,-9],[9,-25],[7,-32],[-9,-1],[-10,-7],[-7,-33],[-7,-42],[-4,-20]],[[1681,4096],[219,0],[-11,-27],[-13,-49],[-27,-113],[5,-52],[-9,-70],[-35,-34],[-20,-9],[-20,-2],[-39,6],[-39,23],[-10,12],[-15,39],[-4,20],[-4,27],[-1,39],[11,138],[12,52]]]}