{"objects":{"water":{"type":"GeometryCollection","geometries":[{"type":"Polygon","properties":{"source":"naturalearthdata.com","kind":"ocean","area":989871000000000,"sort_rank":200,"min_zoom":0,"id":1},"arcs":[[0],[1],[2]]},{"type":"LineString","properties":{"source":"naturalearthdata.com","kind":"ocean","sort_rank":205,"boundary":true,"min_zoom":0,"id":2777},"arcs":[3]},{"type":"LineString","properties":{"source":"naturalearthdata.com","kind":"ocean","sort_rank":205,"boundary":true,"min_zoom":0,"id":3089},"arcs":[4]}]},"buildings":{"type":"GeometryCollection","geometries":[]},"places":{"type":"GeometryCollection","geometries":[]},"transit":{"type":"GeometryCollection","geometries":[]},"pois":{"type":"GeometryCollection","geometries":[]},"boundaries":{"type":"GeometryCollection","geometries":[]},"roads":{"type":"GeometryCollection","geometries":[]},"earth":{"type":"GeometryCollection","geometries":[{"type":"MultiPolygon","properties":{"sort_rank":10,"source":"naturalearthdata.com","kind":"earth","min_zoom":5.0,"area":1068391229},"arcs":[[[5]]]}]},"landuse":{"type":"GeometryCollection","geometries":[{"type":"MultiPolygon","properties":{"kind":"nature_reserve","protect_class":"4","area":1505285525851,"sort_rank":23,"source":"openstreetmap.org","min_zoom":4.0,"tier":2,"id":-3411897},"arcs":[[[6]]]},{"type":"MultiPolygon","properties":{"kind":"protected_area","protect_class":"4","area":1870422308431,"sort_rank":17,"source":"openstreetmap.org","min_zoom":4.0,"tier":2,"id":-9299402},"arcs":[[[7],[8]]]}]}},"type":"Topology","transform":{"translate":[67.5,-40.9798980696],"scale":[0.002746582,0.0022040371]},"arcs":[[[4096,0],[-4096,0],[0,4096],[4096,0],[0,-4096]],[[3642,1432],[-6,-13],[7,-14],[11,-8],[11,3],[7,9],[-4,14],[-11,11],[-15,-2]],[[3653,1030],[-2,2],[-3,1],[-3,-1],[-2,-4],[2,-7],[2,-3],[7,-1],[3,0],[2,3],[-2,4],[-4,6]],[[3642,1432],[-6,-13],[7,-14],[11,-8],[11,3],[7,9],[-4,14],[-11,11],[-15,-2]],[[3653,1030],[-2,2],[-3,1],[-3,-1],[-2,-4],[2,-7],[2,-3],[7,-1],[3,0],[2,3],[-2,4],[-4,6]],[[3642,1432],[15,2],[11,-11],[4,-14],[-7,-9],[-11,-3],[-11,8],[-7,14],[6,13]],[[3459,898],[0,681],[182,113],[182,-113],[91,-114],[0,-453],[-91,-114],[-182,-113],[-182,113]],[[4096,2891],[0,-2891],[-1610,0],[-44,40],[-192,287],[-118,321],[-41,345],[53,710],[79,260],[125,251],[175,235],[221,202],[253,155],[273,102],[297,50],[300,-11],[229,-56]],[[3459,898],[182,-113],[182,113],[91,114],[0,453],[-91,114],[-182,113],[-182,-113],[0,-681]]]}