{"objects":{"water":{"type":"GeometryCollection","geometries":[{"type":"Polygon","properties":{"source":"naturalearthdata.com","kind":"ocean","area":989871000000000,"sort_rank":200,"min_zoom":0,"id":1},"arcs":[[0],[1],[2],[3]]},{"type":"LineString","properties":{"source":"naturalearthdata.com","kind":"ocean","sort_rank":205,"boundary":true,"min_zoom":0,"id":1020},"arcs":[4]},{"type":"MultiLineString","properties":{"source":"naturalearthdata.com","kind":"ocean","sort_rank":205,"boundary":true,"min_zoom":0,"id":1021},"arcs":[[5],[6]]},{"type":"LineString","properties":{"source":"naturalearthdata.com","kind":"ocean","sort_rank":205,"boundary":true,"min_zoom":0,"id":1022},"arcs":[7]},{"type":"MultiLineString","properties":{"source":"naturalearthdata.com","kind":"ocean","sort_rank":205,"boundary":true,"min_zoom":0,"id":1023},"arcs":[[8],[9]]},{"type":"LineString","properties":{"source":"naturalearthdata.com","kind":"ocean","sort_rank":205,"boundary":true,"min_zoom":0,"id":1024},"arcs":[10]},{"type":"LineString","properties":{"source":"naturalearthdata.com","kind":"ocean","sort_rank":205,"boundary":true,"min_zoom":0,"id":1025},"arcs":[11]}]},"buildings":{"type":"GeometryCollection","geometries":[]},"places":{"type":"GeometryCollection","geometries":[]},"transit":{"type":"GeometryCollection","geometries":[]},"pois":{"type":"GeometryCollection","geometries":[]},"boundaries":{"type":"GeometryCollection","geometries":[]},"roads":{"type":"GeometryCollection","geometries":[]},"earth":{"type":"GeometryCollection","geometries":[{"type":"MultiPolygon","properties":{"sort_rank":10,"source":"naturalearthdata.com","min_zoom":3.0,"kind":"earth","area":4981103112},"arcs":[[[12]],[[13]]]},{"type":"MultiPolygon","properties":{"sort_rank":10,"source":"naturalearthdata.com","kind":"earth","min_zoom":0.5,"id":4556},"arcs":[[[14]],[[15]]]}]},"landuse":{"type":"GeometryCollection","geometries":[{"type":"MultiPolygon","properties":{"source":"openstreetmap.org","kind":"protected_area","area":1505296014243,"tier":2,"min_zoom":4.0,"id":-6063105,"sort_rank":17},"arcs":[[[16]]]},{"type":"MultiPolygon","properties":{"kind":"nature_reserve","protect_class":"4","area":1505285525851,"sort_rank":23,"source":"openstreetmap.org","min_zoom":4.0,"tier":2,"id":-3411897},"arcs":[[[17]]]},{"type":"MultiPolygon","properties":{"kind":"protected_area","protect_class":"4","area":1870422308431,"sort_rank":17,"source":"openstreetmap.org","min_zoom":4.0,"tier":2,"id":-9299402},"arcs":[[[18]],[[19]]]}]}},"type":"Topology","transform":{"translate":[67.5,-48.9224992638],"scale":[0.002746582,0.0019391116]},"arcs":[[[666,0],[11,9],[4,11],[-10,0],[-11,-5],[-10,-7],[-8,-8],[-20,0],[0,2],[4,7],[3,3],[3,2],[3,3],[1,5],[-2,2],[-4,-1],[-1,11],[-9,-3],[-8,-10],[-7,-13],[-2,-8],[-17,0],[1,2],[-3,-2],[-12,0],[3,8],[19,14],[12,17],[0,20],[-10,-12],[-10,12],[16,8],[13,10],[-5,9],[-9,1],[-28,-19],[-19,-34],[-5,12],[-12,-5],[4,-18],[-9,5],[-9,-3],[-5,-5],[-5,-5],[27,49],[49,37],[-15,7],[2,11],[-8,11],[6,6],[-22,2],[-22,-9],[-6,-14],[-7,-12],[5,-7],[-1,-15],[-10,-8],[-2,-11],[0,-11],[-15,1],[-15,-8],[-9,-5],[3,-9],[9,-13],[10,-14],[2,-3],[-494,0],[0,4096],[4096,0],[0,-4096],[-3430,0]],[[716,20],[6,1],[6,2],[5,4],[2,7],[-12,0],[-18,14],[-12,0],[4,-10],[5,-8],[7,-6],[7,-4]],[[426,154],[-6,0],[-10,-3],[-6,-4],[5,-3],[8,-3],[8,2],[5,5],[-4,6]],[[476,164],[8,6],[1,8],[-5,6],[-8,-2],[-6,-8],[0,-10],[4,-6],[6,6]],[[666,0],[11,9],[4,11],[-10,0],[-11,-5],[-10,-7],[-8,-8]],[[629,34],[-9,-3],[-8,-10],[-7,-13],[-2,-8]],[[622,0],[0,2],[4,7],[3,3],[3,2],[3,3],[1,5],[-2,2],[-4,-1],[-1,11]],[[716,20],[6,1],[6,2],[5,4],[2,7],[-12,0],[-18,14],[-12,0],[4,-10],[5,-8],[7,-6],[7,-4]],[[586,0],[1,2],[-3,-2]],[[572,0],[3,8],[19,14],[12,17],[0,20],[-10,-12],[-10,12],[16,8],[13,10],[-5,9],[-9,1],[-28,-19],[-19,-34],[-5,12],[-12,-5],[4,-18],[-9,5],[-9,-3],[-5,-5],[-5,-5],[27,49],[49,37],[-15,7],[2,11],[-8,11],[6,6],[-22,2],[-22,-9],[-6,-14],[-7,-12],[5,-7],[-1,-15],[-10,-8],[-2,-11],[0,-11],[-15,1],[-15,-8],[-9,-5],[3,-9],[9,-13],[10,-14],[2,-3]],[[426,154],[-6,0],[-10,-3],[-6,-4],[5,-3],[8,-3],[8,2],[5,5],[-4,6]],[[476,164],[8,6],[1,8],[-5,6],[-8,-2],[-6,-8],[0,-10],[4,-6],[6,6]],[[666,0],[-24,0],[8,8],[10,7],[11,5],[10,0],[-4,-11],[-11,-9]],[[622,0],[-19,0],[2,8],[7,13],[8,10],[9,3],[1,-11],[4,1],[2,-2],[-1,-5],[-3,-3],[-3,-2],[-3,-3],[-4,-7],[0,-2]],[[494,0],[-2,3],[-10,14],[-9,13],[-3,9],[9,5],[15,8],[15,-1],[0,11],[2,11],[10,8],[1,15],[-5,7],[7,12],[6,14],[22,9],[22,-2],[-6,-6],[8,-11],[-2,-11],[15,-7],[-49,-37],[-27,-49],[5,5],[5,5],[9,3],[9,-5],[-4,18],[12,5],[5,-12],[19,34],[28,19],[9,-1],[5,-9],[-13,-10],[-16,-8],[10,-12],[10,12],[0,-20],[-12,-17],[-19,-14],[-3,-8],[-78,0]],[[584,0],[3,2],[-1,-2],[-2,0]],[[2951,0],[-2951,0],[0,1635],[182,130],[364,-516],[1092,0],[364,-515],[693,0],[140,-274],[116,-460]],[[2951,0],[-2951,0],[0,1635],[182,130],[364,-516],[1092,0],[364,-515],[693,0],[140,-274],[116,-460]],[[2486,4096],[1610,0],[0,-492],[-47,-19],[-354,-53],[-357,33],[-339,117],[-304,196],[-209,218]],[[0,1635],[0,256],[133,38],[324,32],[323,-26],[250,-61],[501,-181],[226,-126],[535,-368],[220,-215],[183,-250],[-693,0],[-364,515],[-1092,0],[-364,516],[-182,-130]]]}