{"objects":{"water":{"type":"GeometryCollection","geometries":[{"type":"MultiPolygon","properties":{"source":"naturalearthdata.com","kind":"ocean","area":989871000000000,"sort_rank":200,"min_zoom":0,"id":1},"arcs":[[[0],[1],[2],[3],[4]],[[5]]]},{"type":"LineString","properties":{"source":"naturalearthdata.com","kind":"ocean","sort_rank":205,"boundary":true,"min_zoom":0,"id":1016},"arcs":[6]},{"type":"LineString","properties":{"source":"naturalearthdata.com","kind":"ocean","sort_rank":205,"boundary":true,"min_zoom":0,"id":1017},"arcs":[7]},{"type":"LineString","properties":{"source":"naturalearthdata.com","kind":"ocean","sort_rank":205,"boundary":true,"min_zoom":0,"id":1018},"arcs":[8]},{"type":"LineString","properties":{"source":"naturalearthdata.com","kind":"ocean","sort_rank":205,"boundary":true,"min_zoom":0,"id":1019},"arcs":[9]},{"type":"MultiLineString","properties":{"source":"naturalearthdata.com","kind":"ocean","sort_rank":205,"boundary":true,"min_zoom":0,"id":1020},"arcs":[[10],[11]]},{"type":"LineString","properties":{"source":"naturalearthdata.com","kind":"ocean","sort_rank":205,"boundary":true,"min_zoom":0,"id":1021},"arcs":[12]},{"type":"MultiLineString","properties":{"source":"naturalearthdata.com","kind":"ocean","sort_rank":205,"boundary":true,"min_zoom":0,"id":1023},"arcs":[[13],[14],[15]]}]},"buildings":{"type":"GeometryCollection","geometries":[]},"places":{"type":"GeometryCollection","geometries":[]},"transit":{"type":"GeometryCollection","geometries":[]},"pois":{"type":"GeometryCollection","geometries":[]},"boundaries":{"type":"GeometryCollection","geometries":[]},"roads":{"type":"GeometryCollection","geometries":[]},"earth":{"type":"GeometryCollection","geometries":[{"type":"MultiPolygon","properties":{"sort_rank":10,"source":"naturalearthdata.com","min_zoom":3.0,"kind":"earth","area":4981103112},"arcs":[[[16]],[[17]],[[18]]]},{"type":"Polygon","properties":{"sort_rank":10,"source":"naturalearthdata.com","kind":"earth","min_zoom":0.5,"id":4556},"arcs":[[19]]}]},"landuse":{"type":"GeometryCollection","geometries":[{"type":"MultiPolygon","properties":{"source":"openstreetmap.org","kind":"protected_area","area":1505296014243,"tier":2,"min_zoom":4.0,"id":-6063105,"sort_rank":17},"arcs":[[[20]]]},{"type":"Polygon","properties":{"kind":"nature_reserve","protect_class":"1","area":18201700000,"sort_rank":23,"source":"openstreetmap.org","min_zoom":4.0,"tier":2,"id":-8449400},"arcs":[[21]]},{"type":"MultiPolygon","properties":{"kind":"nature_reserve","protect_class":"4","area":1505285525851,"sort_rank":23,"source":"openstreetmap.org","min_zoom":4.0,"tier":2,"id":-3411897},"arcs":[[[22]]]},{"type":"MultiPolygon","properties":{"kind":"nature_reserve","protect_class":"1","area":181979890370,"sort_rank":23,"operator":"Australian Government Department of Environment","source":"openstreetmap.org","min_zoom":4.0,"tier":2,"id":-8449402},"arcs":[[[23]],[[24]],[[25]]]},{"type":"MultiPolygon","properties":{"kind":"protected_area","protect_class":"4","area":1870422308431,"sort_rank":17,"source":"openstreetmap.org","min_zoom":4.0,"tier":2,"id":-9299402},"arcs":[[[26]]]}]}},"type":"Topology","transform":{"translate":[67.5,-55.7765730187],"scale":[0.002746582,0.0016733579]},"arcs":[[[616,4058],[1,-5],[3,-16],[1,-8],[0,-31],[6,-5],[32,15],[-4,6],[8,4],[5,6],[-3,11],[-2,9],[5,7],[13,10],[4,5],[5,8],[4,10],[2,8],[-5,0],[-30,-6],[4,9],[1,1],[3430,0],[0,-4096],[-4096,0],[0,4096],[494,0],[8,-13],[9,-18],[-16,5],[-17,1],[0,-31],[5,-23],[-12,8],[-14,-4],[-2,-17],[11,-4],[-1,-8],[-2,-9],[14,1],[14,-1],[-9,-4],[-8,-8],[19,-10],[28,2],[-27,-17],[-18,-19],[-8,9],[-5,9],[-3,-8],[4,-10],[7,-26],[20,-15],[-6,-2],[-6,-2],[7,-14],[21,5],[11,4],[-1,-10],[1,-10],[-24,-4],[-18,-22],[14,2],[8,-3],[3,-18],[9,-20],[-13,-19],[-16,-13],[8,-14],[-7,-16],[-9,-18],[-8,-16],[0,-23],[-4,-12],[-1,-15],[10,-21],[15,-4],[17,1],[18,0],[7,1],[6,1],[3,-3],[4,-3],[15,7],[15,12],[14,28],[-12,37],[5,25],[8,-12],[3,-26],[13,-12],[1,15],[9,9],[-4,8],[-4,17],[-5,16],[15,-24],[18,-11],[-5,17],[-8,14],[3,1],[2,2],[-3,12],[9,5],[11,-20],[8,-25],[17,0],[17,-2],[17,-21],[18,-18],[22,-5],[23,-2],[12,-8],[14,-5],[18,17],[0,33],[-15,22],[-13,24],[13,-5],[12,-13],[1,12],[-6,8],[17,2],[15,-13],[1,-25],[2,-25],[12,-22],[13,-23],[26,-14],[31,2],[20,-10],[20,1],[11,13],[14,4],[19,0],[12,19],[-18,14],[-23,7],[34,2],[24,24],[-10,27],[-28,2],[-14,8],[-15,5],[-17,-3],[-16,-6],[6,-32],[26,-27],[-29,14],[-29,15],[-31,6],[-29,16],[-3,13],[-1,14],[-5,5],[-5,5],[-3,9],[-8,9],[-11,8],[-8,14],[23,-11],[22,-18],[-7,19],[0,10],[7,8],[9,-4],[10,-14],[11,-13],[9,2],[8,4],[-8,10],[-8,10],[4,2],[5,3],[-18,14],[-19,11],[26,5],[27,-7],[17,-4],[17,0],[14,7],[14,5],[38,-12],[16,-48],[32,6],[33,-6],[-26,21],[-30,15],[7,6],[2,10],[8,9],[12,-7],[26,-4],[22,29],[12,24],[4,29],[-7,21],[-7,23],[-3,29],[-16,14],[-25,10],[-26,1],[-23,-13],[-14,-33],[-15,-15],[-19,-2],[2,7],[1,6],[-22,10],[-21,-8],[-14,-7],[-14,-8],[-5,-9],[-9,-3],[-7,-4],[0,-11],[-8,0],[-8,-2],[1,-9],[2,-10],[-12,-11],[-10,-18],[-3,10],[-2,11],[-13,-16],[-15,-16],[-23,-1],[-24,4],[30,11],[22,22],[-25,-4],[-27,-7],[-31,-3],[-31,-2],[22,12],[23,4],[0,2],[0,2],[-14,0],[-9,12],[-12,3],[2,11],[-23,9],[17,8],[16,10],[-19,9],[-25,-20],[-10,-8],[-10,-7],[-5,7],[11,10],[10,10],[22,22],[31,-7],[8,-4],[8,-4],[21,3],[21,5],[0,15],[-23,6],[16,8],[12,8],[-15,9],[-18,0],[5,12],[12,8],[-6,5],[-3,16],[0,16],[-25,-26],[-18,-51],[-7,-4],[-6,6],[5,5],[3,13],[-3,11],[-4,9],[-32,-40],[-38,-17],[-12,-7],[-13,7],[-2,18],[-1,22],[-10,21],[-13,9],[-18,-28],[4,-43],[-12,7],[-13,6],[3,25],[5,23],[23,22],[9,30],[17,0],[-2,-6],[-4,-21],[-1,-2],[2,-6],[4,-1],[5,3],[4,5],[6,13],[5,15],[20,0],[-12,-20],[-4,-4],[-4,-4],[-4,-4],[-2,-6]],[[2270,1592],[-13,7],[-4,6],[-9,12],[-3,2],[-5,10],[-3,4],[-4,3],[-9,3],[-4,4],[-8,6],[-21,1],[-7,4],[-6,-8],[-9,-4],[-8,2],[-4,10],[5,3],[-5,7],[-5,1],[-4,-4],[-1,-10],[-3,-2],[-6,5],[-6,7],[-3,7],[-2,0],[-12,14],[-10,-8],[-13,-4],[2,-12],[5,-8],[6,-4],[21,-2],[6,-2],[7,-5],[-4,-4],[0,-5],[2,-4],[5,-3],[-3,-6],[3,-10],[12,-29],[9,-15],[4,-5],[12,-10],[12,-2],[27,3],[10,5],[19,20],[55,16],[-8,-1],[-10,1],[-10,4]],[[890,3726],[18,-20],[5,-1],[3,8],[-4,7],[-12,10],[-19,23],[-15,2],[-16,-5],[0,-4],[5,-4],[10,-2],[6,-2],[5,-4],[4,-5],[4,-3],[6,0]],[[472,3844],[1,10],[-3,2],[-11,-3],[-7,0],[-12,6],[-6,2],[-7,-1],[-4,-3],[-7,-13],[8,-5],[9,-2],[18,0],[7,-5],[6,0],[4,4],[4,8]],[[761,3930],[12,-5],[7,10],[5,14],[8,6],[0,4],[-13,-1],[-39,-24],[4,-6],[5,-2],[6,2],[5,2]],[[584,4096],[-8,-5],[-10,-9],[6,14],[12,0]],[[2270,1592],[-13,7],[-4,6],[-9,12],[-3,2],[-5,10],[-3,4],[-4,3],[-9,3],[-4,4],[-8,6],[-21,1],[-7,4],[-6,-8],[-9,-4],[-8,2],[-4,10],[5,3],[-5,7],[-5,1],[-4,-4],[-1,-10],[-3,-2],[-6,5],[-6,7],[-3,7],[-2,0],[-12,14],[-10,-8],[-13,-4],[2,-12],[5,-8],[6,-4],[21,-2],[6,-2],[7,-5],[-4,-4],[0,-5],[2,-4],[5,-3],[-3,-6],[3,-10],[12,-29],[9,-15],[4,-5],[12,-10],[12,-2],[27,3],[10,5],[19,20],[55,16],[-8,-1],[-10,1],[-10,4]],[[890,3726],[18,-20],[5,-1],[3,8],[-4,7],[-12,10],[-19,23],[-15,2],[-16,-5],[0,-4],[5,-4],[10,-2],[6,-2],[5,-4],[4,-5],[4,-3],[6,0]],[[472,3844],[1,10],[-3,2],[-11,-3],[-7,0],[-12,6],[-6,2],[-7,-1],[-4,-3],[-7,-13],[8,-5],[9,-2],[18,0],[7,-5],[6,0],[4,4],[4,8]],[[761,3930],[12,-5],[7,10],[5,14],[8,6],[0,4],[-13,-1],[-39,-24],[4,-6],[5,-2],[6,2],[5,2]],[[616,4058],[1,-5],[3,-16],[1,-8],[0,-31],[6,-5],[32,15],[-4,6],[8,4],[5,6],[-3,11],[-2,9],[5,7],[13,10],[4,5],[5,8],[4,10],[2,8],[-5,0],[-30,-6],[4,9],[1,1]],[[642,4096],[-12,-20],[-4,-4],[-4,-4],[-4,-4],[-2,-6]],[[603,4096],[-2,-6],[-4,-21],[-1,-2],[2,-6],[4,-1],[5,3],[4,5],[6,13],[5,15]],[[1110,3940],[-7,23],[-3,29],[-16,14],[-25,10],[-26,1],[-23,-13],[-14,-33],[-15,-15],[-19,-2],[2,7],[1,6],[-22,10],[-21,-8],[-14,-7],[-14,-8],[-5,-9],[-9,-3],[-7,-4],[0,-11],[-8,0],[-8,-2],[1,-9],[2,-10],[-12,-11],[-10,-18],[-3,10],[-2,11],[-13,-16],[-15,-16],[-23,-1],[-24,4],[30,11],[22,22],[-25,-4],[-27,-7],[-31,-3],[-31,-2],[22,12],[23,4],[0,2],[0,2],[-14,0],[-9,12],[-12,3],[2,11],[-23,9],[17,8],[16,10],[-19,9],[-25,-20],[-10,-8],[-10,-7],[-5,7],[11,10],[10,10],[22,22],[31,-7],[8,-4],[8,-4],[21,3],[21,5],[0,15],[-23,6],[16,8],[12,8],[-15,9],[-18,0],[5,12],[12,8],[-6,5],[-3,16],[0,16],[-25,-26],[-18,-51],[-7,-4],[-6,6],[5,5],[3,13],[-3,11],[-4,9],[-32,-40],[-38,-17],[-12,-7],[-13,7],[-2,18],[-1,22],[-10,21],[-13,9],[-18,-28],[4,-43],[-12,7],[-13,6],[3,25],[5,23],[23,22],[9,30]],[[584,4096],[-8,-5],[-10,-9],[6,14]],[[494,4096],[8,-13],[9,-18],[-16,5],[-17,1],[0,-31],[5,-23],[-12,8],[-14,-4],[-2,-17],[11,-4],[-1,-8],[-2,-9],[14,1],[14,-1],[-9,-4],[-8,-8],[19,-10],[28,2],[-27,-17],[-18,-19],[-8,9],[-5,9],[-3,-8],[4,-10],[7,-26],[20,-15],[-6,-2],[-6,-2],[7,-14],[21,5],[11,4],[-1,-10],[1,-10],[-24,-4],[-18,-22],[14,2],[8,-3],[3,-18],[9,-20],[-13,-19],[-16,-13],[8,-14],[-7,-16],[-9,-18],[-8,-16],[0,-23],[-4,-12],[-1,-15],[10,-21],[15,-4],[17,1],[18,0],[7,1],[6,1],[3,-3],[4,-3],[15,7],[15,12],[14,28],[-12,37],[5,25],[8,-12],[3,-26],[13,-12],[1,15],[9,9],[-4,8],[-4,17],[-5,16],[15,-24],[18,-11],[-5,17],[-8,14],[3,1],[2,2],[-3,12],[9,5],[11,-20],[8,-25],[17,0],[17,-2],[17,-21],[18,-18],[22,-5],[23,-2],[12,-8],[14,-5],[18,17],[0,33],[-15,22],[-13,24],[13,-5],[12,-13],[1,12],[-6,8],[17,2],[15,-13],[1,-25],[2,-25],[12,-22],[13,-23],[26,-14],[31,2],[20,-10],[20,1],[11,13],[14,4],[19,0],[12,19],[-18,14],[-23,7],[34,2],[24,24],[-10,27],[-28,2],[-14,8],[-15,5],[-17,-3],[-16,-6],[6,-32],[26,-27],[-29,14],[-29,15],[-31,6],[-29,16],[-3,13],[-1,14],[-5,5],[-5,5],[-3,9],[-8,9],[-11,8],[-8,14],[23,-11],[22,-18],[-7,19],[0,10],[7,8],[9,-4],[10,-14],[11,-13],[9,2],[8,4],[-8,10],[-8,10],[4,2],[5,3],[-18,14],[-19,11],[26,5],[27,-7],[17,-4],[17,0],[14,7],[14,5],[38,-12],[16,-48],[32,6],[33,-6],[-26,21],[-30,15],[7,6],[2,10],[8,9],[12,-7],[26,-4],[22,29],[12,24],[4,29],[-7,21]],[[2270,1592],[10,-4],[10,-1],[8,1],[-55,-16],[-19,-20],[-10,-5],[-27,-3],[-12,2],[-12,10],[-4,5],[-9,15],[-12,29],[-3,10],[3,6],[-5,3],[-2,4],[0,5],[4,4],[-7,5],[-6,2],[-21,2],[-6,4],[-5,8],[-2,12],[13,4],[10,8],[12,-14],[2,0],[3,-7],[6,-7],[6,-5],[3,2],[1,10],[4,4],[5,-1],[5,-7],[-5,-3],[4,-10],[8,-2],[9,4],[6,8],[7,-4],[21,-1],[8,-6],[4,-4],[9,-3],[4,-3],[3,-4],[5,-10],[3,-2],[9,-12],[4,-6],[13,-7]],[[642,4096],[24,0],[-1,-1],[-4,-9],[30,6],[5,0],[-2,-8],[-4,-10],[-5,-8],[-4,-5],[-13,-10],[-5,-7],[2,-9],[3,-11],[-5,-6],[-8,-4],[4,-6],[-32,-15],[-6,5],[0,31],[-1,8],[-3,16],[-1,5],[2,6],[4,4],[4,4],[4,4],[12,20]],[[603,4096],[19,0],[-5,-15],[-6,-13],[-4,-5],[-5,-3],[-4,1],[-2,6],[1,2],[4,21],[2,6]],[[1110,3940],[7,-21],[-4,-29],[-12,-24],[-22,-29],[-26,4],[-12,7],[-8,-9],[-2,-10],[-7,-6],[30,-15],[26,-21],[-33,6],[-32,-6],[-16,48],[-38,12],[-14,-5],[-14,-7],[-17,0],[-17,4],[-27,7],[-26,-5],[19,-11],[18,-14],[-5,-3],[-4,-2],[8,-10],[8,-10],[-8,-4],[-9,-2],[-11,13],[-10,14],[-9,4],[-7,-8],[0,-10],[7,-19],[-22,18],[-23,11],[8,-14],[11,-8],[8,-9],[3,-9],[5,-5],[5,-5],[1,-14],[3,-13],[29,-16],[31,-6],[29,-15],[29,-14],[-26,27],[-6,32],[16,6],[17,3],[15,-5],[14,-8],[28,-2],[10,-27],[-24,-24],[-34,-2],[23,-7],[18,-14],[-12,-19],[-19,0],[-14,-4],[-11,-13],[-20,-1],[-20,10],[-31,-2],[-26,14],[-13,23],[-12,22],[-2,25],[-1,25],[-15,13],[-17,-2],[6,-8],[-1,-12],[-12,13],[-13,5],[13,-24],[15,-22],[0,-33],[-18,-17],[-14,5],[-12,8],[-23,2],[-22,5],[-18,18],[-17,21],[-17,2],[-17,0],[-8,25],[-11,20],[-9,-5],[3,-12],[-2,-2],[-3,-1],[8,-14],[5,-17],[-18,11],[-15,24],[5,-16],[4,-17],[4,-8],[-9,-9],[-1,-15],[-13,12],[-3,26],[-8,12],[-5,-25],[12,-37],[-14,-28],[-15,-12],[-15,-7],[-4,3],[-3,3],[-6,-1],[-7,-1],[-18,0],[-17,-1],[-15,4],[-10,21],[1,15],[4,12],[0,23],[8,16],[9,18],[7,16],[-8,14],[16,13],[13,19],[-9,20],[-3,18],[-8,3],[-14,-2],[18,22],[24,4],[-1,10],[1,10],[-11,-4],[-21,-5],[-7,14],[6,2],[6,2],[-20,15],[-7,26],[-4,10],[3,8],[5,-9],[8,-9],[18,19],[27,17],[-28,-2],[-19,10],[8,8],[9,4],[-14,1],[-14,-1],[2,9],[1,8],[-11,4],[2,17],[14,4],[12,-8],[-5,23],[0,31],[17,-1],[16,-5],[-9,18],[-8,13],[78,0],[-6,-14],[10,9],[8,5],[2,0],[-9,-30],[-23,-22],[-5,-23],[-3,-25],[13,-6],[12,-7],[-4,43],[18,28],[13,-9],[10,-21],[1,-22],[2,-18],[13,-7],[12,7],[38,17],[32,40],[4,-9],[3,-11],[-3,-13],[-5,-5],[6,-6],[7,4],[18,51],[25,26],[0,-16],[3,-16],[6,-5],[-12,-8],[-5,-12],[18,0],[15,-9],[-12,-8],[-16,-8],[23,-6],[0,-15],[-21,-5],[-21,-3],[-8,4],[-8,4],[-31,7],[-22,-22],[-10,-10],[-11,-10],[5,-7],[10,7],[10,8],[25,20],[19,-9],[-16,-10],[-17,-8],[23,-9],[-2,-11],[12,-3],[9,-12],[14,0],[0,-2],[0,-2],[-23,-4],[-22,-12],[31,2],[31,3],[27,7],[25,4],[-22,-22],[-30,-11],[24,-4],[23,1],[15,16],[13,16],[2,-11],[3,-10],[10,18],[12,11],[-2,10],[-1,9],[8,2],[8,0],[0,11],[7,4],[9,3],[5,9],[14,8],[14,7],[21,8],[22,-10],[-1,-6],[-2,-7],[19,2],[15,15],[14,33],[23,13],[26,-1],[25,-10],[16,-14],[3,-29],[7,-23]],[[0,2854],[0,1242],[2951,0],[4,-20],[17,-255],[-20,-262],[-1131,-736],[-471,-213],[-622,-399],[0,643],[-728,0]],[[1728,1647],[20,66],[56,45],[88,0],[84,-69],[76,96],[168,51],[69,-29],[48,-93],[75,-42],[29,-87],[-58,-93],[-124,-58],[-87,-10],[-121,41],[-66,144],[-58,-78],[-88,-20],[-81,45],[-30,91]],[[0,2854],[0,1242],[2951,0],[4,-20],[17,-255],[-20,-262],[-1131,-736],[-471,-213],[-622,-399],[0,643],[-728,0]],[[4096,2459],[0,-152],[-675,0],[-110,85],[-34,0],[0,-85],[-333,0],[-329,747],[299,0],[-183,356],[219,146],[102,-46],[379,-243],[341,-332],[233,-302],[91,-174]],[[1687,1689],[62,45],[49,189],[178,-234],[49,77],[99,36],[0,375],[-380,611],[362,225],[333,-796],[0,-857],[-713,0],[0,269],[-39,60]],[[1238,2356],[182,120],[361,-526],[-143,-92],[-166,145],[-234,353]],[[0,1653],[0,1201],[728,0],[0,-643],[-512,-377],[-216,-181]]]}