{"objects":{"water":{"type":"GeometryCollection","geometries":[{"type":"MultiPolygon","properties":{"source":"naturalearthdata.com","kind":"ocean","area":989871000000000,"sort_rank":200,"min_zoom":0,"id":1},"arcs":[[[0],[1]]]},{"type":"MultiLineString","properties":{"source":"naturalearthdata.com","kind":"ocean","sort_rank":205,"boundary":true,"min_zoom":0,"id":3062},"arcs":[[2],[3]]},{"type":"LineString","properties":{"source":"naturalearthdata.com","kind":"ocean","sort_rank":205,"boundary":true,"min_zoom":0,"id":3070},"arcs":[4]},{"type":"MultiLineString","properties":{"source":"naturalearthdata.com","kind":"ocean","sort_rank":205,"boundary":true,"min_zoom":0,"id":3517},"arcs":[[5],[6],[7]]}]},"buildings":{"type":"GeometryCollection","geometries":[]},"places":{"type":"GeometryCollection","geometries":[]},"transit":{"type":"GeometryCollection","geometries":[]},"pois":{"type":"GeometryCollection","geometries":[]},"boundaries":{"type":"GeometryCollection","geometries":[]},"roads":{"type":"GeometryCollection","geometries":[]},"earth":{"type":"GeometryCollection","geometries":[{"type":"MultiPolygon","properties":{"sort_rank":10,"source":"naturalearthdata.com","min_zoom":0,"kind":"earth","area":92616631212867},"arcs":[[[8]],[[9]],[[10]]]},{"type":"MultiPolygon","properties":{"sort_rank":10,"source":"naturalearthdata.com","min_zoom":3.0,"kind":"earth","area":25285855466},"arcs":[[[11]]]},{"type":"MultiPolygon","properties":{"sort_rank":10,"source":"naturalearthdata.com","kind":"earth","min_zoom":5.0,"area":3734460224},"arcs":[[[12]]]}]},"landuse":{"type":"GeometryCollection","geometries":[]}},"type":"Topology","transform":{"translate":[67.5,-70.612614238],"scale":[0.002746582,0.0010008188]},"arcs":[[[4096,4096],[0,-1747],[-1,-1],[-52,-86],[-16,-16],[-4,-10],[-6,-26],[-8,-24],[-2,-11],[-1,-25],[-3,-7],[-6,-4],[-4,-5],[-2,-9],[1,-16],[12,3],[5,-2],[6,-5],[-4,-13],[-2,-16],[0,-17],[2,-15],[3,-10],[6,-15],[1,-9],[-5,-14],[-19,-29],[-7,-6],[20,1],[21,-5],[20,-16],[16,-28],[-82,-21],[-10,-7],[-15,-20],[-9,-6],[-76,-7],[-9,-5],[-48,-56],[-3,-5],[-5,-14],[-3,-4],[-6,-13],[0,-20],[1,-22],[-2,-21],[35,-6],[-10,-8],[-8,-10],[-6,-13],[-7,-21],[35,-25],[-35,1],[-9,-6],[-4,-8],[-8,-30],[-4,-8],[-11,-17],[-6,-13],[-3,-13],[1,-15],[5,-19],[-112,-49],[-9,-9],[-10,-16],[-4,-1],[-4,6],[-6,10],[-4,5],[-41,2],[-20,-16],[-10,-5],[-63,2],[-23,-10],[-14,-28],[2,-4],[5,-12],[2,-4],[-9,-16],[-6,-3],[-7,4],[-10,2],[-11,-2],[-10,-8],[-5,-7],[0,-7],[2,-9],[0,-14],[-1,-18],[1,-9],[-2,-5],[-6,-9],[-6,-4],[-4,1],[-10,9],[-8,4],[-19,-3],[-28,-12],[-17,-15],[-15,-23],[-22,-47],[-9,-14],[-9,-10],[-8,-3],[-9,10],[-1,18],[3,22],[4,22],[-59,-15],[-49,-48],[-16,-11],[-17,-4],[-6,-6],[-10,-26],[-5,-10],[-13,-3],[-14,5],[-14,-1],[-9,-25],[8,-9],[3,-2],[-6,-6],[-2,-10],[0,-10],[-1,-10],[-4,-7],[-9,-11],[-4,-7],[9,-14],[7,-25],[6,-30],[3,-26],[5,-14],[29,-52],[-12,4],[-8,-16],[-7,-22],[-10,-18],[-5,-2],[-9,5],[-5,0],[-16,-18],[-21,-10],[-8,-8],[-13,-27],[-3,-3],[-4,1],[-10,4],[-11,-8],[-32,-36],[-8,-5],[-5,7],[-3,12],[-3,30],[-3,7],[-9,0],[-4,6],[-9,48],[-6,14],[-9,7],[-10,-1],[-9,-11],[-5,-18],[3,-27],[-14,-9],[-20,-47],[-12,-13],[-11,7],[-12,19],[-21,43],[-11,11],[-13,-1],[-14,-11],[-24,-33],[-9,-7],[-9,7],[-11,22],[19,38],[-20,7],[-17,-13],[-35,-46],[-39,-31],[-20,-3],[-4,31],[-24,-18],[-12,-5],[-10,13],[17,69],[2,18],[-4,13],[-23,41],[-3,12],[-2,10],[-2,6],[-5,4],[-53,21],[-17,-6],[-15,0],[-22,-11],[-16,-16],[-26,-57],[-24,-35],[-7,-14],[-8,-10],[-27,4],[-8,7],[-10,35],[-7,10],[-9,3],[-8,0],[-5,5],[-5,11],[-5,6],[-13,-14],[-8,0],[-4,-3],[-4,-7],[-6,-18],[-4,-7],[-7,-7],[-26,-11],[-10,-11],[-3,-12],[0,-17],[-3,-22],[-5,-22],[-4,-10],[1,-11],[7,-26],[-18,-14],[-8,-1],[-11,11],[-7,1],[-6,-11],[-7,-14],[-6,-7],[-5,1],[-8,12],[-4,2],[-3,-4],[-8,-17],[-4,-5],[-5,-3],[-4,0],[-10,2],[-4,-1],[-10,-13],[-41,-29],[-4,-5],[-2,-7],[-2,-13],[-2,-9],[-3,-6],[-12,-13],[-15,-25],[-6,-13],[-5,-19],[1,-15],[10,-35],[14,-34],[31,-48],[12,-37],[2,-13],[0,-10],[2,-7],[8,-11],[3,-8],[5,-18],[1,-18],[-6,-11],[-32,-25],[-8,-2],[-17,7],[-9,1],[-9,-4],[-8,-10],[-1,-8],[-1,-20],[-3,-6],[-49,-35],[7,-11],[-11,-3],[-5,-4],[-5,-6],[1,-33],[-3,-9],[-83,0],[-2,6],[0,2],[-1,2],[0,2],[0,3],[2,11],[2,11],[2,12],[-1,14],[-3,8],[-6,4],[-29,1],[-7,3],[-5,11],[-3,14],[-2,16],[-4,16],[-5,10],[-6,5],[-13,4],[-13,11],[-12,17],[-10,17],[-9,23],[-5,28],[0,32],[-7,15],[-2,19],[-1,19],[-4,10],[-18,3],[-16,-16],[-15,-25],[-8,-27],[-4,-4],[-3,-6],[-4,-13],[3,-24],[0,-50],[2,-25],[5,-34],[4,-16],[5,-14],[41,-90],[4,-5],[-938,0],[3,49],[10,102],[0,30],[-3,25],[-30,90],[-8,8],[-81,4],[-63,-30],[-22,-19],[-14,-35],[-4,-52],[-3,-8],[-4,-4],[-12,-14],[-9,-6],[-10,0],[-9,7],[-9,13],[-15,40],[-8,10],[-13,1],[-87,-32],[-18,-18],[-8,-2],[-15,13],[-5,-3],[-5,-6],[-6,-4],[-6,-1],[-5,2],[-16,15],[-3,6],[-7,15],[-4,10],[-1,9],[-2,6],[-34,-7],[-5,6],[-3,13],[0,14],[-2,9],[-9,8],[-9,-1],[-8,4],[-8,22],[26,23],[7,13],[-13,12],[-11,2],[-66,-12],[0,164],[2,5],[12,14],[10,6],[-2,33],[-1,23],[5,16],[12,9],[95,13],[18,23],[-2,55],[36,15],[18,15],[15,33],[5,5],[4,7],[1,11],[-1,18],[1,12],[1,11],[1,17],[0,27],[1,17],[5,11],[10,5],[10,-6],[5,-20],[5,-25],[15,-64],[3,-11],[3,-6],[8,-9],[19,-35],[50,-61],[-1,-21],[11,-24],[17,-19],[12,-6],[55,9],[49,24],[47,46],[49,72],[10,24],[8,29],[0,25],[-12,12],[-53,12],[-53,33],[18,28],[25,9],[50,-7],[24,5],[20,18],[18,29],[17,42],[-112,59],[-58,14],[-56,-7],[-1,30],[1,18],[5,10],[55,38],[-13,21],[-31,25],[-13,19],[17,9],[8,7],[8,13],[15,33],[8,12],[9,7],[18,-1],[89,-58],[17,0],[30,46],[20,0],[56,-32],[19,2],[19,9],[18,15],[13,31],[7,50],[0,49],[-12,28],[-124,67],[-19,3],[3,12],[2,12],[4,10],[4,8],[-18,5],[-6,5],[130,63],[21,17],[18,24],[-10,0],[-11,5],[42,43],[11,23],[-50,10],[-121,-23],[-22,15],[-13,5],[6,15],[-13,-1],[4,20],[9,10],[20,8],[27,31],[67,47],[19,21],[-12,-5],[-6,-1],[-7,1],[8,17],[9,51],[9,18],[-19,1],[-18,10],[10,12],[26,10],[-8,4],[-7,7],[12,10],[47,5],[25,-7],[12,0],[13,7],[14,12],[14,17],[11,20],[6,5],[13,-1],[6,4],[6,8],[21,14],[-24,1],[-9,11],[-9,25],[-6,30],[-4,14],[-4,8],[-6,8],[-3,9],[-2,9],[-3,8],[-64,86],[-65,163],[-12,53],[-2,26],[2,25],[11,80],[19,74],[-8,12],[-4,22],[-2,26],[1,24],[-3,17],[-10,13],[-21,12],[-74,8],[-18,-6],[-26,-22],[-5,-6],[-3,-9],[-2,-8],[-3,-23],[-2,-7],[-13,-21],[-17,-14],[-120,-40],[-24,13],[-122,-22],[-71,19],[-40,28],[-133,19],[-75,10],[0,1305],[4096,0]],[[1871,616],[-1,5],[0,6],[0,7],[0,8],[-7,-8],[-7,-10],[-19,-43],[-7,-12],[-8,-10],[-8,-6],[-4,8],[-6,-1],[-7,-8],[-9,-15],[18,-33],[37,18],[62,68],[-1,17],[-4,4],[-21,-5],[-8,10]],[[1711,6],[0,2],[-1,2],[0,2],[0,3],[2,11],[2,11],[2,12],[-1,14],[-3,8],[-6,4],[-29,1],[-7,3],[-5,11],[-3,14],[-2,16],[-4,16],[-5,10],[-6,5],[-13,4],[-13,11],[-12,17],[-10,17],[-9,23],[-5,28],[0,32],[-7,15],[-2,19],[-1,19],[-4,10],[-18,3],[-16,-16],[-15,-25],[-8,-27],[-4,-4],[-3,-6],[-4,-13],[3,-24],[0,-50],[2,-25],[5,-34],[4,-16],[5,-14],[41,-90],[4,-5]],[[1713,0],[-2,6]],[[1871,616],[-1,5],[0,6],[0,7],[0,8],[-7,-8],[-7,-10],[-19,-43],[-7,-12],[-8,-10],[-8,-6],[-4,8],[-6,-1],[-7,-8],[-9,-15],[18,-33],[37,18],[62,68],[-1,17],[-4,4],[-21,-5],[-8,10]],[[4096,2349],[-1,-1],[-52,-86],[-16,-16],[-4,-10],[-6,-26],[-8,-24],[-2,-11],[-1,-25],[-3,-7],[-6,-4],[-4,-5],[-2,-9],[1,-16],[12,3],[5,-2],[6,-5],[-4,-13],[-2,-16],[0,-17],[2,-15],[3,-10],[6,-15],[1,-9],[-5,-14],[-19,-29],[-7,-6],[20,1],[21,-5],[20,-16],[16,-28],[-82,-21],[-10,-7],[-15,-20],[-9,-6],[-76,-7],[-9,-5],[-48,-56],[-3,-5],[-5,-14],[-3,-4],[-6,-13],[0,-20],[1,-22],[-2,-21],[35,-6],[-10,-8],[-8,-10],[-6,-13],[-7,-21],[35,-25],[-35,1],[-9,-6],[-4,-8],[-8,-30],[-4,-8],[-11,-17],[-6,-13],[-3,-13],[1,-15],[5,-19],[-112,-49],[-9,-9],[-10,-16],[-4,-1],[-4,6],[-6,10],[-4,5],[-41,2],[-20,-16],[-10,-5],[-63,2],[-23,-10],[-14,-28],[2,-4],[5,-12],[2,-4],[-9,-16],[-6,-3],[-7,4],[-10,2],[-11,-2],[-10,-8],[-5,-7],[0,-7],[2,-9],[0,-14],[-1,-18],[1,-9],[-2,-5],[-6,-9],[-6,-4],[-4,1],[-10,9],[-8,4],[-19,-3],[-28,-12],[-17,-15],[-15,-23],[-22,-47],[-9,-14],[-9,-10],[-8,-3],[-9,10],[-1,18],[3,22],[4,22],[-59,-15],[-49,-48],[-16,-11],[-17,-4],[-6,-6],[-10,-26],[-5,-10],[-13,-3],[-14,5],[-14,-1],[-9,-25],[8,-9],[3,-2],[-6,-6],[-2,-10],[0,-10],[-1,-10],[-4,-7],[-9,-11],[-4,-7],[9,-14],[7,-25],[6,-30],[3,-26],[5,-14],[29,-52],[-12,4],[-8,-16],[-7,-22],[-10,-18],[-5,-2],[-9,5],[-5,0],[-16,-18],[-21,-10],[-8,-8],[-13,-27],[-3,-3],[-4,1],[-10,4],[-11,-8],[-32,-36],[-8,-5],[-5,7],[-3,12],[-3,30],[-3,7],[-9,0],[-4,6],[-9,48],[-6,14],[-9,7],[-10,-1],[-9,-11],[-5,-18],[3,-27],[-14,-9],[-20,-47],[-12,-13],[-11,7],[-12,19],[-21,43],[-11,11],[-13,-1],[-14,-11],[-24,-33],[-9,-7],[-9,7],[-11,22],[19,38],[-20,7],[-17,-13],[-35,-46],[-39,-31],[-20,-3],[-4,31],[-24,-18],[-12,-5],[-10,13],[17,69],[2,18],[-4,13],[-23,41],[-3,12],[-2,10],[-2,6],[-5,4],[-53,21],[-17,-6],[-15,0],[-22,-11],[-16,-16],[-26,-57],[-24,-35],[-7,-14],[-8,-10],[-27,4],[-8,7],[-10,35],[-7,10],[-9,3],[-8,0],[-5,5],[-5,11],[-5,6],[-13,-14],[-8,0],[-4,-3],[-4,-7],[-6,-18],[-4,-7],[-7,-7],[-26,-11],[-10,-11],[-3,-12],[0,-17],[-3,-22],[-5,-22],[-4,-10],[1,-11],[7,-26],[-18,-14],[-8,-1],[-11,11],[-7,1],[-6,-11],[-7,-14],[-6,-7],[-5,1],[-8,12],[-4,2],[-3,-4],[-8,-17],[-4,-5],[-5,-3],[-4,0],[-10,2],[-4,-1],[-10,-13],[-41,-29],[-4,-5],[-2,-7],[-2,-13],[-2,-9],[-3,-6],[-12,-13],[-15,-25],[-6,-13],[-5,-19],[1,-15],[10,-35],[14,-34],[31,-48],[12,-37],[2,-13],[0,-10],[2,-7],[8,-11],[3,-8],[5,-18],[1,-18],[-6,-11],[-32,-25],[-8,-2],[-17,7],[-9,1],[-9,-4],[-8,-10],[-1,-8],[-1,-20],[-3,-6],[-49,-35],[7,-11],[-11,-3],[-5,-4],[-5,-6],[1,-33],[-3,-9]],[[627,0],[3,49],[10,102],[0,30],[-3,25],[-30,90],[-8,8],[-81,4],[-63,-30],[-22,-19],[-14,-35],[-4,-52],[-3,-8],[-4,-4],[-12,-14],[-9,-6],[-10,0],[-9,7],[-9,13],[-15,40],[-8,10],[-13,1],[-87,-32],[-18,-18],[-8,-2],[-15,13],[-5,-3],[-5,-6],[-6,-4],[-6,-1],[-5,2],[-16,15],[-3,6],[-7,15],[-4,10],[-1,9],[-2,6],[-34,-7],[-5,6],[-3,13],[0,14],[-2,9],[-9,8],[-9,-1],[-8,4],[-8,22],[26,23],[7,13],[-13,12],[-11,2],[-66,-12]],[[0,491],[2,5],[12,14],[10,6],[-2,33],[-1,23],[5,16],[12,9],[95,13],[18,23],[-2,55],[36,15],[18,15],[15,33],[5,5],[4,7],[1,11],[-1,18],[1,12],[1,11],[1,17],[0,27],[1,17],[5,11],[10,5],[10,-6],[5,-20],[5,-25],[15,-64],[3,-11],[3,-6],[8,-9],[19,-35],[50,-61],[-1,-21],[11,-24],[17,-19],[12,-6],[55,9],[49,24],[47,46],[49,72],[10,24],[8,29],[0,25],[-12,12],[-53,12],[-53,33],[18,28],[25,9],[50,-7],[24,5],[20,18],[18,29],[17,42],[-112,59],[-58,14],[-56,-7],[-1,30],[1,18],[5,10],[55,38],[-13,21],[-31,25],[-13,19],[17,9],[8,7],[8,13],[15,33],[8,12],[9,7],[18,-1],[89,-58],[17,0],[30,46],[20,0],[56,-32],[19,2],[19,9],[18,15],[13,31],[7,50],[0,49],[-12,28],[-124,67],[-19,3],[3,12],[2,12],[4,10],[4,8],[-18,5],[-6,5],[130,63],[21,17],[18,24],[-10,0],[-11,5],[42,43],[11,23],[-50,10],[-121,-23],[-22,15],[-13,5],[6,15],[-13,-1],[4,20],[9,10],[20,8],[27,31],[67,47],[19,21],[-12,-5],[-6,-1],[-7,1],[8,17],[9,51],[9,18],[-19,1],[-18,10],[10,12],[26,10],[-8,4],[-7,7],[12,10],[47,5],[25,-7],[12,0],[13,7],[14,12],[14,17],[11,20],[6,5],[13,-1],[6,4],[6,8],[21,14],[-24,1],[-9,11],[-9,25],[-6,30],[-4,14],[-4,8],[-6,8],[-3,9],[-2,9],[-3,8],[-64,86],[-65,163],[-12,53],[-2,26],[2,25],[11,80],[19,74],[-8,12],[-4,22],[-2,26],[1,24],[-3,17],[-10,13],[-21,12],[-74,8],[-18,-6],[-26,-22],[-5,-6],[-3,-9],[-2,-8],[-3,-23],[-2,-7],[-13,-21],[-17,-14],[-120,-40],[-24,13],[-122,-22],[-71,19],[-40,28],[-133,19],[-75,10]],[[0,2791],[75,-10],[133,-19],[40,-28],[71,-19],[122,22],[24,-13],[120,40],[17,14],[13,21],[2,7],[3,23],[2,8],[3,9],[5,6],[26,22],[18,6],[74,-8],[21,-12],[10,-13],[3,-17],[-1,-24],[2,-26],[4,-22],[8,-12],[-19,-74],[-11,-80],[-2,-25],[2,-26],[12,-53],[65,-163],[64,-86],[3,-8],[2,-9],[3,-9],[6,-8],[4,-8],[4,-14],[6,-30],[9,-25],[9,-11],[24,-1],[-21,-14],[-6,-8],[-6,-4],[-13,1],[-6,-5],[-11,-20],[-14,-17],[-14,-12],[-13,-7],[-12,0],[-25,7],[-47,-5],[-12,-10],[7,-7],[8,-4],[-26,-10],[-10,-12],[18,-10],[19,-1],[-9,-18],[-9,-51],[-8,-17],[7,-1],[6,1],[12,5],[-19,-21],[-67,-47],[-27,-31],[-20,-8],[-9,-10],[-4,-20],[13,1],[-6,-15],[13,-5],[22,-15],[121,23],[50,-10],[-11,-23],[-42,-43],[11,-5],[10,0],[-18,-24],[-21,-17],[-130,-63],[6,-5],[18,-5],[-4,-8],[-4,-10],[-2,-12],[-3,-12],[19,-3],[124,-67],[12,-28],[0,-49],[-7,-50],[-13,-31],[-18,-15],[-19,-9],[-19,-2],[-56,32],[-20,0],[-30,-46],[-17,0],[-89,58],[-18,1],[-9,-7],[-8,-12],[-15,-33],[-8,-13],[-8,-7],[-17,-9],[13,-19],[31,-25],[13,-21],[-55,-38],[-5,-10],[-1,-18],[1,-30],[56,7],[58,-14],[112,-59],[-17,-42],[-18,-29],[-20,-18],[-24,-5],[-50,7],[-25,-9],[-18,-28],[53,-33],[53,-12],[12,-12],[0,-25],[-8,-29],[-10,-24],[-49,-72],[-47,-46],[-49,-24],[-55,-9],[-12,6],[-17,19],[-11,24],[1,21],[-50,61],[-19,35],[-8,9],[-3,6],[-3,11],[-15,64],[-5,25],[-5,20],[-10,6],[-10,-5],[-5,-11],[-1,-17],[0,-27],[-1,-17],[-1,-11],[-1,-12],[1,-18],[-1,-11],[-4,-7],[-5,-5],[-15,-33],[-18,-15],[-36,-15],[2,-55],[-18,-23],[-95,-13],[-12,-9],[-5,-16],[1,-23],[2,-33],[-10,-6],[-12,-14],[-2,-5],[0,2300]],[[0,327],[66,12],[11,-2],[13,-12],[-7,-13],[-26,-23],[8,-22],[8,-4],[9,1],[9,-8],[2,-9],[0,-14],[3,-13],[5,-6],[34,7],[2,-6],[1,-9],[4,-10],[7,-15],[3,-6],[16,-15],[5,-2],[6,1],[6,4],[5,6],[5,3],[15,-13],[8,2],[18,18],[87,32],[13,-1],[8,-10],[15,-40],[9,-13],[9,-7],[10,0],[9,6],[12,14],[4,4],[3,8],[4,52],[14,35],[22,19],[63,30],[81,-4],[8,-8],[30,-90],[3,-25],[0,-30],[-10,-102],[-3,-49],[-627,0],[0,327]],[[1796,0],[3,9],[-1,33],[5,6],[5,4],[11,3],[-7,11],[49,35],[3,6],[1,20],[1,8],[8,10],[9,4],[9,-1],[17,-7],[8,2],[32,25],[6,11],[-1,18],[-5,18],[-3,8],[-8,11],[-2,7],[0,10],[-2,13],[-12,37],[-31,48],[-14,34],[-10,35],[-1,15],[5,19],[6,13],[15,25],[12,13],[3,6],[2,9],[2,13],[2,7],[4,5],[41,29],[10,13],[4,1],[10,-2],[4,0],[5,3],[4,5],[8,17],[3,4],[4,-2],[8,-12],[5,-1],[6,7],[7,14],[6,11],[7,-1],[1,-1],[10,-10],[8,1],[18,14],[-7,26],[-1,11],[4,10],[5,22],[3,22],[0,17],[3,12],[10,11],[26,11],[7,7],[4,7],[6,18],[4,7],[4,3],[8,0],[13,14],[5,-6],[5,-11],[5,-5],[8,0],[9,-3],[7,-10],[10,-35],[8,-7],[27,-4],[8,10],[7,14],[24,35],[26,57],[16,16],[22,11],[15,0],[17,6],[53,-21],[5,-4],[2,-6],[2,-10],[3,-12],[23,-41],[4,-13],[-2,-18],[-17,-69],[10,-13],[12,5],[24,18],[4,-31],[20,3],[39,31],[35,46],[17,13],[20,-7],[-19,-38],[11,-22],[9,-7],[9,7],[24,33],[14,11],[13,1],[11,-11],[21,-43],[12,-19],[11,-7],[12,13],[20,47],[14,9],[-3,27],[5,18],[9,11],[10,1],[9,-7],[6,-14],[9,-48],[4,-6],[9,0],[3,-7],[3,-30],[3,-12],[5,-7],[8,5],[32,36],[11,8],[10,-4],[4,-1],[3,3],[13,27],[8,8],[21,10],[16,18],[5,0],[9,-5],[5,2],[10,18],[7,22],[8,16],[12,-4],[-29,52],[-5,14],[-3,26],[-6,30],[-7,25],[-9,14],[4,7],[9,11],[4,7],[1,10],[0,10],[2,10],[6,6],[-3,2],[-8,9],[9,25],[14,1],[14,-5],[13,3],[5,10],[10,26],[6,6],[17,4],[16,11],[49,48],[59,15],[-4,-22],[-3,-22],[1,-18],[9,-10],[8,3],[9,10],[9,14],[22,47],[15,23],[17,15],[28,12],[19,3],[8,-4],[10,-9],[4,-1],[6,4],[6,9],[2,5],[-1,9],[1,18],[0,14],[-2,9],[0,7],[5,7],[10,8],[11,2],[10,-2],[7,-4],[6,3],[9,16],[-2,4],[-5,12],[-2,4],[14,28],[23,10],[63,-2],[10,5],[20,16],[41,-2],[4,-5],[6,-10],[4,-6],[4,1],[10,16],[9,9],[112,49],[-5,19],[-1,15],[3,13],[6,13],[11,17],[4,8],[8,30],[4,8],[9,6],[35,-1],[-35,25],[7,21],[6,13],[8,10],[10,8],[-35,6],[2,21],[-1,22],[0,20],[6,13],[3,4],[5,14],[3,5],[48,56],[9,5],[76,7],[9,6],[15,20],[10,7],[82,21],[-16,28],[-20,16],[-21,5],[-20,-1],[7,6],[19,29],[5,14],[-1,9],[-6,15],[-3,10],[-2,15],[0,17],[2,16],[4,13],[-6,5],[-5,2],[-12,-3],[-1,16],[2,9],[4,5],[6,4],[3,7],[1,25],[2,11],[8,24],[6,26],[4,10],[16,16],[52,86],[1,1],[0,-2349],[-2300,0]],[[1713,0],[-148,0],[-4,5],[-41,90],[-5,14],[-4,16],[-5,34],[-2,25],[0,50],[-3,24],[4,13],[3,6],[4,4],[8,27],[15,25],[16,16],[18,-3],[4,-10],[1,-19],[2,-19],[7,-15],[0,-32],[5,-28],[9,-23],[10,-17],[12,-17],[13,-11],[13,-4],[6,-5],[5,-10],[4,-16],[2,-16],[3,-14],[5,-11],[7,-3],[29,-1],[6,-4],[3,-8],[1,-14],[-2,-12],[-2,-11],[-2,-11],[0,-3],[0,-2],[1,-2],[0,-2],[2,-6]],[[1871,616],[8,-10],[21,5],[4,-4],[1,-17],[-62,-68],[-37,-18],[-18,33],[9,15],[7,8],[6,1],[4,-8],[8,6],[8,10],[7,12],[19,43],[7,10],[7,8],[0,-8],[0,-7],[0,-6],[1,-5]]]}