{"objects":{"water":{"type":"GeometryCollection","geometries":[{"type":"MultiPolygon","properties":{"source":"naturalearthdata.com","kind":"ocean","area":989871000000000,"sort_rank":200,"min_zoom":0,"id":1},"arcs":[[[0],[1],[2]]]},{"type":"LineString","properties":{"source":"naturalearthdata.com","kind":"ocean","sort_rank":205,"boundary":true,"min_zoom":0,"id":3055},"arcs":[3]},{"type":"LineString","properties":{"source":"naturalearthdata.com","kind":"ocean","sort_rank":205,"boundary":true,"min_zoom":0,"id":3056},"arcs":[4]},{"type":"LineString","properties":{"source":"naturalearthdata.com","kind":"ocean","sort_rank":205,"boundary":true,"min_zoom":0,"id":3062},"arcs":[5]},{"type":"MultiLineString","properties":{"source":"naturalearthdata.com","kind":"ocean","sort_rank":205,"boundary":true,"min_zoom":0,"id":3517},"arcs":[[6],[7],[8]]}]},"buildings":{"type":"GeometryCollection","geometries":[]},"places":{"type":"GeometryCollection","geometries":[]},"transit":{"type":"GeometryCollection","geometries":[]},"pois":{"type":"GeometryCollection","geometries":[]},"boundaries":{"type":"GeometryCollection","geometries":[]},"roads":{"type":"GeometryCollection","geometries":[]},"earth":{"type":"GeometryCollection","geometries":[{"type":"MultiPolygon","properties":{"sort_rank":10,"source":"naturalearthdata.com","min_zoom":0,"kind":"earth","area":92616631212867},"arcs":[[[9]],[[10]],[[11]]]},{"type":"MultiPolygon","properties":{"sort_rank":10,"source":"naturalearthdata.com","min_zoom":3.0,"kind":"earth","area":25285855466},"arcs":[[[12]],[[13]]]},{"type":"MultiPolygon","properties":{"sort_rank":10,"source":"naturalearthdata.com","kind":"earth","min_zoom":4.0,"area":1492664684},"arcs":[[[14]]]}]},"landuse":{"type":"GeometryCollection","geometries":[]}},"type":"Topology","transform":{"translate":[67.5,-74.0195433115],"scale":[0.002746582,0.0008317698]},"arcs":[[[1713,4096],[83,0],[-11,-40],[-21,-36],[-18,7],[-16,17],[-22,4],[-16,-18],[3,-45],[-11,9],[-19,29],[-11,11],[-11,3],[-5,-1],[-6,-5],[-4,-6],[-8,-15],[-3,-6],[-11,-6],[-22,-5],[-11,-7],[-9,-15],[-25,-69],[5,-6],[10,-20],[5,-5],[28,-12],[-4,-42],[-7,-27],[-11,-11],[-18,2],[-7,-8],[-6,-11],[-3,-14],[-3,-8],[-11,-1],[-5,-3],[12,-50],[-20,-3],[-17,6],[-15,-11],[-54,-190],[-1,-39],[-6,-1],[-5,-6],[-5,-12],[-2,-19],[10,-11],[22,-11],[29,-1],[9,-3],[8,-14],[-3,-2],[-5,-9],[-3,-2],[3,-23],[-8,-3],[-7,-6],[-21,-29],[-49,-11],[-6,-9],[-8,-22],[-5,-14],[-7,-7],[-10,-7],[4,-20],[4,-16],[11,-27],[-6,-10],[-9,-31],[-5,-14],[-12,-16],[-3,-11],[0,-20],[8,-24],[48,-49],[20,-8],[5,-6],[7,-20],[5,-8],[46,-50],[-35,-32],[-12,-3],[-70,38],[-4,-1],[-7,-13],[-4,-7],[-6,-3],[-7,0],[-12,7],[-5,0],[-6,-7],[-2,-9],[-1,-15],[-2,-15],[-4,-13],[10,-9],[19,-23],[42,-26],[11,-11],[-24,-31],[-11,1],[-12,21],[-11,6],[-30,-19],[-24,-6],[-33,-50],[-12,-13],[-59,-34],[-80,6],[-7,-4],[-5,-10],[0,-21],[3,-7],[46,-15],[8,-8],[14,-25],[5,-4],[25,-1],[8,-7],[-2,-3],[-5,-8],[-3,-3],[2,-6],[5,-15],[2,-6],[-11,-16],[-16,-43],[-46,-64],[-12,-5],[-48,-3],[-34,-21],[-36,12],[-76,-20],[-3,2],[-3,-4],[-9,-39],[-2,-2],[-3,5],[-7,1],[-12,-11],[-8,-18],[-5,-27],[-6,-38],[27,-6],[14,-8],[8,-24],[4,-46],[-7,-9],[-25,16],[-6,-3],[-18,-25],[-5,-4],[-16,-4],[-13,-10],[-12,-15],[-11,-22],[-10,-28],[2,-3],[5,-8],[2,-2],[-6,-5],[-4,-13],[-7,-32],[15,-41],[-12,-23],[-14,-17],[-15,-6],[-14,7],[4,8],[3,8],[3,10],[3,12],[-61,18],[-70,-11],[-26,12],[-16,-5],[-105,-88],[-16,-6],[-32,19],[-46,9],[-29,-8],[-30,-31],[-56,-83],[6,-12],[3,-3],[-29,-16],[-15,-16],[-10,-6],[-5,-5],[-3,-8],[-7,-18],[-24,-33],[-10,-23],[-1,-22],[9,-21],[7,-13],[3,-17],[-6,-62],[2,-27],[6,-21],[9,-13],[20,-12],[7,-12],[3,-35],[6,-18],[3,-11],[3,-17],[1,-11],[-2,-29],[-4,-29],[-4,-16],[-17,-21],[4,-31],[-4,-34],[-6,-37],[-2,-37],[-12,3],[-11,-2],[-10,-10],[-11,-19],[-9,-11],[-20,-5],[-117,-96],[0,1519],[3,8],[2,17],[0,15],[1,13],[6,13],[-8,11],[-4,10],[0,77],[40,44],[-16,3],[-7,11],[-5,22],[64,36],[20,23],[3,10],[4,23],[2,6],[21,22],[9,18],[4,20],[-2,20],[-10,15],[6,1],[5,7],[4,12],[2,19],[-15,1],[-7,5],[-6,10],[5,6],[4,9],[4,12],[2,15],[-9,5],[-1,16],[4,20],[7,15],[22,35],[39,96],[14,25],[5,17],[-7,11],[-3,2],[75,33],[23,22],[-4,35],[2,18],[8,9],[66,11],[54,53],[-6,5],[-18,-1],[-5,3],[-15,21],[7,23],[7,15],[81,83],[31,53],[-4,0],[-4,3],[-3,4],[-4,6],[56,100],[7,28],[-4,29],[1,25],[4,22],[22,52],[3,23],[-7,19],[9,12],[32,68],[5,21],[3,26],[3,71],[938,0],[10,-15],[94,-35],[29,4],[11,8],[10,17],[-2,8],[-4,13]],[[466,2288],[-4,4],[-1,2],[-2,3],[-1,5],[-1,12],[-1,5],[-10,3],[-15,-10],[-13,-15],[-6,-16],[-2,-33],[-8,-26],[-56,-94],[-20,-57],[8,-19],[13,-2],[105,60],[25,30],[8,14],[7,18],[4,23],[-3,28],[-5,18],[-13,32],[-7,12],[-2,3]],[[883,2537],[-23,23],[-16,1],[-9,-2],[-7,-7],[-2,-4],[-1,-3],[0,-4],[-1,-5],[-3,-7],[-11,-19],[0,-2],[1,-9],[0,-4],[-1,-5],[-1,-4],[-8,-19],[-6,-9],[7,-16],[17,-64],[-8,-18],[2,0],[10,-4],[3,-1],[7,6],[3,5],[3,5],[-1,2],[0,2],[-1,1],[-1,1],[4,22],[34,91],[5,22],[4,25]],[[466,2288],[-4,4],[-1,2],[-2,3],[-1,5],[-1,12],[-1,5],[-10,3],[-15,-10],[-13,-15],[-6,-16],[-2,-33],[-8,-26],[-56,-94],[-20,-57],[8,-19],[13,-2],[105,60],[25,30],[8,14],[7,18],[4,23],[-3,28],[-5,18],[-13,32],[-7,12],[-2,3]],[[883,2537],[-23,23],[-16,1],[-9,-2],[-7,-7],[-2,-4],[-1,-3],[0,-4],[-1,-5],[-3,-7],[-11,-19],[0,-2],[1,-9],[0,-4],[-1,-5],[-1,-4],[-8,-19],[-6,-9],[7,-16],[17,-64],[-8,-18],[2,0],[10,-4],[3,-1],[7,6],[3,5],[3,5],[-1,2],[0,2],[-1,1],[-1,1],[4,22],[34,91],[5,22],[4,25]],[[1565,4096],[10,-15],[94,-35],[29,4],[11,8],[10,17],[-2,8],[-4,13]],[[1796,4096],[-11,-40],[-21,-36],[-18,7],[-16,17],[-22,4],[-16,-18],[3,-45],[-11,9],[-19,29],[-11,11],[-11,3],[-5,-1],[-6,-5],[-4,-6],[-8,-15],[-3,-6],[-11,-6],[-22,-5],[-11,-7],[-9,-15],[-25,-69],[5,-6],[10,-20],[5,-5],[28,-12],[-4,-42],[-7,-27],[-11,-11],[-18,2],[-7,-8],[-6,-11],[-3,-14],[-3,-8],[-11,-1],[-5,-3],[12,-50],[-20,-3],[-17,6],[-15,-11],[-54,-190],[-1,-39],[-6,-1],[-5,-6],[-5,-12],[-2,-19],[10,-11],[22,-11],[29,-1],[9,-3],[8,-14],[-3,-2],[-5,-9],[-3,-2],[3,-23],[-8,-3],[-7,-6],[-21,-29],[-49,-11],[-6,-9],[-8,-22],[-5,-14],[-7,-7],[-10,-7],[4,-20],[4,-16],[11,-27],[-6,-10],[-9,-31],[-5,-14],[-12,-16],[-3,-11],[0,-20],[8,-24],[48,-49],[20,-8],[5,-6],[7,-20],[5,-8],[46,-50],[-35,-32],[-12,-3],[-70,38],[-4,-1],[-7,-13],[-4,-7],[-6,-3],[-7,0],[-12,7],[-5,0],[-6,-7],[-2,-9],[-1,-15],[-2,-15],[-4,-13],[10,-9],[19,-23],[42,-26],[11,-11],[-24,-31],[-11,1],[-12,21],[-11,6],[-30,-19],[-24,-6],[-33,-50],[-12,-13],[-59,-34],[-80,6],[-7,-4],[-5,-10],[0,-21],[3,-7],[46,-15],[8,-8],[14,-25],[5,-4],[25,-1],[8,-7],[-2,-3],[-5,-8],[-3,-3],[2,-6],[5,-15],[2,-6],[-11,-16],[-16,-43],[-46,-64],[-12,-5],[-48,-3],[-34,-21],[-36,12],[-76,-20],[-3,2],[-3,-4],[-9,-39],[-2,-2],[-3,5],[-7,1],[-12,-11],[-8,-18],[-5,-27],[-6,-38],[27,-6],[14,-8],[8,-24],[4,-46],[-7,-9],[-25,16],[-6,-3],[-18,-25],[-5,-4],[-16,-4],[-13,-10],[-12,-15],[-11,-22],[-10,-28],[2,-3],[5,-8],[2,-2],[-6,-5],[-4,-13],[-7,-32],[15,-41],[-12,-23],[-14,-17],[-15,-6],[-14,7],[4,8],[3,8],[3,10],[3,12],[-61,18],[-70,-11],[-26,12],[-16,-5],[-105,-88],[-16,-6],[-32,19],[-46,9],[-29,-8],[-30,-31],[-56,-83],[6,-12],[3,-3],[-29,-16],[-15,-16],[-10,-6],[-5,-5],[-3,-8],[-7,-18],[-24,-33],[-10,-23],[-1,-22],[9,-21],[7,-13],[3,-17],[-6,-62],[2,-27],[6,-21],[9,-13],[20,-12],[7,-12],[3,-35],[6,-18],[3,-11],[3,-17],[1,-11],[-2,-29],[-4,-29],[-4,-16],[-17,-21],[4,-31],[-4,-34],[-6,-37],[-2,-37],[-12,3],[-11,-2],[-10,-10],[-11,-19],[-9,-11],[-20,-5],[-117,-96]],[[0,2428],[3,8],[2,17],[0,15],[1,13],[6,13],[-8,11],[-4,10]],[[0,2592],[40,44],[-16,3],[-7,11],[-5,22],[64,36],[20,23],[3,10],[4,23],[2,6],[21,22],[9,18],[4,20],[-2,20],[-10,15],[6,1],[5,7],[4,12],[2,19],[-15,1],[-7,5],[-6,10],[5,6],[4,9],[4,12],[2,15],[-9,5],[-1,16],[4,20],[7,15],[22,35],[39,96],[14,25],[5,17],[-7,11],[-3,2],[75,33],[23,22],[-4,35],[2,18],[8,9],[66,11],[54,53],[-6,5],[-18,-1],[-5,3],[-15,21],[7,23],[7,15],[81,83],[31,53],[-4,0],[-4,3],[-3,4],[-4,6],[56,100],[7,28],[-4,29],[1,25],[4,22],[22,52],[3,23],[-7,19],[9,12],[32,68],[5,21],[3,26],[3,71]],[[627,4096],[-3,-71],[-3,-26],[-5,-21],[-32,-68],[-9,-12],[7,-19],[-3,-23],[-22,-52],[-4,-22],[-1,-25],[4,-29],[-7,-28],[-56,-100],[4,-6],[3,-4],[4,-3],[4,0],[-31,-53],[-81,-83],[-7,-15],[-7,-23],[15,-21],[5,-3],[18,1],[6,-5],[-54,-53],[-66,-11],[-8,-9],[-2,-18],[4,-35],[-23,-22],[-75,-33],[3,-2],[7,-11],[-5,-17],[-14,-25],[-39,-96],[-22,-35],[-7,-15],[-4,-20],[1,-16],[9,-5],[-2,-15],[-4,-12],[-4,-9],[-5,-6],[6,-10],[7,-5],[15,-1],[-2,-19],[-4,-12],[-5,-7],[-6,-1],[10,-15],[2,-20],[-4,-20],[-9,-18],[-21,-22],[-2,-6],[-4,-23],[-3,-10],[-20,-23],[-64,-36],[5,-22],[7,-11],[16,-3],[-40,-44],[0,1504],[627,0]],[[0,2515],[4,-10],[8,-11],[-6,-13],[-1,-13],[0,-15],[-2,-17],[-3,-8],[0,87]],[[0,909],[117,96],[20,5],[9,11],[11,19],[10,10],[11,2],[12,-3],[2,37],[6,37],[4,34],[-4,31],[17,21],[4,16],[4,29],[2,29],[-1,11],[-3,17],[-3,11],[-6,18],[-3,35],[-7,12],[-20,12],[-9,13],[-6,21],[-2,27],[6,62],[-3,17],[-7,13],[-9,21],[1,22],[10,23],[24,33],[7,18],[3,8],[5,5],[10,6],[15,16],[29,16],[-3,3],[-6,12],[56,83],[30,31],[29,8],[46,-9],[32,-19],[16,6],[105,88],[16,5],[26,-12],[70,11],[61,-18],[-3,-12],[-3,-10],[-3,-8],[-4,-8],[14,-7],[15,6],[14,17],[12,23],[-15,41],[7,32],[4,13],[6,5],[-2,2],[-5,8],[-2,3],[10,28],[11,22],[12,15],[13,10],[16,4],[5,4],[18,25],[6,3],[25,-16],[7,9],[-4,46],[-8,24],[-14,8],[-27,6],[6,38],[5,27],[8,18],[12,11],[7,-1],[3,-5],[2,2],[9,39],[3,4],[3,-2],[76,20],[36,-12],[34,21],[48,3],[12,5],[46,64],[16,43],[11,16],[-2,6],[-5,15],[-2,6],[3,3],[5,8],[2,3],[-8,7],[-25,1],[-5,4],[-14,25],[-8,8],[-46,15],[-3,7],[0,21],[5,10],[7,4],[80,-6],[59,34],[12,13],[33,50],[24,6],[30,19],[11,-6],[12,-21],[11,-1],[24,31],[-11,11],[-42,26],[-19,23],[-10,9],[4,13],[2,15],[1,15],[2,9],[6,7],[5,0],[12,-7],[7,0],[6,3],[4,7],[7,13],[4,1],[70,-38],[12,3],[35,32],[-46,50],[-5,8],[-7,20],[-5,6],[-20,8],[-48,49],[-8,24],[0,20],[3,11],[12,16],[5,14],[9,31],[6,10],[-11,27],[-4,16],[-4,20],[10,7],[7,7],[5,14],[8,22],[6,9],[49,11],[21,29],[7,6],[8,3],[-3,23],[3,2],[5,9],[3,2],[-8,14],[-9,3],[-29,1],[-22,11],[-10,11],[2,19],[5,12],[5,6],[6,1],[1,39],[54,190],[15,11],[17,-6],[20,3],[-12,50],[5,3],[11,1],[3,8],[3,14],[6,11],[7,8],[18,-2],[11,11],[7,27],[4,42],[-28,12],[-5,5],[-10,20],[-5,6],[25,69],[9,15],[11,7],[22,5],[11,6],[3,6],[8,15],[4,6],[6,5],[5,1],[11,-3],[11,-11],[19,-29],[11,-9],[-3,45],[16,18],[22,-4],[16,-17],[18,-7],[21,36],[11,40],[2300,0],[0,-4096],[-4096,0],[0,909]],[[466,2288],[2,-3],[7,-12],[13,-32],[5,-18],[3,-28],[-4,-23],[-7,-18],[-8,-14],[-25,-30],[-105,-60],[-13,2],[-8,19],[20,57],[56,94],[8,26],[2,33],[6,16],[13,15],[15,10],[10,-3],[1,-5],[1,-12],[1,-5],[2,-3],[1,-2],[4,-4]],[[1565,4096],[148,0],[4,-13],[2,-8],[-10,-17],[-11,-8],[-29,-4],[-94,35],[-10,15]],[[883,2537],[-4,-25],[-5,-22],[-34,-91],[-4,-22],[1,-1],[1,-1],[0,-2],[1,-2],[-3,-5],[-3,-5],[-7,-6],[-3,1],[-10,4],[-2,0],[8,18],[-17,64],[-7,16],[6,9],[8,19],[1,4],[1,5],[0,4],[-1,9],[0,2],[11,19],[3,7],[1,5],[0,4],[1,3],[2,4],[7,7],[9,2],[16,-1],[23,-23]]]}