{"objects":{"water":{"type":"GeometryCollection","geometries":[{"type":"MultiPolygon","properties":{"source":"naturalearthdata.com","kind":"ocean","area":989871000000000,"sort_rank":200,"min_zoom":0,"id":1},"arcs":[[[0],[1]]]},{"type":"LineString","properties":{"source":"naturalearthdata.com","kind":"ocean","sort_rank":205,"boundary":true,"min_zoom":0,"id":1982},"arcs":[2]}]},"buildings":{"type":"GeometryCollection","geometries":[]},"places":{"type":"GeometryCollection","geometries":[]},"transit":{"type":"GeometryCollection","geometries":[]},"pois":{"type":"GeometryCollection","geometries":[]},"boundaries":{"type":"GeometryCollection","geometries":[]},"roads":{"type":"GeometryCollection","geometries":[]},"earth":{"type":"GeometryCollection","geometries":[{"type":"MultiPolygon","properties":{"sort_rank":10,"source":"naturalearthdata.com","min_zoom":3.0,"kind":"earth","area":203468181153},"arcs":[[[3]]]}]},"landuse":{"type":"GeometryCollection","geometries":[]}},"type":"Topology","transform":{"translate":[67.5,79.1713346408],"scale":[0.002746582,0.0004692088]},"arcs":[[[4096,0],[-4096,0],[0,4096],[4096,0],[0,-4096]],[[3682,747],[-7,24],[-135,79],[-135,78],[-135,79],[-21,-14],[-6,-42],[-50,-28],[-26,9],[-21,64],[12,-3],[38,17],[-20,26],[-22,14],[-22,-4],[-19,-29],[1,-41],[14,-55],[30,-73],[138,-70],[4,2],[10,17],[5,5],[6,2],[23,-44],[5,-21],[-1,-16],[-15,-32],[-5,-18],[20,-20],[162,19],[161,19],[7,10],[4,19],[0,27]],[[3682,747],[-7,24],[-135,79],[-135,78],[-135,79],[-21,-14],[-6,-42],[-50,-28],[-26,9],[-21,64],[12,-3],[38,17],[-20,26],[-22,14],[-22,-4],[-19,-29],[1,-41],[14,-55],[30,-73],[138,-70],[4,2],[10,17],[5,5],[6,2],[23,-44],[5,-21],[-1,-16],[-15,-32],[-5,-18],[20,-20],[162,19],[161,19],[7,10],[4,19],[0,27]],[[3682,747],[0,-27],[-4,-19],[-7,-10],[-161,-19],[-162,-19],[-20,20],[5,18],[15,32],[1,16],[-5,21],[-23,44],[-6,-2],[-5,-5],[-10,-17],[-4,-2],[-138,70],[-30,73],[-14,55],[-1,41],[19,29],[22,4],[22,-14],[20,-26],[-38,-17],[-12,3],[21,-64],[26,-9],[50,28],[6,42],[21,14],[135,-79],[135,-78],[135,-79],[7,-24]]]}