{"objects":{"water":{"type":"GeometryCollection","geometries":[{"type":"MultiPolygon","properties":{"source":"naturalearthdata.com","kind":"ocean","area":989871000000000,"sort_rank":200,"min_zoom":0,"id":1},"arcs":[[[0]]]},{"type":"LineString","properties":{"source":"naturalearthdata.com","kind":"ocean","sort_rank":205,"boundary":true,"min_zoom":0,"id":505},"arcs":[1]}]},"buildings":{"type":"GeometryCollection","geometries":[]},"places":{"type":"GeometryCollection","geometries":[]},"transit":{"type":"GeometryCollection","geometries":[]},"pois":{"type":"GeometryCollection","geometries":[]},"boundaries":{"type":"GeometryCollection","geometries":[]},"roads":{"type":"GeometryCollection","geometries":[]},"earth":{"type":"GeometryCollection","geometries":[{"type":"MultiPolygon","properties":{"sort_rank":10,"source":"naturalearthdata.com","min_zoom":0,"kind":"earth","area":11714569654858},"arcs":[[[2]]]}]},"landuse":{"type":"GeometryCollection","geometries":[{"type":"MultiPolygon","properties":{"kind":"nature_reserve","protect_class":"2","area":5534799985934,"sort_rank":23,"source":"openstreetmap.org","min_zoom":4.0,"tier":2,"id":-7008461},"arcs":[[[3]]]}]}},"type":"Topology","transform":{"translate":[67.5,76.8408164144],"scale":[0.002746582,0.0005689742]},"arcs":[[[0,290],[0,3806],[4096,0],[0,-4096],[-3637,0],[1,3],[7,25],[9,22],[-9,15],[-11,3],[-23,-5],[-6,6],[-17,34],[-12,38],[-9,8],[-29,1],[-4,10],[3,15],[10,21],[-18,25],[-62,-13],[-49,15],[-45,54],[-163,26],[-32,-13]],[[459,0],[1,3],[7,25],[9,22],[-9,15],[-11,3],[-23,-5],[-6,6],[-17,34],[-12,38],[-9,8],[-29,1],[-4,10],[3,15],[10,21],[-18,25],[-62,-13],[-49,15],[-45,54],[-163,26],[-32,-13]],[[459,0],[-459,0],[0,290],[32,13],[163,-26],[45,-54],[49,-15],[62,13],[18,-25],[-10,-21],[-3,-15],[4,-10],[29,-1],[9,-8],[12,-38],[17,-34],[6,-6],[23,5],[11,-3],[9,-15],[-9,-22],[-7,-25],[-1,-3]],[[848,0],[-848,0],[0,686],[44,18],[190,-30],[105,-80],[236,-94],[65,-66],[136,-231],[72,-203]]]}