{"objects":{"water":{"type":"GeometryCollection","geometries":[{"type":"MultiPolygon","properties":{"source":"naturalearthdata.com","kind":"ocean","area":989871000000000,"sort_rank":200,"min_zoom":0,"id":1},"arcs":[[[2],[3],[4],[5],[6],[7],[8],[9]]]},{"type":"MultiLineString","properties":{"source":"naturalearthdata.com","kind":"ocean","sort_rank":205,"boundary":true,"min_zoom":0,"id":465},"arcs":[[10],[11],[12]]},{"type":"LineString","properties":{"source":"naturalearthdata.com","kind":"ocean","sort_rank":205,"boundary":true,"min_zoom":0,"id":492},"arcs":[13]},{"type":"LineString","properties":{"source":"naturalearthdata.com","kind":"ocean","sort_rank":205,"boundary":true,"min_zoom":0,"id":1922},"arcs":[14]},{"type":"LineString","properties":{"source":"naturalearthdata.com","kind":"ocean","sort_rank":205,"boundary":true,"min_zoom":0,"id":1925},"arcs":[15]},{"type":"LineString","properties":{"source":"naturalearthdata.com","kind":"ocean","sort_rank":205,"boundary":true,"min_zoom":0,"id":1926},"arcs":[16]},{"type":"LineString","properties":{"source":"naturalearthdata.com","kind":"ocean","sort_rank":205,"boundary":true,"min_zoom":0,"id":1928},"arcs":[17]},{"type":"LineString","properties":{"source":"naturalearthdata.com","kind":"ocean","sort_rank":205,"boundary":true,"min_zoom":0,"id":1929},"arcs":[18]},{"type":"LineString","properties":{"source":"naturalearthdata.com","kind":"ocean","sort_rank":205,"boundary":true,"min_zoom":0,"id":1930},"arcs":[19]},{"type":"LineString","properties":{"source":"naturalearthdata.com","kind":"ocean","sort_rank":205,"boundary":true,"min_zoom":0,"id":1931},"arcs":[20]}]},"buildings":{"type":"GeometryCollection","geometries":[]},"places":{"type":"GeometryCollection","geometries":[]},"transit":{"type":"GeometryCollection","geometries":[]},"pois":{"type":"GeometryCollection","geometries":[]},"boundaries":{"type":"GeometryCollection","geometries":[{"type":"MultiLineString","properties":{"sort_rank":256,"kind_detail":"4","kind":"region","min_zoom":2.0,"source":"naturalearthdata.com"},"arcs":[[0],[1]]}]},"roads":{"type":"GeometryCollection","geometries":[]},"earth":{"type":"GeometryCollection","geometries":[{"type":"MultiPolygon","properties":{"sort_rank":10,"source":"naturalearthdata.com","kind":"earth","min_zoom":2.0,"area":372226641930},"arcs":[[[21]],[[22]],[[23]],[[24]]]},{"type":"MultiPolygon","properties":{"sort_rank":10,"source":"naturalearthdata.com","kind":"earth","min_zoom":4.0,"area":36266068607},"arcs":[[[25]]]},{"type":"MultiPolygon","properties":{"sort_rank":10,"source":"naturalearthdata.com","min_zoom":3.0,"kind":"earth","area":203468181153},"arcs":[[[26]],[[27]],[[28]]]},{"type":"MultiPolygon","properties":{"sort_rank":10,"source":"naturalearthdata.com","min_zoom":0,"kind":"earth","area":11714569654858},"arcs":[[[29]],[[30]],[[31]]]}]},"landuse":{"type":"GeometryCollection","geometries":[{"type":"MultiPolygon","properties":{"kind":"nature_reserve","protect_class":"1","area":2495102325819,"sort_rank":23,"source":"openstreetmap.org","min_zoom":4.0,"tier":2,"id":-9349959},"arcs":[[[32]]]},{"type":"MultiPolygon","properties":{"kind":"nature_reserve","protect_class":"7","area":338152007993,"sort_rank":23,"operator":"\u0433\u043e\u0441\u0443\u0434\u0430\u0440\u0441\u0442\u0432\u0435\u043d\u043d\u043e\u0435 \u043a\u0430\u0437\u0435\u043d\u043d\u043e\u0435 \u0443\u0447\u0440\u0435\u0436\u0434\u0435\u043d\u0438\u0435 \"\u0421\u043b\u0443\u0436\u0431\u0430 \u043f\u043e \u043e\u0445\u0440\u0430\u043d\u0435, \u043a\u043e\u043d\u0442\u0440\u043e\u043b\u044e \u0438 \u0440\u0435\u0433\u0443\u043b\u0438\u0440\u043e\u0432\u0430\u043d\u0438\u044e \u0438\u0441\u043f\u043e\u043b\u044c\u0437\u043e\u0432\u0430\u043d\u0438\u044f \u0431\u0438\u043e\u0440\u0435\u0441\u0443\u0440\u0441\u043e\u0432 \u042f\u043c\u0430\u043b\u043e-\u041d\u0435\u043d\u0435\u0446\u043a\u043e\u0433\u043e \u0430\u0432\u0442\u043e\u043d\u043e\u043c\u043d\u043e\u0433\u043e \u043e\u043a\u0440\u0443\u0433\u0430\"","source":"openstreetmap.org","min_zoom":4.0,"tier":2,"id":-9437959},"arcs":[[[33]]]}]}},"type":"Topology","transform":{"translate":[67.5,70.612614238],"scale":[0.002746582,0.0008317698]},"arcs":[[[4077,1885],[-5,2],[-1,5],[-2,7],[-3,5],[-17,10],[-4,4],[2,3],[14,7],[4,4],[2,6],[-2,5],[-3,4],[0,5],[1,6],[1,8],[-2,13],[-4,9],[-6,11],[-3,8],[-2,8],[-2,9],[-4,5],[-26,9],[-4,4],[-23,36],[-2,8],[-1,7],[1,7],[4,6],[3,4],[12,11],[1,6]],[[4096,1889],[-19,-4]],[[4096,389],[0,-25],[-55,15],[-19,-10],[-18,-20],[-15,-10],[-16,1],[-19,15],[-29,41],[-101,26],[-20,15],[-12,19],[-6,22],[-1,27],[-1,32],[-3,36],[-7,25],[-10,18],[-20,21],[-82,38],[-64,-18],[-137,31],[-28,-29],[11,-43],[1,-14],[-2,-17],[-4,-15],[-6,-11],[-5,-6],[-1,13],[1,7],[1,6],[1,10],[-1,13],[-3,6],[-3,5],[-3,6],[-4,21],[0,18],[4,15],[8,12],[-10,10],[-61,18],[-92,8],[-115,21],[-7,-3],[-5,-8],[-1,-11],[4,-10],[-7,2],[-33,39],[-103,33],[-143,84],[-29,37],[-12,47],[1,6],[2,7],[2,10],[-3,25],[3,11],[4,8],[5,2],[50,-11],[14,11],[-5,19],[-1,15],[3,14],[7,15],[6,6],[15,12],[6,9],[2,7],[-2,8],[-4,11],[-9,19],[-33,35],[-3,18],[10,12],[26,13],[5,16],[-5,17],[-53,62],[-17,8],[-5,5],[-4,8],[-5,10],[-1,8],[0,11],[-1,10],[-2,4],[-8,7],[-4,18],[1,22],[6,19],[-5,19],[5,26],[9,23],[8,14],[-2,13],[-3,11],[-6,22],[0,12],[5,12],[6,9],[1,0],[25,-3],[13,7],[17,26],[2,8],[-2,11],[-7,30],[-2,7],[7,17],[25,20],[6,17],[0,8],[2,18],[1,12],[-1,8],[-4,17],[-1,11],[3,18],[26,69],[2,5],[10,14],[36,28],[5,9],[3,10],[2,19],[2,9],[0,21],[-23,15],[-8,17],[5,9],[-5,16],[-15,34],[-1,8],[1,20],[-2,8],[-18,66],[-6,37],[2,34],[13,26],[11,1],[15,-4],[12,3],[3,22],[-8,24],[-13,16],[-49,39],[-11,17],[-10,24],[-6,22],[-4,10],[-4,6],[-7,-1],[-16,-13],[-7,-3],[3,11],[11,15],[11,23],[5,-3],[6,-9],[7,-5],[23,35],[4,3],[-3,23],[-8,8],[-16,8],[-50,55],[-47,17],[-9,8],[-20,34],[-7,8],[-20,8],[-19,-6],[-76,-58],[-9,-10],[-3,-7],[2,-7],[91,-162],[10,-26],[8,-43],[4,-26],[1,-14],[-2,-21],[1,-25],[3,-24],[4,-62],[11,-84],[-1,-44],[2,-25],[-7,-127],[-6,-36],[-29,-87],[-12,-29],[-12,-19],[-95,-75],[-95,-74],[-28,-22],[-29,5],[-114,-56],[-62,-48],[-88,-62],[-7,-11],[-6,-15],[-5,-15],[-2,-17],[2,-13],[9,-23],[7,-23],[2,-22],[-3,-23],[-7,-27],[-6,-15],[-20,-30],[-7,-13],[-10,-28],[-6,-12],[-119,-171],[-5,-15],[4,-27],[16,-17],[35,-14],[22,-28],[38,-22],[9,-9],[23,-35],[15,-11],[16,-28],[7,-6],[9,-12],[10,-25],[26,-97],[5,-25],[2,-27],[3,-21],[8,-25],[16,-41],[13,-20],[29,-34],[12,-24],[5,-26],[1,-25],[0,-25],[0,-27],[5,-38],[9,-22],[113,-145],[12,-24],[8,-35],[1,-11],[2,-39],[2,-16],[-599,0],[-1,5],[2,21],[24,52],[8,21],[1,27],[0,24],[1,23],[4,21],[6,21],[5,27],[3,28],[2,27],[-3,34],[-10,21],[-12,17],[-13,28],[-5,6],[-3,6],[0,4],[0,5],[-1,7],[-1,8],[-7,14],[-14,18],[-5,14],[-4,26],[4,24],[16,44],[-2,24],[-13,27],[-24,35],[-169,156],[-71,128],[-15,20],[-11,21],[-9,27],[-4,32],[3,39],[9,24],[32,31],[12,20],[6,5],[4,0],[11,-8],[5,0],[50,32],[16,19],[6,36],[0,27],[0,13],[3,9],[9,11],[31,16],[7,34],[-9,49],[-7,55],[11,50],[16,17],[33,23],[14,30],[5,18],[4,23],[4,26],[3,54],[3,25],[8,23],[34,47],[6,14],[5,14],[1,9],[-1,31],[2,32],[6,25],[8,19],[15,28],[15,20],[6,12],[4,11],[3,16],[0,15],[-5,7],[-7,14],[-7,31],[-10,54],[-2,22],[-1,63],[1,18],[11,25],[7,13],[-1,10],[-23,28],[-7,18],[-11,46],[-1,24],[11,18],[12,14],[6,14],[-3,12],[-7,5],[-8,3],[-6,4],[-2,6],[-6,27],[42,8],[-64,37],[-60,57],[-72,8],[-61,45],[-89,-42],[-3,7],[-3,9],[-7,3],[-12,0],[8,9],[9,2],[18,-2],[9,2],[17,12],[8,3],[-9,17],[-112,45],[-41,36],[-2,-9],[-10,10],[-29,-10],[-36,1],[-30,-16],[-86,13],[-137,-21],[-176,13],[-104,-22],[-109,-4],[-9,12],[-4,18],[2,13],[5,7],[74,19],[9,10],[-1,24],[-8,11],[-112,2],[-21,-9],[-20,-18],[-19,-27],[1,-56],[-10,-51],[-16,-44],[-17,-31],[-72,-87],[-5,-12],[0,-12],[7,-13],[14,-7],[8,-9],[-8,-4],[-10,1],[-10,-5],[-5,-20],[-2,-19],[-10,-30],[-5,-39],[-7,-15],[-6,-11],[-4,-14],[1,-16],[5,-15],[11,-27],[-6,-6],[-13,-4],[-5,-11],[-1,-8],[1,-20],[-1,-9],[-6,-38],[-3,-19],[2,-17],[-3,-14],[-1,-14],[-1,-15],[2,-15],[-14,-23],[-5,-17],[2,-18],[-7,-13],[-4,-21],[-4,-48],[-18,-69],[-2,-25],[-1,-16],[-2,-9],[-3,-9],[-2,-12],[0,-10],[0,-35],[-5,-27],[-23,-43],[-7,-26],[0,-44],[-1,-19],[-5,-9],[-5,-7],[-6,-10],[-4,-20],[-9,-59],[-3,-12],[-9,-12],[-47,-108],[-3,-12],[1,-14],[4,-11],[5,-11],[5,-14],[-16,26],[-18,-10],[-89,-140],[-23,-53],[-8,-7],[-18,-5],[-11,-8],[-38,-52],[-23,-19],[-27,-12],[-7,-12],[1,-20],[-32,-14],[0,3145],[4096,0],[0,-1307],[-32,-44],[-8,-5],[-10,-16],[-7,-20],[-3,-24],[4,-31],[5,-12],[1,11],[0,18],[1,12],[4,8],[4,3],[5,-5],[1,-18],[6,-32],[15,-17],[14,-6],[0,-470],[-92,18],[1,-8],[1,-16],[1,-8],[-1,0],[-14,11],[-14,3],[-29,-7],[-42,-29],[-14,7],[-20,19],[-5,-1],[-6,-18],[-3,-7],[-4,-6],[-53,-39],[-23,-31],[-50,-101],[-16,-12],[-11,-16],[-6,-4],[-15,5],[-38,34],[-12,0],[-11,-15],[11,-15],[6,-11],[1,-15],[-28,-45],[-14,-34],[4,-21],[28,-30],[17,-6],[19,10],[54,53],[82,4],[18,-10],[16,-18],[63,-113],[8,-22],[1,-25],[-5,-25],[-6,-22],[-15,-34],[-17,-17],[-139,-64],[-52,5],[-50,48],[-23,44],[-130,137],[-24,4],[-6,23],[-25,7],[-95,-30],[-95,-31],[-95,-82],[-25,-9],[-10,-19],[12,-12],[10,-18],[8,-23],[24,-107],[6,-47],[7,-26],[30,-73],[2,-15],[-1,-13],[-5,-26],[-1,-14],[8,-28],[19,-17],[74,-21],[19,-16],[17,-21],[16,-39],[6,-11],[9,-7],[87,-39],[45,-3],[11,-6],[11,-15],[17,-32],[18,-27],[95,-73],[12,5],[-26,19],[-7,14],[30,-5],[28,-19],[28,-32],[15,-6],[14,13],[-6,23],[16,16],[35,18],[-3,12],[6,6],[17,7],[15,16],[7,1],[8,-9],[-8,-25],[-22,-20],[-10,-20],[2,-6],[2,-15],[2,-8],[2,-9],[2,-29],[10,-4],[24,30],[65,-10],[29,-14],[12,-39],[-1,-22],[-1,-18],[-3,-18],[-4,-17],[-14,-30],[-6,-20],[1,-15],[23,-36],[23,-27],[25,-15],[24,0],[-10,20],[-34,17],[-11,29],[36,18],[19,0],[10,-26],[-3,-2],[-3,-3],[-4,-13],[12,-14],[6,-10],[5,-16],[-8,-11],[-19,-7],[-8,-7],[9,-15],[-4,-24],[-16,-51],[0,-9],[-1,-12],[1,-12],[3,-9],[7,-1],[7,12],[14,31],[17,16],[17,0],[18,-11],[17,-16],[15,-5]],[[1403,3333],[-4,21],[-16,16],[-18,3],[-8,-23],[-4,-15],[-18,-27],[-8,-20],[0,-8],[2,-34],[-1,-14],[-4,-10],[9,-2],[10,-6],[9,-1],[9,13],[5,14],[4,9],[12,12],[8,3],[5,-1],[4,6],[3,19],[-1,6],[-6,10],[-1,8],[2,7],[7,14]],[[3925,2332],[-18,20],[-36,20],[-39,5],[-84,47],[-67,7],[-15,-8],[-45,-60],[-33,-22],[-15,-17],[-13,-33],[-7,-45],[-4,-14],[-7,-11],[-115,-106],[-10,-15],[-11,-27],[-1,-5],[6,-30],[18,-18],[76,-18],[27,15],[140,-6],[67,24],[15,12],[46,71],[17,18],[34,11],[38,28],[31,39],[32,22],[15,23],[-10,25],[-32,48]],[[2631,2999],[-92,33],[-95,-24],[-10,-9],[-10,-22],[-23,-73],[1,-19],[9,-16],[29,-39],[12,-12],[33,-11],[2,-7],[2,-9],[3,-8],[44,-33],[48,-5],[-3,-19],[-2,-6],[27,-20],[8,7],[3,8],[4,26],[3,11],[-16,24],[-6,18],[-3,28],[3,18],[17,61],[-3,35],[6,29],[12,16],[12,0],[10,-7],[28,-8],[33,-24],[0,8],[-43,33],[-43,16]],[[3348,3094],[-14,13],[-47,-9],[-125,33],[-14,-2],[-5,-8],[4,-14],[10,-18],[54,-41],[114,-20],[22,12],[7,0],[6,3],[3,14],[-2,13],[-4,10],[-9,14]],[[1518,3144],[-14,29],[-2,12],[-6,16],[-55,88],[-8,6],[-4,-11],[-2,-20],[-6,-10],[-26,-15],[-13,-13],[-7,-22],[5,-31],[-6,3],[-9,15],[-6,7],[-8,2],[-24,-2],[-22,8],[-8,0],[-22,-16],[-8,-1],[6,28],[25,12],[11,18],[-2,8],[-2,15],[-1,16],[2,14],[6,15],[7,13],[5,14],[0,20],[-5,22],[-5,15],[1,9],[13,3],[33,-16],[11,9],[-14,25],[-102,63],[-109,-20],[-32,-23],[-14,-2],[-6,13],[-14,10],[-177,-109],[-9,-11],[4,-27],[13,-40],[3,-16],[3,-23],[13,-38],[4,-26],[-1,-25],[-5,-25],[-6,-23],[-5,-17],[-32,-61],[-8,-21],[-4,-16],[-3,-16],[-5,-36],[-1,-24],[5,-10],[8,-5],[8,-1],[17,10],[12,-1],[32,-17],[0,9],[-6,14],[-8,11],[-18,9],[-5,9],[6,12],[25,32],[9,4],[7,-4],[4,-8],[8,-26],[15,-28],[20,-10],[74,16],[73,62],[113,24],[112,24],[8,11],[7,17],[7,13],[13,2],[43,-34],[45,-72],[41,-67],[7,9],[-15,110],[-11,72],[0,13],[-1,14],[-2,14]],[[3370,3411],[-9,24],[-78,51],[-34,8],[-63,43],[-32,10],[-33,-45],[16,-14],[59,6],[104,-39],[33,-27],[25,-34],[11,-7],[1,24]],[[3067,3500],[43,25],[14,18],[-17,23],[-151,-30],[-72,-67],[-22,-35],[-9,-22],[-8,-27],[-1,-6],[-1,-3],[-1,-2],[-1,-12],[7,-14],[7,-5],[7,4],[4,15],[0,11],[-3,9],[0,12],[6,17],[8,10],[26,19],[19,24],[7,5],[-3,-18],[-2,-6],[1,-11],[-3,-10],[-5,-8],[-6,-5],[112,5],[36,20],[-3,12],[-8,15],[-2,10],[3,10],[6,8],[12,9]],[[4096,2141],[-92,18],[1,-8],[1,-16],[1,-8],[-1,0],[-14,11],[-14,3],[-29,-7],[-42,-29],[-14,7],[-20,19],[-5,-1],[-6,-18],[-3,-7],[-4,-6],[-53,-39],[-23,-31],[-50,-101],[-16,-12],[-11,-16],[-6,-4],[-15,5],[-38,34],[-12,0],[-11,-15],[11,-15],[6,-11],[1,-15],[-28,-45],[-14,-34],[4,-21],[28,-30],[17,-6],[19,10],[54,53],[82,4],[18,-10],[16,-18],[63,-113],[8,-22],[1,-25],[-5,-25],[-6,-22],[-15,-34],[-17,-17],[-139,-64],[-52,5],[-50,48],[-23,44],[-130,137],[-24,4],[-6,23],[-25,7],[-95,-30],[-95,-31],[-95,-82],[-25,-9],[-10,-19],[12,-12],[10,-18],[8,-23],[24,-107],[6,-47],[7,-26],[30,-73],[2,-15],[-1,-13],[-5,-26],[-1,-14],[8,-28],[19,-17],[74,-21],[19,-16],[17,-21],[16,-39],[6,-11],[9,-7],[87,-39],[45,-3],[11,-6],[11,-15],[17,-32],[18,-27],[95,-73],[12,5],[-26,19],[-7,14],[30,-5],[28,-19],[28,-32],[15,-6],[14,13],[-6,23],[16,16],[35,18],[-3,12],[6,6],[17,7],[15,16],[7,1],[8,-9],[-8,-25],[-22,-20],[-10,-20],[2,-6],[2,-15],[2,-8],[2,-9],[2,-29],[10,-4],[24,30],[65,-10],[29,-14],[12,-39],[-1,-22],[-1,-18],[-3,-18],[-4,-17],[-14,-30],[-6,-20],[1,-15],[23,-36],[23,-27],[25,-15],[24,0],[-10,20],[-34,17],[-11,29],[36,18],[19,0],[10,-26],[-3,-2],[-3,-3],[-4,-13],[12,-14],[6,-10],[5,-16],[-8,-11],[-19,-7],[-8,-7],[9,-15],[-4,-24],[-16,-51],[0,-9],[-1,-12],[1,-12],[3,-9],[7,-1],[7,12],[14,31],[17,16],[17,0],[18,-11],[17,-16],[15,-5]],[[4096,364],[-55,15],[-19,-10],[-18,-20],[-15,-10],[-16,1],[-19,15],[-29,41],[-101,26],[-20,15],[-12,19],[-6,22],[-1,27],[-1,32],[-3,36],[-7,25],[-10,18],[-20,21],[-82,38],[-64,-18],[-137,31],[-28,-29],[11,-43],[1,-14],[-2,-17],[-4,-15],[-6,-11],[-5,-6],[-1,13],[1,7],[1,6],[1,10],[-1,13],[-3,6],[-3,5],[-3,6],[-4,21],[0,18],[4,15],[8,12],[-10,10],[-61,18],[-92,8],[-115,21],[-7,-3],[-5,-8],[-1,-11],[4,-10],[-7,2],[-33,39],[-103,33],[-143,84],[-29,37],[-12,47],[1,6],[2,7],[2,10],[-3,25],[3,11],[4,8],[5,2],[50,-11],[14,11],[-5,19],[-1,15],[3,14],[7,15],[6,6],[15,12],[6,9],[2,7],[-2,8],[-4,11],[-9,19],[-33,35],[-3,18],[10,12],[26,13],[5,16],[-5,17],[-53,62],[-17,8],[-5,5],[-4,8],[-5,10],[-1,8],[0,11],[-1,10],[-2,4],[-8,7],[-4,18],[1,22],[6,19],[-5,19],[5,26],[9,23],[8,14],[-2,13],[-3,11],[-6,22],[0,12],[5,12],[6,9],[1,0],[25,-3],[13,7],[17,26],[2,8],[-2,11],[-7,30],[-2,7],[7,17],[25,20],[6,17],[0,8],[2,18],[1,12],[-1,8],[-4,17],[-1,11],[3,18],[26,69],[2,5],[10,14],[36,28],[5,9],[3,10],[2,19],[2,9],[0,21],[-23,15],[-8,17],[5,9],[-5,16],[-15,34],[-1,8],[1,20],[-2,8],[-18,66],[-6,37],[2,34],[13,26],[11,1],[15,-4],[12,3],[3,22],[-8,24],[-13,16],[-49,39],[-11,17],[-10,24],[-6,22],[-4,10],[-4,6],[-7,-1],[-16,-13],[-7,-3],[3,11],[11,15],[11,23],[5,-3],[6,-9],[7,-5],[23,35],[4,3],[-3,23],[-8,8],[-16,8],[-50,55],[-47,17],[-9,8],[-20,34],[-7,8],[-20,8],[-19,-6],[-76,-58],[-9,-10],[-3,-7],[2,-7],[91,-162],[10,-26],[8,-43],[4,-26],[1,-14],[-2,-21],[1,-25],[3,-24],[4,-62],[11,-84],[-1,-44],[2,-25],[-7,-127],[-6,-36],[-29,-87],[-12,-29],[-12,-19],[-95,-75],[-95,-74],[-28,-22],[-29,5],[-114,-56],[-62,-48],[-88,-62],[-7,-11],[-6,-15],[-5,-15],[-2,-17],[2,-13],[9,-23],[7,-23],[2,-22],[-3,-23],[-7,-27],[-6,-15],[-20,-30],[-7,-13],[-10,-28],[-6,-12],[-119,-171],[-5,-15],[4,-27],[16,-17],[35,-14],[22,-28],[38,-22],[9,-9],[23,-35],[15,-11],[16,-28],[7,-6],[9,-12],[10,-25],[26,-97],[5,-25],[2,-27],[3,-21],[8,-25],[16,-41],[13,-20],[29,-34],[12,-24],[5,-26],[1,-25],[0,-25],[0,-27],[5,-38],[9,-22],[113,-145],[12,-24],[8,-35],[1,-11],[2,-39],[2,-16]],[[1888,0],[-1,5],[2,21],[24,52],[8,21],[1,27],[0,24],[1,23],[4,21],[6,21],[5,27],[3,28],[2,27],[-3,34],[-10,21],[-12,17],[-13,28],[-5,6],[-3,6],[0,4],[0,5],[-1,7],[-1,8],[-7,14],[-14,18],[-5,14],[-4,26],[4,24],[16,44],[-2,24],[-13,27],[-24,35],[-169,156],[-71,128],[-15,20],[-11,21],[-9,27],[-4,32],[3,39],[9,24],[32,31],[12,20],[6,5],[4,0],[11,-8],[5,0],[50,32],[16,19],[6,36],[0,27],[0,13],[3,9],[9,11],[31,16],[7,34],[-9,49],[-7,55],[11,50],[16,17],[33,23],[14,30],[5,18],[4,23],[4,26],[3,54],[3,25],[8,23],[34,47],[6,14],[5,14],[1,9],[-1,31],[2,32],[6,25],[8,19],[15,28],[15,20],[6,12],[4,11],[3,16],[0,15],[-5,7],[-7,14],[-7,31],[-10,54],[-2,22],[-1,63],[1,18],[11,25],[7,13],[-1,10],[-23,28],[-7,18],[-11,46],[-1,24],[11,18],[12,14],[6,14],[-3,12],[-7,5],[-8,3],[-6,4],[-2,6],[-6,27],[42,8],[-64,37],[-60,57],[-72,8],[-61,45],[-89,-42],[-3,7],[-3,9],[-7,3],[-12,0],[8,9],[9,2],[18,-2],[9,2],[17,12],[8,3],[-9,17],[-112,45],[-41,36],[-2,-9],[-10,10],[-29,-10],[-36,1],[-30,-16],[-86,13],[-137,-21],[-176,13],[-104,-22],[-109,-4],[-9,12],[-4,18],[2,13],[5,7],[74,19],[9,10],[-1,24],[-8,11],[-112,2],[-21,-9],[-20,-18],[-19,-27],[1,-56],[-10,-51],[-16,-44],[-17,-31],[-72,-87],[-5,-12],[0,-12],[7,-13],[14,-7],[8,-9],[-8,-4],[-10,1],[-10,-5],[-5,-20],[-2,-19],[-10,-30],[-5,-39],[-7,-15],[-6,-11],[-4,-14],[1,-16],[5,-15],[11,-27],[-6,-6],[-13,-4],[-5,-11],[-1,-8],[1,-20],[-1,-9],[-6,-38],[-3,-19],[2,-17],[-3,-14],[-1,-14],[-1,-15],[2,-15],[-14,-23],[-5,-17],[2,-18],[-7,-13],[-4,-21],[-4,-48],[-18,-69],[-2,-25],[-1,-16],[-2,-9],[-3,-9],[-2,-12],[0,-10],[0,-35],[-5,-27],[-23,-43],[-7,-26],[0,-44],[-1,-19],[-5,-9],[-5,-7],[-6,-10],[-4,-20],[-9,-59],[-3,-12],[-9,-12],[-47,-108],[-3,-12],[1,-14],[4,-11],[5,-11],[5,-14],[-16,26],[-18,-10],[-89,-140],[-23,-53],[-8,-7],[-18,-5],[-11,-8],[-38,-52],[-23,-19],[-27,-12],[-7,-12],[1,-20],[-32,-14]],[[1403,3333],[-4,21],[-16,16],[-18,3],[-8,-23],[-4,-15],[-18,-27],[-8,-20],[0,-8],[2,-34],[-1,-14],[-4,-10],[9,-2],[10,-6],[9,-1],[9,13],[5,14],[4,9],[12,12],[8,3],[5,-1],[4,6],[3,19],[-1,6],[-6,10],[-1,8],[2,7],[7,14]],[[3925,2332],[-18,20],[-36,20],[-39,5],[-84,47],[-67,7],[-15,-8],[-45,-60],[-33,-22],[-15,-17],[-13,-33],[-7,-45],[-4,-14],[-7,-11],[-115,-106],[-10,-15],[-11,-27],[-1,-5],[6,-30],[18,-18],[76,-18],[27,15],[140,-6],[67,24],[15,12],[46,71],[17,18],[34,11],[38,28],[31,39],[32,22],[15,23],[-10,25],[-32,48]],[[4096,2789],[-32,-44],[-8,-5],[-10,-16],[-7,-20],[-3,-24],[4,-31],[5,-12],[1,11],[0,18],[1,12],[4,8],[4,3],[5,-5],[1,-18],[6,-32],[15,-17],[14,-6]],[[2631,2999],[-92,33],[-95,-24],[-10,-9],[-10,-22],[-23,-73],[1,-19],[9,-16],[29,-39],[12,-12],[33,-11],[2,-7],[2,-9],[3,-8],[44,-33],[48,-5],[-3,-19],[-2,-6],[27,-20],[8,7],[3,8],[4,26],[3,11],[-16,24],[-6,18],[-3,28],[3,18],[17,61],[-3,35],[6,29],[12,16],[12,0],[10,-7],[28,-8],[33,-24],[0,8],[-43,33],[-43,16]],[[3348,3094],[-14,13],[-47,-9],[-125,33],[-14,-2],[-5,-8],[4,-14],[10,-18],[54,-41],[114,-20],[22,12],[7,0],[6,3],[3,14],[-2,13],[-4,10],[-9,14]],[[1518,3144],[-14,29],[-2,12],[-6,16],[-55,88],[-8,6],[-4,-11],[-2,-20],[-6,-10],[-26,-15],[-13,-13],[-7,-22],[5,-31],[-6,3],[-9,15],[-6,7],[-8,2],[-24,-2],[-22,8],[-8,0],[-22,-16],[-8,-1],[6,28],[25,12],[11,18],[-2,8],[-2,15],[-1,16],[2,14],[6,15],[7,13],[5,14],[0,20],[-5,22],[-5,15],[1,9],[13,3],[33,-16],[11,9],[-14,25],[-102,63],[-109,-20],[-32,-23],[-14,-2],[-6,13],[-14,10],[-177,-109],[-9,-11],[4,-27],[13,-40],[3,-16],[3,-23],[13,-38],[4,-26],[-1,-25],[-5,-25],[-6,-23],[-5,-17],[-32,-61],[-8,-21],[-4,-16],[-3,-16],[-5,-36],[-1,-24],[5,-10],[8,-5],[8,-1],[17,10],[12,-1],[32,-17],[0,9],[-6,14],[-8,11],[-18,9],[-5,9],[6,12],[25,32],[9,4],[7,-4],[4,-8],[8,-26],[15,-28],[20,-10],[74,16],[73,62],[113,24],[112,24],[8,11],[7,17],[7,13],[13,2],[43,-34],[45,-72],[41,-67],[7,9],[-15,110],[-11,72],[0,13],[-1,14],[-2,14]],[[3370,3411],[-9,24],[-78,51],[-34,8],[-63,43],[-32,10],[-33,-45],[16,-14],[59,6],[104,-39],[33,-27],[25,-34],[11,-7],[1,24]],[[3067,3500],[43,25],[14,18],[-17,23],[-151,-30],[-72,-67],[-22,-35],[-9,-22],[-8,-27],[-1,-6],[-1,-3],[-1,-2],[-1,-12],[7,-14],[7,-5],[7,4],[4,15],[0,11],[-3,9],[0,12],[6,17],[8,10],[26,19],[19,24],[7,5],[-3,-18],[-2,-6],[1,-11],[-3,-10],[-5,-8],[-6,-5],[112,5],[36,20],[-3,12],[-8,15],[-2,10],[3,10],[6,8],[12,9]],[[3925,2332],[32,-48],[10,-25],[-15,-23],[-32,-22],[-31,-39],[-38,-28],[-34,-11],[-17,-18],[-46,-71],[-15,-12],[-67,-24],[-140,6],[-27,-15],[-76,18],[-18,18],[-6,30],[1,5],[11,27],[10,15],[115,106],[7,11],[4,14],[7,45],[13,33],[15,17],[33,22],[45,60],[15,8],[67,-7],[84,-47],[39,-5],[36,-20],[18,-20]],[[4096,2789],[0,-178],[-14,6],[-15,17],[-6,32],[-1,18],[-5,5],[-4,-3],[-4,-8],[-1,-12],[0,-18],[-1,-11],[-5,12],[-4,31],[3,24],[7,20],[10,16],[8,5],[32,44]],[[1518,3144],[2,-14],[1,-14],[0,-13],[11,-72],[15,-110],[-7,-9],[-41,67],[-45,72],[-43,34],[-13,-2],[-7,-13],[-7,-17],[-8,-11],[-112,-24],[-113,-24],[-73,-62],[-74,-16],[-20,10],[-15,28],[-8,26],[-4,8],[-7,4],[-9,-4],[-25,-32],[-6,-12],[5,-9],[18,-9],[8,-11],[6,-14],[0,-9],[-32,17],[-12,1],[-17,-10],[-8,1],[-8,5],[-5,10],[1,24],[5,36],[3,16],[4,16],[8,21],[32,61],[5,17],[6,23],[5,25],[1,25],[-4,26],[-13,38],[-3,23],[-3,16],[-13,40],[-4,27],[9,11],[177,109],[14,-10],[6,-13],[14,2],[32,23],[109,20],[102,-63],[14,-25],[-11,-9],[-33,16],[-13,-3],[-1,-9],[5,-15],[5,-22],[0,-20],[-5,-14],[-7,-13],[-6,-15],[-2,-14],[1,-16],[2,-15],[2,-8],[-11,-18],[-25,-12],[-6,-28],[8,1],[22,16],[8,0],[22,-8],[24,2],[8,-2],[6,-7],[9,-15],[6,-3],[-5,31],[7,22],[13,13],[26,15],[6,10],[2,20],[4,11],[8,-6],[55,-88],[6,-16],[2,-12],[14,-29]],[[1403,3333],[-7,-14],[-2,-7],[1,-8],[6,-10],[1,-6],[-3,-19],[-4,-6],[-5,1],[-8,-3],[-12,-12],[-4,-9],[-5,-14],[-9,-13],[-9,1],[-10,6],[-9,2],[4,10],[1,14],[-2,34],[0,8],[8,20],[18,27],[4,15],[8,23],[18,-3],[16,-16],[4,-21]],[[3348,3094],[9,-14],[4,-10],[2,-13],[-3,-14],[-6,-3],[-7,0],[-22,-12],[-114,20],[-54,41],[-10,18],[-4,14],[5,8],[14,2],[125,-33],[47,9],[14,-13]],[[2631,2999],[43,-16],[43,-33],[0,-8],[-33,24],[-28,8],[-10,7],[-12,0],[-12,-16],[-6,-29],[3,-35],[-17,-61],[-3,-18],[3,-28],[6,-18],[16,-24],[-3,-11],[-4,-26],[-3,-8],[-8,-7],[-27,20],[2,6],[3,19],[-48,5],[-44,33],[-3,8],[-2,9],[-2,7],[-33,11],[-12,12],[-29,39],[-9,16],[-1,19],[23,73],[10,22],[10,9],[95,24],[92,-33]],[[3067,3500],[-12,-9],[-6,-8],[-3,-10],[2,-10],[8,-15],[3,-12],[-36,-20],[-112,-5],[6,5],[5,8],[3,10],[-1,11],[2,6],[3,18],[-7,-5],[-19,-24],[-26,-19],[-8,-10],[-6,-17],[0,-12],[3,-9],[0,-11],[-4,-15],[-7,-4],[-7,5],[-7,14],[1,12],[1,2],[1,3],[1,6],[8,27],[9,22],[22,35],[72,67],[151,30],[17,-23],[-14,-18],[-43,-25]],[[3370,3411],[-1,-24],[-11,7],[-25,34],[-33,27],[-104,39],[-59,-6],[-16,14],[33,45],[32,-10],[63,-43],[34,-8],[78,-51],[9,-24]],[[4096,364],[0,-364],[-1609,0],[-2,16],[-2,39],[-1,11],[-8,35],[-12,24],[-113,145],[-9,22],[-5,38],[0,27],[0,25],[-1,25],[-5,26],[-12,24],[-29,34],[-13,20],[-16,41],[-8,25],[-3,21],[-2,27],[-5,25],[-26,97],[-10,25],[-9,12],[-7,6],[-16,28],[-15,11],[-23,35],[-9,9],[-38,22],[-22,28],[-35,14],[-16,17],[-4,27],[5,15],[119,171],[6,12],[10,28],[7,13],[20,30],[6,15],[7,27],[3,23],[-2,22],[-7,23],[-9,23],[-2,13],[2,17],[5,15],[6,15],[7,11],[88,62],[62,48],[114,56],[29,-5],[28,22],[95,74],[95,75],[12,19],[12,29],[29,87],[6,36],[7,127],[-2,25],[1,44],[-11,84],[-4,62],[-3,24],[-1,25],[2,21],[-1,14],[-4,26],[-8,43],[-10,26],[-91,162],[-2,7],[3,7],[9,10],[76,58],[19,6],[20,-8],[7,-8],[20,-34],[9,-8],[47,-17],[50,-55],[16,-8],[8,-8],[3,-23],[-4,-3],[-23,-35],[-7,5],[-6,9],[-5,3],[-11,-23],[-11,-15],[-3,-11],[7,3],[16,13],[7,1],[4,-6],[4,-10],[6,-22],[10,-24],[11,-17],[49,-39],[13,-16],[8,-24],[-3,-22],[-12,-3],[-15,4],[-11,-1],[-13,-26],[-2,-34],[6,-37],[18,-66],[2,-8],[-1,-20],[1,-8],[15,-34],[5,-16],[-5,-9],[8,-17],[23,-15],[0,-21],[-2,-9],[-2,-19],[-3,-10],[-5,-9],[-36,-28],[-10,-14],[-2,-5],[-26,-69],[-3,-18],[1,-11],[4,-17],[1,-8],[-1,-12],[-2,-18],[0,-8],[-6,-17],[-25,-20],[-7,-17],[2,-7],[7,-30],[2,-11],[-2,-8],[-17,-26],[-13,-7],[-25,3],[-1,0],[-6,-9],[-5,-12],[0,-12],[6,-22],[3,-11],[2,-13],[-8,-14],[-9,-23],[-5,-26],[5,-19],[-6,-19],[-1,-22],[4,-18],[8,-7],[2,-4],[1,-10],[0,-11],[1,-8],[5,-10],[4,-8],[5,-5],[17,-8],[53,-62],[5,-17],[-5,-16],[-26,-13],[-10,-12],[3,-18],[33,-35],[9,-19],[4,-11],[2,-8],[-2,-7],[-6,-9],[-15,-12],[-6,-6],[-7,-15],[-3,-14],[1,-15],[5,-19],[-14,-11],[-50,11],[-5,-2],[-4,-8],[-3,-11],[3,-25],[-2,-10],[-2,-7],[-1,-6],[12,-47],[29,-37],[143,-84],[103,-33],[33,-39],[7,-2],[-4,10],[1,11],[5,8],[7,3],[115,-21],[92,-8],[61,-18],[10,-10],[-8,-12],[-4,-15],[0,-18],[4,-21],[3,-6],[3,-5],[3,-6],[1,-13],[-1,-10],[-1,-6],[-1,-7],[1,-13],[5,6],[6,11],[4,15],[2,17],[-1,14],[-11,43],[28,29],[137,-31],[64,18],[82,-38],[20,-21],[10,-18],[7,-25],[3,-36],[1,-32],[1,-27],[6,-22],[12,-19],[20,-15],[101,-26],[29,-41],[19,-15],[16,-1],[15,10],[18,20],[19,10],[55,-15]],[[4096,2141],[0,-1752],[-15,5],[-17,16],[-18,11],[-17,0],[-17,-16],[-14,-31],[-7,-12],[-7,1],[-3,9],[-1,12],[1,12],[0,9],[16,51],[4,24],[-9,15],[8,7],[19,7],[8,11],[-5,16],[-6,10],[-12,14],[4,13],[3,3],[3,2],[-10,26],[-19,0],[-36,-18],[11,-29],[34,-17],[10,-20],[-24,0],[-25,15],[-23,27],[-23,36],[-1,15],[6,20],[14,30],[4,17],[3,18],[1,18],[1,22],[-12,39],[-29,14],[-65,10],[-24,-30],[-10,4],[-2,29],[-2,9],[-2,8],[-2,15],[-2,6],[10,20],[22,20],[8,25],[-8,9],[-7,-1],[-15,-16],[-17,-7],[-6,-6],[3,-12],[-35,-18],[-16,-16],[6,-23],[-14,-13],[-15,6],[-28,32],[-28,19],[-30,5],[7,-14],[26,-19],[-12,-5],[-95,73],[-18,27],[-17,32],[-11,15],[-11,6],[-45,3],[-87,39],[-9,7],[-6,11],[-16,39],[-17,21],[-19,16],[-74,21],[-19,17],[-8,28],[1,14],[5,26],[1,13],[-2,15],[-30,73],[-7,26],[-6,47],[-24,107],[-8,23],[-10,18],[-12,12],[10,19],[25,9],[95,82],[95,31],[95,30],[25,-7],[6,-23],[24,-4],[130,-137],[23,-44],[50,-48],[52,-5],[139,64],[17,17],[15,34],[6,22],[5,25],[-1,25],[-8,22],[-63,113],[-16,18],[-18,10],[-82,-4],[-54,-53],[-19,-10],[-17,6],[-28,30],[-4,21],[14,34],[28,45],[-1,15],[-6,11],[-11,15],[11,15],[12,0],[38,-34],[15,-5],[6,4],[11,16],[16,12],[50,101],[23,31],[53,39],[4,6],[3,7],[6,18],[5,1],[20,-19],[14,-7],[42,29],[29,7],[14,-3],[14,-11],[1,0],[-1,8],[-1,16],[-1,8],[92,-18]],[[1888,0],[-1888,0],[0,951],[32,14],[-1,20],[7,12],[27,12],[23,19],[38,52],[11,8],[18,5],[8,7],[23,53],[89,140],[18,10],[16,-26],[-5,14],[-5,11],[-4,11],[-1,14],[3,12],[47,108],[9,12],[3,12],[9,59],[4,20],[6,10],[5,7],[5,9],[1,19],[0,44],[7,26],[23,43],[5,27],[0,35],[0,10],[2,12],[3,9],[2,9],[1,16],[2,25],[18,69],[4,48],[4,21],[7,13],[-2,18],[5,17],[14,23],[-2,15],[1,15],[1,14],[3,14],[-2,17],[3,19],[6,38],[1,9],[-1,20],[1,8],[5,11],[13,4],[6,6],[-11,27],[-5,15],[-1,16],[4,14],[6,11],[7,15],[5,39],[10,30],[2,19],[5,20],[10,5],[10,-1],[8,4],[-8,9],[-14,7],[-7,13],[0,12],[5,12],[72,87],[17,31],[16,44],[10,51],[-1,56],[19,27],[20,18],[21,9],[112,-2],[8,-11],[1,-24],[-9,-10],[-74,-19],[-5,-7],[-2,-13],[4,-18],[9,-12],[109,4],[104,22],[176,-13],[137,21],[86,-13],[30,16],[36,-1],[29,10],[10,-10],[2,9],[41,-36],[112,-45],[9,-17],[-8,-3],[-17,-12],[-9,-2],[-18,2],[-9,-2],[-8,-9],[12,0],[7,-3],[3,-9],[3,-7],[89,42],[61,-45],[60,-7],[12,-1],[60,-57],[64,-37],[-42,-8],[6,-27],[2,-6],[6,-4],[8,-3],[7,-5],[3,-12],[-6,-14],[-12,-14],[-11,-18],[1,-24],[11,-46],[7,-18],[23,-28],[1,-10],[-7,-13],[-11,-25],[-1,-18],[1,-63],[2,-22],[10,-54],[7,-31],[7,-14],[5,-7],[0,-15],[-3,-16],[-4,-11],[-6,-12],[-15,-20],[-15,-28],[-8,-19],[-6,-25],[-2,-32],[1,-31],[-1,-9],[-5,-14],[-6,-14],[-34,-47],[-8,-23],[-3,-25],[-3,-54],[-4,-26],[-4,-23],[-5,-18],[-14,-30],[-8,-5],[-25,-18],[-16,-17],[-11,-50],[7,-55],[9,-49],[-7,-34],[-31,-16],[-9,-11],[-3,-9],[0,-13],[0,-27],[-6,-36],[-16,-19],[-50,-32],[-5,0],[-11,8],[-4,0],[-6,-5],[-12,-20],[-32,-31],[-9,-24],[-3,-39],[4,-32],[9,-27],[11,-21],[15,-20],[71,-128],[130,-120],[39,-36],[24,-35],[13,-27],[2,-24],[-16,-44],[-4,-24],[4,-26],[5,-14],[14,-18],[7,-14],[1,-8],[1,-7],[0,-5],[0,-4],[3,-6],[5,-6],[13,-28],[12,-17],[10,-21],[3,-34],[-2,-27],[-3,-28],[-5,-27],[-6,-21],[-4,-21],[-1,-23],[0,-24],[-1,-27],[-8,-21],[-24,-52],[-2,-21],[1,-5]],[[4096,3125],[0,-545],[-56,19],[-19,63],[75,463]],[[858,2938],[47,187],[0,220],[123,78],[169,42],[98,-22],[89,-68],[109,-196],[55,-297],[-75,-126],[499,-251],[5,-158],[-80,50],[3,-88],[32,-54],[-53,-2],[-310,245],[-7,42],[-342,195],[-112,194],[-56,-49],[-90,8],[-42,-22],[-49,14],[-13,58]]]}