{"objects":{"water":{"type":"GeometryCollection","geometries":[{"type":"MultiPolygon","properties":{"source":"naturalearthdata.com","kind":"ocean","area":989871000000000,"sort_rank":200,"min_zoom":0,"id":1},"arcs":[[[0]],[[1],[2]]]},{"type":"MultiLineString","properties":{"source":"naturalearthdata.com","kind":"ocean","sort_rank":205,"boundary":true,"min_zoom":0,"id":2},"arcs":[[3],[4]]},{"type":"LineString","properties":{"source":"naturalearthdata.com","kind":"ocean","sort_rank":205,"boundary":true,"min_zoom":0,"id":3048},"arcs":[5]},{"type":"LineString","properties":{"source":"naturalearthdata.com","kind":"ocean","sort_rank":205,"boundary":true,"min_zoom":0,"id":3050},"arcs":[6]},{"type":"MultiLineString","properties":{"source":"naturalearthdata.com","kind":"ocean","sort_rank":205,"boundary":true,"min_zoom":0,"id":3051},"arcs":[[7],[8]]},{"type":"LineString","properties":{"source":"naturalearthdata.com","kind":"ocean","sort_rank":205,"boundary":true,"min_zoom":0,"id":3052},"arcs":[9]}]},"buildings":{"type":"GeometryCollection","geometries":[]},"places":{"type":"GeometryCollection","geometries":[]},"transit":{"type":"GeometryCollection","geometries":[]},"pois":{"type":"GeometryCollection","geometries":[]},"boundaries":{"type":"GeometryCollection","geometries":[]},"roads":{"type":"GeometryCollection","geometries":[]},"earth":{"type":"GeometryCollection","geometries":[{"type":"MultiPolygon","properties":{"sort_rank":10,"source":"naturalearthdata.com","kind":"earth","min_zoom":2.0,"area":110642538252},"arcs":[[[10]]]},{"type":"MultiPolygon","properties":{"sort_rank":10,"source":"naturalearthdata.com","kind":"earth","min_zoom":4.0,"area":42360232494},"arcs":[[[11]]]},{"type":"MultiPolygon","properties":{"sort_rank":10,"source":"naturalearthdata.com","kind":"earth","min_zoom":5.0,"area":6745337174},"arcs":[[[12]]]},{"type":"MultiPolygon","properties":{"sort_rank":10,"source":"naturalearthdata.com","min_zoom":1.0,"kind":"earth","area":480927037249},"arcs":[[[13]]]},{"type":"MultiPolygon","properties":{"sort_rank":10,"source":"naturalearthdata.com","min_zoom":0,"kind":"earth","area":53730332668114},"arcs":[[[14]]]}]},"landuse":{"type":"GeometryCollection","geometries":[]}},"type":"Topology","transform":{"translate":[-123.75,-76.8408164144],"scale":[0.002746582,0.0006887874]},"arcs":[[[4096,2891],[-26,5],[-19,-9],[-4,-11],[-3,-22],[-5,-21],[-7,-12],[-18,-2],[-52,34],[-18,4],[-96,-55],[-96,-55],[-21,1],[-55,-25],[-30,7],[-10,-8],[-10,-17],[-26,-71],[-9,-14],[-28,-2],[-43,-42],[-9,-4],[-48,23],[-9,16],[-5,33],[3,23],[46,99],[45,34],[18,40],[6,36],[6,84],[6,28],[22,34],[6,15],[6,28],[0,24],[-5,20],[-8,15],[-19,13],[-21,-4],[-66,-47],[-41,-1],[-14,7],[-19,22],[11,20],[66,32],[7,7],[24,39],[150,59],[10,10],[21,39],[92,106],[17,44],[14,71],[-105,-43],[-52,-51],[-27,-5],[-26,26],[19,59],[-11,9],[-5,7],[-3,11],[-3,54],[2,19],[5,14],[38,53],[-6,6],[-11,24],[-6,4],[-20,-5],[-42,16],[-10,13],[23,28],[168,90],[-5,20],[-4,27],[1,24],[7,9],[-5,30],[-45,93],[-7,10],[-11,5],[-102,3],[-108,-79],[-19,-1],[-16,27],[43,58],[607,0],[0,-1205]],[[3214,4096],[-36,-39],[-38,-70],[16,-27],[-11,-26],[-5,-29],[1,-32],[11,-47],[6,-57],[3,-17],[27,-99],[9,-17],[13,-10],[4,-7],[7,-24],[4,-7],[10,-6],[4,-6],[4,-11],[-7,0],[-7,-4],[-4,-15],[0,-33],[3,-23],[5,-21],[6,-18],[6,-11],[-13,-15],[-55,-1],[-78,-47],[-65,5],[-85,-28],[-28,13],[-24,30],[-35,65],[-10,29],[-4,20],[0,18],[3,17],[5,19],[-27,-9],[-26,-22],[-7,-8],[-5,-10],[-4,-16],[-2,-26],[1,-27],[5,-19],[12,-26],[-37,-10],[-12,12],[-9,2],[-31,-35],[-61,11],[-20,-9],[-64,-59],[-163,34],[-73,-17],[-54,17],[-41,37],[-22,9],[-44,-21],[-22,11],[-14,58],[33,56],[-6,24],[-10,4],[-20,-12],[-8,1],[-24,29],[35,54],[15,36],[-3,31],[-26,64],[-9,16],[-9,5],[-8,-7],[-16,-30],[-32,-43],[-155,-66],[-155,-66],[-34,-52],[-25,-92],[179,-9],[11,-19],[-5,-33],[-18,-27],[-68,-56],[-16,-1],[-26,11],[-26,-14],[-30,10],[-68,-27],[-7,-9],[-14,-34],[-8,-13],[-7,-3],[-45,22],[-128,-58],[-53,7],[-41,25],[-102,-39],[-103,-38],[-41,-39],[-42,-11],[-11,2],[-15,35],[-10,9],[-10,-1],[-8,-10],[-19,-31],[-21,-16],[-21,-1],[-20,13],[6,3],[6,7],[5,10],[6,13],[-66,-15],[-3,-4],[-6,-21],[-6,-5],[-58,-5],[-24,13],[-5,-1],[-10,-9],[-5,-10],[-3,-26],[-3,-6],[-11,-1],[-10,4],[-30,27],[-33,-14],[-72,31],[-10,-4],[-28,-29],[-10,0],[-33,31],[-11,3],[-98,-33],[-41,15],[-64,-45],[-39,0],[-19,11],[-20,20],[3,28],[-46,-1],[-45,-37],[-103,-20],[0,1127],[366,0],[0,-1],[-2,-5],[-1,-4],[0,-10],[3,-19],[0,-8],[-2,-5],[-2,-2],[-18,-3],[-4,-7],[0,-17],[-2,-6],[-16,-10],[-11,1],[-5,-2],[-5,-7],[-8,-27],[0,-6],[0,-20],[0,-10],[2,-7],[40,-39],[7,-29],[5,-9],[10,-11],[8,-4],[4,-6],[3,-12],[-12,-15],[-71,-4],[-14,-8],[-12,-20],[8,-22],[-2,-22],[8,-28],[19,-40],[12,-17],[79,-41],[22,-24],[20,-7],[40,11],[80,-50],[138,32],[139,31],[139,32],[57,57],[-2,2],[-8,14],[-32,21],[-5,11],[4,7],[4,8],[-3,13],[-8,17],[-2,15],[4,3],[9,-1],[4,4],[2,11],[-2,9],[-7,19],[2,13],[0,26],[2,14],[7,16],[9,11],[132,105],[103,82],[243,0],[-2,-1],[-34,-9],[-4,-3],[-7,-9],[-3,-5],[-1,-5],[-2,-14],[0,-9],[0,-3],[-18,-8],[-9,-9],[-7,-20],[2,-24],[13,-15],[24,-13],[46,-7],[71,28],[7,10],[5,13],[3,14],[4,12],[6,8],[76,33],[33,36],[741,0],[-100,-87],[-7,-24],[-3,-53],[10,-37],[15,-24],[12,-14],[37,-23],[150,37],[67,48],[29,52],[13,35],[-7,-1],[-53,24],[11,14],[47,32],[14,21],[557,0]],[[2396,3607],[38,38],[35,56],[-9,13],[-12,2],[-104,-41],[-18,-28],[-12,-54],[20,-17],[21,0],[41,31]],[[4096,2891],[-26,5],[-19,-9],[-4,-11],[-3,-22],[-5,-21],[-7,-12],[-18,-2],[-52,34],[-18,4],[-96,-55],[-96,-55],[-21,1],[-55,-25],[-30,7],[-10,-8],[-10,-17],[-26,-71],[-9,-14],[-28,-2],[-43,-42],[-9,-4],[-48,23],[-9,16],[-5,33],[3,23],[46,99],[45,34],[18,40],[6,36],[6,84],[6,28],[22,34],[6,15],[6,28],[0,24],[-5,20],[-8,15],[-19,13],[-21,-4],[-66,-47],[-41,-1],[-14,7],[-19,22],[11,20],[66,32],[7,7],[24,39],[150,59],[10,10],[21,39],[92,106],[17,44],[14,71],[-105,-43],[-52,-51],[-27,-5],[-26,26],[19,59],[-11,9],[-5,7],[-3,11],[-3,54],[2,19],[5,14],[38,53],[-6,6],[-11,24],[-6,4],[-20,-5],[-42,16],[-10,13],[23,28],[168,90],[-5,20],[-4,27],[1,24],[7,9],[-5,30],[-45,93],[-7,10],[-11,5],[-102,3],[-108,-79],[-19,-1],[-16,27],[43,58]],[[3214,4096],[-36,-39],[-38,-70],[16,-27],[-11,-26],[-5,-29],[1,-32],[11,-47],[6,-57],[3,-17],[27,-99],[9,-17],[13,-10],[4,-7],[7,-24],[4,-7],[10,-6],[4,-6],[4,-11],[-7,0],[-7,-4],[-4,-15],[0,-33],[3,-23],[5,-21],[6,-18],[6,-11],[-13,-15],[-55,-1],[-78,-47],[-65,5],[-85,-28],[-28,13],[-24,30],[-35,65],[-10,29],[-4,20],[0,18],[3,17],[5,19],[-27,-9],[-26,-22],[-7,-8],[-5,-10],[-4,-16],[-2,-26],[1,-27],[5,-19],[12,-26],[-37,-10],[-12,12],[-9,2],[-31,-35],[-61,11],[-20,-9],[-64,-59],[-163,34],[-73,-17],[-54,17],[-41,37],[-22,9],[-44,-21],[-22,11],[-14,58],[33,56],[-6,24],[-10,4],[-20,-12],[-8,1],[-24,29],[35,54],[15,36],[-3,31],[-26,64],[-9,16],[-9,5],[-8,-7],[-16,-30],[-32,-43],[-155,-66],[-155,-66],[-34,-52],[-25,-92],[179,-9],[11,-19],[-5,-33],[-18,-27],[-68,-56],[-16,-1],[-26,11],[-26,-14],[-30,10],[-68,-27],[-7,-9],[-14,-34],[-8,-13],[-7,-3],[-45,22],[-128,-58],[-53,7],[-41,25],[-102,-39],[-103,-38],[-41,-39],[-42,-11],[-11,2],[-15,35],[-10,9],[-10,-1],[-8,-10],[-19,-31],[-21,-16],[-21,-1],[-20,13],[6,3],[6,7],[5,10],[6,13],[-66,-15],[-3,-4],[-6,-21],[-6,-5],[-58,-5],[-24,13],[-5,-1],[-10,-9],[-5,-10],[-3,-26],[-3,-6],[-11,-1],[-10,4],[-30,27],[-33,-14],[-72,31],[-10,-4],[-28,-29],[-10,0],[-33,31],[-11,3],[-98,-33],[-41,15],[-64,-45],[-39,0],[-19,11],[-20,20],[3,28],[-46,-1],[-45,-37],[-103,-20]],[[2396,3607],[38,38],[35,56],[-9,13],[-12,2],[-104,-41],[-18,-28],[-12,-54],[20,-17],[21,0],[41,31]],[[2422,4096],[-100,-87],[-7,-24],[-3,-53],[10,-37],[15,-24],[12,-14],[37,-23],[150,37],[67,48],[29,52],[13,35],[-7,-1],[-53,24],[11,14],[47,32],[14,21]],[[1430,3949],[46,-7],[71,28],[7,10],[5,13],[3,14],[4,12],[6,8],[76,33],[33,36]],[[1478,4096],[-2,-1],[-34,-9],[-4,-3],[-7,-9],[-3,-5],[-1,-5],[-2,-14],[0,-9],[0,-3],[-18,-8],[-9,-9],[-7,-20],[2,-24],[13,-15],[24,-13]],[[366,4096],[0,-1],[-2,-5],[-1,-4],[0,-10],[3,-19],[0,-8],[-2,-5],[-2,-2],[-18,-3],[-4,-7],[0,-17],[-2,-6],[-16,-10],[-11,1],[-5,-2],[-5,-7],[-8,-27],[0,-6],[0,-20],[0,-10],[2,-7],[40,-39],[7,-29],[5,-9],[10,-11],[8,-4],[4,-6],[3,-12],[-12,-15],[-71,-4],[-14,-8],[-12,-20],[8,-22],[-2,-22],[8,-28],[19,-40],[12,-17],[79,-41],[22,-24],[20,-7],[40,11],[80,-50],[138,32],[139,31],[139,32],[57,57],[-2,2],[-8,14],[-32,21],[-5,11],[4,7],[4,8],[-3,13],[-8,17],[-2,15],[4,3],[9,-1],[4,4],[2,11],[-2,9],[-7,19],[2,13],[0,26],[2,14],[7,16],[9,11],[132,105],[103,82]],[[2422,4096],[235,0],[-14,-21],[-47,-32],[-11,-14],[53,-24],[7,1],[-13,-35],[-29,-52],[-67,-48],[-150,-37],[-37,23],[-12,14],[-15,24],[-10,37],[3,53],[7,24],[100,87]],[[1478,4096],[203,0],[-33,-36],[-76,-33],[-6,-8],[-4,-12],[-3,-14],[-5,-13],[-7,-10],[-71,-28],[-46,7],[-24,13],[-13,15],[-2,24],[7,20],[9,9],[18,8],[0,3],[0,9],[2,14],[1,5],[3,5],[7,9],[4,3],[34,9],[2,1]],[[2396,3607],[-41,-31],[-21,0],[-20,17],[12,54],[18,28],[104,41],[12,-2],[9,-13],[-35,-56],[-38,-38]],[[366,4096],[869,0],[-103,-82],[-132,-105],[-9,-11],[-7,-16],[-2,-14],[0,-26],[-2,-13],[7,-19],[2,-9],[-2,-11],[-4,-4],[-9,1],[-4,-3],[2,-15],[8,-17],[3,-13],[-4,-8],[-4,-7],[5,-11],[32,-21],[8,-14],[2,-2],[-57,-57],[-139,-32],[-139,-31],[-138,-32],[-80,50],[-40,-11],[-20,7],[-22,24],[-79,41],[-12,17],[-19,40],[-8,28],[2,22],[-8,22],[12,20],[14,8],[71,4],[12,15],[-3,12],[-4,6],[-8,4],[-10,11],[-5,9],[-7,29],[-40,39],[-2,7],[0,10],[0,20],[0,6],[8,27],[5,7],[5,2],[11,-1],[16,10],[2,6],[0,17],[4,7],[18,3],[2,2],[2,5],[0,8],[-3,19],[0,10],[1,4],[2,5],[0,1]],[[4096,2891],[0,-2891],[-4096,0],[0,2969],[103,20],[45,37],[46,1],[-3,-28],[20,-20],[19,-11],[39,0],[64,45],[41,-15],[98,33],[11,-3],[33,-31],[10,0],[28,29],[10,4],[72,-31],[33,14],[30,-27],[10,-4],[11,1],[3,6],[3,26],[5,10],[10,9],[5,1],[24,-13],[58,5],[6,5],[6,21],[3,4],[66,15],[-6,-13],[-5,-10],[-6,-7],[-6,-3],[20,-13],[21,1],[21,16],[19,31],[8,10],[10,1],[10,-9],[15,-35],[11,-2],[42,11],[41,39],[103,38],[102,39],[41,-25],[53,-7],[128,58],[45,-22],[7,3],[8,13],[14,34],[7,9],[68,27],[30,-10],[26,14],[26,-11],[16,1],[68,56],[18,27],[5,33],[-11,19],[-179,9],[25,92],[34,52],[155,66],[155,66],[2,2],[30,41],[16,30],[8,7],[9,-5],[9,-16],[26,-64],[3,-31],[-15,-36],[-35,-54],[24,-29],[8,-1],[20,12],[10,-4],[6,-24],[-33,-56],[14,-58],[22,-11],[44,21],[22,-9],[41,-37],[54,-17],[73,17],[163,-34],[64,59],[20,9],[61,-11],[31,35],[9,-2],[12,-12],[37,10],[-12,26],[-5,19],[-1,27],[2,26],[4,16],[5,10],[7,8],[26,22],[27,9],[-5,-19],[-3,-17],[0,-18],[4,-20],[10,-29],[35,-65],[24,-30],[28,-13],[85,28],[65,-5],[78,47],[55,1],[13,15],[-6,11],[-6,18],[-5,21],[-3,23],[0,33],[4,15],[7,4],[7,0],[-4,11],[-4,6],[-10,6],[-4,7],[-7,24],[-4,7],[-13,10],[-9,17],[-27,99],[-3,17],[-6,57],[-11,47],[-1,32],[5,29],[11,26],[-16,27],[38,70],[36,39],[275,0],[-43,-58],[16,-27],[19,1],[108,79],[102,-3],[11,-5],[7,-10],[45,-93],[5,-30],[-7,-9],[-1,-24],[4,-27],[5,-20],[-168,-90],[-23,-28],[10,-13],[42,-16],[20,5],[6,-4],[11,-24],[6,-6],[-38,-53],[-5,-14],[-2,-19],[3,-54],[3,-11],[5,-7],[11,-9],[-19,-59],[26,-26],[27,5],[52,51],[105,43],[-14,-71],[-17,-44],[-92,-106],[-21,-39],[-10,-10],[-150,-59],[-24,-39],[-7,-7],[-66,-32],[-11,-20],[19,-22],[14,-7],[41,1],[66,47],[21,4],[19,-13],[8,-15],[5,-20],[0,-24],[-6,-28],[-6,-15],[-22,-34],[-6,-28],[-6,-84],[-6,-36],[-18,-40],[-45,-34],[-46,-99],[-3,-23],[5,-33],[9,-16],[48,-23],[9,4],[43,42],[28,2],[9,14],[26,71],[10,17],[10,8],[30,-7],[55,25],[21,-1],[96,55],[96,55],[18,-4],[52,-34],[18,2],[7,12],[5,21],[3,22],[4,11],[19,9],[26,-5]]]}