{"objects":{"water":{"type":"GeometryCollection","geometries":[{"type":"MultiPolygon","properties":{"source":"naturalearthdata.com","kind":"ocean","area":989871000000000,"sort_rank":200,"min_zoom":0,"id":1},"arcs":[[[0]],[[1]],[[2]],[[3]],[[4]],[[5]],[[6]]]},{"type":"MultiLineString","properties":{"source":"naturalearthdata.com","kind":"ocean","sort_rank":205,"boundary":true,"min_zoom":0,"id":491},"arcs":[[7],[8],[9],[10],[11],[12]]},{"type":"MultiLineString","properties":{"source":"naturalearthdata.com","kind":"ocean","sort_rank":205,"boundary":true,"min_zoom":0,"id":497},"arcs":[[13],[14],[15]]}]},"buildings":{"type":"GeometryCollection","geometries":[]},"places":{"type":"GeometryCollection","geometries":[]},"transit":{"type":"GeometryCollection","geometries":[]},"pois":{"type":"GeometryCollection","geometries":[{"type":"Point","properties":{"kind":"national_park","collision_rank":378,"protect_class":"2","area":154935000000,"source":"openstreetmap.org","min_zoom":5.0,"tier":1,"id":-9460057,"osm_relation":true,"name":"Aulavik National Park"},"coordinates":[1504,3790]}]},"boundaries":{"type":"GeometryCollection","geometries":[]},"roads":{"type":"GeometryCollection","geometries":[]},"earth":{"type":"GeometryCollection","geometries":[{"type":"MultiPolygon","properties":{"sort_rank":10,"source":"naturalearthdata.com","min_zoom":0,"kind":"earth","area":13131386715102},"arcs":[[[16]],[[17]]]}]},"landuse":{"type":"GeometryCollection","geometries":[{"type":"MultiPolygon","properties":{"kind":"national_park","protect_class":"2","area":297502697140,"sort_rank":18,"source":"openstreetmap.org","min_zoom":3.0,"tier":1,"id":-9460057},"arcs":[[[18]]]}]}},"type":"Topology","transform":{"translate":[-123.75,70.612614238],"scale":[0.002746582,0.0008317698]},"arcs":[[[2570,4096],[1526,0],[0,-1285],[-12,12],[-94,29],[-6,4],[-12,16],[-7,4],[-30,0],[-27,14],[-64,-28],[-72,-98],[-34,-86],[-32,-51],[-12,-24],[0,-19],[17,-9],[42,-3],[11,-26],[-3,-4],[-3,-5],[-4,-16],[0,-29],[-15,-23],[-39,-26],[-8,-3],[-4,-3],[-2,-8],[-2,-8],[-2,-7],[-8,-9],[-10,-6],[-9,-1],[-8,8],[20,29],[44,41],[18,37],[-19,-5],[-88,-70],[-20,-4],[-15,14],[5,16],[-88,-31],[-47,-43],[-17,-3],[-7,-8],[-7,-33],[-7,-6],[-17,0],[-38,17],[-13,-6],[-4,3],[3,20],[-9,14],[-4,6],[-5,4],[-2,0],[48,21],[6,8],[11,21],[7,10],[33,20],[16,16],[9,3],[-8,8],[-17,-13],[-7,9],[-1,10],[-1,21],[-3,10],[-3,23],[7,11],[20,12],[11,29],[4,4],[79,6],[16,14],[4,18],[-7,18],[-17,26],[-6,13],[-1,7],[-1,13],[2,14],[3,8],[3,6],[2,5],[2,22],[-2,14],[-4,12],[-3,18],[1,2],[1,15],[1,15],[-1,1],[3,9],[7,14],[3,10],[1,12],[0,9],[-1,10],[0,14],[1,10],[16,62],[1,21],[-2,20],[-6,23],[-15,43],[-64,116],[-25,33],[-51,14],[-65,45],[-34,-9],[-22,-13],[-61,-56],[-80,-30],[-30,-32],[-8,-5],[-32,1],[-5,-2],[-7,-7],[-7,-10],[-5,-10],[-6,-9],[-62,-38],[-70,-18],[-89,-56],[-70,-26],[-43,-30],[-43,-22],[-7,-7],[-15,-10],[-35,-1],[-19,-31],[-91,-81],[-79,-27],[-35,-26],[-59,-7],[-11,-14],[-20,-46],[-10,-18],[-23,-26],[-18,-39],[-78,-73],[-21,-44],[-50,-33],[-13,-2],[-32,-28],[-15,-8],[-8,-8],[-5,-14],[-8,-22],[-4,-10],[-5,-4],[-12,-5],[-83,-95],[-21,-40],[-9,-59],[3,-25],[8,-24],[9,-17],[8,-8],[7,-3],[25,-21],[68,0],[25,-10],[18,-35],[7,-74],[-8,-25],[-114,-53],[-49,-4],[-37,-45],[-11,-18],[-6,-23],[5,-9],[1,-11],[-1,-12],[-2,-10],[-12,-24],[-28,-18],[-45,-56],[-38,-68],[-8,-20],[-6,-24],[-3,-20],[-3,-51],[-8,-50],[-3,-28],[3,-24],[4,-21],[6,-58],[4,-25],[12,-36],[3,-14],[7,-5],[7,-3],[6,-4],[25,-33],[14,-7],[8,12],[-9,12],[-4,9],[-2,12],[5,4],[5,8],[5,9],[5,12],[-4,13],[11,5],[53,-2],[4,-4],[7,-10],[5,-2],[4,3],[6,15],[4,6],[5,2],[17,-10],[21,-4],[10,-6],[2,-15],[15,-10],[6,-9],[1,-14],[-2,-12],[-8,-15],[-3,-14],[7,1],[13,13],[7,3],[21,-2],[34,8],[11,11],[-3,24],[19,28],[20,17],[129,16],[9,-12],[-62,-33],[-28,3],[-7,-10],[-2,-16],[1,-13],[3,-9],[6,-4],[3,1],[1,5],[1,6],[2,4],[5,3],[4,0],[24,-11],[2,-3],[5,-13],[14,-9],[30,-4],[14,-12],[-7,-17],[-7,-5],[-26,8],[-28,-3],[7,-8],[23,-16],[-10,-11],[-54,20],[-71,-9],[-46,-43],[-20,-39],[0,-46],[24,-46],[30,-18],[95,10],[7,-2],[15,-11],[14,-3],[7,2],[5,6],[10,23],[5,6],[5,-1],[4,-12],[-3,-8],[58,-15],[6,6],[8,15],[8,19],[3,16],[-6,24],[-13,9],[-26,0],[-6,5],[-3,12],[0,11],[6,6],[12,5],[11,11],[-2,4],[-1,3],[-1,4],[-1,5],[10,-2],[13,-7],[12,-13],[7,-19],[-3,-2],[-2,-3],[-5,-11],[30,4],[5,-8],[-1,-10],[-7,-18],[-3,-31],[-2,-11],[1,-7],[9,-2],[8,2],[28,20],[23,-5],[8,3],[14,11],[13,5],[16,11],[5,7],[9,7],[46,-12],[37,6],[32,27],[36,-1],[29,30],[134,25],[18,11],[33,7],[24,15],[34,3],[23,22],[78,8],[56,-20],[0,-9],[-37,-16],[0,-8],[22,-20],[24,-6],[49,9],[68,47],[19,-13],[-33,-25],[-21,-25],[-43,-8],[-12,-8],[-11,-13],[-12,-9],[-25,19],[-29,5],[-11,15],[5,7],[-10,9],[-43,-17],[-7,2],[-5,14],[8,17],[-112,-80],[-52,0],[-9,-11],[4,-11],[51,-8],[59,-31],[42,1],[21,-9],[-13,-23],[-104,-5],[-18,-16],[-9,-5],[-10,1],[-8,8],[35,16],[-9,12],[-60,-16],[-16,-16],[-180,-72],[-12,-24],[2,-1],[4,-5],[2,-1],[-13,-20],[-17,-10],[-71,5],[-138,-70],[-118,-18],[-107,-89],[-107,-90],[-13,-38],[4,-19],[32,-81],[17,-34],[32,-47],[114,-110],[24,-10],[14,-13],[13,-19],[9,-22],[-9,-39],[14,-32],[32,-28],[-2236,0],[0,1103],[6,-3],[5,-8],[18,-31],[17,-40],[24,-77],[44,-179],[31,-79],[35,-63],[38,-45],[19,-11],[110,4],[16,15],[9,17],[11,30],[9,12],[16,31],[83,61],[30,10],[31,23],[28,10],[12,11],[23,33],[29,59],[18,16],[28,57],[43,62],[13,10],[18,2],[18,-6],[13,-14],[10,-27],[-2,-12],[-23,-23],[67,-25],[79,37],[78,21],[83,54],[47,22],[44,62],[33,110],[6,34],[7,23],[2,11],[0,12],[-3,14],[-8,27],[-3,16],[0,19],[4,33],[1,24],[0,33],[1,29],[5,13],[1,9],[-8,22],[-17,35],[8,42],[15,24],[16,18],[16,22],[39,81],[11,35],[4,17],[2,14],[-1,14],[-7,32],[-1,16],[-2,16],[-5,15],[-17,16],[-7,14],[3,23],[9,12],[13,3],[14,-3],[10,-8],[-4,-12],[-21,-12],[7,-11],[73,-13],[18,7],[9,0],[26,-9],[9,0],[12,8],[44,53],[78,54],[19,21],[17,13],[4,6],[5,11],[3,11],[-4,5],[-5,12],[2,29],[4,31],[3,19],[7,14],[9,13],[6,16],[-2,22],[6,13],[15,19],[4,9],[1,17],[-4,32],[2,14],[3,15],[2,18],[3,14],[7,6],[8,3],[79,62],[50,61],[18,11],[53,3],[18,8],[13,21],[10,24],[11,16],[70,59],[71,34],[20,23],[42,30],[40,50],[28,12],[108,89],[63,13],[6,4],[19,29],[60,31],[27,27],[21,30],[22,8],[8,6],[20,27],[77,44],[16,28],[87,28],[87,49],[82,39],[60,56],[12,18],[7,7],[29,6],[3,5],[12,32],[6,9],[18,10],[7,2],[4,3],[1,9],[-2,25],[-4,18],[-8,22],[-16,30],[-34,43],[-14,27],[-13,11],[-6,9],[-9,26],[-4,6],[-10,10],[-32,7],[-68,57],[-20,43],[-75,73],[-23,41],[-30,10],[-12,20],[-9,19],[-87,112],[-24,30]],[[1667,4096],[81,0],[-1,-2],[-4,-7],[-7,-6],[-5,2],[-11,12],[-16,0],[-28,-28],[-16,-4],[2,15],[3,12],[2,6]],[[2330,0],[-61,0],[0,1],[0,6],[2,2],[50,10],[11,-10],[-3,-8],[1,-1]],[[2410,0],[-53,0],[15,9],[38,-9]],[[2747,0],[-164,0],[2,1],[24,24],[128,8],[16,-7],[8,-17],[-14,-5],[0,-4]],[[3843,0],[-651,0],[40,18],[134,20],[39,43],[19,8],[59,-23],[14,6],[40,44],[17,9],[98,-30],[12,-17],[18,-14],[13,-18],[15,-9],[13,17],[1,7],[0,8],[1,8],[1,6],[5,3],[4,-3],[29,-33],[18,-8],[57,0],[0,-8],[-2,-12],[2,-14],[4,-8]],[[3880,0],[-20,0],[6,4],[9,3],[5,-7]],[[4096,2811],[-12,12],[-94,29],[-6,4],[-12,16],[-7,4],[-30,0],[-27,14],[-64,-28],[-72,-98],[-34,-86],[-32,-51],[-12,-24],[0,-19],[17,-9],[42,-3],[11,-26],[-3,-4],[-3,-5],[-4,-16],[0,-29],[-15,-23],[-39,-26],[-8,-3],[-4,-3],[-2,-8],[-2,-8],[-2,-7],[-8,-9],[-10,-6],[-9,-1],[-8,8],[20,29],[44,41],[18,37],[-19,-5],[-88,-70],[-20,-4],[-15,14],[5,16],[-88,-31],[-47,-43],[-17,-3],[-7,-8],[-7,-33],[-7,-6],[-17,0],[-38,17],[-13,-6],[-4,3],[3,20],[-9,14],[-4,6],[-5,4],[-2,0],[48,21],[6,8],[11,21],[7,10],[33,20],[16,16],[9,3],[-8,8],[-17,-13],[-7,9],[-1,10],[-1,21],[-3,10],[-3,23],[7,11],[20,12],[11,29],[4,4],[79,6],[16,14],[4,18],[-7,18],[-17,26],[-6,13],[-1,7],[-1,13],[2,14],[3,8],[3,6],[2,5],[2,22],[-2,14],[-4,12],[-3,18],[1,2],[1,15],[1,15],[-1,1],[3,9],[7,14],[3,10],[1,12],[0,9],[-1,10],[0,14],[1,10],[16,62],[1,21],[-2,20],[-6,23],[-15,43],[-64,116],[-25,33],[-51,14],[-65,45],[-34,-9],[-22,-13],[-61,-56],[-80,-30],[-30,-32],[-8,-5],[-32,1],[-5,-2],[-7,-7],[-7,-10],[-5,-10],[-6,-9],[-62,-38],[-70,-18],[-89,-56],[-70,-26],[-43,-30],[-43,-22],[-7,-7],[-15,-10],[-35,-1],[-19,-31],[-91,-81],[-79,-27],[-35,-26],[-59,-7],[-11,-14],[-20,-46],[-10,-18],[-23,-26],[-18,-39],[-78,-73],[-21,-44],[-50,-33],[-13,-2],[-32,-28],[-15,-8],[-8,-8],[-5,-14],[-8,-22],[-4,-10],[-5,-4],[-12,-5],[-83,-95],[-21,-40],[-9,-59],[3,-25],[8,-24],[9,-17],[8,-8],[7,-3],[25,-21],[68,0],[25,-10],[18,-35],[7,-74],[-8,-25],[-114,-53],[-49,-4],[-37,-45],[-11,-18],[-6,-23],[5,-9],[1,-11],[-1,-12],[-2,-10],[-12,-24],[-28,-18],[-45,-56],[-38,-68],[-8,-20],[-6,-24],[-3,-20],[-3,-51],[-8,-50],[-3,-28],[3,-24],[4,-21],[6,-58],[4,-25],[12,-36],[3,-14],[7,-5],[7,-3],[6,-4],[25,-33],[14,-7],[8,12],[-9,12],[-4,9],[-2,12],[5,4],[5,8],[5,9],[5,12],[-4,13],[11,5],[53,-2],[4,-4],[7,-10],[5,-2],[4,3],[6,15],[4,6],[5,2],[17,-10],[21,-4],[10,-6],[2,-15],[15,-10],[6,-9],[1,-14],[-2,-12],[-8,-15],[-3,-14],[7,1],[13,13],[7,3],[21,-2],[34,8],[11,11],[-3,24],[19,28],[20,17],[129,16],[9,-12],[-62,-33],[-28,3],[-7,-10],[-2,-16],[1,-13],[3,-9],[6,-4],[3,1],[1,5],[1,6],[2,4],[5,3],[4,0],[24,-11],[2,-3],[5,-13],[14,-9],[30,-4],[14,-12],[-7,-17],[-7,-5],[-26,8],[-28,-3],[7,-8],[23,-16],[-10,-11],[-54,20],[-71,-9],[-46,-43],[-20,-39],[0,-46],[24,-46],[30,-18],[95,10],[7,-2],[15,-11],[14,-3],[7,2],[5,6],[10,23],[5,6],[5,-1],[4,-12],[-3,-8],[58,-15],[6,6],[8,15],[8,19],[3,16],[-6,24],[-13,9],[-26,0],[-6,5],[-3,12],[0,11],[6,6],[12,5],[11,11],[-2,4],[-1,3],[-1,4],[-1,5],[10,-2],[13,-7],[12,-13],[7,-19],[-3,-2],[-2,-3],[-5,-11],[30,4],[5,-8],[-1,-10],[-7,-18],[-3,-31],[-2,-11],[1,-7],[9,-2],[8,2],[28,20],[23,-5],[8,3],[14,11],[13,5],[16,11],[5,7],[9,7],[46,-12],[37,6],[32,27],[36,-1],[29,30],[134,25],[18,11],[33,7],[24,15],[34,3],[23,22],[78,8],[56,-20],[0,-9],[-37,-16],[0,-8],[22,-20],[24,-6],[49,9],[68,47],[19,-13],[-33,-25],[-21,-25],[-43,-8],[-12,-8],[-11,-13],[-12,-9],[-25,19],[-29,5],[-11,15],[5,7],[-10,9],[-43,-17],[-7,2],[-5,14],[8,17],[-112,-80],[-52,0],[-9,-11],[4,-11],[51,-8],[59,-31],[42,1],[21,-9],[-13,-23],[-104,-5],[-18,-16],[-9,-5],[-10,1],[-8,8],[35,16],[-9,12],[-60,-16],[-16,-16],[-180,-72],[-12,-24],[2,-1],[4,-5],[2,-1],[-13,-20],[-17,-10],[-71,5],[-138,-70],[-118,-18],[-107,-89],[-107,-90],[-13,-38],[4,-19],[32,-81],[17,-34],[32,-47],[114,-110],[24,-10],[14,-13],[13,-19],[9,-22],[-9,-39],[14,-32],[32,-28]],[[2269,0],[0,1],[0,6],[2,2],[50,10],[11,-10],[-3,-8],[1,-1]],[[2357,0],[15,9],[38,-9]],[[2583,0],[2,1],[24,24],[128,8],[16,-7],[8,-17],[-14,-5],[0,-4]],[[3192,0],[40,18],[134,20],[39,43],[19,8],[59,-23],[14,6],[40,44],[17,9],[98,-30],[12,-17],[18,-14],[13,-18],[15,-9],[13,17],[1,7],[0,8],[1,8],[1,6],[5,3],[4,-3],[29,-33],[18,-8],[57,0],[0,-8],[-2,-12],[2,-14],[4,-8]],[[3860,0],[6,4],[9,3],[5,-7]],[[3068,3482],[-4,18],[-8,22],[-16,30],[-34,43],[-14,27],[-13,11],[-6,9],[-9,26],[-4,6],[-10,10],[-32,7],[-68,57],[-20,43],[-75,73],[-23,41],[-30,10],[-12,20],[-9,19],[-87,112],[-24,30]],[[1748,4096],[-1,-2],[-4,-7],[-7,-6],[-5,2],[-11,12],[-16,0],[-28,-28],[-16,-4],[2,15],[3,12],[2,6]],[[0,1103],[6,-3],[5,-8],[18,-31],[17,-40],[24,-77],[44,-179],[31,-79],[35,-63],[38,-45],[19,-11],[110,4],[16,15],[9,17],[11,30],[9,12],[16,31],[83,61],[30,10],[31,23],[28,10],[12,11],[23,33],[29,59],[18,16],[28,57],[43,62],[13,10],[18,2],[18,-6],[13,-14],[10,-27],[-2,-12],[-23,-23],[67,-25],[79,37],[78,21],[83,54],[47,22],[44,62],[33,110],[6,34],[7,23],[2,11],[0,12],[-3,14],[-8,27],[-3,16],[0,19],[4,33],[1,24],[0,33],[1,29],[5,13],[1,9],[-8,22],[-17,35],[8,42],[15,24],[16,18],[16,22],[39,81],[11,35],[4,17],[2,14],[-1,14],[-7,32],[-1,16],[-2,16],[-5,15],[-17,16],[-7,14],[3,23],[9,12],[13,3],[14,-3],[10,-8],[-4,-12],[-21,-12],[7,-11],[73,-13],[18,7],[9,0],[26,-9],[9,0],[12,8],[44,53],[78,54],[19,21],[17,13],[4,6],[5,11],[3,11],[-4,5],[-5,12],[2,29],[4,31],[3,19],[7,14],[9,13],[6,16],[-2,22],[6,13],[15,19],[4,9],[1,17],[-4,32],[2,14],[3,15],[2,18],[3,14],[7,6],[8,3],[79,62],[50,61],[18,11],[53,3],[18,8],[13,21],[10,24],[11,16],[70,59],[71,34],[20,23],[42,30],[40,50],[28,12],[108,89],[63,13],[6,4],[19,29],[60,31],[27,27],[21,30],[22,8],[8,6],[20,27],[77,44],[16,28],[87,28],[87,49],[82,39],[60,56],[12,18],[7,7],[29,6],[3,5],[12,32],[6,9],[18,10],[7,2],[4,3],[1,9],[-2,25]],[[4096,2811],[0,-2811],[-216,0],[-5,7],[-9,-3],[-6,-4],[-17,0],[-4,8],[-2,14],[2,12],[0,8],[-57,0],[-18,8],[-29,33],[-4,3],[-5,-3],[-1,-6],[-1,-8],[0,-8],[-1,-7],[-13,-17],[-15,9],[-13,18],[-18,14],[-12,17],[-98,30],[-17,-9],[-40,-44],[-14,-6],[-59,23],[-19,-8],[-39,-43],[-134,-20],[-40,-18],[-445,0],[0,4],[14,5],[-8,17],[-16,7],[-128,-8],[-24,-24],[-2,-1],[-173,0],[-38,9],[-15,-9],[-27,0],[-1,1],[3,8],[-11,10],[-50,-10],[-2,-2],[0,-6],[0,-1],[-33,0],[-32,28],[-14,32],[9,39],[-9,22],[-13,19],[-14,13],[-24,10],[-114,110],[-32,47],[-17,34],[-32,81],[-4,19],[13,38],[107,90],[107,89],[118,18],[138,70],[71,-5],[17,10],[13,20],[-2,1],[-4,5],[-2,1],[12,24],[180,72],[16,16],[60,16],[9,-12],[-35,-16],[8,-8],[10,-1],[9,5],[18,16],[104,5],[13,23],[-21,9],[-42,-1],[-59,31],[-51,8],[-4,11],[9,11],[52,0],[112,80],[-8,-17],[5,-14],[7,-2],[43,17],[10,-9],[-5,-7],[11,-15],[29,-5],[25,-19],[12,9],[11,13],[12,8],[43,8],[21,25],[33,25],[-19,13],[-68,-47],[-49,-9],[-24,6],[-22,20],[0,8],[37,16],[0,9],[-56,20],[-78,-8],[-23,-22],[-34,-3],[-24,-15],[-33,-7],[-18,-11],[-134,-25],[-29,-30],[-36,1],[-32,-27],[-37,-6],[-46,12],[-9,-7],[-5,-7],[-16,-11],[-13,-5],[-14,-11],[-8,-3],[-23,5],[-28,-20],[-8,-2],[-9,2],[-1,7],[2,11],[3,31],[7,18],[1,10],[-5,8],[-30,-4],[5,11],[2,3],[3,2],[-7,19],[-12,13],[-13,7],[-10,2],[1,-5],[1,-4],[1,-3],[2,-4],[-11,-11],[-12,-5],[-6,-6],[0,-11],[3,-12],[6,-5],[26,0],[13,-9],[6,-24],[-3,-16],[-8,-19],[-8,-15],[-6,-6],[-58,15],[3,8],[-4,12],[-5,1],[-5,-6],[-10,-23],[-5,-6],[-7,-2],[-14,3],[-15,11],[-7,2],[-95,-10],[-30,18],[-24,46],[0,46],[20,39],[46,43],[71,9],[54,-20],[10,11],[-23,16],[-7,8],[28,3],[26,-8],[7,5],[7,17],[-14,12],[-30,4],[-14,9],[-5,13],[-2,3],[-24,11],[-4,0],[-5,-3],[-2,-4],[-1,-6],[-1,-5],[-3,-1],[-6,4],[-3,9],[-1,13],[2,16],[7,10],[28,-3],[62,33],[-9,12],[-129,-16],[-20,-17],[-19,-28],[3,-24],[-11,-11],[-34,-8],[-21,2],[-7,-3],[-13,-13],[-7,-1],[3,14],[8,15],[2,12],[-1,14],[-6,9],[-15,10],[-2,15],[-10,6],[-21,4],[-17,10],[-5,-2],[-4,-6],[-6,-15],[-4,-3],[-5,2],[-7,10],[-4,4],[-53,2],[-11,-5],[4,-13],[-5,-12],[-5,-9],[-5,-8],[-5,-4],[2,-12],[4,-9],[9,-12],[-8,-12],[-14,7],[-25,33],[-6,4],[-7,3],[-7,5],[-3,14],[-12,36],[-4,25],[-6,58],[-4,21],[-3,24],[3,28],[8,50],[3,51],[3,20],[6,24],[8,20],[38,68],[45,56],[28,18],[12,24],[2,10],[1,12],[-1,11],[-5,9],[6,23],[11,18],[37,45],[49,4],[114,53],[0,1],[8,24],[-7,74],[-18,35],[-25,10],[-68,0],[-25,21],[-7,3],[-8,8],[-9,17],[-8,24],[-3,25],[9,59],[21,40],[83,95],[12,5],[5,4],[4,10],[8,22],[5,14],[8,8],[15,8],[32,28],[13,2],[50,33],[21,44],[78,73],[18,39],[23,26],[10,18],[20,46],[11,14],[59,7],[35,26],[79,27],[91,81],[19,31],[35,1],[15,10],[7,7],[43,22],[43,30],[70,26],[89,56],[70,18],[62,38],[6,9],[5,10],[7,10],[7,7],[5,2],[32,-1],[8,5],[30,32],[80,30],[61,56],[22,13],[34,9],[65,-45],[51,-14],[25,-33],[64,-116],[15,-43],[6,-23],[2,-20],[-1,-21],[-16,-62],[-1,-10],[0,-14],[1,-10],[0,-9],[-1,-12],[-3,-10],[-7,-14],[-3,-9],[1,-1],[-1,-15],[-1,-15],[-1,-2],[3,-18],[4,-12],[2,-14],[-2,-22],[-2,-5],[-3,-6],[-3,-8],[-2,-14],[1,-13],[1,-7],[6,-13],[17,-26],[7,-18],[-4,-18],[-16,-14],[-79,-6],[-4,-4],[-11,-29],[-20,-12],[-7,-11],[3,-23],[3,-10],[1,-21],[1,-10],[7,-9],[17,13],[8,-8],[-9,-3],[-16,-16],[-33,-20],[-7,-10],[-11,-21],[-6,-8],[-48,-21],[2,0],[5,-4],[4,-6],[9,-14],[-3,-20],[4,-3],[13,6],[38,-17],[17,0],[7,6],[7,33],[7,8],[17,3],[47,43],[88,31],[-5,-16],[15,-14],[20,4],[88,70],[19,5],[-18,-37],[-44,-41],[-20,-29],[8,-8],[9,1],[10,6],[8,9],[2,7],[2,8],[2,8],[4,3],[8,3],[39,26],[15,23],[0,29],[4,16],[3,5],[3,4],[-11,26],[-42,3],[-17,9],[0,19],[12,24],[32,51],[34,86],[72,98],[64,28],[27,-14],[30,0],[7,-4],[12,-16],[6,-4],[94,-29],[12,-12]],[[1748,4096],[822,0],[24,-30],[87,-112],[9,-19],[12,-20],[30,-10],[23,-41],[75,-73],[20,-43],[68,-57],[32,-7],[10,-10],[4,-6],[9,-26],[6,-9],[13,-11],[14,-27],[34,-43],[16,-30],[8,-22],[4,-18],[2,-25],[-1,-9],[-4,-3],[-7,-2],[-18,-10],[-6,-9],[-12,-32],[-3,-5],[-29,-6],[-7,-7],[-12,-18],[-60,-56],[-82,-39],[-87,-49],[-87,-28],[-16,-28],[-77,-44],[-20,-27],[-8,-6],[-22,-8],[-21,-30],[-27,-27],[-60,-31],[-19,-29],[-6,-4],[-63,-13],[-108,-89],[-28,-12],[-40,-50],[-42,-30],[-20,-23],[-71,-34],[-70,-59],[-11,-16],[-10,-24],[-13,-21],[-18,-8],[-53,-3],[-18,-11],[-50,-61],[-79,-62],[-8,-3],[-7,-6],[-3,-14],[-2,-18],[-3,-15],[-2,-14],[4,-32],[-1,-17],[-4,-9],[-15,-19],[-6,-13],[2,-22],[-6,-16],[-9,-13],[-7,-14],[-3,-19],[-4,-31],[-2,-29],[5,-12],[4,-5],[-3,-11],[-5,-11],[-4,-6],[-17,-13],[-19,-21],[-78,-54],[-44,-53],[-12,-8],[-9,0],[-26,9],[-9,0],[-18,-7],[-73,13],[-7,11],[21,12],[4,12],[-10,8],[-14,3],[-13,-3],[-9,-12],[-3,-23],[7,-14],[17,-16],[5,-15],[2,-16],[1,-16],[7,-32],[1,-14],[-2,-14],[-4,-17],[-11,-35],[-39,-81],[-16,-22],[-16,-18],[-15,-24],[-8,-42],[17,-35],[8,-22],[-1,-9],[-5,-13],[-1,-29],[0,-33],[-1,-24],[-4,-33],[0,-19],[3,-16],[8,-27],[3,-14],[0,-12],[-2,-11],[-7,-23],[-6,-34],[-33,-110],[-44,-62],[-47,-22],[-83,-54],[-78,-21],[-79,-37],[-67,25],[23,23],[2,12],[-10,27],[-13,14],[-18,6],[-18,-2],[-13,-10],[-43,-62],[-28,-57],[-18,-16],[-29,-59],[-23,-33],[-12,-11],[-28,-10],[-31,-23],[-30,-10],[-83,-61],[-16,-31],[-9,-12],[-11,-30],[-9,-17],[-16,-15],[-110,-4],[-19,11],[-38,45],[-35,63],[-31,79],[-44,179],[-24,77],[-17,40],[-18,31],[-5,8],[-6,3],[0,2993],[1667,0],[-2,-6],[-3,-12],[-2,-15],[16,4],[28,28],[16,0],[11,-12],[5,-2],[7,6],[4,7],[1,2]],[[1754,4096],[469,0],[4,-224],[-134,-1],[1,-522],[-195,-158],[-243,0],[1,-384],[-353,2],[0,500],[-303,162],[-1,58],[-91,1],[0,40],[-121,0],[0,139],[127,0],[0,387],[761,0],[-8,-23],[32,0],[13,23],[4,0],[1,-22],[27,8],[9,14]]]}