{"objects":{"water":{"type":"GeometryCollection","geometries":[{"type":"Polygon","properties":{"source":"naturalearthdata.com","kind":"ocean","area":989871000000000,"sort_rank":200,"min_zoom":0,"id":1},"arcs":[[30],[31],[32]]},{"type":"LineString","properties":{"source":"naturalearthdata.com","kind":"ocean","sort_rank":205,"boundary":true,"min_zoom":0,"id":168},"arcs":[33]},{"type":"LineString","properties":{"source":"naturalearthdata.com","kind":"ocean","sort_rank":205,"boundary":true,"min_zoom":0,"id":1065},"arcs":[34]},{"type":"LineString","properties":{"source":"naturalearthdata.com","kind":"ocean","sort_rank":205,"boundary":true,"min_zoom":0,"id":1066},"arcs":[35]}]},"buildings":{"type":"GeometryCollection","geometries":[]},"places":{"type":"GeometryCollection","geometries":[{"type":"Point","properties":{"name:pt":"Port-Gentil","collision_rank":349,"name:nl":"Port-Gentil","name:id":"Port-Gentil","name":"Port-Gentil","name:hi":"\u092a\u094b\u0930\u094d\u091f-\u091c\u0947\u0902\u091f\u093f\u0932","name:tr":"Port-Gentil","name:sv":"Port-Gentil","name:ar":"\u0628\u0648\u0631\u062a \u062c\u0646\u062a\u064a\u0644","min_zoom":5.0,"name:it":"Port-Gentil","name:vi":"Port-Gentil","name:ru":"\u041f\u043e\u0440\u0442-\u0416\u0430\u043d\u0442\u0438\u043b\u044c","name:pl":"Port-Gentil","name:hu":"Port-Gentil","id":6973,"name:ja":"\u30dd\u30fc\u30eb\u30b8\u30e3\u30f3\u30c6\u30a3","name:el":"\u03a0\u03bf\u03c1\u03c4-\u03a4\u03b6\u03b5\u03bd\u03c4\u03af\u03bb","kind":"locality","name:en":"Port-Gentil","population_rank":9,"source":"naturalearthdata.com","region_capital":true,"name:bn":"\u09aa\u09cb\u09b0\u09cd\u099f-\u099c\u09c7\u09a8\u09cd\u099f\u09bf\u09b2","name:de":"Port-Gentil","name:ko":"\ud3ec\ub974\uc7a5\ud2f0","name:fr":"Port-Gentil","wikidata_id":"Q501715","population":116836,"name:zh":"\u8ba9\u8482\u5c14\u6e2f","name:es":"Port-Gentil"},"coordinates":[3197,3832]}]},"transit":{"type":"GeometryCollection","geometries":[]},"pois":{"type":"GeometryCollection","geometries":[]},"boundaries":{"type":"GeometryCollection","geometries":[{"type":"LineString","properties":{"sort_rank":262,"kind_detail":"2","kind":"country","min_zoom":0,"source":"naturalearthdata.com"},"arcs":[0]},{"type":"LineString","properties":{"sort_rank":256,"kind_detail":"4","kind":"region","min_zoom":5.5,"source":"naturalearthdata.com"},"arcs":[1]},{"type":"MultiLineString","properties":{"sort_rank":256,"kind_detail":"4","kind":"region","min_zoom":5.5,"source":"naturalearthdata.com"},"arcs":[[2],[3],[4],[5],[6]]},{"type":"LineString","properties":{"sort_rank":256,"kind_detail":"4","kind":"region","min_zoom":5.5,"source":"naturalearthdata.com"},"arcs":[7]},{"type":"MultiLineString","properties":{"sort_rank":256,"kind_detail":"4","kind":"region","min_zoom":5.5,"source":"naturalearthdata.com"},"arcs":[[8],[9],[10],[11],[12],[13],[14],[15],[16],[17]]},{"type":"MultiLineString","properties":{"sort_rank":256,"kind_detail":"4","kind":"region","min_zoom":5.5,"source":"naturalearthdata.com"},"arcs":[[18],[19],[20],[21],[22]]},{"type":"MultiLineString","properties":{"sort_rank":256,"kind_detail":"4","kind":"region","min_zoom":5.5,"source":"naturalearthdata.com"},"arcs":[[23],[24],[25],[26],[27]]},{"type":"MultiLineString","properties":{"sort_rank":256,"kind_detail":"4","kind":"region","min_zoom":5.5,"source":"naturalearthdata.com"},"arcs":[[28],[29]]}]},"roads":{"type":"GeometryCollection","geometries":[{"type":"LineString","properties":{"source":"naturalearthdata.com","kind":"major_road","sort_rank":379,"kind_detail":"secondary","min_zoom":5.0,"id":41560},"arcs":[36]},{"type":"LineString","properties":{"source":"naturalearthdata.com","kind":"major_road","sort_rank":379,"kind_detail":"secondary","min_zoom":5.1,"id":41569},"arcs":[37]},{"type":"LineString","properties":{"source":"naturalearthdata.com","kind":"major_road","sort_rank":379,"kind_detail":"secondary","min_zoom":5.0,"id":41589},"arcs":[38]},{"type":"LineString","properties":{"source":"naturalearthdata.com","kind":"major_road","sort_rank":379,"kind_detail":"secondary","min_zoom":5.0,"id":41597},"arcs":[39]},{"type":"LineString","properties":{"source":"naturalearthdata.com","kind":"major_road","sort_rank":379,"kind_detail":"secondary","min_zoom":5.0,"id":41881},"arcs":[40]},{"type":"LineString","properties":{"source":"naturalearthdata.com","kind":"major_road","sort_rank":379,"kind_detail":"secondary","min_zoom":5.0,"id":42123},"arcs":[41]}]},"earth":{"type":"GeometryCollection","geometries":[{"type":"MultiPolygon","properties":{"sort_rank":10,"source":"naturalearthdata.com","min_zoom":0,"kind":"earth","area":10988269200426},"arcs":[[[42]]]}]},"landuse":{"type":"GeometryCollection","geometries":[]}},"type":"Topology","transform":{"translate":[0.0,-11.1784018737],"scale":[0.002746582,0.002729102]},"arcs":[[[4046,2653],[6,11],[24,66],[6,11],[10,8],[4,3]],[[3862,3250],[-52,-26],[-13,-11],[-3,-9],[-5,-6],[-2,-5],[-1,-4],[1,-3],[5,-8],[1,-3],[-1,-3],[-2,-1],[-4,-1],[-4,-2],[-7,-4],[-4,-4],[-2,-4],[-2,-4],[-3,-15],[-1,-5],[-4,-5],[-3,-2],[-7,0],[-108,-31],[-14,-4]],[[3556,3766],[-3,0],[-4,1],[-3,3],[-2,4],[-4,4],[-1,0],[-3,3],[-5,3],[-8,4],[-15,20],[-24,76]],[[3585,3765],[-14,1],[-3,0],[-2,1]],[[3566,3767],[-10,-1]],[[3665,3636],[-6,3],[-17,3],[-2,0],[-3,2],[-3,2],[-23,20],[-3,4],[0,4],[1,3],[9,18],[3,7],[0,4],[0,4],[0,4],[-6,14],[-1,2],[0,3],[3,6],[0,4],[-1,4],[-3,5],[-13,10],[-4,3],[-4,0]],[[3592,3765],[-7,0]],[[3484,3884],[-16,21],[-12,8],[-12,6],[-4,0],[-7,1],[-4,3],[-6,5],[-18,26],[-4,7],[-8,31],[-5,4]],[[4063,3885],[5,-1],[28,-22]],[[3956,3864],[3,2],[5,6],[4,2],[3,2],[8,2],[65,4],[15,3],[4,0]],[[3904,3871],[6,-1],[3,-1],[3,-4],[2,-3],[4,-3],[4,-1]],[[3890,3865],[4,2],[3,2],[3,2],[4,0]],[[3945,3871],[8,-6],[3,-1]],[[3926,3858],[4,2],[4,2],[4,7],[4,1],[3,1]],[[3881,3867],[9,-2]],[[3771,3671],[3,2],[1,4],[1,3],[1,3],[4,2],[2,3],[1,3],[0,3],[1,4],[2,3],[3,3],[5,7],[2,4],[1,3],[-1,4],[-2,2],[-2,3],[0,2],[1,1],[2,2],[13,6],[3,2],[2,2],[14,25],[1,4],[-1,7],[1,3],[1,7],[3,12],[2,3],[4,3],[18,11],[4,4],[4,4],[10,16],[3,3],[3,2],[3,3],[1,3],[-1,3],[-4,7],[-1,3],[2,2]],[[3727,3680],[6,-1],[8,-2],[22,0],[4,-3],[4,-3]],[[3665,3636],[31,32],[11,7],[5,2],[6,2],[9,1]],[[3839,4096],[1,-4],[2,-7],[0,-4],[0,-2],[-2,-1],[-1,-1],[-3,0],[-3,-2],[-1,-2],[0,-2],[0,-1],[-1,-2],[-44,-35],[-5,-3],[-6,-3],[-27,-15],[-4,-4],[-12,-15],[-8,-7],[-44,-28],[-33,-14],[-7,0]],[[3641,3944],[-2,2],[0,3],[-1,8],[-1,3],[-3,11],[-1,3],[-3,3],[-3,2],[-4,2],[-7,0],[-3,1],[-4,2],[-3,1]],[[3606,3985],[-4,0],[-4,-4],[-3,-4],[-4,-4],[-6,-5],[-12,-6],[-6,-1]],[[3567,3961],[-4,1],[-7,7],[-4,0]],[[3552,3969],[-6,-4],[-9,-4],[-4,-1],[-10,0],[-4,-1],[-15,-6],[-14,-7],[-4,-1],[-3,-2],[-2,-3],[6,-47],[-3,-9]],[[3665,3636],[-2,-15],[-5,-10],[-26,-25],[-2,-4],[-1,-4],[0,-7],[1,-7],[4,-19],[0,-5],[-1,-7],[-2,-11],[-3,-8],[-3,-5],[-3,-1],[-4,-1],[-3,0],[-4,-1],[-3,-2],[-4,-5],[-1,-4],[0,-3],[-2,-3],[-3,-3],[-4,-4],[1,-3],[5,-5],[5,-7],[2,-4],[5,-11],[2,-4],[12,-15],[3,-3],[4,-3],[3,-1],[3,0],[12,-1],[8,-1],[18,-6],[11,-6],[12,-3],[8,-6],[4,-2],[4,-4],[4,-2]],[[3771,3396],[3,0],[15,-8],[8,-7],[7,-2],[4,-3],[1,-3],[0,-4],[-5,-12],[0,-4],[0,-4],[1,-5],[2,-4],[3,-4],[7,-5],[1,-1],[1,-2],[6,-25],[3,-5],[9,-15],[2,-2],[1,-1],[2,-1],[5,-6],[15,-23]],[[3757,3389],[3,1],[4,2],[3,2],[4,2]],[[3727,3395],[26,-6],[4,0]],[[3720,3395],[7,0]],[[4096,3178],[-1,1],[-7,6],[-1,3],[-7,26],[-2,3],[-3,4],[-30,18],[-3,3],[-2,4],[-1,3],[-1,4],[-1,4],[-2,3],[-2,4],[-4,3],[-4,2],[-5,1]],[[4020,3270],[-158,-20]],[[0,0],[0,4096],[3402,0],[0,-1],[-2,-4],[-2,-4],[0,-5],[4,-9],[1,-4],[0,-4],[-2,-8],[0,-4],[-2,-7],[-8,-17],[-3,-7],[0,-48],[-5,-15],[-9,-14],[-32,-36],[-7,-13],[-21,-20],[-4,-9],[4,-6],[4,-6],[0,-9],[-4,10],[-5,-2],[0,-3],[1,-4],[-1,-4],[-2,-1],[-6,-2],[-3,-1],[-2,-3],[-1,-2],[1,-2],[0,-5],[-2,-6],[-9,-9],[-2,-7],[0,-23],[-2,-6],[-3,0],[-2,5],[3,13],[-1,7],[-4,7],[-13,12],[-3,7],[-1,6],[-2,6],[-4,5],[-9,4],[-3,1],[-3,-3],[0,-4],[2,-4],[4,-3],[4,-2],[0,-2],[-7,0],[-6,2],[-5,-1],[-2,-5],[-1,-7],[-2,-7],[0,-6],[3,-6],[-6,2],[-2,5],[0,5],[-3,3],[-5,2],[-4,4],[-2,5],[-2,16],[-3,12],[-5,9],[-8,0],[-1,2],[-1,2],[0,2],[2,4],[-12,2],[-4,3],[4,7],[-3,3],[-5,-8],[8,-27],[12,-14],[4,-20],[8,-13],[10,-22],[5,-9],[2,-5],[3,-13],[3,0],[4,2],[2,-6],[3,-9],[2,-6],[6,-1],[11,7],[4,-2],[-1,-1],[-3,-2],[-3,-5],[-3,-5],[6,-2],[-6,-2],[-5,3],[-9,9],[36,-47],[6,-16],[2,-22],[2,-4],[2,-1],[1,4],[2,10],[-4,11],[7,-6],[6,-8],[2,-9],[-8,-5],[1,-2],[1,-1],[1,-2],[-2,-6],[1,-8],[3,-6],[4,-3],[6,-2],[12,-9],[6,-3],[4,-1],[2,1],[1,1],[3,2],[2,1],[2,1],[1,-3],[3,-2],[1,0],[-1,-3],[-1,-8],[1,-7],[4,-5],[6,-1],[18,3],[4,3],[3,5],[3,5],[6,2],[3,-1],[3,-5],[3,-1],[4,1],[3,3],[3,3],[1,4],[-3,19],[1,8],[3,-2],[1,-2],[0,-2],[-2,-2],[7,-13],[1,-6],[-6,-11],[-2,-6],[-2,-4],[-3,-1],[-9,-1],[-3,-1],[0,-2],[3,-3],[2,-5],[-1,-5],[-3,-2],[-6,-1],[-6,-2],[-3,-4],[1,-6],[2,0],[3,-1],[4,-1],[1,-2],[0,-6],[0,-4],[3,-5],[0,-6],[2,-3],[3,-1],[2,0],[3,1],[2,0],[12,1],[10,3],[8,6],[9,13],[2,1],[1,2],[1,3],[-2,6],[0,2],[3,1],[4,0],[2,0],[7,-4],[3,-1],[-1,-6],[0,-8],[3,-14],[5,-7],[6,-4],[15,-6],[-11,-3],[-31,5],[-11,-2],[2,-4],[1,-6],[-3,-13],[-5,3],[-2,6],[0,6],[2,5],[-9,0],[-9,-3],[-9,-5],[-5,-7],[-1,4],[-2,3],[-3,1],[-3,-1],[-1,-3],[3,-5],[-1,-4],[-4,-2],[-2,6],[-4,45],[-11,4],[-3,1],[-17,14],[-2,3],[-5,3],[-12,14],[-2,4],[-2,7],[-9,9],[-3,12],[-5,4],[-5,3],[-6,-1],[-7,8],[-5,6],[-3,11],[-5,10],[2,-8],[3,-8],[3,-9],[4,-6],[45,-64],[21,-21],[8,-12],[6,-15],[0,-4],[0,-11],[1,-4],[3,-8],[1,-4],[0,-16],[0,-3],[-2,-6],[0,-4],[1,-11],[3,-7],[5,-2],[8,5],[8,-6],[1,-4],[-4,-8],[4,0],[3,0],[3,-2],[3,-3],[0,5],[0,4],[2,2],[4,2],[1,2],[1,4],[1,4],[3,2],[7,-2],[9,-17],[7,-6],[-2,8],[0,4],[2,3],[1,-2],[6,-3],[4,4],[6,-7],[12,-21],[1,-2],[-4,-3],[-4,-6],[2,-4],[9,-7],[4,-4],[4,0],[3,-5],[2,-7],[1,-7],[-1,-1],[-5,-2],[-1,-2],[-1,-3],[-2,3],[-2,5],[0,1],[-8,5],[0,3],[0,6],[-1,3],[-2,0],[-8,1],[-2,1],[-3,2],[-4,4],[8,7],[1,7],[-5,7],[-10,2],[-19,0],[1,-1],[-2,-3],[-3,-2],[-1,2],[1,3],[0,2],[2,1],[2,0],[-3,8],[-2,0],[-3,-8],[-2,-2],[-5,2],[1,1],[1,1],[1,1],[-8,-1],[-8,3],[-7,5],[-2,7],[-2,1],[-3,-2],[0,-4],[3,-1],[1,-2],[3,-4],[3,-3],[2,0],[2,-4],[16,-15],[5,-14],[4,-6],[8,-3],[-1,-3],[-1,-2],[5,-4],[11,-13],[10,-6],[36,-35],[3,-6],[2,-33],[2,-8],[0,-2],[4,-10],[8,-11],[10,-9],[8,-6],[-3,5],[-8,10],[-3,6],[6,-5],[15,-18],[6,-3],[3,5],[-1,6],[-5,8],[1,3],[2,1],[2,0],[3,0],[2,-2],[0,-2],[0,-3],[0,-3],[2,0],[4,-2],[3,-2],[-2,-1],[-1,-1],[-5,-4],[-1,-1],[1,-5],[3,-4],[3,-3],[4,-2],[8,2],[8,8],[9,7],[9,-2],[1,0],[5,3],[2,0],[0,4],[2,0],[4,-2],[1,-3],[8,-17],[6,0],[10,-1],[10,-3],[4,-4],[-1,-3],[-4,0],[-4,0],[-4,-2],[0,-4],[2,-7],[-2,-4],[5,-3],[5,-2],[1,3],[2,3],[2,4],[3,3],[0,2],[0,2],[0,2],[1,1],[3,0],[4,-2],[3,0],[3,-2],[4,-7],[3,-1],[1,-2],[2,-3],[3,-2],[5,-1],[-5,19],[-2,6],[2,0],[5,-6],[9,-3],[7,-4],[-1,-7],[3,-1],[7,-4],[-2,-5],[-3,-1],[-10,-1],[-4,0],[-8,0],[-8,-1],[-5,-2],[-2,-3],[-3,-7],[-2,-2],[-5,-3],[-3,-2],[-1,2],[1,5],[-4,0],[-3,-1],[-3,-1],[-2,-3],[-2,4],[-1,14],[-2,-1],[0,-1],[0,-1],[-4,2],[-2,1],[-1,-2],[-1,-4],[-2,0],[-2,8],[-5,9],[-1,0],[-2,1],[-13,5],[-6,-2],[-3,4],[-1,6],[0,7],[0,-2],[-1,-1],[-2,-1],[-2,-1],[-1,5],[1,4],[2,4],[1,5],[-7,-7],[-5,-6],[-5,-3],[-8,1],[-8,4],[-10,11],[-7,5],[8,-14],[64,-80],[28,-22],[22,-18],[47,-35],[19,-15],[46,-37],[39,-32],[10,-11],[6,-7],[5,-6],[14,-15],[1,-7],[6,-3],[11,-8],[8,-5],[5,-4],[4,-7],[1,-7],[-1,-8],[-2,-7],[-1,-5],[3,-17],[59,-41],[45,-38],[12,-9],[7,-8],[1,-9],[1,-7],[3,-6],[3,-7],[6,-24],[18,-18],[8,-6],[17,-10],[12,-9],[28,-19],[0,-2620],[-4096,0]],[[2048,3562],[-1,0],[-2,-2],[-2,0],[6,-5],[5,5],[2,9],[-5,8],[-4,-2],[-1,-4],[0,-4],[2,-5]],[[3276,3866],[0,3],[3,1],[2,2],[-1,3],[-2,4],[-3,-4],[-8,-5],[-4,-4],[-4,-6],[-1,-2],[0,-4],[2,-5],[5,-5],[1,-3],[0,-6],[-1,-5],[0,-4],[4,-5],[5,-4],[5,0],[5,2],[7,4],[0,12],[1,16],[-3,12],[-13,3]],[[3402,4096],[0,-1],[-2,-4],[-2,-4],[0,-5],[4,-9],[1,-4],[0,-4],[-2,-8],[0,-4],[-2,-7],[-8,-17],[-3,-7],[0,-48],[-5,-15],[-9,-14],[-32,-36],[-7,-13],[-21,-20],[-4,-9],[4,-6],[4,-6],[0,-9],[-4,10],[-5,-2],[0,-3],[1,-4],[-1,-4],[-2,-1],[-6,-2],[-3,-1],[-2,-3],[-1,-2],[1,-2],[0,-5],[-2,-6],[-9,-9],[-2,-7],[0,-23],[-2,-6],[-3,0],[-2,5],[3,13],[-1,7],[-4,7],[-13,12],[-3,7],[-1,6],[-2,6],[-4,5],[-9,4],[-3,1],[-3,-3],[0,-4],[2,-4],[4,-3],[4,-2],[0,-2],[-7,0],[-6,2],[-5,-1],[-2,-5],[-1,-7],[-2,-7],[0,-6],[3,-6],[-6,2],[-2,5],[0,5],[-3,3],[-5,2],[-4,4],[-2,5],[-2,16],[-3,12],[-5,9],[-8,0],[-1,2],[-1,2],[0,2],[2,4],[-12,2],[-4,3],[4,7],[-3,3],[-5,-8],[8,-27],[12,-14],[4,-20],[8,-13],[10,-22],[5,-9],[2,-5],[3,-13],[3,0],[4,2],[2,-6],[3,-9],[2,-6],[6,-1],[11,7],[4,-2],[-1,-1],[-3,-2],[-3,-5],[-3,-5],[6,-2],[-6,-2],[-5,3],[-9,9],[36,-47],[6,-16],[2,-22],[2,-4],[2,-1],[1,4],[2,10],[-4,11],[7,-6],[6,-8],[2,-9],[-8,-5],[1,-2],[1,-1],[1,-2],[-2,-6],[1,-8],[3,-6],[4,-3],[6,-2],[12,-9],[6,-3],[4,-1],[2,1],[1,1],[3,2],[2,1],[2,1],[1,-3],[3,-2],[1,0],[-1,-3],[-1,-8],[1,-7],[4,-5],[6,-1],[18,3],[4,3],[3,5],[3,5],[6,2],[3,-1],[3,-5],[3,-1],[4,1],[3,3],[3,3],[1,4],[-3,19],[1,8],[3,-2],[1,-2],[0,-2],[-2,-2],[7,-13],[1,-6],[-6,-11],[-2,-6],[-2,-4],[-3,-1],[-9,-1],[-3,-1],[0,-2],[3,-3],[2,-5],[-1,-5],[-3,-2],[-6,-1],[-6,-2],[-3,-4],[1,-6],[2,0],[3,-1],[4,-1],[1,-2],[0,-6],[0,-4],[3,-5],[0,-6],[2,-3],[3,-1],[2,0],[3,1],[2,0],[12,1],[10,3],[8,6],[9,13],[2,1],[1,2],[1,3],[-2,6],[0,2],[3,1],[4,0],[2,0],[7,-4],[3,-1],[-1,-6],[0,-8],[3,-14],[5,-7],[6,-4],[15,-6],[-11,-3],[-31,5],[-11,-2],[2,-4],[1,-6],[-3,-13],[-5,3],[-2,6],[0,6],[2,5],[-9,0],[-9,-3],[-9,-5],[-5,-7],[-1,4],[-2,3],[-3,1],[-3,-1],[-1,-3],[3,-5],[-1,-4],[-4,-2],[-2,6],[-4,45],[-11,4],[-3,1],[-17,14],[-2,3],[-5,3],[-12,14],[-2,4],[-2,7],[-9,9],[-3,12],[-5,4],[-5,3],[-6,-1],[-7,8],[-5,6],[-3,11],[-5,10],[2,-8],[3,-8],[3,-9],[4,-6],[45,-64],[21,-21],[8,-12],[6,-15],[0,-4],[0,-11],[1,-4],[3,-8],[1,-4],[0,-16],[0,-3],[-2,-6],[0,-4],[1,-11],[3,-7],[5,-2],[8,5],[8,-6],[1,-4],[-4,-8],[4,0],[3,0],[3,-2],[3,-3],[0,5],[0,4],[2,2],[4,2],[1,2],[1,4],[1,4],[3,2],[7,-2],[9,-17],[7,-6],[-2,8],[0,4],[2,3],[1,-2],[6,-3],[4,4],[6,-7],[12,-21],[1,-2],[-4,-3],[-4,-6],[2,-4],[9,-7],[4,-4],[4,0],[3,-5],[2,-7],[1,-7],[-1,-1],[-5,-2],[-1,-2],[-1,-3],[-2,3],[-2,5],[0,1],[-8,5],[0,3],[0,6],[-1,3],[-2,0],[-8,1],[-2,1],[-3,2],[-4,4],[8,7],[1,7],[-5,7],[-10,2],[-19,0],[1,-1],[-2,-3],[-3,-2],[-1,2],[1,3],[0,2],[2,1],[2,0],[-3,8],[-2,0],[-3,-8],[-2,-2],[-5,2],[1,1],[1,1],[1,1],[-8,-1],[-8,3],[-7,5],[-2,7],[-2,1],[-3,-2],[0,-4],[3,-1],[1,-2],[3,-4],[3,-3],[2,0],[2,-4],[16,-15],[5,-14],[4,-6],[8,-3],[-1,-3],[-1,-2],[5,-4],[11,-13],[10,-6],[36,-35],[3,-6],[2,-33],[2,-8],[0,-2],[4,-10],[8,-11],[10,-9],[8,-6],[-3,5],[-8,10],[-3,6],[6,-5],[15,-18],[6,-3],[3,5],[-1,6],[-5,8],[1,3],[2,1],[2,0],[3,0],[2,-2],[0,-2],[0,-3],[0,-3],[2,0],[4,-2],[3,-2],[-2,-1],[-1,-1],[-5,-4],[-1,-1],[1,-5],[3,-4],[3,-3],[4,-2],[8,2],[8,8],[9,7],[9,-2],[1,0],[5,3],[2,0],[0,4],[2,0],[4,-2],[1,-3],[8,-17],[6,0],[10,-1],[10,-3],[4,-4],[-1,-3],[-4,0],[-4,0],[-4,-2],[0,-4],[2,-7],[-2,-4],[5,-3],[5,-2],[1,3],[2,3],[2,4],[3,3],[0,2],[0,2],[0,2],[1,1],[3,0],[4,-2],[3,0],[3,-2],[4,-7],[3,-1],[1,-2],[2,-3],[3,-2],[5,-1],[-5,19],[-2,6],[2,0],[5,-6],[9,-3],[7,-4],[-1,-7],[3,-1],[7,-4],[-2,-5],[-3,-1],[-10,-1],[-4,0],[-8,0],[-8,-1],[-5,-2],[-2,-3],[-3,-7],[-2,-2],[-5,-3],[-3,-2],[-1,2],[1,5],[-4,0],[-3,-1],[-3,-1],[-2,-3],[-2,4],[-1,14],[-2,-1],[0,-1],[0,-1],[-4,2],[-2,1],[-1,-2],[-1,-4],[-2,0],[-2,8],[-5,9],[-1,0],[-2,1],[-13,5],[-6,-2],[-3,4],[-1,6],[0,7],[0,-2],[-1,-1],[-2,-1],[-2,-1],[-1,5],[1,4],[2,4],[1,5],[-7,-7],[-5,-6],[-5,-3],[-8,1],[-8,4],[-10,11],[-7,5],[8,-14],[64,-80],[28,-22],[22,-18],[47,-35],[19,-15],[46,-37],[39,-32],[10,-11],[6,-7],[5,-6],[14,-15],[1,-7],[6,-3],[11,-8],[8,-5],[5,-4],[4,-7],[1,-7],[-1,-8],[-2,-7],[-1,-5],[3,-17],[59,-41],[45,-38],[12,-9],[7,-8],[1,-9],[1,-7],[3,-6],[3,-7],[6,-24],[18,-18],[8,-6],[17,-10],[12,-9],[28,-19]],[[2048,3562],[-1,0],[-2,-2],[-2,0],[6,-5],[5,5],[2,9],[-5,8],[-4,-2],[-1,-4],[0,-4],[2,-5]],[[3276,3866],[0,3],[3,1],[2,2],[-1,3],[-2,4],[-3,-4],[-8,-5],[-4,-4],[-4,-6],[-1,-2],[0,-4],[2,-5],[5,-5],[1,-3],[0,-6],[-1,-5],[0,-4],[4,-5],[5,-4],[5,0],[5,2],[7,4],[0,12],[1,16],[-3,12],[-13,3]],[[3979,4068],[8,8],[7,4],[14,16]],[[4096,4071],[-3,2],[-7,1],[-21,-3],[-8,-10],[-15,-6],[-18,1],[-10,6],[-14,5],[-6,1],[-15,0]],[[3755,4096],[6,-7],[9,-19],[-3,-6],[-1,-12],[3,-13],[7,-16],[8,-3],[1,-3],[0,-11],[6,-4]],[[3791,4002],[6,-8],[6,3],[14,2],[7,4],[14,11],[6,3],[6,6],[13,9],[8,1],[3,0],[18,3],[12,0],[6,0],[13,13],[4,1],[10,2],[9,9],[11,1],[10,-4],[9,3],[3,7]],[[3868,3582],[0,16],[-3,3],[0,15],[-2,8],[-4,7],[-11,5],[-1,3],[3,11],[-2,21],[5,10],[6,5],[10,1],[2,8],[-8,3],[-9,9],[-19,5],[-3,1],[-2,11],[-10,9],[-3,1],[-6,15],[-8,5],[-9,13],[-3,3],[-6,0],[-7,4],[-8,13],[-1,14],[0,7],[0,8],[-2,6],[-3,4],[-10,5],[-14,3],[-10,4],[-11,2],[-6,5],[2,6],[1,7],[6,8],[2,9],[6,10],[-2,15],[6,5],[8,0],[3,3],[-2,8],[2,7],[7,11],[9,7],[0,6],[5,3],[1,8],[9,10],[2,3],[-2,11],[5,11],[10,7],[0,2]],[[4096,3284],[-4,6],[-9,14],[-11,13],[-9,15],[-6,6],[-15,23],[-6,6],[-18,8],[-12,16],[0,11],[-3,15],[-6,6],[-6,3],[-7,4],[-6,3],[-8,11],[-10,8],[-9,9],[-8,3],[-7,1],[-17,6],[-8,15],[-13,6],[-11,17],[3,8],[2,22],[-6,8],[-5,13],[-9,11],[-4,11]],[[4096,4096],[0,-1476],[-28,19],[-12,9],[-17,10],[-8,6],[-18,18],[-6,24],[-3,7],[-3,6],[-1,7],[-1,9],[-7,8],[-12,9],[-45,38],[-59,41],[-1,6],[-2,11],[1,5],[2,7],[1,8],[-1,7],[-4,7],[-5,4],[-8,5],[-11,8],[-6,3],[-1,7],[-14,15],[-5,6],[-6,7],[-10,11],[-39,32],[-46,37],[-19,15],[-47,35],[-22,18],[-28,22],[-64,80],[-8,14],[7,-5],[10,-11],[8,-4],[8,-1],[5,3],[5,6],[7,7],[-1,-5],[-2,-4],[-1,-4],[1,-5],[2,1],[2,1],[1,1],[0,2],[0,-7],[1,-6],[3,-4],[6,2],[13,-5],[2,-1],[1,0],[5,-9],[2,-8],[2,0],[1,4],[1,2],[2,-1],[4,-2],[0,1],[0,1],[2,1],[1,-14],[2,-4],[2,3],[3,1],[3,1],[4,0],[-1,-5],[1,-2],[3,2],[5,3],[2,2],[3,7],[2,3],[5,2],[8,1],[8,0],[4,0],[10,1],[3,1],[2,5],[-7,4],[-3,1],[1,7],[-7,4],[-9,3],[-5,6],[-2,0],[2,-6],[5,-19],[-5,1],[-3,2],[-2,3],[-1,2],[-3,1],[-4,7],[-3,2],[-3,0],[-4,2],[-3,0],[-1,-1],[0,-2],[0,-2],[0,-2],[-3,-3],[-2,-4],[-2,-3],[-1,-3],[-5,2],[-5,3],[2,4],[-2,7],[0,4],[4,2],[4,0],[4,0],[1,3],[-4,4],[-10,3],[-10,1],[-6,0],[-8,17],[-1,3],[-4,2],[-2,0],[0,-4],[-2,0],[-5,-3],[-1,0],[-9,2],[-9,-7],[-8,-8],[-8,-2],[-4,2],[-3,3],[-3,4],[-1,5],[1,1],[5,4],[1,1],[2,1],[-3,2],[-4,2],[-2,0],[0,3],[0,3],[0,2],[-2,2],[-3,0],[-2,0],[-2,-1],[-1,-3],[5,-8],[1,-6],[-3,-5],[-6,3],[-15,18],[-6,5],[3,-6],[8,-10],[3,-5],[-8,6],[-10,9],[-8,11],[-4,10],[0,2],[-2,8],[-2,33],[-3,6],[-36,35],[-10,6],[-11,13],[-5,4],[1,2],[1,3],[-8,3],[-4,6],[-5,14],[-16,15],[-2,4],[-2,0],[-3,3],[-3,4],[-1,2],[-3,1],[0,4],[3,2],[2,-1],[2,-7],[7,-5],[8,-3],[8,1],[-1,-1],[-1,-1],[-1,-1],[5,-2],[2,2],[3,8],[2,0],[3,-8],[-2,0],[-2,-1],[0,-2],[-1,-3],[1,-2],[3,2],[2,3],[-1,1],[19,0],[10,-2],[5,-7],[-1,-7],[-8,-7],[4,-4],[3,-2],[2,-1],[8,-1],[2,0],[1,-3],[0,-6],[0,-3],[8,-5],[0,-1],[2,-5],[2,-3],[1,3],[1,2],[5,2],[1,1],[-1,7],[-2,7],[-3,5],[-4,0],[-4,4],[-9,7],[-2,4],[4,6],[4,3],[-1,2],[-12,21],[-6,7],[-4,-4],[-6,3],[-1,2],[-2,-3],[0,-4],[2,-8],[-7,6],[-9,17],[-7,2],[-3,-2],[-1,-4],[-1,-4],[-1,-2],[-4,-2],[-2,-2],[0,-4],[0,-5],[-3,3],[-3,2],[-3,0],[-4,0],[4,8],[-1,4],[-8,6],[-8,-5],[-5,2],[-3,7],[-1,11],[0,4],[2,6],[0,3],[0,16],[-1,4],[-3,8],[-1,4],[0,11],[0,4],[-6,15],[-8,12],[-21,21],[-45,64],[-4,6],[-3,9],[-3,8],[-2,8],[5,-10],[3,-11],[5,-6],[7,-8],[6,1],[5,-3],[5,-4],[3,-12],[9,-9],[2,-7],[2,-4],[12,-14],[5,-3],[2,-3],[17,-14],[3,-1],[11,-4],[4,-45],[2,-6],[4,2],[1,4],[-3,5],[1,3],[3,1],[3,-1],[2,-3],[1,-4],[5,7],[9,5],[9,3],[9,0],[-2,-5],[0,-6],[2,-6],[5,-3],[3,13],[-1,6],[-2,4],[11,2],[31,-5],[11,3],[-15,6],[-6,4],[-5,7],[-3,14],[0,8],[1,6],[-3,1],[-7,4],[-2,0],[-4,0],[-3,-1],[0,-2],[2,-6],[-1,-3],[-1,-2],[-2,-1],[-9,-13],[-8,-6],[-10,-3],[-12,-1],[-2,0],[-3,-1],[-2,0],[-3,1],[-2,3],[0,6],[-3,5],[0,4],[0,6],[-1,2],[-4,1],[-3,1],[-2,0],[-1,6],[3,4],[6,2],[6,1],[3,2],[1,5],[-2,5],[-3,3],[0,2],[3,1],[9,1],[3,1],[2,4],[2,6],[6,11],[-1,6],[-7,13],[2,2],[0,2],[-1,2],[-3,2],[-1,-8],[3,-19],[-1,-4],[-3,-3],[-3,-3],[-4,-1],[-3,1],[-3,5],[-3,1],[-6,-2],[-3,-5],[-3,-5],[-4,-3],[-18,-3],[-6,1],[-4,5],[-1,7],[1,8],[1,3],[-1,0],[-3,2],[-1,3],[-2,-1],[-2,-1],[-3,-2],[-1,-1],[-2,-1],[-4,1],[-6,3],[-12,9],[-6,2],[-4,3],[-3,6],[-1,8],[2,6],[-1,2],[-1,1],[-1,2],[8,5],[-2,9],[-6,8],[-7,6],[4,-11],[-2,-10],[-1,-4],[-2,1],[-2,4],[-2,22],[-6,16],[-36,47],[9,-9],[5,-3],[6,2],[-6,2],[3,5],[3,5],[3,2],[1,1],[-4,2],[-11,-7],[-6,1],[-2,6],[-3,9],[-2,6],[-4,-2],[-3,0],[-3,13],[-2,5],[-5,9],[-10,22],[-8,13],[-4,20],[-12,14],[-8,27],[5,8],[3,-3],[-4,-7],[4,-3],[12,-2],[-2,-4],[0,-2],[1,-2],[1,-2],[8,0],[5,-9],[3,-12],[2,-16],[2,-5],[4,-4],[5,-2],[3,-3],[0,-5],[2,-5],[6,-2],[-3,6],[0,6],[2,7],[1,7],[2,5],[5,1],[6,-2],[7,0],[0,2],[-4,2],[-4,3],[-2,4],[0,4],[3,3],[3,-1],[9,-4],[4,-5],[2,-6],[1,-6],[3,-7],[13,-12],[4,-7],[1,-7],[-3,-13],[2,-5],[3,0],[2,6],[0,23],[2,7],[9,9],[2,6],[0,5],[-1,2],[1,2],[2,3],[3,1],[6,2],[2,1],[1,4],[-1,4],[0,3],[5,2],[4,-10],[0,9],[-4,6],[-4,6],[4,9],[21,20],[7,13],[32,36],[9,14],[5,15],[0,48],[3,7],[8,17],[2,7],[0,4],[2,8],[0,4],[-1,4],[-4,9],[0,5],[2,4],[2,4],[0,1],[694,0]]]}