{"objects":{"water":{"type":"GeometryCollection","geometries":[{"type":"MultiPolygon","properties":{"source":"naturalearthdata.com","kind":"ocean","area":989871000000000,"sort_rank":200,"min_zoom":0,"id":1},"arcs":[[[0]],[[1]],[[2]],[[3]],[[4]]]},{"type":"MultiLineString","properties":{"source":"naturalearthdata.com","kind":"ocean","sort_rank":205,"boundary":true,"min_zoom":0,"id":1},"arcs":[[5],[6],[7],[8],[9]]},{"type":"LineString","properties":{"source":"naturalearthdata.com","kind":"ocean","sort_rank":205,"boundary":true,"min_zoom":0,"id":3059},"arcs":[10]},{"type":"LineString","properties":{"source":"naturalearthdata.com","kind":"ocean","sort_rank":205,"boundary":true,"min_zoom":0,"id":3061},"arcs":[11]}]},"buildings":{"type":"GeometryCollection","geometries":[]},"places":{"type":"GeometryCollection","geometries":[]},"transit":{"type":"GeometryCollection","geometries":[]},"pois":{"type":"GeometryCollection","geometries":[]},"boundaries":{"type":"GeometryCollection","geometries":[]},"roads":{"type":"GeometryCollection","geometries":[]},"earth":{"type":"GeometryCollection","geometries":[{"type":"Polygon","properties":{"sort_rank":10,"source":"naturalearthdata.com","min_zoom":0,"kind":"earth","area":92616631212867},"arcs":[[12]]},{"type":"MultiPolygon","properties":{"sort_rank":10,"source":"naturalearthdata.com","min_zoom":3.0,"kind":"earth","area":25285855466},"arcs":[[[13]]]}]},"landuse":{"type":"GeometryCollection","geometries":[]}},"type":"Topology","transform":{"translate":[0.0,-74.0195433115],"scale":[0.002746582,0.0008317698]},"arcs":[[[3881,4096],[215,0],[0,-173],[-5,-1],[-10,9],[-18,25],[-15,34],[-4,5],[-14,-6],[-36,15],[-58,51],[-32,12],[-6,6],[-17,23]],[[2282,4096],[26,0],[-2,-3],[-13,-6],[-11,9]],[[2237,4096],[18,0],[2,-11],[1,-6],[-7,11],[-14,6]],[[2183,4096],[36,0],[-12,-15],[-6,-1],[-17,15],[-1,1]],[[1079,4096],[1089,0],[-56,-25],[-11,2],[-5,7],[-4,9],[-4,6],[-10,-3],[-10,4],[-5,-2],[-11,-15],[-8,-16],[-10,-11],[-53,23],[-9,-1],[-27,-22],[-10,-1],[-29,9],[-4,-2],[-2,-4],[-3,-3],[-50,20],[-19,-4],[-5,-7],[-2,-12],[0,-14],[-4,-13],[-5,-11],[-5,-5],[-5,-1],[-15,8],[-20,-3],[-83,-43],[-43,3],[-12,-7],[-4,0],[-6,3],[-12,11],[-6,2],[1,-20],[-4,-6],[-6,0],[-5,-2],[-3,-4],[-3,-14],[-2,-6],[-6,-10],[-18,-16],[-17,-10],[-46,11],[-32,-10],[-37,-25],[-8,1],[-14,5],[-7,1],[-7,-5],[4,-18],[-16,1],[-31,-25],[-25,-5],[-17,-13],[-91,-5],[-16,-11],[-8,-1],[-14,8],[-7,-7],[-5,-8],[-42,-27],[-35,12],[-56,-7],[-25,6],[-15,-11],[-8,-2],[-22,3],[-7,-4],[-14,-15],[-4,-2],[-4,2],[-8,9],[-4,2],[-7,-5],[-15,-19],[-94,-41],[-5,-6],[-8,-17],[-5,-6],[-74,-15],[-29,-33],[-51,-18],[-32,-33],[-10,-5],[-9,0],[-7,-5],[-9,-20],[-4,-6],[-18,-2],[-4,-6],[-5,-21],[-2,-4],[-95,-37],[-94,-36],[-50,-41],[-31,-6],[-7,-7],[-15,-32],[-6,-6],[-32,-8],[-10,-13],[-30,-56],[-9,-8],[-44,-12],[-21,-16],[-56,-85],[-7,-20],[-9,-44],[-7,-20],[-6,-11],[0,1066],[711,0],[0,-6],[-1,-7],[0,-7],[14,-30],[24,-23],[22,-3],[11,31],[-8,39],[-6,6],[200,0],[10,-12],[22,-8],[78,19],[2,1]],[[4096,3923],[-5,-1],[-10,9],[-18,25],[-15,34],[-4,5],[-14,-6],[-36,15],[-58,51],[-32,12],[-6,6],[-17,23]],[[2308,4096],[-2,-3],[-13,-6],[-11,9]],[[2255,4096],[2,-11],[1,-6],[-7,11],[-14,6]],[[2219,4096],[-12,-15],[-6,-1],[-17,15],[-1,1]],[[2168,4096],[-56,-25],[-11,2],[-5,7],[-4,9],[-4,6],[-10,-3],[-10,4],[-5,-2],[-11,-15],[-8,-16],[-10,-11],[-53,23],[-9,-1],[-27,-22],[-10,-1],[-29,9],[-4,-2],[-2,-4],[-3,-3],[-50,20],[-19,-4],[-5,-7],[-2,-12],[0,-14],[-4,-13],[-5,-11],[-5,-5],[-5,-1],[-15,8],[-20,-3],[-83,-43],[-43,3],[-12,-7],[-4,0],[-6,3],[-12,11],[-6,2],[1,-20],[-4,-6],[-6,0],[-5,-2],[-3,-4],[-3,-14],[-2,-6],[-6,-10],[-18,-16],[-17,-10],[-46,11],[-32,-10],[-37,-25],[-8,1],[-14,5],[-7,1],[-7,-5],[4,-18],[-16,1],[-31,-25],[-25,-5],[-17,-13],[-91,-5],[-16,-11],[-8,-1],[-14,8],[-7,-7],[-5,-8],[-42,-27],[-35,12],[-56,-7],[-25,6],[-15,-11],[-8,-2],[-22,3],[-7,-4],[-14,-15],[-4,-2],[-4,2],[-8,9],[-4,2],[-7,-5],[-15,-19],[-94,-41],[-5,-6],[-8,-17],[-5,-6],[-74,-15],[-29,-33],[-51,-18],[-32,-33],[-10,-5],[-9,0],[-7,-5],[-9,-20],[-4,-6],[-18,-2],[-4,-6],[-5,-21],[-2,-4],[-95,-37],[-94,-36],[-50,-41],[-31,-6],[-7,-7],[-15,-32],[-6,-6],[-32,-8],[-10,-13],[-30,-56],[-9,-8],[-44,-12],[-21,-16],[-56,-85],[-7,-20],[-9,-44],[-7,-20],[-6,-11]],[[711,4096],[0,-6],[-1,-7],[0,-7],[14,-30],[24,-23],[22,-3],[11,31],[-8,39],[-6,6]],[[967,4096],[10,-12],[22,-8],[78,19],[2,1]],[[0,0],[0,3030],[6,11],[7,20],[9,44],[7,20],[56,85],[21,16],[44,12],[9,8],[30,56],[10,13],[32,8],[6,6],[15,32],[7,7],[31,6],[50,41],[94,36],[95,37],[2,4],[5,21],[4,6],[18,2],[4,6],[9,20],[7,5],[9,0],[10,5],[32,33],[51,18],[29,33],[74,15],[5,6],[8,17],[5,6],[94,41],[15,19],[7,5],[4,-2],[8,-9],[4,-2],[4,2],[14,15],[7,4],[22,-3],[8,2],[15,11],[25,-6],[56,7],[35,-12],[42,27],[5,8],[7,7],[14,-8],[8,1],[16,11],[91,5],[17,13],[25,5],[31,25],[16,-1],[-4,18],[7,5],[7,-1],[14,-5],[8,-1],[37,25],[32,10],[46,-11],[17,10],[18,16],[6,10],[2,6],[3,14],[3,4],[5,2],[6,0],[4,6],[-1,20],[6,-2],[12,-11],[6,-3],[4,0],[12,7],[43,-3],[83,43],[20,3],[15,-8],[5,1],[5,5],[5,11],[4,13],[0,14],[2,12],[5,7],[19,4],[50,-20],[3,3],[2,4],[4,2],[29,-9],[10,1],[27,22],[9,1],[53,-23],[10,11],[6,12],[2,4],[11,15],[5,2],[10,-4],[10,3],[4,-6],[4,-9],[5,-7],[11,-2],[56,25],[15,0],[1,-1],[17,-15],[6,1],[12,15],[18,0],[1,0],[13,-6],[7,-11],[-1,6],[-2,11],[27,0],[11,-9],[13,6],[2,3],[1573,0],[17,-23],[6,-6],[32,-12],[58,-51],[36,-15],[14,6],[4,-5],[15,-34],[18,-25],[10,-9],[5,1],[0,-3923],[-4096,0]],[[967,4096],[112,0],[-2,-1],[-78,-19],[-22,8],[-10,12]]]}