{"objects":{"water":{"type":"GeometryCollection","geometries":[{"type":"MultiPolygon","properties":{"source":"naturalearthdata.com","kind":"ocean","area":989871000000000,"sort_rank":200,"min_zoom":0,"id":1},"arcs":[[[0],[1],[2]]]},{"type":"LineString","properties":{"source":"naturalearthdata.com","kind":"ocean","sort_rank":205,"boundary":true,"min_zoom":0,"id":1983},"arcs":[3]},{"type":"LineString","properties":{"source":"naturalearthdata.com","kind":"ocean","sort_rank":205,"boundary":true,"min_zoom":0,"id":1984},"arcs":[4]},{"type":"MultiLineString","properties":{"source":"naturalearthdata.com","kind":"ocean","sort_rank":205,"boundary":true,"min_zoom":0,"id":1985},"arcs":[[5],[6]]}]},"buildings":{"type":"GeometryCollection","geometries":[]},"places":{"type":"GeometryCollection","geometries":[]},"transit":{"type":"GeometryCollection","geometries":[]},"pois":{"type":"GeometryCollection","geometries":[]},"boundaries":{"type":"GeometryCollection","geometries":[]},"roads":{"type":"GeometryCollection","geometries":[]},"earth":{"type":"GeometryCollection","geometries":[{"type":"MultiPolygon","properties":{"sort_rank":10,"source":"naturalearthdata.com","min_zoom":0.5,"kind":"earth","area":12600116455},"arcs":[[[7]],[[8]]]},{"type":"MultiPolygon","properties":{"sort_rank":10,"source":"naturalearthdata.com","min_zoom":0,"kind":"earth","area":11714569654858},"arcs":[[[9]],[[10]]]}]},"landuse":{"type":"GeometryCollection","geometries":[{"type":"MultiPolygon","properties":{"source":"openstreetmap.org","kind":"park","area":922633245216,"tier":2,"min_zoom":4.0,"id":40984064,"sort_rank":24},"arcs":[[[11]]]}]}},"type":"Topology","transform":{"translate":[0.0,79.1713346408],"scale":[0.002746582,0.0004692088]},"arcs":[[[4096,1113],[0,-120],[-86,27],[-45,-67],[-8,-20],[-5,-26],[106,-49],[14,-23],[-173,-4],[-12,-40],[6,-43],[8,-22],[10,-8],[17,-4],[19,-26],[15,-38],[4,-6],[3,-6],[1,-15],[2,-16],[1,-13],[1,-23],[-3,-19],[-9,-23],[-4,-7],[-4,-3],[-2,-9],[3,-25],[3,-8],[17,-22],[-7,-14],[-21,-15],[26,-89],[26,-29],[6,-12],[4,-11],[10,-64],[5,-21],[5,-17],[17,-16],[10,-28],[8,-44],[3,-58],[1,-37],[-4068,0],[0,4096],[4096,0],[0,-2781],[-8,-1],[-14,-27],[18,-30],[-8,-33],[-2,-9],[1,-8],[1,-15],[0,-7],[-2,-2],[-3,-9],[-2,-2],[6,-28],[7,-20],[6,-11]],[[4017,1141],[-14,3],[-45,41],[-58,-13],[10,-33],[28,-8],[12,-19],[-40,-14],[5,-29],[10,-36],[15,-12],[37,4],[8,7],[7,12],[7,17],[7,7],[26,-14],[-4,32],[-6,12],[-15,0],[4,8],[2,9],[4,26]],[[3902,1215],[97,-21],[10,21],[-52,81],[-57,6],[-13,-15],[-11,-30],[3,-23],[11,-14],[12,-5]],[[4017,1141],[-14,3],[-45,41],[-58,-13],[10,-33],[28,-8],[12,-19],[-40,-14],[5,-29],[10,-36],[15,-12],[37,4],[8,7],[7,12],[7,17],[7,7],[26,-14],[-4,32],[-6,12],[-15,0],[4,8],[2,9],[4,26]],[[3902,1215],[97,-21],[10,21],[-52,81],[-57,6],[-13,-15],[-11,-30],[3,-23],[11,-14],[12,-5]],[[4096,1315],[-8,-1],[-14,-27],[18,-30],[-8,-33],[-2,-9],[1,-8],[1,-15],[0,-7],[-2,-2],[-3,-9],[-2,-2],[6,-28],[7,-20],[6,-11]],[[4096,993],[-86,27],[-45,-67],[-8,-20],[-5,-26],[106,-49],[14,-23],[-173,-4],[-12,-40],[6,-43],[8,-22],[10,-8],[17,-4],[19,-26],[15,-38],[4,-6],[3,-6],[1,-15],[2,-16],[1,-13],[1,-23],[-3,-19],[-9,-23],[-4,-7],[-4,-3],[-2,-9],[3,-25],[3,-8],[17,-22],[-7,-14],[-21,-15],[26,-89],[26,-29],[6,-12],[4,-11],[10,-64],[5,-21],[5,-17],[17,-16],[10,-28],[8,-44],[3,-58],[1,-37]],[[4017,1141],[-4,-26],[-2,-9],[-4,-8],[15,0],[6,-12],[4,-32],[-26,14],[-7,-7],[-7,-17],[-7,-12],[-8,-7],[-37,-4],[-15,12],[-10,36],[-5,29],[40,14],[-12,19],[-28,8],[-10,33],[58,13],[45,-41],[14,-3]],[[3902,1215],[-12,5],[-11,14],[-3,23],[11,30],[13,15],[57,-6],[52,-81],[-10,-21],[-97,21]],[[4096,993],[0,-993],[-28,0],[-1,37],[-3,58],[-8,44],[-10,28],[-17,16],[-5,17],[-5,21],[-10,64],[-4,11],[-6,12],[-26,29],[-26,89],[21,15],[7,14],[-17,22],[-3,8],[-3,25],[2,9],[4,3],[4,7],[9,23],[3,19],[-1,23],[-1,13],[-2,16],[-1,15],[-3,6],[-4,6],[-15,38],[-19,26],[-17,4],[-10,8],[-8,22],[-6,43],[12,40],[173,4],[-14,23],[-106,49],[5,26],[8,20],[45,67],[86,-27]],[[4096,1315],[0,-202],[-6,11],[-7,20],[-6,28],[2,2],[3,9],[2,2],[0,7],[-1,15],[-1,8],[2,9],[8,33],[-18,30],[14,27],[8,1]],[[4096,1960],[0,-1960],[-465,0],[-147,709],[-46,569],[34,167],[83,126],[292,258],[214,124],[35,7]]]}