{"objects":{"water":{"type":"GeometryCollection","geometries":[{"type":"MultiPolygon","properties":{"source":"naturalearthdata.com","kind":"ocean","area":990044000000000,"sort_rank":200,"min_zoom":0,"id":1},"arcs":[[[0],[1]]]},{"type":"MultiLineString","properties":{"source":"naturalearthdata.com","kind":"ocean","sort_rank":205,"boundary":true,"min_zoom":0,"id":1199},"arcs":[[2],[3]]},{"type":"LineString","properties":{"source":"naturalearthdata.com","kind":"ocean","sort_rank":205,"boundary":true,"min_zoom":0,"id":1209},"arcs":[4]},{"type":"LineString","properties":{"source":"naturalearthdata.com","kind":"ocean","sort_rank":205,"boundary":true,"min_zoom":0,"id":1221},"arcs":[5]},{"type":"MultiLineString","properties":{"source":"naturalearthdata.com","kind":"ocean","sort_rank":205,"boundary":true,"min_zoom":0,"id":1222},"arcs":[[6],[7]]}]},"buildings":{"type":"GeometryCollection","geometries":[]},"places":{"type":"GeometryCollection","geometries":[]},"transit":{"type":"GeometryCollection","geometries":[]},"pois":{"type":"GeometryCollection","geometries":[]},"boundaries":{"type":"GeometryCollection","geometries":[]},"roads":{"type":"GeometryCollection","geometries":[]},"earth":{"type":"GeometryCollection","geometries":[{"type":"MultiPolygon","properties":{"sort_rank":10,"source":"naturalearthdata.com","min_zoom":0,"kind":"earth","area":608027485394504},"arcs":[[[8]],[[9]],[[10]]]},{"type":"MultiPolygon","properties":{"sort_rank":10,"source":"naturalearthdata.com","kind":"earth","min_zoom":2.0,"area":1753086625268},"arcs":[[[11]]]},{"type":"MultiPolygon","properties":{"sort_rank":10,"source":"naturalearthdata.com","min_zoom":0.5,"kind":"earth","area":1510850603365},"arcs":[[[12]]]}]},"landuse":{"type":"GeometryCollection","geometries":[]}},"type":"Topology","transform":{"translate":[-135.0,79.1713346408],"scale":[0.0109863281,0.0014354966]},"arcs":[[[4096,1576],[0,-638],[-20,21],[-29,19],[-10,13],[1,33],[0,10],[-4,22],[-34,63],[-20,50],[-44,139],[-12,58],[-10,37],[-19,41],[-19,24],[-56,47],[-27,13],[-25,-10],[-42,-1],[-10,-7],[-4,-6],[-1,-11],[0,-17],[1,-18],[2,-16],[8,-11],[20,-9],[44,-2],[11,-21],[5,-17],[-1,-18],[-4,-20],[-5,-11],[-9,-1],[-35,16],[-36,-34],[-27,-18],[-42,12],[-27,-34],[-21,-95],[-1,-18],[29,-21],[37,-39],[18,-77],[36,-22],[15,-16],[9,-19],[-50,-1],[-23,10],[-14,-1],[-12,53],[-19,27],[-25,3],[-19,25],[-19,-4],[-19,-20],[-2,-96],[23,-58],[26,-52],[6,-20],[-18,-1],[-24,12],[-9,-2],[-21,-19],[-4,-14],[-1,-12],[2,-16],[6,-18],[8,-14],[18,-17],[11,-6],[23,12],[22,-67],[19,0],[55,47],[30,-5],[-4,-9],[-25,-28],[-2,-11],[-1,-16],[1,-20],[-1,-13],[-3,-5],[-68,3],[-35,10],[-91,48],[13,-78],[3,-32],[1,-43],[12,-48],[42,-99],[13,-22],[11,-9],[17,-5],[23,0],[29,16],[36,34],[16,8],[-6,-35],[-4,-14],[-72,-69],[-23,-12],[-9,-16],[-7,-76],[7,-19],[31,-25],[19,-45],[6,2],[18,29],[40,39],[11,7],[16,0],[14,-4],[1,-7],[-9,-20],[-6,-29],[1,-8],[5,-6],[10,-3],[35,44],[15,10],[32,43],[19,14],[16,0],[15,-7],[21,-46],[51,-6],[36,5],[-4,-8],[-48,-30],[-62,-24],[-12,-68],[-7,-10],[-914,0],[-10,42],[-26,44],[-21,15],[-26,25],[-23,-3],[-80,-26],[-50,9],[-4,-15],[-7,-41],[-5,-50],[-2679,0],[0,4096],[4096,0],[0,-2199],[-15,0],[-30,-12],[-41,-35],[-25,-27],[-19,-31],[-20,-42],[-3,-33],[25,-40],[10,-5],[18,14],[24,34],[19,11],[13,-12],[14,-5],[30,1],[0,-37],[-50,-81],[-5,-24],[17,-17],[10,-3],[28,23]],[[3238,665],[-28,13],[-6,-3],[-23,-33],[-2,-8],[-4,-36],[-1,-20],[3,-57],[4,-15],[5,-10],[13,-3],[31,6],[16,-34],[3,-25],[0,-13],[8,-16],[25,-26],[5,1],[4,8],[5,34],[2,45],[-2,91],[-3,39],[-7,31],[-11,21],[-12,9],[-25,1]],[[4096,1897],[-15,0],[-30,-12],[-41,-35],[-25,-27],[-19,-31],[-20,-42],[-3,-33],[25,-40],[10,-5],[18,14],[24,34],[19,11],[13,-12],[14,-5],[30,1]],[[4096,1678],[-50,-81],[-5,-24],[17,-17],[10,-3],[28,23]],[[3230,499],[16,-34],[3,-25],[0,-13],[8,-16],[25,-26],[5,1],[4,8],[5,34],[2,45],[-2,91],[-3,39],[-7,31],[-11,21],[-12,9],[-25,1],[-28,13],[-6,-3],[-23,-33],[-2,-8],[-4,-36],[-1,-20],[3,-57],[4,-15],[5,-10],[13,-3],[31,6]],[[2931,0],[-10,42],[-26,44],[-21,15],[-26,25],[-23,-3],[-80,-26],[-50,9],[-4,-15],[-7,-41],[-5,-50]],[[3936,1308],[-12,58],[-10,37],[-19,41],[-19,24],[-56,47],[-27,13],[-25,-10],[-42,-1],[-10,-7],[-4,-6],[-1,-11],[0,-17],[1,-18],[2,-16],[8,-11],[20,-9],[44,-2],[11,-21],[5,-17],[-1,-18],[-4,-20],[-5,-11],[-9,-1],[-35,16],[-36,-34],[-27,-18],[-42,12],[-27,-34],[-21,-95],[-1,-18],[29,-21],[37,-39],[18,-77],[36,-22],[15,-16],[9,-19],[-50,-1],[-23,10],[-14,-1],[-12,53],[-19,27],[-25,3],[-19,25],[-19,-4],[-19,-20],[-2,-96],[23,-58],[26,-52],[6,-20],[-18,-1],[-24,12],[-9,-2],[-21,-19],[-4,-14],[-1,-12],[2,-16],[6,-18],[8,-14],[18,-17],[11,-6],[23,12],[22,-67],[19,0],[55,47],[30,-5],[-4,-9],[-25,-28],[-2,-11],[-1,-16],[1,-20],[-1,-13],[-3,-5],[-68,3],[-35,10],[-91,48],[13,-78],[3,-32],[1,-43],[12,-48],[42,-99],[13,-22],[11,-9],[17,-5],[23,0],[29,16],[36,34],[16,8],[-6,-35],[-4,-14],[-72,-69],[-23,-12],[-9,-16],[-7,-76],[7,-19],[31,-25],[19,-45],[6,2],[18,29],[40,39],[11,7],[16,0],[14,-4],[1,-7],[-9,-20],[-6,-29],[1,-8],[5,-6],[10,-3],[35,44],[15,10],[32,43],[19,14],[16,0],[15,-7],[21,-46],[51,-6],[36,5],[-4,-8],[-48,-30],[-62,-24],[-12,-68],[-7,-10]],[[4096,938],[-20,21],[-29,19],[-10,13],[1,33],[0,10],[-4,22],[-34,63],[-20,50],[-44,139]],[[4096,938],[0,-938],[-251,0],[7,10],[12,68],[62,24],[48,30],[4,8],[-36,-5],[-51,6],[-21,46],[-15,7],[-16,0],[-19,-14],[-32,-43],[-15,-10],[-35,-44],[-10,3],[-5,6],[-1,8],[6,29],[9,20],[-1,7],[-14,4],[-16,0],[-11,-7],[-40,-39],[-18,-29],[-6,-2],[-19,45],[-31,25],[-7,19],[7,76],[9,16],[23,12],[72,69],[4,14],[6,35],[-16,-8],[-36,-34],[-29,-16],[-23,0],[-17,5],[-11,9],[-13,22],[-42,99],[-12,48],[-1,43],[-3,32],[-13,78],[91,-48],[35,-10],[68,-3],[3,5],[1,13],[-1,20],[1,16],[2,11],[25,28],[4,9],[-30,5],[-55,-47],[-19,0],[-22,67],[-23,-12],[-11,6],[-18,17],[-8,14],[-6,18],[-2,16],[1,12],[4,14],[21,19],[9,2],[24,-12],[18,1],[-6,20],[-26,52],[-23,58],[2,96],[19,20],[19,4],[19,-25],[25,-3],[19,-27],[12,-53],[14,1],[23,-10],[50,1],[-9,19],[-15,16],[-36,22],[-18,77],[-37,39],[-29,21],[1,18],[21,95],[27,34],[42,-12],[27,18],[36,34],[35,-16],[9,1],[5,11],[4,20],[1,18],[-5,17],[-11,21],[-44,2],[-20,9],[-8,11],[-2,16],[-1,18],[0,17],[1,11],[4,6],[10,7],[42,1],[25,10],[27,-13],[56,-47],[19,-24],[19,-41],[10,-37],[12,-58],[44,-139],[20,-50],[34,-63],[4,-22],[0,-10],[-1,-33],[10,-13],[29,-19],[20,-21]],[[4096,1678],[0,-102],[-28,-23],[-10,3],[-17,17],[5,24],[50,81]],[[4096,1897],[0,-182],[-30,-1],[-14,5],[-13,12],[-19,-11],[-24,-34],[-18,-14],[-10,5],[-25,40],[3,33],[20,42],[19,31],[25,27],[41,35],[30,12],[15,0]],[[3296,564],[2,-91],[-2,-45],[-5,-34],[-4,-8],[-5,-1],[-25,26],[-8,16],[0,13],[-3,25],[-16,34],[-31,-6],[-13,3],[-5,10],[-4,15],[-3,57],[1,20],[4,36],[2,8],[23,33],[6,3],[28,-13],[25,-1],[12,-9],[11,-21],[7,-31],[3,-39]],[[2931,0],[-252,0],[5,50],[7,41],[4,15],[50,-9],[80,26],[23,3],[26,-25],[21,-15],[26,-44],[10,-42]]]}