{"objects":{"water":{"type":"GeometryCollection","geometries":[{"type":"MultiPolygon","properties":{"source":"naturalearthdata.com","kind":"ocean","area":990044000000000,"sort_rank":200,"min_zoom":0,"id":1},"arcs":[[[0]]]},{"type":"Point","properties":{"name:ia":"Oceano Pacific Sud","label_placement":true,"collision_rank":398,"name:ms":"Lautan Pasifik Selatan","name:ar":"\u0627\u0644\u0645\u062d\u064a\u0637 \u0627\u0644\u0647\u0627\u062f\u064a \u0627\u0644\u062c\u0646\u0648\u0628\u064a","name:cs":"Ji\u017en\u00ed Tich\u00fd oce\u00e1n","name:is":"Su\u00f0ur-Kyrrahaf","name:ru":"\u042e\u0436\u043d\u044b\u0439 \u0422\u0438\u0445\u0438\u0439 \u043e\u043a\u0435\u0430\u043d","name:vi":"Nam Th\u00e1i B\u00ecnh D\u01b0\u01a1ng","name:pl":"Po\u0142udniowy Ocean Spokojny","id":305640292,"name:fa":"\u0627\u0642\u06cc\u0627\u0646\u0648\u0633 \u0622\u0631\u0627\u0645 \u062c\u0646\u0648\u0628\u06cc","sort_rank":200,"name:de":"S\u00fcdpazifischer Ozean","source":"openstreetmap.org","name:fr":"Oc\u00e9an Pacifique sud","name:zh":"\u5357\u592a\u5e73\u6d0b","name:sl":"Ju\u017eni Tihi ocean","name:sk":"Ju\u017en\u00fd Tich\u00fd Oce\u00e1n","name:ja":"\u5357\u592a\u5e73\u6d0b","name:lt":"Piet\u0173 Ramusis vandenynas","alt_name:de":"S\u00fcdpazifik","kind":"sea","name:be":"\u041f\u0430\u045e\u0434\u043d\u0435\u0432\u044b \u0426\u0456\u0445\u0456 \u0430\u043a\u0456\u044f\u043d","name:hu":"D\u00e9l-Csendes-\u00f3ce\u00e1n","name:hr":"Ju\u017eni Tihi ocean","name:el":"\u039d\u03cc\u03c4\u03b9\u03bf\u03c2 \u0395\u03b9\u03c1\u03b7\u03bd\u03b9\u03ba\u03cc\u03c2 \u03a9\u03ba\u03b5\u03b1\u03bd\u03cc\u03c2","name:eo":"Suda Pacifiko","name:en":"South Pacific Ocean","name":"South Pacific Ocean","min_zoom":3.0,"wikidata_id":"Q56884432","name:es":"Oc\u00e9ano Pac\u00edfico Sur"},"coordinates":[455,3451]}]},"buildings":{"type":"GeometryCollection","geometries":[]},"places":{"type":"GeometryCollection","geometries":[]},"transit":{"type":"GeometryCollection","geometries":[]},"pois":{"type":"GeometryCollection","geometries":[]},"boundaries":{"type":"GeometryCollection","geometries":[]},"roads":{"type":"GeometryCollection","geometries":[]},"earth":{"type":"GeometryCollection","geometries":[]},"landuse":{"type":"GeometryCollection","geometries":[]}},"type":"Topology","transform":{"translate":[-135.0,-66.5132604431],"scale":[0.0109863281,0.006233731]},"arcs":[[[4096,0],[-4096,0],[0,4096],[4096,0],[0,-4096]]]}