{"objects":{"water":{"type":"GeometryCollection","geometries":[{"type":"Polygon","properties":{"source":"naturalearthdata.com","kind":"ocean","area":990044000000000,"sort_rank":200,"min_zoom":0,"id":1},"arcs":[[0]]},{"type":"MultiLineString","properties":{"source":"naturalearthdata.com","kind":"ocean","sort_rank":205,"boundary":true,"min_zoom":0,"id":51},"arcs":[[1],[2]]},{"type":"MultiLineString","properties":{"source":"naturalearthdata.com","kind":"ocean","sort_rank":205,"boundary":true,"min_zoom":0,"id":52},"arcs":[[3],[4]]},{"type":"LineString","properties":{"source":"naturalearthdata.com","kind":"ocean","sort_rank":205,"boundary":true,"min_zoom":0,"id":233},"arcs":[5]},{"type":"MultiLineString","properties":{"source":"naturalearthdata.com","kind":"ocean","sort_rank":205,"boundary":true,"min_zoom":0,"id":234},"arcs":[[6],[7]]},{"type":"LineString","properties":{"source":"naturalearthdata.com","kind":"ocean","sort_rank":205,"boundary":true,"min_zoom":0,"id":1386},"arcs":[8]}]},"buildings":{"type":"GeometryCollection","geometries":[]},"places":{"type":"GeometryCollection","geometries":[]},"transit":{"type":"GeometryCollection","geometries":[]},"pois":{"type":"GeometryCollection","geometries":[]},"boundaries":{"type":"GeometryCollection","geometries":[]},"roads":{"type":"GeometryCollection","geometries":[]},"earth":{"type":"GeometryCollection","geometries":[{"type":"MultiPolygon","properties":{"sort_rank":10,"source":"naturalearthdata.com","kind":"earth","min_zoom":2.0,"area":437295020042},"arcs":[[[9]]]},{"type":"MultiPolygon","properties":{"sort_rank":10,"source":"naturalearthdata.com","min_zoom":1.0,"kind":"earth","area":1204687205844},"arcs":[[[10]],[[11]],[[12]]]},{"type":"MultiPolygon","properties":{"sort_rank":10,"source":"naturalearthdata.com","min_zoom":0,"kind":"earth","area":130720926000100},"arcs":[[[13]]]}]},"landuse":{"type":"GeometryCollection","geometries":[]}},"type":"Topology","transform":{"translate":[-135.0,-74.0195433115],"scale":[0.0054931641,0.0018325886]},"arcs":[[[3848,0],[-88,52],[-51,12],[-30,-47],[-4,-17],[-300,0],[2,1],[54,59],[-9,8],[-33,16],[-128,-84],[-379,0],[20,12],[13,17],[20,48],[-6,24],[-9,14],[-47,17],[-54,1],[-28,-18],[-24,-3],[25,-96],[-6,-9],[-10,-7],[-118,0],[23,17],[-7,36],[-12,36],[-33,55],[-30,2],[-141,10],[-85,12],[-86,16],[-86,1],[-19,4],[-18,-5],[-25,-31],[-8,-35],[-9,-22],[28,-3],[28,6],[8,-3],[7,-13],[60,-54],[-16,-15],[-7,-14],[-212,0],[-3,6],[-36,20],[-4,15],[9,21],[11,14],[-16,25],[-75,52],[-14,2],[-14,-8],[-54,-43],[-21,2],[-21,13],[-19,3],[-41,-13],[-22,-1],[-23,11],[-11,12],[0,17],[6,16],[19,9],[20,-4],[61,11],[2,13],[-11,26],[-32,30],[-11,15],[-12,45],[-20,26],[-22,9],[-21,18],[-16,23],[-49,15],[-48,4],[-43,-6],[-27,-10],[-26,8],[-26,-6],[-23,-42],[-7,-36],[3,-37],[15,-28],[18,-10],[0,-70],[4,-6],[16,-5],[21,4],[19,27],[12,11],[23,2],[23,-9],[8,-6],[8,-11],[6,-25],[-1,-36],[41,-43],[65,-35],[30,-35],[-1689,0],[0,4096],[4096,0],[0,-4096],[-248,0]],[[2599,146],[-141,10],[-85,12],[-86,16],[-86,1],[-19,4],[-18,-5],[-25,-31],[-8,-35],[-9,-22],[28,-3],[28,6],[8,-3],[7,-13],[60,-54],[-16,-15],[-7,-14]],[[2658,0],[23,17],[-7,36],[-12,36],[-33,55],[-30,2]],[[1414,237],[0,-70],[4,-6],[16,-5],[21,4],[19,27],[12,11],[23,2],[23,-9],[8,-6],[8,-11],[6,-25],[-1,-36],[41,-43],[65,-35],[30,-35]],[[2018,0],[-3,6],[-36,20],[-4,15],[9,21],[11,14],[-16,25],[-75,52],[-14,2],[-14,-8],[-54,-43],[-21,2],[-21,13],[-19,3],[-41,-13],[-22,-1],[-23,11],[-11,12],[0,17],[6,16],[19,9],[20,-4],[61,11],[2,13],[-11,26],[-32,30],[-11,15],[-12,45],[-20,26],[-22,9],[-21,18],[-16,23],[-49,15],[-48,4],[-43,-6],[-27,-10],[-26,8],[-26,-6],[-23,-42],[-7,-36],[3,-37],[15,-28],[18,-10]],[[2882,0],[20,12],[13,17],[20,48],[-6,24],[-9,14],[-47,17],[-54,1],[-28,-18],[-24,-3],[25,-96],[-6,-9],[-10,-7]],[[3389,84],[-128,-84]],[[3375,0],[2,1],[54,59],[-9,8],[-33,16]],[[3675,0],[4,17],[30,47],[51,-12],[88,-52]],[[3375,0],[-114,0],[128,84],[33,-16],[9,-8],[-54,-59],[-2,-1]],[[2658,0],[-428,0],[7,14],[16,15],[-60,54],[-7,13],[-8,3],[-28,-6],[-28,3],[9,22],[8,35],[25,31],[18,5],[19,-4],[86,-1],[86,-16],[85,-12],[141,-10],[30,-2],[33,-55],[12,-36],[7,-36],[-23,-17]],[[2882,0],[-106,0],[10,7],[6,9],[-25,96],[24,3],[28,18],[54,-1],[47,-17],[9,-14],[6,-24],[-20,-48],[-13,-17],[-20,-12]],[[2018,0],[-329,0],[-30,35],[-65,35],[-41,43],[1,36],[-6,25],[-8,11],[-8,6],[-23,9],[-23,-2],[-12,-11],[-19,-27],[-21,-4],[-16,5],[-4,6],[0,70],[-18,10],[-15,28],[-3,37],[7,36],[23,42],[26,6],[26,-8],[27,10],[43,6],[48,-4],[49,-15],[16,-23],[21,-18],[22,-9],[20,-26],[12,-45],[11,-15],[32,-30],[11,-26],[-2,-13],[-61,-11],[-20,4],[-19,-9],[-6,-16],[0,-17],[11,-12],[23,-11],[22,1],[41,13],[19,-3],[21,-13],[21,-2],[54,43],[14,8],[14,-2],[75,-52],[16,-25],[-11,-14],[-9,-21],[4,-15],[36,-20],[3,-6]],[[3848,0],[-173,0],[4,17],[30,47],[51,-12],[88,-52]]]}