{"objects":{"water":{"type":"GeometryCollection","geometries":[{"type":"MultiPolygon","properties":{"source":"naturalearthdata.com","kind":"ocean","area":990044000000000,"sort_rank":200,"min_zoom":0,"id":1},"arcs":[[[0],[1],[2],[3],[4],[5]]]},{"type":"LineString","properties":{"source":"naturalearthdata.com","kind":"ocean","sort_rank":205,"boundary":true,"min_zoom":0,"id":1212},"arcs":[6]},{"type":"LineString","properties":{"source":"naturalearthdata.com","kind":"ocean","sort_rank":205,"boundary":true,"min_zoom":0,"id":1214},"arcs":[7]},{"type":"LineString","properties":{"source":"naturalearthdata.com","kind":"ocean","sort_rank":205,"boundary":true,"min_zoom":0,"id":1225},"arcs":[8]},{"type":"LineString","properties":{"source":"naturalearthdata.com","kind":"ocean","sort_rank":205,"boundary":true,"min_zoom":0,"id":1227},"arcs":[9]},{"type":"MultiLineString","properties":{"source":"naturalearthdata.com","kind":"ocean","sort_rank":205,"boundary":true,"min_zoom":0,"id":1228},"arcs":[[10],[11]]},{"type":"MultiLineString","properties":{"source":"naturalearthdata.com","kind":"ocean","sort_rank":205,"boundary":true,"min_zoom":0,"id":1236},"arcs":[[12],[13],[14]]},{"type":"LineString","properties":{"source":"naturalearthdata.com","kind":"ocean","sort_rank":205,"boundary":true,"min_zoom":0,"id":1285},"arcs":[15]},{"type":"LineString","properties":{"source":"naturalearthdata.com","kind":"ocean","sort_rank":205,"boundary":true,"min_zoom":0,"id":1286},"arcs":[16]},{"type":"LineString","properties":{"source":"naturalearthdata.com","kind":"ocean","sort_rank":205,"boundary":true,"min_zoom":0,"id":1287},"arcs":[17]}]},"buildings":{"type":"GeometryCollection","geometries":[]},"places":{"type":"GeometryCollection","geometries":[]},"transit":{"type":"GeometryCollection","geometries":[]},"pois":{"type":"GeometryCollection","geometries":[]},"boundaries":{"type":"GeometryCollection","geometries":[]},"roads":{"type":"GeometryCollection","geometries":[]},"earth":{"type":"GeometryCollection","geometries":[{"type":"MultiPolygon","properties":{"sort_rank":10,"source":"naturalearthdata.com","min_zoom":1.5,"kind":"earth","area":466505341662},"arcs":[[[18]]]},{"type":"MultiPolygon","properties":{"sort_rank":10,"source":"naturalearthdata.com","kind":"earth","min_zoom":2.0,"area":465164376090},"arcs":[[[19]],[[20]]]},{"type":"MultiPolygon","properties":{"sort_rank":10,"source":"naturalearthdata.com","kind":"earth","min_zoom":4.0,"area":12382735697},"arcs":[[[21]]]},{"type":"MultiPolygon","properties":{"sort_rank":10,"source":"naturalearthdata.com","min_zoom":0.5,"kind":"earth","area":1116398715200},"arcs":[[[22]]]},{"type":"MultiPolygon","properties":{"sort_rank":10,"source":"naturalearthdata.com","min_zoom":1.0,"kind":"earth","area":712934014635},"arcs":[[[23]]]},{"type":"MultiPolygon","properties":{"sort_rank":10,"source":"naturalearthdata.com","min_zoom":3.0,"kind":"earth","area":261709008765},"arcs":[[[24]]]},{"type":"MultiPolygon","properties":{"sort_rank":10,"source":"naturalearthdata.com","min_zoom":0,"kind":"earth","area":119982075948881},"arcs":[[[25]],[[26]],[[27]],[[28]]]}]},"landuse":{"type":"GeometryCollection","geometries":[{"type":"MultiPolygon","properties":{"kind":"national_park","protect_class":"2","area":20348673556490,"sort_rank":18,"source":"openstreetmap.org","min_zoom":3.0,"tier":1,"id":-8515283},"arcs":[[[29]],[[30]]]}]}},"type":"Topology","transform":{"translate":[-135.0,74.0195433115],"scale":[0.0054931641,0.0012577616]},"arcs":[[[4096,318],[0,-318],[-765,0],[-4,6],[-41,59],[-45,56],[-58,48],[-35,16],[-47,11],[-43,1],[-62,-18],[-15,-10],[-22,-32],[-51,-117],[-10,-19],[-2,-1],[-6,0],[-1,7],[-2,79],[-2,32],[-3,14],[-7,10],[-20,6],[-28,-4],[-47,-73],[-1,3],[0,14],[3,19],[28,63],[-69,16],[-111,79],[-60,54],[-45,55],[-34,32],[-34,12],[-45,-4],[-159,-61],[-154,-22],[-223,-70],[-3,-17],[12,-18],[3,-27],[10,-17],[44,-182],[-1942,0],[0,4096],[4096,0],[0,-521],[-26,-13],[-39,-26],[-53,-47],[-24,-44],[-2,-14],[12,-29],[10,-12],[31,8],[80,38],[11,3],[0,-289],[-55,-32],[-40,-18],[-30,-5],[-5,-7],[-10,-35],[-3,-19],[0,-18],[3,-27],[14,-48],[4,-34],[9,-34],[-3,-12],[-9,-15],[-4,-15],[2,-17],[6,-23],[22,-15],[22,-29],[51,-25],[26,-33],[0,-1010],[-36,56],[-51,34],[-35,11],[-35,-8],[-84,-33],[-18,18],[-25,57],[-8,24],[-2,14],[0,37],[-5,22],[-9,23],[-19,18],[-43,22],[-43,3],[-42,-7],[-106,-48],[-36,-57],[-8,-28],[-2,-27],[2,-21],[5,-14],[24,-10],[116,-22],[27,-13],[18,-18],[-29,-5],[-151,14],[-53,14],[-27,-6],[-45,-41],[-25,-37],[-3,-18],[11,-45],[-6,-20],[-15,-27],[2,-23],[38,-30],[19,-8],[134,11],[111,1],[-33,-23],[-55,-21],[-66,0],[-100,-26],[-75,-29],[-31,-21],[-12,-21],[-23,-59],[5,-22],[20,-12],[109,-13],[72,17],[166,79],[1,-9],[-5,-13],[-20,-32],[-15,-16],[-135,-100],[-25,-7],[-123,-2],[-48,-6],[-19,-11],[-14,-14],[-10,-16],[-23,-52],[-11,-34],[-4,-17],[0,-16],[6,-31],[11,-23],[91,-38],[30,-4],[66,16],[61,-103],[75,-59],[9,5],[13,28],[6,37],[7,20],[11,18],[12,9],[13,-1],[11,-10],[19,-42],[9,-31],[9,-19],[10,-7],[30,18],[74,70],[17,43],[0,24],[-27,69],[-2,14],[6,7],[10,-3],[26,-25],[21,-8],[8,41],[9,80],[4,20],[7,14],[6,-4],[12,-33],[7,-10],[53,29],[22,3],[-7,-15],[-46,-60],[-10,-20],[-7,-29],[-6,-39],[4,-18],[1,-47],[2,-13],[9,-23],[15,-12],[68,20],[71,11],[17,10],[10,14],[18,39],[9,14],[10,6],[18,-8],[0,-161],[-30,-4],[-31,-15],[-89,-80],[-98,-50],[-49,-36],[-33,-41],[-12,-35],[20,-53],[17,-24],[62,-68],[30,-28],[28,-19],[91,-22],[90,12],[4,2]],[[3035,1240],[19,25],[61,155],[31,92],[17,36],[23,88],[-3,18],[-22,12],[-21,-2],[-25,-29],[-45,-65],[-44,-29],[-45,-41],[-69,-109],[-41,-56],[-17,-29],[-13,-36],[2,-13],[14,-12],[40,-13],[49,-37],[37,-6],[52,51]],[[2563,1427],[4,24],[4,49],[-2,17],[-5,8],[-14,-8],[-9,-20],[4,-15],[1,-13],[-2,-16],[-36,-55],[-3,-21],[16,-9],[14,4],[12,16],[10,19],[6,20]],[[2656,1436],[8,-1],[37,22],[46,5],[32,45],[12,25],[11,30],[13,-2],[2,12],[0,27],[-4,17],[-32,38],[-3,14],[18,31],[1,27],[-3,42],[1,29],[12,37],[10,11],[7,-16],[7,-35],[15,-43],[21,-50],[15,-26],[16,-2],[16,17],[7,18],[19,72],[7,15],[31,46],[3,24],[-3,42],[-29,36],[-4,18],[6,21],[11,10],[28,0],[20,18],[6,32],[4,59],[7,31],[13,28],[18,19],[23,10],[35,26],[12,-1],[7,-16],[-5,-40],[-17,-64],[-12,-63],[-7,-62],[-3,-39],[5,-33],[28,-48],[19,-23],[44,-35],[27,0],[20,7],[15,14],[8,19],[12,40],[3,24],[2,53],[0,21],[3,28],[97,36],[45,27],[26,34],[17,27],[7,19],[0,20],[-13,38],[-40,72],[-3,21],[12,12],[14,2],[36,-8],[18,24],[-8,24],[-39,48],[-39,57],[-8,29],[21,32],[107,70],[22,21],[6,13],[-1,13],[-13,30],[-84,78],[-36,44],[-28,21],[-27,4],[-59,-15],[-21,-20],[-16,-31],[-2,-12],[3,-14],[48,-27],[12,-14],[-17,-27],[-9,-5],[-39,7],[-16,10],[-12,-24],[-12,-14],[-25,3],[-107,51],[-149,-39],[-49,-22],[-42,-51],[-31,-51],[-62,-82],[-67,-113],[-20,-21],[-8,-14],[-15,-56],[-9,-19],[-93,-81],[-19,-24],[-18,-31],[-66,-134],[-9,-9],[-137,-32],[-10,-9],[-18,-30],[-46,-99],[-19,-50],[-5,-24],[40,22],[11,4],[6,-5],[1,-7],[-4,-10],[0,-15],[11,-19],[0,-13],[-11,-34],[-7,-6],[1,-17],[9,-29],[11,-17],[24,-6],[17,13],[45,46],[27,13],[39,-11],[49,-31],[19,-4],[20,6],[35,29],[22,114],[9,15],[7,-3],[7,-10],[8,-26],[17,-79],[13,-21],[9,-40],[10,-70],[9,-35]],[[3769,3215],[-6,11],[-51,-29],[-21,-20],[-12,-18],[-18,-13],[-25,-7],[8,-42],[68,-116],[59,-38],[33,0],[49,27],[20,16],[19,30],[0,15],[-14,30],[-4,16],[-9,11],[-23,10],[-35,49],[-17,16],[-18,5],[-4,23],[1,24]],[[3876,2269],[-33,17],[-97,-15],[-41,-20],[-34,-45],[5,-16],[10,-12],[189,-38],[28,26],[13,31],[-5,34],[-13,17],[-22,21]],[[4096,3575],[-26,-13],[-39,-26],[-53,-47],[-24,-44],[-2,-14],[12,-29],[10,-12],[31,8],[80,38],[11,3]],[[3163,1548],[23,88],[-3,18],[-22,12],[-21,-2],[-25,-29],[-45,-65],[-44,-29],[-45,-41],[-69,-109],[-41,-56],[-17,-29],[-13,-36],[2,-13],[14,-12],[40,-13],[49,-37],[37,-6],[52,51],[19,25],[61,155],[31,92],[17,36]],[[4096,3150],[-55,-32],[-40,-18],[-30,-5],[-5,-7],[-10,-35],[-3,-19],[0,-18],[3,-27],[14,-48],[4,-34],[9,-34],[-3,-12],[-9,-15],[-4,-15],[2,-17],[6,-23],[22,-15],[22,-29],[51,-25],[26,-33]],[[2978,1907],[-29,36],[-4,18],[6,21],[11,10],[28,0],[20,18],[6,32],[4,59],[7,31],[13,28],[18,19],[23,10],[35,26],[12,-1],[7,-16],[-5,-40],[-17,-64],[-12,-63],[-7,-62],[-3,-39],[5,-33],[28,-48],[19,-23],[44,-35],[27,0],[20,7],[15,14],[8,19],[12,40],[3,24],[2,53],[0,21],[3,28],[97,36],[45,27],[26,34],[17,27],[7,19],[0,20],[-13,38],[-40,72],[-3,21],[12,12],[14,2],[36,-8],[18,24],[-8,24],[-39,48],[-39,57],[-8,29],[21,32],[107,70],[22,21],[6,13],[-1,13],[-13,30],[-84,78],[-36,44],[-28,21],[-27,4],[-59,-15],[-21,-20],[-16,-31],[-2,-12],[3,-14],[48,-27],[12,-14],[-17,-27],[-9,-5],[-39,7],[-16,10],[-12,-24],[-12,-14],[-25,3],[-107,51],[-149,-39],[-49,-22],[-42,-51],[-31,-51],[-62,-82],[-67,-113],[-20,-21],[-8,-14],[-15,-56],[-9,-19],[-93,-81],[-19,-24],[-18,-31],[-66,-134],[-9,-9],[-137,-32],[-10,-9],[-18,-30],[-46,-99],[-19,-50],[-5,-24],[40,22],[11,4],[6,-5],[1,-7],[-4,-10],[0,-15],[11,-19],[0,-13],[-11,-34],[-7,-6],[1,-17],[9,-29],[11,-17],[24,-6],[17,13],[45,46],[27,13],[39,-11],[49,-31],[19,-4],[20,6],[35,29],[22,114],[9,15],[7,-3],[7,-10],[8,-26],[17,-79],[13,-21],[9,-40],[10,-70],[9,-35],[8,-1],[37,22],[46,5],[32,45],[12,25],[11,30],[13,-2],[2,12],[0,27],[-4,17],[-32,38],[-3,14],[18,31],[1,27],[-3,42],[1,29],[12,37],[10,11],[7,-16],[7,-35],[15,-43],[21,-50],[15,-26],[16,-2],[16,17],[7,18],[19,72],[7,15],[31,46],[3,24],[-3,42]],[[4096,1679],[-36,56],[-51,34],[-35,11],[-35,-8],[-84,-33],[-18,18],[-25,57],[-8,24],[-2,14],[0,37],[-5,22],[-9,23],[-19,18],[-43,22],[-43,3],[-42,-7],[-106,-48],[-36,-57],[-8,-28],[-2,-27],[2,-21],[5,-14],[24,-10],[116,-22],[27,-13],[18,-18],[-29,-5],[-151,14],[-53,14],[-27,-6],[-45,-41],[-25,-37],[-3,-18],[11,-45],[-6,-20],[-15,-27],[2,-23],[38,-30],[19,-8],[134,11],[111,1],[-33,-23],[-55,-21],[-66,0],[-100,-26],[-75,-29],[-31,-21],[-12,-21],[-23,-59],[5,-22],[20,-12],[109,-13],[72,17],[166,79],[1,-9],[-5,-13],[-20,-32],[-15,-16],[-135,-100],[-25,-7],[-123,-2],[-48,-6],[-19,-11],[-14,-14],[-10,-16],[-23,-52],[-11,-34],[-4,-17],[0,-16],[6,-31],[11,-23],[91,-38],[30,-4],[66,16],[61,-103],[75,-59],[9,5],[13,28],[6,37],[7,20],[11,18],[12,9],[13,-1],[11,-10],[19,-42],[9,-31],[9,-19],[10,-7],[30,18],[74,70],[17,43],[0,24],[-27,69],[-2,14],[6,7],[10,-3],[26,-25],[21,-8],[8,41],[9,80],[4,20],[7,14],[6,-4],[12,-33],[7,-10],[53,29],[22,3],[-7,-15],[-46,-60],[-10,-20],[-7,-29],[-6,-39],[4,-18],[1,-47],[2,-13],[9,-23],[15,-12],[68,20],[71,11],[17,10],[10,14],[18,39],[9,14],[10,6],[18,-8]],[[4096,779],[-30,-4],[-31,-15],[-89,-80],[-98,-50],[-49,-36],[-33,-41],[-12,-35],[20,-53],[17,-24],[62,-68],[30,-28],[28,-19],[91,-22],[90,12],[4,2]],[[2253,353],[-154,-22],[-223,-70],[-3,-17],[12,-18],[3,-27],[10,-17],[44,-182]],[[3331,0],[-4,6],[-41,59],[-45,56],[-58,48],[-35,16],[-47,11],[-43,1],[-62,-18],[-15,-10],[-22,-32],[-51,-117],[-10,-19],[-2,-1]],[[2890,0],[-1,7],[-2,79],[-2,32],[-3,14],[-7,10],[-20,6],[-28,-4],[-47,-73],[-1,3],[0,14],[3,19],[28,63],[-69,16],[-111,79],[-60,54],[-45,55],[-34,32],[-34,12],[-45,-4],[-159,-61]],[[3842,3098],[-35,49],[-17,16],[-18,5],[-4,23],[1,24],[-6,11],[-51,-29],[-21,-20],[-12,-18],[-18,-13],[-25,-7],[8,-42],[68,-116],[59,-38],[33,0],[49,27],[20,16],[19,30],[0,15],[-14,30],[-4,16],[-9,11],[-23,10]],[[2541,1497],[4,-15],[1,-13],[-2,-16],[-36,-55],[-3,-21],[16,-9],[14,4],[12,16],[10,19],[6,20],[4,24],[4,49],[-2,17],[-5,8],[-14,-8],[-9,-20]],[[3875,2140],[28,26],[13,31],[-5,34],[-13,17],[-22,21],[-33,17],[-97,-15],[-41,-20],[-34,-45],[5,-16],[10,-12],[189,-38]],[[4096,3575],[0,-136],[-11,-3],[-80,-38],[-31,-8],[-10,12],[-12,29],[2,14],[24,44],[53,47],[39,26],[26,13]],[[3035,1240],[-52,-51],[-37,6],[-49,37],[-40,13],[-14,12],[-2,13],[13,36],[17,29],[41,56],[69,109],[45,41],[44,29],[45,65],[25,29],[21,2],[22,-12],[3,-18],[-23,-88],[-17,-36],[-31,-92],[-61,-155],[-19,-25]],[[3853,2970],[-49,-27],[-33,0],[-59,38],[-68,116],[-8,42],[25,7],[18,13],[12,18],[21,20],[51,29],[6,-11],[-1,-24],[4,-23],[18,-5],[17,-16],[35,-49],[23,-10],[9,-11],[4,-16],[14,-30],[0,-15],[-19,-30],[-20,-16]],[[2535,1372],[-14,-4],[-16,9],[3,21],[36,55],[2,16],[-1,13],[-4,15],[9,20],[14,8],[5,-8],[2,-17],[-4,-49],[-4,-24],[-6,-20],[-10,-19],[-12,-16]],[[3541,2658],[13,-30],[1,-13],[-6,-13],[-22,-21],[-107,-70],[-21,-32],[8,-29],[39,-57],[39,-48],[8,-24],[-18,-24],[-36,8],[-14,-2],[-12,-12],[3,-21],[40,-72],[13,-38],[0,-20],[-7,-19],[-17,-27],[-26,-34],[-45,-27],[-97,-36],[-3,-28],[0,-21],[-2,-53],[-3,-24],[-12,-40],[-8,-19],[-15,-14],[-20,-7],[-27,0],[-44,35],[-19,23],[-28,48],[-5,33],[3,39],[7,62],[12,63],[17,64],[5,40],[-7,16],[-12,1],[-35,-26],[-23,-10],[-18,-19],[-13,-28],[-7,-31],[-4,-59],[-6,-32],[-20,-18],[-28,0],[-11,-10],[-6,-21],[4,-18],[29,-36],[3,-42],[-3,-24],[-31,-46],[-7,-15],[-19,-72],[-7,-18],[-16,-17],[-16,2],[-15,26],[-21,50],[-15,43],[-7,35],[-7,16],[-10,-11],[-12,-37],[-1,-29],[3,-42],[-1,-27],[-18,-31],[3,-14],[32,-38],[4,-17],[0,-27],[-2,-12],[-13,2],[-11,-30],[-12,-25],[-32,-45],[-46,-5],[-37,-22],[-8,1],[-9,35],[-10,70],[-9,40],[-13,21],[-17,79],[-8,26],[-7,10],[-7,3],[-9,-15],[-22,-114],[-35,-29],[-20,-6],[-19,4],[-49,31],[-39,11],[-27,-13],[-45,-46],[-17,-13],[-24,6],[-11,17],[-9,29],[-1,17],[7,6],[11,34],[0,13],[-11,19],[0,15],[4,10],[-1,7],[-6,5],[-11,-4],[-40,-22],[5,24],[19,50],[46,99],[18,30],[10,9],[137,32],[9,9],[66,134],[18,31],[19,24],[93,81],[9,19],[15,56],[8,14],[20,21],[67,113],[62,82],[31,51],[42,51],[49,22],[149,39],[107,-51],[25,-3],[12,14],[12,24],[16,-10],[39,-7],[9,5],[17,27],[-12,14],[-48,27],[-3,14],[2,12],[16,31],[21,20],[59,15],[27,-4],[28,-21],[36,-44],[84,-78]],[[4096,3150],[0,-461],[-26,33],[-51,25],[-22,29],[-22,15],[-6,23],[-2,17],[4,15],[9,15],[3,12],[-9,34],[-4,34],[-14,48],[-3,27],[0,18],[3,19],[10,35],[5,7],[30,5],[40,18],[55,32]],[[3903,2166],[-28,-26],[-189,38],[-10,12],[-5,16],[34,45],[41,20],[97,15],[33,-17],[22,-21],[13,-17],[5,-34],[-13,-31]],[[4096,779],[0,-461],[-4,-2],[-90,-12],[-91,22],[-28,19],[-30,28],[-62,68],[-17,24],[-20,53],[12,35],[33,41],[49,36],[98,50],[89,80],[31,15],[30,4]],[[4096,1679],[0,-739],[-18,8],[-10,-6],[-9,-14],[-18,-39],[-10,-14],[-17,-10],[-71,-11],[-68,-20],[-15,12],[-9,23],[-2,13],[-1,47],[-4,18],[6,39],[7,29],[10,20],[46,60],[7,15],[-22,-3],[-53,-29],[-7,10],[-12,33],[-6,4],[-7,-14],[-4,-20],[-9,-80],[-8,-41],[-21,8],[-26,25],[-10,3],[-6,-7],[2,-14],[27,-69],[0,-24],[-17,-43],[-74,-70],[-30,-18],[-10,7],[-9,19],[-9,31],[-19,42],[-11,10],[-13,1],[-12,-9],[-11,-18],[-7,-20],[-6,-37],[-13,-28],[-9,-5],[-75,59],[-61,103],[-66,-16],[-30,4],[-91,38],[-11,23],[-6,31],[0,16],[4,17],[11,34],[23,52],[10,16],[14,14],[19,11],[48,6],[123,2],[25,7],[135,100],[15,16],[20,32],[5,13],[-1,9],[-166,-79],[-72,-17],[-109,13],[-20,12],[-5,22],[23,59],[12,21],[31,21],[75,29],[100,26],[66,0],[55,21],[33,23],[-111,-1],[-134,-11],[-19,8],[-38,30],[-2,23],[15,27],[6,20],[-11,45],[3,18],[25,37],[45,41],[27,6],[53,-14],[151,-14],[29,5],[-18,18],[-27,13],[-116,22],[-24,10],[-5,14],[-2,21],[2,27],[8,28],[36,57],[106,48],[42,7],[43,-3],[43,-22],[19,-18],[9,-23],[5,-22],[0,-37],[2,-14],[8,-24],[25,-57],[18,-18],[84,33],[35,8],[35,-11],[51,-34],[36,-56]],[[2890,0],[-948,0],[-44,182],[-10,17],[-3,27],[-12,18],[3,17],[223,70],[154,22],[159,61],[45,4],[34,-12],[34,-32],[45,-55],[60,-54],[111,-79],[69,-16],[-28,-63],[-3,-19],[0,-14],[1,-3],[47,73],[28,4],[20,-6],[7,-10],[3,-14],[2,-32],[2,-79],[1,-7]],[[3331,0],[-435,0],[2,1],[10,19],[51,117],[22,32],[15,10],[62,18],[43,-1],[47,-11],[35,-16],[58,-48],[45,-56],[41,-59],[4,-6]],[[2886,0],[-381,0],[0,354],[35,14],[18,-43],[157,-121],[123,-45],[19,6],[2,-3],[13,1],[15,-3],[6,-3],[12,-79],[-19,-78]],[[3159,0],[-234,0],[16,31],[13,56],[-20,34],[19,29],[145,55],[61,-186],[0,-19]]]}