{"objects":{"water":{"type":"GeometryCollection","geometries":[{"type":"Polygon","properties":{"source":"naturalearthdata.com","kind":"ocean","area":990044000000000,"sort_rank":200,"min_zoom":0,"id":1},"arcs":[[0],[1]]},{"type":"LineString","properties":{"source":"naturalearthdata.com","kind":"ocean","sort_rank":205,"boundary":true,"min_zoom":0,"id":1422},"arcs":[2]}]},"buildings":{"type":"GeometryCollection","geometries":[]},"places":{"type":"GeometryCollection","geometries":[]},"transit":{"type":"GeometryCollection","geometries":[]},"pois":{"type":"GeometryCollection","geometries":[]},"boundaries":{"type":"GeometryCollection","geometries":[]},"roads":{"type":"GeometryCollection","geometries":[]},"earth":{"type":"GeometryCollection","geometries":[]},"landuse":{"type":"GeometryCollection","geometries":[]}},"type":"Topology","transform":{"translate":[-135.0,-40.9798980696],"scale":[0.0054931641,0.0046476691]},"arcs":[[[4096,0],[-4096,0],[0,4096],[4096,0],[0,-4096]],[[1219,3582],[-5,2],[-3,-4],[1,-6],[4,-7],[4,-2],[2,3],[-1,7],[-2,7]],[[1214,3584],[-3,-4],[1,-6],[4,-7],[4,-2],[2,3],[-1,7],[-2,7],[-5,2]]]}