{"objects":{"water":{"type":"GeometryCollection","geometries":[{"type":"MultiPolygon","properties":{"source":"naturalearthdata.com","kind":"ocean","area":989871000000000,"sort_rank":200,"min_zoom":0,"id":1},"arcs":[[[0],[1],[2]]]},{"type":"LineString","properties":{"source":"naturalearthdata.com","kind":"ocean","sort_rank":205,"boundary":true,"min_zoom":0,"id":92},"arcs":[3]},{"type":"LineString","properties":{"source":"naturalearthdata.com","kind":"ocean","sort_rank":205,"boundary":true,"min_zoom":0,"id":96},"arcs":[4]},{"type":"LineString","properties":{"source":"naturalearthdata.com","kind":"ocean","sort_rank":205,"boundary":true,"min_zoom":0,"id":100},"arcs":[5]},{"type":"LineString","properties":{"source":"naturalearthdata.com","kind":"ocean","sort_rank":205,"boundary":true,"min_zoom":0,"id":3165},"arcs":[6]},{"type":"LineString","properties":{"source":"naturalearthdata.com","kind":"ocean","sort_rank":205,"boundary":true,"min_zoom":0,"id":3166},"arcs":[7]},{"type":"LineString","properties":{"source":"naturalearthdata.com","kind":"ocean","sort_rank":205,"boundary":true,"min_zoom":0,"id":3167},"arcs":[8]}]},"buildings":{"type":"GeometryCollection","geometries":[]},"places":{"type":"GeometryCollection","geometries":[]},"transit":{"type":"GeometryCollection","geometries":[]},"pois":{"type":"GeometryCollection","geometries":[]},"boundaries":{"type":"GeometryCollection","geometries":[]},"roads":{"type":"GeometryCollection","geometries":[]},"earth":{"type":"GeometryCollection","geometries":[{"type":"MultiPolygon","properties":{"sort_rank":10,"source":"naturalearthdata.com","kind":"earth","min_zoom":2.0,"area":65868377385},"arcs":[[[9]]]},{"type":"MultiPolygon","properties":{"sort_rank":10,"source":"naturalearthdata.com","kind":"earth","min_zoom":5.0,"area":10854508662},"arcs":[[[10]],[[11]]]}]},"landuse":{"type":"GeometryCollection","geometries":[{"type":"MultiPolygon","properties":{"source":"openstreetmap.org","kind":"nature_reserve","area":510984501898,"tier":2,"min_zoom":4.0,"id":-8537784,"sort_rank":23},"arcs":[[[12]]]}]}},"type":"Topology","transform":{"translate":[-101.25,-0.0],"scale":[0.002746582,0.002729102]},"arcs":[[[4096,4096],[0,-4096],[-456,0],[-1,0],[-5,7],[-2,2],[-3,3],[-5,16],[-4,3],[-2,4],[-1,8],[-3,8],[-6,5],[-4,-1],[-6,0],[-5,-1],[-2,-3],[-3,-3],[-2,-3],[-12,-3],[-7,-4],[-7,-2],[-9,3],[-3,-15],[-7,-7],[-24,-14],[-3,-1],[-2,-1],[0,-1],[-3512,0],[0,4096],[4096,0]],[[3909,104],[5,-1],[4,-5],[5,-2],[7,2],[9,5],[6,6],[2,5],[-3,7],[-7,6],[-9,4],[-8,3],[-8,-2],[-8,-4],[-5,-6],[-1,-8],[1,-2],[3,-4],[3,-3],[4,-1]],[[3806,239],[-3,-6],[2,-16],[-2,-8],[16,-6],[6,12],[-5,16],[-14,8]],[[3640,0],[-1,0],[-5,7],[-2,2],[-3,3],[-5,16],[-4,3],[-2,4],[-1,8],[-3,8],[-6,5],[-4,-1],[-6,0],[-5,-1],[-2,-3],[-3,-3],[-2,-3],[-12,-3],[-7,-4],[-7,-2],[-9,3],[-3,-15],[-7,-7],[-24,-14],[-3,-1],[-2,-1],[0,-1]],[[3909,104],[5,-1],[4,-5],[5,-2],[7,2],[9,5],[6,6],[2,5],[-3,7],[-7,6],[-9,4],[-8,3],[-8,-2],[-8,-4],[-5,-6],[-1,-8],[1,-2],[3,-4],[3,-3],[4,-1]],[[3806,239],[-3,-6],[2,-16],[-2,-8],[16,-6],[6,12],[-5,16],[-14,8]],[[3434,508],[-3,-1],[0,-2],[1,-3],[2,-1],[2,2],[1,2],[-2,2],[-1,1]],[[3433,511],[0,-1],[1,1],[-1,0]],[[3364,608],[1,-4],[3,1],[0,3],[-2,2],[-2,-2]],[[3512,0],[0,1],[2,1],[3,1],[24,14],[7,7],[3,15],[9,-3],[7,2],[7,4],[12,3],[2,3],[3,3],[2,3],[5,1],[6,0],[4,1],[6,-5],[3,-8],[1,-8],[2,-4],[4,-3],[5,-16],[3,-3],[2,-2],[5,-7],[1,0],[-128,0]],[[3909,104],[-4,1],[-3,3],[-3,4],[-1,2],[1,8],[5,6],[8,4],[8,2],[8,-3],[9,-4],[7,-6],[3,-7],[-2,-5],[-6,-6],[-9,-5],[-7,-2],[-5,2],[-4,5],[-5,1]],[[3806,239],[14,-8],[5,-16],[-6,-12],[-16,6],[2,8],[-2,16],[3,6]],[[3123,618],[35,126],[91,88],[122,30],[124,-38],[445,-373],[156,-57],[0,-394],[-872,0],[-101,618]]]}