{"objects":{"water":{"type":"GeometryCollection","geometries":[{"type":"Polygon","properties":{"source":"naturalearthdata.com","kind":"ocean","area":989871000000000,"sort_rank":200,"min_zoom":0,"id":1},"arcs":[[0],[1],[2],[3],[4]]},{"type":"LineString","properties":{"source":"naturalearthdata.com","kind":"ocean","sort_rank":205,"boundary":true,"min_zoom":0,"id":74},"arcs":[5]},{"type":"LineString","properties":{"source":"naturalearthdata.com","kind":"ocean","sort_rank":205,"boundary":true,"min_zoom":0,"id":83},"arcs":[6]},{"type":"LineString","properties":{"source":"naturalearthdata.com","kind":"ocean","sort_rank":205,"boundary":true,"min_zoom":0,"id":86},"arcs":[7]},{"type":"LineString","properties":{"source":"naturalearthdata.com","kind":"ocean","sort_rank":205,"boundary":true,"min_zoom":0,"id":87},"arcs":[8]},{"type":"MultiLineString","properties":{"source":"naturalearthdata.com","kind":"ocean","sort_rank":205,"boundary":true,"min_zoom":0,"id":92},"arcs":[[9],[10]]}]},"buildings":{"type":"GeometryCollection","geometries":[]},"places":{"type":"GeometryCollection","geometries":[{"type":"Point","properties":{"name:pt":null,"collision_rank":359,"name:nl":null,"name:id":null,"name:hi":null,"name:tr":null,"name:sv":null,"name:ar":null,"min_zoom":5.0,"name:it":null,"name:vi":null,"name:ru":null,"name:pl":null,"name:hu":null,"id":6489,"name:ja":null,"name:el":null,"kind":"locality","name:en":null,"name":"Santa Cruz","source":"naturalearthdata.com","name:bn":null,"name:de":null,"name:ko":null,"name:fr":null,"population_rank":6,"population":11262,"name:zh":null,"name:es":null},"coordinates":[3969,3901]}]},"transit":{"type":"GeometryCollection","geometries":[]},"pois":{"type":"GeometryCollection","geometries":[]},"boundaries":{"type":"GeometryCollection","geometries":[]},"roads":{"type":"GeometryCollection","geometries":[]},"earth":{"type":"GeometryCollection","geometries":[{"type":"MultiPolygon","properties":{"sort_rank":10,"source":"naturalearthdata.com","min_zoom":3.0,"kind":"earth","area":3761628747},"arcs":[[[11]],[[12]],[[13]]]},{"type":"MultiPolygon","properties":{"sort_rank":10,"source":"naturalearthdata.com","kind":"earth","min_zoom":2.0,"area":10807105778},"arcs":[[[14]],[[15]]]}]},"landuse":{"type":"GeometryCollection","geometries":[{"type":"MultiPolygon","properties":{"source":"openstreetmap.org","kind":"nature_reserve","area":238905139052,"tier":2,"min_zoom":4.0,"id":-5506554,"sort_rank":23},"arcs":[[[16]]]}]}},"type":"Topology","transform":{"translate":[-101.25,-11.1784018737],"scale":[0.002746582,0.002729102]},"arcs":[[[0,4096],[3512,0],[-1,-3],[1,-2],[8,-10],[7,-4],[6,1],[13,9],[12,5],[12,0],[8,-6],[3,-13],[0,-3],[2,-6],[0,-3],[0,-13],[1,-6],[3,-6],[6,-9],[-8,-3],[-1,-7],[5,-8],[7,-5],[-1,-11],[9,-10],[22,-11],[3,-6],[2,-2],[2,-1],[5,-1],[3,0],[4,-4],[1,-4],[0,-10],[3,-12],[7,-14],[8,-11],[9,-8],[4,-2],[11,-3],[5,-3],[5,-4],[2,-4],[0,-6],[-4,-6],[-6,2],[-5,-5],[-3,-8],[0,-4],[-2,-1],[-4,-6],[-2,-2],[-3,-1],[-4,0],[-7,2],[-1,1],[-2,2],[-2,1],[-4,2],[-5,-1],[-12,-3],[-9,-4],[-6,0],[-1,-2],[0,-3],[-2,-2],[-43,-28],[-11,-11],[-10,-16],[-3,-16],[9,-15],[4,-1],[4,0],[4,-1],[1,-4],[0,-9],[1,-4],[1,-4],[6,-5],[7,-2],[41,0],[33,-4],[6,1],[8,-1],[41,13],[12,9],[7,2],[12,1],[6,-1],[6,-3],[4,6],[9,11],[5,6],[7,-2],[1,6],[-1,9],[11,36],[3,2],[9,4],[2,2],[-1,5],[-1,1],[-2,0],[-3,2],[-13,13],[-5,2],[2,5],[-2,5],[-3,3],[-5,2],[-5,1],[1,8],[-8,4],[-15,3],[-2,5],[0,7],[-2,3],[-8,-5],[2,6],[10,8],[2,7],[-1,15],[-3,14],[0,1],[1,2],[1,2],[0,2],[-6,2],[-2,1],[-4,5],[-2,3],[-1,3],[-3,4],[-37,24],[-1,1],[-3,1],[-2,1],[-1,4],[0,5],[-1,2],[-1,1],[-15,14],[-4,7],[-7,41],[1,17],[-1,9],[-2,6],[-3,1],[-3,1],[-8,1],[-2,1],[456,0],[0,-4096],[-4096,0],[0,4096]],[[3957,3636],[-3,5],[-9,4],[-10,2],[-7,-2],[-4,5],[-4,-2],[-4,-6],[-2,-11],[-2,-5],[-3,-5],[-4,-4],[8,-4],[5,-5],[5,-4],[13,-2],[3,1],[12,7],[2,2],[0,2],[-1,5],[1,1],[1,1],[5,1],[1,2],[1,1],[0,1],[1,1],[1,3],[-1,3],[-2,1],[-2,1],[-1,1]],[[4026,3899],[-4,0],[-7,2],[-4,0],[-3,2],[0,3],[0,4],[0,4],[-2,1],[-2,2],[-2,1],[-2,1],[-8,-4],[-35,-4],[-2,-1],[-4,-3],[-4,-1],[-2,1],[-8,2],[-4,0],[-5,-1],[-10,-5],[-3,-2],[-6,-6],[-5,-8],[-4,-9],[-2,-9],[-1,-18],[1,-5],[4,-3],[6,-3],[7,-2],[5,1],[3,-4],[8,-12],[3,-2],[2,-1],[1,-2],[3,-1],[8,-2],[12,-4],[7,-1],[6,1],[5,4],[2,7],[2,1],[18,0],[2,1],[3,2],[4,5],[4,7],[5,6],[6,2],[-1,2],[4,8],[0,1],[0,4],[-2,6],[0,4],[4,15],[1,9],[-4,4]],[[3586,3930],[0,32],[1,13],[-1,8],[-4,4],[-3,2],[-13,13],[-4,2],[-3,1],[-8,-3],[-17,-4],[-14,-7],[-32,1],[-1,-5],[5,-14],[3,-17],[3,-8],[4,-7],[7,-7],[1,-2],[-1,-1],[0,-1],[2,-1],[2,0],[4,0],[1,0],[11,-5],[7,-1],[8,-6],[3,-1],[4,0],[6,2],[25,10],[4,2]],[[3890,3992],[3,1],[0,1],[2,0],[-10,7],[-19,21],[-12,5],[-9,1],[-25,9],[-7,5],[-1,-2],[-2,0],[-2,2],[-7,-1],[-6,-5],[-3,-7],[2,-6],[-1,-5],[-15,-21],[9,-2],[4,-8],[2,-9],[5,-6],[8,3],[7,-2],[7,-4],[7,-3],[25,0],[16,-4],[8,-2],[6,3],[3,7],[8,12],[2,7],[-5,3]],[[3957,3636],[-3,5],[-9,4],[-10,2],[-7,-2],[-4,5],[-4,-2],[-4,-6],[-2,-11],[-2,-5],[-3,-5],[-4,-4],[8,-4],[5,-5],[5,-4],[13,-2],[3,1],[12,7],[2,2],[0,2],[-1,5],[1,1],[1,1],[5,1],[1,2],[1,1],[0,1],[1,1],[1,3],[-1,3],[-2,1],[-2,1],[-1,1]],[[4026,3899],[-4,0],[-7,2],[-4,0],[-3,2],[0,3],[0,4],[0,4],[-2,1],[-2,2],[-2,1],[-2,1],[-8,-4],[-35,-4],[-2,-1],[-4,-3],[-4,-1],[-2,1],[-8,2],[-4,0],[-5,-1],[-10,-5],[-3,-2],[-6,-6],[-5,-8],[-4,-9],[-2,-9],[-1,-18],[1,-5],[4,-3],[6,-3],[7,-2],[5,1],[3,-4],[8,-12],[3,-2],[2,-1],[1,-2],[3,-1],[8,-2],[12,-4],[7,-1],[6,1],[5,4],[2,7],[2,1],[18,0],[2,1],[3,2],[4,5],[4,7],[5,6],[6,2],[-1,2],[4,8],[0,1],[0,4],[-2,6],[0,4],[4,15],[1,9],[-4,4]],[[3586,3930],[0,32],[1,13],[-1,8],[-4,4],[-3,2],[-13,13],[-4,2],[-3,1],[-8,-3],[-17,-4],[-14,-7],[-32,1],[-1,-5],[5,-14],[3,-17],[3,-8],[4,-7],[7,-7],[1,-2],[-1,-1],[0,-1],[2,-1],[2,0],[4,0],[1,0],[11,-5],[7,-1],[8,-6],[3,-1],[4,0],[6,2],[25,10],[4,2]],[[3890,3992],[3,1],[0,1],[2,0],[-10,7],[-19,21],[-12,5],[-9,1],[-25,9],[-7,5],[-1,-2],[-2,0],[-2,2],[-7,-1],[-6,-5],[-3,-7],[2,-6],[-1,-5],[-15,-21],[9,-2],[4,-8],[2,-9],[5,-6],[8,3],[7,-2],[7,-4],[7,-3],[25,0],[16,-4],[8,-2],[6,3],[3,7],[8,12],[2,7],[-5,3]],[[3801,3828],[-13,13],[-5,2],[2,5],[-2,5],[-3,3],[-5,2],[-5,1],[1,8],[-8,4],[-15,3],[-2,5],[0,7],[-2,3],[-8,-5],[2,6],[10,8],[2,7],[-1,15],[-3,14],[0,1],[1,2],[1,2],[0,2],[-6,2],[-2,1],[-4,5],[-2,3],[-1,3],[-3,4],[-37,24],[-1,1],[-3,1],[-2,1],[-1,4],[0,5],[-1,2],[-1,1],[-15,14],[-4,7],[-7,41],[1,17],[-1,9],[-2,6],[-3,1],[-3,1],[-8,1],[-2,1]],[[3512,4096],[-1,-3],[1,-2],[8,-10],[7,-4],[6,1],[13,9],[12,5],[12,0],[8,-6],[3,-13],[0,-3],[2,-6],[0,-3],[0,-13],[1,-6],[3,-6],[6,-9],[-8,-3],[-1,-7],[5,-8],[7,-5],[-1,-11],[9,-10],[22,-11],[3,-6],[2,-2],[2,-1],[5,-1],[3,0],[4,-4],[1,-4],[0,-10],[3,-12],[7,-14],[8,-11],[9,-8],[4,-2],[11,-3],[5,-3],[5,-4],[2,-4],[0,-6],[-4,-6],[-6,2],[-5,-5],[-3,-8],[0,-4],[-2,-1],[-4,-6],[-2,-2],[-3,-1],[-4,0],[-7,2],[-1,1],[-2,2],[-2,1],[-4,2],[-5,-1],[-12,-3],[-9,-4],[-6,0],[-1,-2],[0,-3],[-2,-2],[-43,-28],[-11,-11],[-10,-16],[-3,-16],[9,-15],[4,-1],[4,0],[4,-1],[1,-4],[0,-9],[1,-4],[1,-4],[6,-5],[7,-2],[41,0],[33,-4],[6,1],[8,-1],[41,13],[12,9],[7,2],[12,1],[6,-1],[6,-3],[4,6],[9,11],[5,6],[7,-2],[1,6],[-1,9],[11,36],[3,2],[9,4],[2,2],[-1,5],[-1,1],[-2,0],[-3,2]],[[3957,3636],[1,-1],[2,-1],[2,-1],[1,-3],[-1,-3],[-1,-1],[0,-1],[-1,-1],[-1,-2],[-5,-1],[-1,-1],[-1,-1],[1,-5],[0,-2],[-2,-2],[-12,-7],[-3,-1],[-13,2],[-5,4],[-5,5],[-8,4],[4,4],[3,5],[2,5],[2,11],[4,6],[4,2],[4,-5],[7,2],[10,-2],[9,-4],[3,-5]],[[3586,3930],[-4,-2],[-25,-10],[-6,-2],[-4,0],[-3,1],[-8,6],[-7,1],[-11,5],[-1,0],[-4,0],[-2,0],[-2,1],[0,1],[1,1],[-1,2],[-7,7],[-4,7],[-3,8],[-3,17],[-5,14],[1,5],[32,-1],[14,7],[17,4],[8,3],[3,-1],[4,-2],[13,-13],[3,-2],[4,-4],[1,-8],[-1,-13],[0,-32]],[[3890,3992],[5,-3],[-2,-7],[-8,-12],[-3,-7],[-6,-3],[-8,2],[-16,4],[-25,0],[-7,3],[-7,4],[-7,2],[-8,-3],[-5,6],[-2,9],[-4,8],[-9,2],[15,21],[1,5],[-2,6],[3,7],[6,5],[7,1],[2,-2],[2,0],[1,2],[7,-5],[25,-9],[9,-1],[12,-5],[19,-21],[10,-7],[-2,0],[0,-1],[-3,-1]],[[4026,3899],[4,-4],[-1,-9],[-4,-15],[0,-4],[2,-6],[0,-4],[0,-1],[-4,-8],[1,-2],[-6,-2],[-5,-6],[-4,-7],[-4,-5],[-3,-2],[-2,-1],[-18,0],[-2,-1],[-2,-7],[-5,-4],[-6,-1],[-7,1],[-12,4],[-8,2],[-3,1],[-1,2],[-2,1],[-3,2],[-8,12],[-3,4],[-5,-1],[-7,2],[-6,3],[-4,3],[-1,5],[1,18],[2,9],[4,9],[5,8],[6,6],[3,2],[10,5],[5,1],[4,0],[8,-2],[2,-1],[4,1],[4,3],[2,1],[35,4],[8,4],[2,-1],[2,-1],[2,-2],[2,-1],[0,-4],[0,-4],[0,-3],[3,-2],[4,0],[7,-2],[4,0]],[[3801,3828],[3,-2],[2,0],[1,-1],[1,-5],[-2,-2],[-9,-4],[-3,-2],[-11,-36],[1,-9],[-1,-6],[-7,2],[-5,-6],[-9,-11],[-4,-6],[-6,3],[-6,1],[-12,-1],[-7,-2],[-12,-9],[-41,-13],[-8,1],[-6,-1],[-33,4],[-41,0],[-7,2],[-6,5],[-1,4],[-1,4],[0,9],[-1,4],[-4,1],[-4,0],[-4,1],[-9,15],[3,16],[10,16],[11,11],[43,28],[2,2],[0,3],[1,2],[6,0],[9,4],[12,3],[5,1],[4,-2],[2,-1],[2,-2],[1,-1],[7,-2],[4,0],[3,1],[2,2],[4,6],[2,1],[0,4],[3,8],[5,5],[6,-2],[4,6],[0,6],[-2,4],[-5,4],[-5,3],[-11,3],[-4,2],[-9,8],[-8,11],[-7,14],[-3,12],[0,10],[-1,4],[-4,4],[-3,0],[-5,1],[-2,1],[-2,2],[-3,6],[-22,11],[-9,10],[1,11],[-7,5],[-5,8],[1,7],[8,3],[-6,9],[-3,6],[-1,6],[0,13],[0,3],[-2,6],[0,3],[-3,13],[-8,6],[-12,0],[-12,-5],[-13,-9],[-6,-1],[-7,4],[-8,10],[-1,2],[1,3],[128,0],[2,-1],[8,-1],[3,-1],[3,-1],[2,-6],[1,-9],[-1,-17],[7,-41],[4,-7],[15,-14],[1,-1],[1,-2],[0,-5],[1,-4],[2,-1],[3,-1],[1,-1],[37,-24],[3,-4],[1,-3],[2,-3],[4,-5],[2,-1],[6,-2],[0,-2],[-1,-2],[-1,-2],[0,-1],[3,-14],[1,-15],[-2,-7],[-10,-8],[-2,-6],[8,5],[2,-3],[0,-7],[2,-5],[15,-3],[8,-4],[-1,-8],[5,-1],[5,-2],[3,-3],[2,-5],[-2,-5],[5,-2],[13,-13]],[[4096,3342],[-233,20],[-468,187],[-73,114],[-98,433],[872,0],[0,-754]]]}