{"objects":{"water":{"type":"GeometryCollection","geometries":[{"type":"Polygon","properties":{"source":"naturalearthdata.com","kind":"ocean","area":989871000000000,"sort_rank":200,"min_zoom":0,"id":1},"arcs":[[0],[1]]},{"type":"LineString","properties":{"source":"naturalearthdata.com","kind":"ocean","sort_rank":205,"boundary":true,"min_zoom":0,"id":3516},"arcs":[2]}]},"buildings":{"type":"GeometryCollection","geometries":[]},"places":{"type":"GeometryCollection","geometries":[]},"transit":{"type":"GeometryCollection","geometries":[]},"pois":{"type":"GeometryCollection","geometries":[]},"boundaries":{"type":"GeometryCollection","geometries":[]},"roads":{"type":"GeometryCollection","geometries":[]},"earth":{"type":"GeometryCollection","geometries":[{"type":"MultiPolygon","properties":{"sort_rank":10,"source":"naturalearthdata.com","kind":"earth","min_zoom":4.0,"area":42360232494},"arcs":[[[3]]]}]},"landuse":{"type":"GeometryCollection","geometries":[]}},"type":"Topology","transform":{"translate":[-101.25,-70.612614238],"scale":[0.002746582,0.0010008188]},"arcs":[[[0,4096],[4096,0],[0,-4096],[-4096,0],[0,4096]],[[3875,1794],[1,0],[3,1],[5,2],[5,1],[6,1],[7,0],[4,0],[1,1],[2,2],[3,12],[2,12],[-2,7],[-1,8],[0,7],[-1,6],[0,4],[-4,10],[-5,10],[-5,4],[-3,1],[-7,1],[-4,1],[-6,0],[-3,-2],[-1,-3],[0,-4],[-1,-9],[-2,-8],[0,-9],[0,-8],[-4,-5],[-1,-11],[1,-9],[3,-8],[4,-9],[2,-4],[1,-2]],[[3875,1794],[-1,2],[-2,4],[-4,9],[-3,8],[-1,9],[1,11],[4,5],[0,8],[0,9],[2,8],[1,9],[0,4],[1,3],[3,2],[6,0],[4,-1],[7,-1],[3,-1],[5,-4],[5,-10],[4,-10],[0,-4],[1,-6],[0,-7],[1,-8],[2,-7],[-2,-12],[-3,-12],[-2,-2],[-1,-1],[-4,0],[-7,0],[-6,-1],[-5,-1],[-5,-2],[-3,-1],[-1,0]],[[3875,1794],[-1,2],[-2,4],[-4,9],[-3,8],[-1,9],[1,11],[4,5],[0,8],[0,9],[2,8],[1,9],[0,4],[1,3],[3,2],[6,0],[4,-1],[7,-1],[3,-1],[5,-4],[5,-10],[4,-10],[0,-4],[1,-6],[0,-7],[1,-8],[2,-7],[-2,-12],[-3,-12],[-2,-2],[-1,-1],[-4,0],[-7,0],[-6,-1],[-5,-1],[-5,-2],[-3,-1],[-1,0]]]}