{"objects":{"water":{"type":"GeometryCollection","geometries":[{"type":"Polygon","properties":{"source":"naturalearthdata.com","kind":"ocean","area":989871000000000,"sort_rank":200,"min_zoom":0,"id":1},"arcs":[[0]]},{"type":"LineString","properties":{"source":"naturalearthdata.com","kind":"ocean","sort_rank":205,"boundary":true,"min_zoom":0,"id":2},"arcs":[1]}]},"buildings":{"type":"GeometryCollection","geometries":[]},"places":{"type":"GeometryCollection","geometries":[]},"transit":{"type":"GeometryCollection","geometries":[]},"pois":{"type":"GeometryCollection","geometries":[]},"boundaries":{"type":"GeometryCollection","geometries":[]},"roads":{"type":"GeometryCollection","geometries":[]},"earth":{"type":"GeometryCollection","geometries":[{"type":"MultiPolygon","properties":{"sort_rank":10,"source":"naturalearthdata.com","min_zoom":0,"kind":"earth","area":53730332668114},"arcs":[[[2]]]}]},"landuse":{"type":"GeometryCollection","geometries":[]}},"type":"Topology","transform":{"translate":[-101.25,-76.8408164144],"scale":[0.002746582,0.0006887874]},"arcs":[[[0,3373],[117,-48],[120,96],[21,6],[22,-4],[6,1],[10,10],[5,-2],[9,-8],[25,3],[30,-14],[43,24],[6,-2],[7,-7],[17,-33],[5,-9],[10,-4],[28,5],[6,-6],[11,-18],[5,-2],[7,4],[6,1],[6,-5],[6,-16],[-6,-1],[-22,-58],[-64,-35],[-12,-13],[-10,-30],[26,-9],[9,-9],[-8,-37],[-5,-14],[-9,-18],[-11,-29],[-1,-7],[36,-23],[17,-19],[16,-36],[-33,-38],[-8,-16],[-9,-36],[-9,-21],[-24,-19],[-20,-1],[-38,24],[-20,4],[-60,-21],[-3,-4],[-3,-23],[3,-16],[5,-9],[66,-52],[86,-24],[80,31],[52,-4],[41,-31],[10,-1],[60,48],[20,-19],[18,-36],[3,-16],[1,-17],[-3,-48],[1,-68],[-3,-32],[-6,-26],[-10,-27],[124,-49],[41,-38],[10,-3],[128,74],[41,-14],[-113,-132],[63,-2],[34,15],[18,-4],[10,-27],[-29,-32],[-30,-16],[-6,-6],[-6,-12],[-11,-30],[-5,-10],[-48,-16],[-63,5],[-5,-5],[-15,-23],[-5,-4],[-152,52],[-146,-38],[-52,-37],[-11,-14],[-4,-3],[-9,1],[-4,-1],[-16,-24],[-5,-4],[-10,2],[-31,36],[-37,14],[-41,0],[-40,-23],[-30,-37],[-113,-44],[-31,2],[-32,-17],[-9,7],[-6,20],[-2,29],[4,32],[-37,9],[0,1231]],[[0,3373],[117,-48],[120,96],[21,6],[22,-4],[6,1],[10,10],[5,-2],[9,-8],[25,3],[30,-14],[43,24],[6,-2],[7,-7],[17,-33],[5,-9],[10,-4],[28,5],[6,-6],[11,-18],[5,-2],[7,4],[6,1],[6,-5],[6,-16],[-6,-1],[-22,-58],[-64,-35],[-12,-13],[-10,-30],[26,-9],[9,-9],[-8,-37],[-5,-14],[-9,-18],[-11,-29],[-1,-7],[36,-23],[17,-19],[16,-36],[-33,-38],[-8,-16],[-9,-36],[-9,-21],[-24,-19],[-20,-1],[-38,24],[-20,4],[-60,-21],[-3,-4],[-3,-23],[3,-16],[5,-9],[66,-52],[86,-24],[80,31],[52,-4],[41,-31],[10,-1],[60,48],[20,-19],[18,-36],[3,-16],[1,-17],[-3,-48],[1,-68],[-3,-32],[-6,-26],[-10,-27],[124,-49],[41,-38],[10,-3],[128,74],[41,-14],[-113,-132],[63,-2],[34,15],[18,-4],[10,-27],[-29,-32],[-30,-16],[-6,-6],[-6,-12],[-11,-30],[-5,-10],[-48,-16],[-63,5],[-5,-5],[-15,-23],[-5,-4],[-152,52],[-146,-38],[-52,-37],[-11,-14],[-4,-3],[-9,1],[-4,-1],[-16,-24],[-5,-4],[-10,2],[-31,36],[-37,14],[-41,0],[-40,-23],[-30,-37],[-113,-44],[-31,2],[-32,-17],[-9,7],[-6,20],[-2,29],[4,32],[-37,9]],[[4096,4096],[0,-4096],[-4096,0],[0,2142],[37,-9],[-4,-32],[2,-29],[6,-20],[9,-7],[32,17],[31,-2],[113,44],[30,37],[40,23],[41,0],[37,-14],[31,-36],[10,-2],[5,4],[16,24],[4,1],[9,-1],[4,3],[11,14],[52,37],[146,38],[152,-52],[5,4],[15,23],[5,5],[63,-5],[48,16],[5,10],[11,30],[6,12],[6,6],[30,16],[29,32],[-10,27],[-18,4],[-34,-15],[-63,2],[113,132],[-41,14],[-128,-74],[-10,3],[-41,38],[-124,49],[10,27],[6,26],[3,32],[-1,68],[3,48],[-1,17],[-3,16],[-18,36],[-20,19],[-60,-48],[-10,1],[-41,31],[-52,4],[-80,-31],[-86,24],[-66,52],[-5,9],[-3,16],[3,23],[3,4],[60,21],[20,-4],[38,-24],[20,1],[24,19],[9,21],[9,36],[8,16],[33,38],[-16,36],[-17,19],[-36,23],[1,7],[11,29],[9,18],[5,14],[8,37],[-9,9],[-26,9],[10,30],[12,13],[64,35],[22,58],[6,1],[-6,16],[-6,5],[-6,-1],[-7,-4],[-5,2],[-11,18],[-6,6],[-28,-5],[-10,4],[-5,9],[-17,33],[-7,7],[-6,2],[-43,-24],[-30,14],[-25,-3],[-9,8],[-5,2],[-10,-10],[-6,-1],[-22,4],[-21,-6],[-120,-96],[-117,48],[0,723],[4096,0]]]}