{"objects":{"water":{"type":"GeometryCollection","geometries":[{"type":"MultiPolygon","properties":{"source":"naturalearthdata.com","kind":"ocean","area":989871000000000,"sort_rank":200,"min_zoom":0,"id":1},"arcs":[[[0]],[[1]],[[2],[3],[4]]]},{"type":"LineString","properties":{"source":"naturalearthdata.com","kind":"ocean","sort_rank":205,"boundary":true,"min_zoom":0,"id":1012},"arcs":[5]},{"type":"LineString","properties":{"source":"naturalearthdata.com","kind":"ocean","sort_rank":205,"boundary":true,"min_zoom":0,"id":1013},"arcs":[6]},{"type":"MultiLineString","properties":{"source":"naturalearthdata.com","kind":"ocean","sort_rank":205,"boundary":true,"min_zoom":0,"id":1014},"arcs":[[7],[8],[9],[10]]},{"type":"LineString","properties":{"source":"naturalearthdata.com","kind":"ocean","sort_rank":205,"boundary":true,"min_zoom":0,"id":1015},"arcs":[11]}]},"buildings":{"type":"GeometryCollection","geometries":[]},"places":{"type":"GeometryCollection","geometries":[]},"transit":{"type":"GeometryCollection","geometries":[]},"pois":{"type":"GeometryCollection","geometries":[]},"boundaries":{"type":"GeometryCollection","geometries":[]},"roads":{"type":"GeometryCollection","geometries":[]},"earth":{"type":"GeometryCollection","geometries":[{"type":"MultiPolygon","properties":{"sort_rank":10,"source":"naturalearthdata.com","kind":"earth","min_zoom":2.0,"area":208531522065},"arcs":[[[12]]]},{"type":"MultiPolygon","properties":{"sort_rank":10,"source":"naturalearthdata.com","kind":"earth","min_zoom":4.0,"area":9705978340},"arcs":[[[13]]]},{"type":"MultiPolygon","properties":{"sort_rank":10,"source":"naturalearthdata.com","min_zoom":0,"kind":"earth","area":13131386715102},"arcs":[[[14]],[[15]]]}]},"landuse":{"type":"GeometryCollection","geometries":[]}},"type":"Topology","transform":{"translate":[-101.25,79.1713346408],"scale":[0.002746582,0.0004692088]},"arcs":[[[4096,3981],[0,-1066],[-2,6],[-177,46],[-23,33],[-4,-11],[-4,-20],[-23,9],[-14,-9],[-19,5],[-13,20],[6,38],[48,81],[9,44],[-5,2],[-2,5],[-35,101],[-138,97],[-16,34],[-8,54],[0,24],[3,12],[-1,13],[-7,24],[-8,11],[-17,9],[-8,15],[-24,91],[-14,34],[-25,20],[-20,37],[-9,23],[-6,20],[-1,16],[1,20],[1,31],[-67,128],[-75,84],[0,15],[37,-4],[10,18],[-1,5],[570,0],[6,-24],[9,-25],[36,-51],[30,-15]],[[2744,4096],[179,0],[-33,-14],[-75,9],[4,-21],[2,-5],[4,-3],[0,-16],[-81,50]],[[3463,0],[-3463,0],[0,4096],[2528,0],[13,-9],[13,-20],[11,-9],[9,-20],[4,-5],[72,-12],[23,-33],[-47,21],[-13,-21],[50,-29],[0,-13],[-62,17],[-8,-33],[-8,-13],[-12,-8],[-12,1],[-13,24],[-10,1],[-8,-10],[0,-24],[-12,-35],[-13,-22],[-14,-12],[-14,-4],[-14,10],[-7,14],[-3,20],[3,20],[17,38],[-6,14],[-13,0],[-6,8],[-7,16],[-116,67],[-14,-2],[-50,-61],[-47,-13],[-23,-29],[-14,-114],[-10,-29],[-68,-90],[18,-37],[104,-7],[-15,-28],[-105,-49],[-17,-26],[2,-13],[-5,-14],[13,-35],[131,-23],[77,49],[15,-1],[11,-21],[-15,-30],[-52,-28],[6,-24],[120,-79],[66,-18],[7,19],[7,-7],[31,36],[20,3],[9,-8],[-2,-24],[0,-16],[22,-9],[46,11],[20,-44],[-100,-15],[-99,-15],[-12,-21],[-9,-38],[8,-29],[20,-22],[8,-29],[6,-28],[7,-15],[8,-7],[53,27],[135,-56],[80,-116],[0,-16],[-36,-19],[-19,3],[-13,45],[5,15],[-4,11],[-6,7],[-7,-1],[-4,-10],[-6,-9],[-93,38],[-105,-24],[-68,29],[-80,74],[-27,-3],[-87,-32],[-120,9],[-146,-16],[7,-43],[12,-23],[26,-22],[-7,-1],[-4,-15],[-2,-27],[-6,-21],[-4,-7],[-50,-32],[16,-27],[97,-65],[23,-77],[16,-23],[44,-31],[29,0],[12,-24],[-5,-12],[-2,-3],[2,-15],[7,-26],[3,-18],[-46,18],[-38,41],[-51,-5],[-51,48],[-56,-5],[-14,-16],[-8,6],[-33,-23],[-10,-21],[6,-7],[17,-36],[-11,-16],[-30,7],[-34,36],[-11,2],[-2,-29],[-20,10],[-22,26],[-21,8],[-19,-44],[40,-30],[31,-1],[9,-13],[-6,-27],[-29,-60],[-2,-14],[89,-30],[129,-129],[31,-2],[99,102],[5,-7],[8,-30],[5,-7],[68,0],[26,39],[15,11],[11,-21],[-18,-47],[-20,-21],[-81,2],[-43,-37],[-8,-28],[16,-6],[92,-107],[161,33],[97,98],[28,74],[11,8],[17,-2],[14,-14],[3,-25],[141,-43],[7,-16],[-167,-47],[-95,-129],[0,-14],[20,-10],[39,-74],[30,-27],[22,-40],[19,-14],[9,-14],[15,-39],[-14,-13],[-154,135],[-41,1],[-77,-25],[-109,29],[-76,2],[3,0],[-13,17],[-114,33],[-126,148],[-126,14],[-14,-17],[-5,-23],[-3,-34],[-5,-28],[-6,-7],[10,-52],[19,-40],[20,-21],[16,1],[21,16],[63,-7],[-92,-45],[-12,-26],[9,-28],[13,-62],[8,-28],[13,-25],[128,-31],[26,-47],[-13,-17],[-40,4],[-10,-8],[-20,-32],[-10,-4],[5,43],[-10,17],[-27,-3],[-10,-10],[-20,-4],[-7,-6],[-7,-14],[-6,-23],[3,-7],[4,-10],[3,-12],[3,-15],[-3,-15],[17,-19],[38,45],[17,-11],[-9,-19],[-20,-15],[-8,-24],[31,-10],[45,-55],[7,-17],[4,-21],[1,-20],[0,-24],[-1,-29],[6,-24],[7,-7],[14,3],[17,-9],[102,-181],[120,-5],[120,-5],[18,19],[136,55],[19,39],[9,12],[29,12],[4,14],[5,39],[6,14],[57,20],[17,33],[-5,12],[-2,3],[7,21],[9,5],[9,-8],[7,-18],[3,-35],[-6,-23],[-19,-29],[3,-21],[8,-40],[1,-19],[-4,-23],[-108,-106],[-33,-55],[-161,-55],[-161,-55],[-31,-33],[-16,-2],[3,-23],[3,-20],[7,-31],[-6,-29],[-7,-18],[-7,-9],[-7,-1],[4,-13],[13,-14],[5,-2],[4,-6],[14,-38],[-10,-14],[-20,-4],[-10,-12],[2,-3],[7,-12],[-7,-11],[-2,-2],[9,-28],[20,2],[10,-11],[9,-17],[29,-6],[64,-30],[2,48],[12,15],[26,-4],[-7,-23],[-2,-6],[3,-3],[3,-8],[2,-14],[1,-18],[-3,-20],[3,-9],[37,-2],[6,-14],[-12,-31],[-6,-10],[-6,2],[-9,14],[-8,8],[-8,-1],[-8,-10],[10,-25],[13,-16],[13,-6],[11,2],[0,-13],[-5,-5],[-4,-9],[-5,-13],[-3,-18],[10,-16],[33,1],[43,-30],[7,9],[8,42],[157,109],[34,50],[17,11],[-10,29],[-6,10],[-5,4],[-5,-6],[-4,-13],[-5,-6],[-5,11],[4,22],[-1,21],[-3,18],[-5,13],[12,15],[141,-74],[92,15],[0,-16],[-12,1],[-50,-41],[-49,-76],[-8,-24],[0,-28],[2,-31],[-5,-19],[-8,-15],[-5,-15],[21,13],[6,-3],[33,-39],[42,-5],[53,46],[23,46],[23,21],[11,23],[-5,20],[-5,9],[-5,5],[-5,9],[5,12],[3,3],[-6,14],[8,21],[11,-2],[19,-19],[19,-4],[6,4],[3,7],[17,57],[4,21],[4,26],[6,23],[12,23],[13,32],[8,14],[8,5],[10,-6],[6,-17],[5,-28],[2,-26],[-10,-21],[-18,-66],[-21,-48],[-7,-25],[108,59],[32,44],[-8,36],[-21,56],[-10,33],[-9,19],[-4,16],[1,23],[4,12],[6,6],[11,3],[7,-4],[5,-11],[35,-117],[12,-20],[28,-7],[88,81],[116,15],[14,-17],[7,-36],[-18,-6],[-26,-25],[-18,4],[-8,-5],[-27,-40],[-24,-16],[-6,-14],[11,-35],[19,-6],[36,12],[83,-40],[43,3],[81,-23],[8,6],[23,39],[103,33],[48,0],[61,35],[15,-10],[-3,-6],[-7,-24],[1,-6],[3,-15],[1,-7],[-3,2],[-1,-5],[0,-7],[-1,-6],[0,16],[-8,-21],[-118,-40],[-60,0],[-63,-42],[2,0],[-8,-2],[-24,-27],[-54,-3],[-8,6],[-13,32],[-8,5],[-9,-2],[-6,-9],[5,2],[4,-3],[9,-12],[0,-16],[-157,17],[-13,-13],[-25,-63],[-10,-15],[10,-30],[15,-17],[99,-42],[98,-42],[74,30],[51,-6],[142,27],[113,46],[102,-5],[126,25],[16,-29],[3,0],[-8,-17],[-51,-41],[-63,-4],[-98,-27],[-98,-27],[-50,4],[-72,-31],[-60,-19]],[[400,1762],[0,-17],[2,-11],[2,-10],[1,-12],[0,-18],[0,-9],[0,-10],[0,-16],[-2,-19],[-10,-38],[-3,-24],[9,-11],[20,-45],[11,-16],[132,15],[33,29],[12,0],[99,-107],[3,-12],[0,-20],[3,-37],[-8,-11],[-7,-3],[2,-14],[6,-22],[4,-8],[-3,-8],[-7,-36],[11,-19],[124,-66],[27,-40],[4,-24],[-1,-41],[13,-20],[6,-1],[8,14],[3,17],[5,53],[3,11],[7,14],[6,30],[4,30],[3,13],[6,9],[8,21],[7,26],[3,24],[-2,55],[-5,56],[-9,50],[-11,37],[-15,22],[-3,20],[2,45],[4,30],[6,26],[6,19],[7,13],[-18,37],[-8,27],[0,32],[-3,21],[-25,50],[-8,23],[2,6],[5,18],[3,5],[-9,30],[-31,25],[-38,63],[-20,18],[-111,-48],[-9,3],[-44,63],[-77,18],[-102,-116],[-16,-41],[3,14],[-4,-12],[-4,-29],[-2,-10],[-6,-10],[-10,-10],[-4,-9],[-5,-29],[4,-24],[7,-23],[4,-26]],[[1965,3157],[82,10],[52,-59],[109,-36],[78,56],[-4,19],[-16,32],[-2,14],[-4,16],[-5,13],[-4,8],[-35,28],[-95,-5],[-19,23],[-21,-18],[-70,0],[3,-13],[-123,-1],[-20,-16],[-14,-43],[108,-28]],[[400,1762],[0,-17],[2,-11],[2,-10],[1,-12],[0,-18],[0,-9],[0,-10],[0,-16],[-2,-19],[-10,-38],[-3,-24],[9,-11],[20,-45],[11,-16],[132,15],[33,29],[12,0],[99,-107],[3,-12],[0,-20],[3,-37],[-8,-11],[-7,-3],[2,-14],[6,-22],[4,-8],[-3,-8],[-7,-36],[11,-19],[124,-66],[27,-40],[4,-24],[-1,-41],[13,-20],[6,-1],[8,14],[3,17],[5,53],[3,11],[7,14],[6,30],[4,30],[3,13],[6,9],[8,21],[7,26],[3,24],[-2,55],[-5,56],[-9,50],[-11,37],[-15,22],[-3,20],[2,45],[4,30],[6,26],[6,19],[7,13],[-18,37],[-8,27],[0,32],[-3,21],[-25,50],[-8,23],[2,6],[5,18],[3,5],[-9,30],[-31,25],[-38,63],[-20,18],[-111,-48],[-9,3],[-44,63],[-77,18],[-102,-116],[-16,-41],[3,14],[-4,-12],[-4,-29],[-2,-10],[-6,-10],[-10,-10],[-4,-9],[-5,-29],[4,-24],[7,-23],[4,-26]],[[1965,3157],[82,10],[52,-59],[109,-36],[78,56],[-4,19],[-16,32],[-2,14],[-4,16],[-5,13],[-4,8],[-35,28],[-95,-5],[-19,23],[-21,-18],[-70,0],[3,-13],[-123,-1],[-20,-16],[-14,-43],[108,-28]],[[1685,1861],[21,16],[63,-7],[-92,-45],[-12,-26],[9,-28],[13,-62],[8,-28],[13,-25],[128,-31],[26,-47],[-13,-17],[-40,4],[-10,-8],[-20,-32],[-10,-4],[5,43],[-10,17],[-27,-3],[-10,-10],[-20,-4],[-7,-6],[-7,-14],[-6,-23],[3,-7],[4,-10],[3,-12],[3,-15],[-3,-15],[17,-19],[38,45],[17,-11],[-9,-19],[-20,-15],[-8,-24],[31,-10],[45,-55],[7,-17],[4,-21],[1,-20],[0,-24],[-1,-29],[6,-24],[7,-7],[14,3],[17,-9],[102,-181],[120,-5],[120,-5],[18,19],[136,55],[19,39],[9,12],[29,12],[4,14],[5,39],[6,14],[57,20],[17,33],[-5,12],[-2,3],[7,21],[9,5],[9,-8],[7,-18],[3,-35],[-6,-23],[-19,-29],[3,-21],[8,-40],[1,-19],[-4,-23],[-108,-106],[-33,-55],[-161,-55],[-161,-55],[-31,-33],[-16,-2],[3,-23],[3,-20],[7,-31],[-6,-29],[-7,-18],[-7,-9],[-7,-1],[4,-13],[13,-14],[5,-2],[4,-6],[14,-38],[-10,-14],[-20,-4],[-10,-12],[2,-3],[7,-12],[-7,-11],[-2,-2],[9,-28],[20,2],[10,-11],[9,-17],[29,-6],[64,-30],[2,48],[12,15],[26,-4],[-7,-23],[-2,-6],[3,-3],[3,-8],[2,-14],[1,-18],[-3,-20],[3,-9],[37,-2],[6,-14],[-12,-31],[-6,-10],[-6,2],[-9,14],[-8,8],[-8,-1],[-8,-10],[10,-25],[13,-16],[13,-6],[11,2],[0,-13],[-5,-5],[-4,-9],[-5,-13],[-3,-18],[10,-16],[33,1],[43,-30],[7,9],[8,42],[157,109],[34,50],[17,11],[-10,29],[-6,10],[-5,4],[-5,-6],[-4,-13],[-5,-6],[-5,11],[4,22],[-1,21],[-3,18],[-5,13],[12,15],[141,-74],[92,15],[0,-16],[-12,1],[-50,-41],[-49,-76],[-8,-24],[0,-28],[2,-31],[-5,-19],[-8,-15],[-5,-15],[21,13],[6,-3],[33,-39],[42,-5],[53,46],[23,46],[23,21],[11,23],[-5,20],[-5,9],[-5,5],[-5,9],[5,12],[3,3],[-6,14],[8,21],[11,-2],[19,-19],[19,-4],[6,4],[3,7],[17,57],[4,21],[4,26],[6,23],[12,23],[13,32],[8,14],[8,5],[10,-6],[6,-17],[5,-28],[2,-26],[-10,-21],[-18,-66],[-21,-48],[-7,-25],[108,59],[32,44],[-8,36],[-21,56],[-10,33],[-9,19],[-4,16],[1,23],[4,12],[6,6],[11,3],[7,-4],[5,-11],[35,-117],[12,-20],[28,-7],[88,81],[116,15],[14,-17],[7,-36],[-18,-6],[-26,-25],[-18,4],[-8,-5],[-27,-40],[-24,-16],[-6,-14],[11,-35],[19,-6],[36,12],[83,-40],[43,3],[81,-23],[8,6],[23,39],[103,33],[48,0],[61,35],[15,-10],[-3,-6],[-7,-24],[1,-6],[3,-15],[1,-7],[-3,2],[-1,-5],[0,-7],[-1,-6],[0,16],[-8,-21],[-118,-40],[-60,0],[-63,-42],[2,0],[-8,-2],[-24,-27],[-54,-3],[-8,6],[-13,32],[-8,5],[-9,-2],[-6,-9],[5,2],[4,-3],[9,-12],[0,-16],[-157,17],[-13,-13],[-25,-63],[-10,-15],[10,-30],[15,-17],[99,-42],[98,-42],[74,30],[51,-6],[142,27],[113,46],[102,-5],[126,25],[16,-29],[3,0],[-8,-17],[-51,-41],[-63,-4],[-98,-27],[-98,-27],[-50,4],[-72,-31],[-60,-19]],[[4096,2915],[-2,6],[-177,46],[-23,33],[-4,-11],[-4,-20],[-23,9],[-14,-9],[-19,5],[-13,20],[6,38],[48,81],[9,44],[-5,2],[-2,5],[-35,101],[-138,97],[-16,34],[-8,54],[0,24],[3,12],[-1,13],[-7,24],[-8,11],[-17,9],[-8,15],[-24,91],[-14,34],[-25,20],[-20,37],[-9,23],[-6,20],[-1,16],[1,20],[1,31],[-67,128],[-75,84],[0,15],[37,-4],[10,18],[-1,5]],[[2923,4096],[-33,-14],[-75,9],[4,-21],[2,-5],[4,-3],[0,-16],[-81,50]],[[2528,4096],[13,-9],[13,-20],[11,-9],[9,-20],[4,-5],[72,-12],[23,-33],[-47,21],[-13,-21],[50,-29],[0,-13],[-62,17],[-8,-33],[-8,-13],[-12,-8],[-12,1],[-13,24],[-10,1],[-8,-10],[0,-24],[-12,-35],[-13,-22],[-14,-12],[-14,-4],[-14,10],[-7,14],[-3,20],[3,20],[17,38],[-6,14],[-13,0],[-6,8],[-7,16],[-116,67],[-14,-2],[-50,-61],[-47,-13],[-23,-29],[-14,-114],[-10,-29],[-68,-90],[18,-37],[104,-7],[-15,-28],[-105,-49],[-17,-26],[2,-13],[-5,-14],[13,-35],[131,-23],[77,49],[15,-1],[11,-21],[-15,-30],[-52,-28],[6,-24],[120,-79],[66,-18],[7,19],[7,-7],[31,36],[20,3],[9,-8],[-2,-24],[0,-16],[22,-9],[46,11],[20,-44],[-100,-15],[-99,-15],[-12,-21],[-9,-38],[8,-29],[20,-22],[8,-29],[6,-28],[7,-15],[8,-7],[53,27],[135,-56],[80,-116],[0,-16],[-36,-19],[-19,3],[-13,45],[5,15],[-4,11],[-6,7],[-7,-1],[-4,-10],[-6,-9],[-93,38],[-105,-24],[-68,29],[-80,74],[-27,-3],[-87,-32],[-120,9],[-146,-16],[7,-43],[12,-23],[26,-22],[-7,-1],[-4,-15],[-2,-27],[-6,-21],[-4,-7],[-50,-32],[16,-27],[97,-65],[23,-77],[16,-23],[44,-31],[29,0],[12,-24],[-5,-12],[-2,-3],[2,-15],[7,-26],[3,-18],[-46,18],[-38,41],[-51,-5],[-51,48],[-56,-5],[-14,-16],[-8,6],[-33,-23],[-10,-21],[6,-7],[17,-36],[-11,-16],[-30,7],[-34,36],[-11,2],[-2,-29],[-20,10],[-22,26],[-21,8],[-19,-44],[40,-30],[31,-1],[9,-13],[-6,-27],[-29,-60],[-2,-14],[89,-30],[129,-129],[31,-2],[99,102],[5,-7],[8,-30],[5,-7],[68,0],[26,39],[15,11],[11,-21],[-18,-47],[-20,-21],[-81,2],[-43,-37],[-8,-28],[16,-6],[92,-107],[161,33],[97,98],[28,74],[11,8],[17,-2],[14,-14],[3,-25],[141,-43],[7,-16],[-167,-47],[-95,-129],[0,-14],[20,-10],[39,-74],[30,-27],[22,-40],[19,-14],[9,-14],[15,-39],[-14,-13],[-154,135],[-41,1],[-77,-25],[-109,29],[-76,2],[3,0],[-13,17],[-114,33],[-126,148],[-126,14],[-14,-17],[-5,-23],[-3,-34],[-5,-28],[-6,-7],[10,-52],[19,-40],[20,-21],[16,1]],[[4015,4096],[6,-24],[9,-25],[36,-51],[30,-15]],[[400,1762],[-4,26],[-7,23],[-4,24],[5,29],[4,9],[10,10],[6,10],[2,10],[4,29],[4,12],[-3,-14],[16,41],[102,116],[77,-18],[44,-63],[9,-3],[111,48],[20,-18],[38,-63],[31,-25],[9,-30],[-3,-5],[-5,-18],[-2,-6],[8,-23],[25,-50],[3,-21],[0,-32],[8,-27],[18,-37],[-7,-13],[-6,-19],[-6,-26],[-4,-30],[-2,-45],[3,-20],[15,-22],[11,-37],[9,-50],[5,-56],[2,-55],[-3,-24],[-7,-26],[-8,-21],[-6,-9],[-3,-13],[-4,-30],[-6,-30],[-7,-14],[-3,-11],[-5,-53],[-3,-17],[-8,-14],[-6,1],[-13,20],[1,41],[-4,24],[-27,40],[-124,66],[-11,19],[7,36],[3,8],[-4,8],[-6,22],[-2,14],[7,3],[8,11],[-3,37],[0,20],[-3,12],[-99,107],[-12,0],[-33,-29],[-132,-15],[-11,16],[-20,45],[-9,11],[3,24],[10,38],[2,19],[0,16],[0,10],[0,9],[0,18],[-1,12],[-2,10],[-2,11],[0,17]],[[1965,3157],[-108,28],[14,43],[20,16],[123,1],[-3,13],[70,0],[21,18],[19,-23],[95,5],[35,-28],[4,-8],[5,-13],[4,-16],[2,-14],[16,-32],[4,-19],[-78,-56],[-109,36],[-52,59],[-82,-10]],[[4096,4096],[0,-115],[-30,15],[-36,51],[-9,25],[-6,24],[81,0]],[[4096,2292],[0,-2292],[-633,0],[60,19],[72,31],[50,-4],[98,27],[98,27],[63,4],[51,41],[8,17],[-3,0],[-16,29],[-126,-25],[-102,5],[-113,-46],[-142,-27],[-51,6],[-74,-30],[-98,42],[-99,42],[-15,17],[-10,30],[10,15],[25,63],[13,13],[157,-17],[0,16],[-9,12],[-4,3],[-5,-2],[6,9],[9,2],[8,-5],[13,-32],[8,-6],[54,3],[24,27],[8,2],[-2,0],[63,42],[60,0],[118,40],[8,21],[0,-16],[1,6],[0,7],[1,5],[3,-2],[-1,7],[-3,15],[-1,6],[7,24],[3,6],[-15,10],[-61,-35],[-48,0],[-103,-33],[-23,-39],[-8,-6],[-81,23],[-43,-3],[-83,40],[-36,-12],[-19,6],[-11,35],[6,14],[24,16],[27,40],[8,5],[18,-4],[26,25],[18,6],[-7,36],[-14,17],[-116,-15],[-88,-81],[-28,7],[-12,20],[-35,117],[-5,11],[-7,4],[-11,-3],[-6,-6],[-4,-12],[-1,-23],[4,-16],[9,-19],[10,-33],[21,-56],[8,-36],[-32,-44],[-108,-59],[7,25],[21,48],[18,66],[10,21],[-2,26],[-5,28],[-6,17],[-10,6],[-8,-5],[-8,-14],[-13,-32],[-12,-23],[-6,-23],[-4,-26],[-4,-21],[-17,-57],[-3,-7],[-6,-4],[-19,4],[-19,19],[-11,2],[-8,-21],[6,-14],[-3,-3],[-5,-12],[5,-9],[5,-5],[5,-9],[5,-20],[-11,-23],[-23,-21],[-23,-46],[-53,-46],[-42,5],[-33,39],[-6,3],[-21,-13],[5,15],[8,15],[5,19],[-2,31],[0,28],[8,24],[49,76],[50,41],[12,-1],[0,16],[-92,-15],[-141,74],[-12,-15],[5,-13],[3,-18],[1,-21],[-4,-22],[5,-11],[5,6],[4,13],[5,6],[5,-4],[6,-10],[10,-29],[-17,-11],[-34,-50],[-157,-109],[-8,-42],[-7,-9],[-43,30],[-33,-1],[-10,16],[3,18],[5,13],[4,9],[5,5],[0,13],[-11,-2],[-13,6],[-13,16],[-10,25],[8,10],[8,1],[8,-8],[9,-14],[6,-2],[6,10],[12,31],[-6,14],[-37,2],[-3,9],[3,20],[-1,18],[-2,14],[-3,8],[-3,3],[2,6],[7,23],[-26,4],[-12,-15],[-2,-48],[-64,30],[-29,6],[-9,17],[-10,11],[-20,-2],[-9,28],[2,2],[7,11],[-7,12],[-2,3],[10,12],[20,4],[10,14],[-14,38],[-4,6],[-5,2],[-13,14],[-4,13],[7,1],[7,9],[7,18],[6,29],[-7,31],[-3,20],[-3,23],[16,2],[31,33],[161,55],[161,55],[33,55],[108,106],[4,23],[-1,19],[-8,40],[-3,21],[19,29],[6,23],[-3,35],[-7,18],[-9,8],[-9,-5],[-7,-21],[2,-3],[5,-12],[-17,-33],[-57,-20],[-6,-14],[-5,-39],[-4,-14],[-29,-12],[-9,-12],[-19,-39],[-136,-55],[-18,-19],[-120,5],[-120,5],[-102,181],[-17,9],[-14,-3],[-7,7],[-6,24],[1,29],[0,24],[-1,20],[-4,21],[-7,17],[-45,55],[-31,10],[8,24],[20,15],[9,19],[-17,11],[-38,-45],[-17,19],[3,15],[-3,15],[-3,12],[-4,10],[-3,7],[6,23],[7,14],[7,6],[20,4],[10,10],[27,3],[10,-17],[-5,-43],[10,4],[20,32],[10,8],[40,-4],[13,17],[-26,47],[-128,31],[-13,25],[-8,28],[-13,62],[-9,28],[12,26],[92,45],[-63,7],[-21,-16],[-16,-1],[-20,21],[-19,40],[-10,52],[6,7],[5,28],[3,34],[5,23],[14,17],[126,-14],[126,-148],[114,-33],[13,-17],[-3,0],[76,-2],[109,-29],[77,25],[41,-1],[154,-135],[14,13],[-15,39],[-9,14],[-19,14],[-22,40],[-30,27],[-39,74],[-20,10],[0,14],[95,129],[167,47],[-7,16],[-141,43],[-3,25],[-14,14],[-17,2],[-11,-8],[-28,-74],[-97,-98],[-161,-33],[-92,107],[-16,6],[8,28],[43,37],[81,-2],[20,21],[18,47],[-7,12],[-4,9],[-12,-9],[-3,-2],[-26,-39],[-68,0],[-5,7],[-8,30],[-3,4],[-2,3],[-3,-3],[-96,-99],[-31,2],[-97,97],[-32,32],[-89,30],[2,14],[29,60],[6,27],[-9,13],[-31,1],[-40,30],[19,44],[21,-8],[22,-26],[20,-10],[2,29],[11,-2],[34,-36],[30,-7],[11,16],[-17,36],[-6,7],[10,21],[33,23],[8,-6],[14,16],[56,5],[51,-48],[51,5],[38,-41],[46,-18],[-3,18],[-7,26],[-2,15],[2,3],[5,12],[-12,24],[-29,0],[-44,31],[-16,23],[-23,77],[-97,65],[-16,27],[50,32],[4,7],[6,21],[2,27],[4,15],[7,1],[-26,22],[-12,23],[-7,43],[146,16],[120,-9],[87,32],[27,3],[80,-74],[68,-29],[105,24],[93,-38],[6,9],[4,10],[7,1],[6,-7],[4,-11],[-5,-15],[13,-45],[19,-3],[36,19],[0,16],[-80,116],[-135,56],[-53,-27],[-8,7],[-7,15],[-6,28],[-8,29],[-20,22],[-8,29],[9,38],[12,21],[99,15],[100,15],[-20,44],[-46,-11],[-22,9],[0,16],[2,24],[-9,8],[-20,-3],[-31,-36],[-7,7],[-7,-19],[-66,18],[-120,79],[-6,24],[52,28],[15,30],[-11,21],[-15,1],[-77,-49],[-131,23],[-13,35],[5,14],[-2,13],[17,26],[105,49],[15,28],[-104,7],[-18,37],[68,90],[10,29],[14,114],[23,29],[47,13],[50,61],[14,2],[116,-67],[7,-16],[6,-8],[13,0],[6,-14],[-17,-38],[-3,-20],[3,-20],[7,-14],[14,-10],[14,4],[14,12],[13,22],[12,35],[0,24],[8,10],[10,-1],[13,-24],[12,-1],[12,8],[8,13],[8,33],[62,-17],[0,13],[-50,29],[13,21],[47,-21],[-23,33],[-72,12],[-4,5],[-9,20],[-11,9],[-13,20],[-13,9],[216,0],[81,-50],[0,16],[-4,3],[-2,5],[-4,21],[75,-9],[33,14],[522,0],[1,-5],[-10,-18],[-37,4],[0,-15],[75,-84],[67,-128],[-1,-31],[-1,-20],[1,-16],[6,-20],[9,-23],[20,-37],[25,-20],[14,-34],[24,-91],[8,-15],[17,-9],[8,-11],[7,-24],[1,-13],[-3,-12],[0,-24],[8,-54],[16,-34],[138,-97],[35,-101],[2,-5],[5,-2],[-9,-44],[-48,-81],[-6,-38],[13,-20],[19,-5],[14,9],[23,-9],[4,20],[4,11],[23,-33],[177,-46],[2,-6],[0,-623]]]}