{"objects":{"water":{"type":"GeometryCollection","geometries":[{"type":"MultiPolygon","properties":{"source":"naturalearthdata.com","kind":"ocean","area":989871000000000,"sort_rank":200,"min_zoom":0,"id":1},"arcs":[[[0],[1],[2]],[[3]]]},{"type":"LineString","properties":{"source":"naturalearthdata.com","kind":"ocean","sort_rank":205,"boundary":true,"min_zoom":0,"id":993},"arcs":[4]},{"type":"LineString","properties":{"source":"naturalearthdata.com","kind":"ocean","sort_rank":205,"boundary":true,"min_zoom":0,"id":996},"arcs":[5]},{"type":"LineString","properties":{"source":"naturalearthdata.com","kind":"ocean","sort_rank":205,"boundary":true,"min_zoom":0,"id":999},"arcs":[6]},{"type":"LineString","properties":{"source":"naturalearthdata.com","kind":"ocean","sort_rank":205,"boundary":true,"min_zoom":0,"id":1001},"arcs":[7]},{"type":"LineString","properties":{"source":"naturalearthdata.com","kind":"ocean","sort_rank":205,"boundary":true,"min_zoom":0,"id":1003},"arcs":[8]},{"type":"LineString","properties":{"source":"naturalearthdata.com","kind":"ocean","sort_rank":205,"boundary":true,"min_zoom":0,"id":1010},"arcs":[9]},{"type":"LineString","properties":{"source":"naturalearthdata.com","kind":"ocean","sort_rank":205,"boundary":true,"min_zoom":0,"id":1011},"arcs":[10]},{"type":"MultiLineString","properties":{"source":"naturalearthdata.com","kind":"ocean","sort_rank":205,"boundary":true,"min_zoom":0,"id":1014},"arcs":[[11],[12]]}]},"buildings":{"type":"GeometryCollection","geometries":[]},"places":{"type":"GeometryCollection","geometries":[]},"transit":{"type":"GeometryCollection","geometries":[]},"pois":{"type":"GeometryCollection","geometries":[]},"boundaries":{"type":"GeometryCollection","geometries":[]},"roads":{"type":"GeometryCollection","geometries":[]},"earth":{"type":"GeometryCollection","geometries":[{"type":"MultiPolygon","properties":{"sort_rank":10,"source":"naturalearthdata.com","min_zoom":1.5,"kind":"earth","area":383187630897},"arcs":[[[13]]]},{"type":"MultiPolygon","properties":{"sort_rank":10,"source":"naturalearthdata.com","kind":"earth","min_zoom":2.0,"area":208531522065},"arcs":[[[14]]]},{"type":"MultiPolygon","properties":{"sort_rank":10,"source":"naturalearthdata.com","min_zoom":0.5,"kind":"earth","area":885996023338},"arcs":[[[15]]]},{"type":"MultiPolygon","properties":{"sort_rank":10,"source":"naturalearthdata.com","min_zoom":1.0,"kind":"earth","area":239012445148},"arcs":[[[16]]]},{"type":"MultiPolygon","properties":{"sort_rank":10,"source":"naturalearthdata.com","min_zoom":3.0,"kind":"earth","area":85393833487},"arcs":[[[17]],[[18]]]},{"type":"MultiPolygon","properties":{"sort_rank":10,"source":"naturalearthdata.com","min_zoom":0,"kind":"earth","area":13131386715102},"arcs":[[[19]],[[20]]]}]},"landuse":{"type":"GeometryCollection","geometries":[]}},"type":"Topology","transform":{"translate":[-101.25,76.8408164144],"scale":[0.002746582,0.0005689742]},"arcs":[[[4096,675],[0,-673],[-13,-2],[-1258,0],[-6,16],[-28,20],[-12,33],[-10,39],[-9,22],[-11,11],[-44,2],[-36,30],[-16,-5],[-8,-7],[-7,-12],[-12,-36],[-28,-30],[-44,5],[-3,3],[-3,8],[-2,8],[-1,9],[-2,8],[-15,18],[-49,-6],[-5,5],[-6,13],[-6,15],[-4,14],[0,8],[1,8],[1,10],[-2,11],[-3,9],[-154,14],[-9,6],[-17,25],[-69,13],[-17,17],[-27,42],[-16,11],[-17,24],[-8,7],[-88,2],[-38,25],[-44,-13],[-40,-34],[-142,-28],[9,-10],[16,-7],[8,-19],[-3,0],[0,-13],[23,0],[-8,-34],[-14,-1],[-16,10],[-11,-5],[-6,-15],[-20,-14],[-3,-8],[-2,-9],[-3,-7],[-4,0],[2,24],[-107,23],[2,0],[-13,2],[-6,-6],[-3,-19],[32,-4],[15,-10],[15,-22],[-20,-24],[-21,8],[-29,-24],[-6,-22],[6,-46],[11,-33],[13,-10],[26,5],[10,-4],[25,-31],[6,-15],[-1693,0],[0,1554],[37,-9],[39,19],[20,-8],[9,4],[11,28],[-10,28],[-93,141],[-13,8],[0,601],[58,33],[11,0],[9,-12],[5,-21],[1,-16],[-2,-15],[1,-20],[7,-35],[12,-23],[60,-51],[16,-23],[-1,-37],[-7,-8],[-9,1],[-8,-5],[-3,-30],[1,-23],[2,-17],[6,-32],[11,-43],[51,-98],[10,-28],[4,-30],[-7,-24],[5,-11],[80,-35],[40,-44],[62,-7],[62,-56],[20,5],[6,11],[10,28],[6,12],[10,8],[112,21],[112,22],[9,10],[14,29],[15,21],[18,8],[3,8],[1,12],[-3,8],[-6,11],[-11,28],[-3,16],[4,15],[-13,48],[12,20],[27,21],[10,26],[1,13],[1,16],[-1,31],[1,13],[7,41],[-17,2],[-19,21],[-91,182],[-40,31],[-10,17],[-14,49],[-12,54],[-11,30],[-14,12],[-72,-1],[-12,25],[5,20],[12,78],[3,29],[-6,43],[-12,29],[-27,30],[14,33],[51,36],[5,10],[3,13],[1,13],[3,15],[6,13],[11,21],[6,15],[-5,10],[-5,4],[-10,-1],[9,29],[26,12],[10,31],[-11,27],[-16,14],[-16,3],[-19,-10],[-22,2],[-4,5],[-3,12],[-3,16],[-3,14],[-13,15],[-39,-27],[-24,5],[-22,20],[11,33],[38,38],[13,36],[-35,65],[-104,63],[-15,22],[-4,26],[0,26],[-8,17],[-18,11],[-45,-11],[-27,-40],[-61,1],[-27,-18],[-25,-31],[-35,14],[-1,29],[-11,10],[-45,-3],[-9,9],[-9,27],[17,27],[18,61],[34,85],[11,19],[-9,33],[-44,49],[-2,0],[-1,-7],[-1,-10],[-1,-10],[-3,-7],[-4,-1],[-30,20],[0,354],[3463,0],[-52,-14],[-149,-18],[-86,26],[-82,-5],[-8,-7],[-16,-21],[-8,-7],[-59,25],[-30,-12],[-53,33],[-37,-1],[-19,-7],[-18,-18],[-11,-32],[-2,-32],[-39,-64],[-7,-37],[-5,-10],[-7,-5],[-6,0],[-15,10],[-44,-21],[-46,-8],[-32,-30],[-69,-33],[-30,-36],[8,-33],[76,-116],[25,-14],[12,-19],[11,-29],[9,-35],[11,-23],[37,-5],[83,13],[65,-32],[22,-28],[82,-46],[16,-18],[-3,-12],[1,-16],[-3,-11],[-5,-7],[-35,-3],[-147,81],[-77,-6],[-13,-26],[19,-24],[39,-80],[26,-22],[10,-23],[5,-8],[6,-3],[55,20],[9,-17],[-9,-17],[-26,-19],[-10,0],[0,-11],[45,-76],[24,-24],[24,-9],[87,25],[12,11],[2,6],[0,8],[1,7],[2,3],[8,2],[21,18],[14,5],[29,-15],[28,-31],[167,-46],[167,-46],[20,13],[13,-4],[3,-32],[-5,-29],[-16,6],[-10,10],[-43,19],[-114,-26],[-114,-25],[-18,11],[-9,0],[-9,-11],[28,-11],[-10,-27],[-15,-10],[-28,1],[3,0],[-92,23],[1,-14],[1,-6],[-22,2],[-12,-13],[-8,-41],[14,-52],[30,-55],[18,-7],[52,-58],[20,-6],[8,-14],[-2,-9],[-3,-27],[41,-41],[41,-8],[40,35],[22,6],[16,-29],[-13,-14],[-31,-6],[-11,-27],[7,-10],[39,-1],[5,-10],[-4,-27],[29,-61],[19,-20],[15,-8],[7,3],[5,9],[8,23],[40,23],[14,-14],[20,-9],[59,-70],[153,-27],[109,-55],[102,17],[92,-17],[12,13],[11,28],[5,33],[-9,32],[-15,22],[-8,18],[-4,24],[1,27],[5,14],[12,18],[-18,23],[-80,6],[-40,26],[-17,30],[16,22],[61,-22],[75,24],[70,-20],[34,-36],[17,-34],[0,-1301],[-53,67],[-14,6],[-7,10],[-2,9],[-2,8],[-1,8],[-4,9],[-28,31],[-105,25],[-105,25],[-27,-12],[-36,-52],[-13,-8],[-11,11],[-18,-10],[-4,-14],[-2,-19],[-2,-18],[-3,-14],[-3,-9],[8,-42],[2,-19],[-3,-6],[-3,-7],[-4,-23],[5,-20],[10,-99],[-5,-15],[-5,-20],[-3,-23],[1,-20],[8,-24],[17,-16],[5,-23],[6,-17],[17,-17],[47,-81],[98,-64],[98,-65],[-3,-16],[-8,-18],[0,-9],[5,-10],[15,-8],[46,12],[13,10],[13,3],[26,-16],[34,37]],[[2912,1412],[15,0],[40,35],[-22,50],[-5,23],[-12,30],[-11,19],[-12,9],[-28,2],[-8,5],[-13,25],[-6,1],[-13,-6],[-40,41],[-15,7],[-62,-24],[-6,-6],[-4,-15],[-4,-17],[-3,-11],[-8,-4],[-22,16],[-5,-5],[-3,-8],[-4,-3],[-12,21],[-13,14],[-6,12],[-13,16],[-28,-22],[-14,-1],[-50,24],[2,-5],[3,-19],[-25,0],[5,24],[-108,16],[-108,15],[-13,-7],[-37,-51],[-41,-22],[-15,0],[-19,41],[-8,-14],[-7,-24],[-8,-14],[-9,3],[-8,9],[-4,23],[4,38],[-15,53],[-23,-1],[-43,-61],[-6,-4],[-12,11],[-6,-1],[-12,-14],[-63,-20],[-30,-31],[-22,-10],[-33,-42],[-38,-13],[-9,-25],[0,-21],[2,-23],[-1,-16],[-11,1],[1,-15],[1,-10],[-2,-10],[-3,-14],[7,-13],[-3,-12],[-9,-9],[-7,-2],[9,-28],[66,-116],[12,-41],[5,-11],[32,-33],[151,-1],[151,-1],[150,0],[151,-1],[38,-35],[50,-12],[31,19],[11,-3],[9,-13],[-2,-7],[0,-6],[0,-5],[-1,-7],[38,13],[17,-12],[8,-2],[7,14],[-7,0],[-15,12],[-5,11],[11,-2],[25,-21],[11,3],[12,10],[12,0],[23,-23],[13,9],[16,33],[9,43],[-10,33],[4,10],[3,12],[1,14],[-3,29],[1,7],[2,7],[2,12],[37,53],[-3,12],[-3,11],[-3,8],[-3,5],[12,43],[14,19],[31,-1]],[[1580,1677],[18,-11],[8,5],[9,17],[-3,7],[-2,4],[-3,1],[-2,0],[15,8],[27,43],[44,18],[15,-10],[8,0],[6,8],[4,18],[-22,0],[30,24],[0,12],[-20,-26],[-26,-18],[-25,1],[-19,31],[11,18],[28,-5],[14,10],[23,34],[13,6],[27,-7],[4,-8],[2,-11],[-1,-10],[-1,-9],[0,-6],[8,-17],[8,-7],[102,35],[101,35],[38,41],[49,14],[16,24],[19,-6],[8,2],[19,42],[8,5],[40,0],[38,-21],[18,0],[19,21],[7,14],[5,15],[14,54],[19,38],[-5,0],[5,18],[6,12],[6,6],[6,0],[0,12],[-11,19],[-2,13],[13,39],[-74,98],[-6,48],[-27,28],[-55,15],[-25,29],[12,24],[178,155],[11,20],[8,31],[-11,39],[-5,16],[-23,14],[-67,90],[-52,26],[-72,74],[-87,26],[-17,-9],[-45,-53],[-14,-6],[-133,84],[3,20],[6,9],[6,6],[5,12],[1,18],[0,20],[1,17],[10,14],[7,16],[3,16],[-2,8],[-20,12],[-8,0],[-18,-15],[-9,-3],[-9,9],[-74,105],[-20,15],[-39,-14],[-69,30],[-24,54],[-140,69],[-39,42],[-127,19],[-127,19],[-75,-78],[-2,-14],[5,-15],[11,-18],[-5,-8],[-9,-20],[-5,-8],[4,-16],[15,-20],[-3,-19],[-2,-22],[0,-50],[5,-15],[23,-24],[7,-15],[-5,-24],[9,-14],[21,4],[10,-4],[31,-38],[9,-20],[-5,-12],[-2,-1],[0,-11],[8,-6],[-2,-12],[-8,-13],[-8,-5],[-78,0],[-12,14],[-6,1],[-7,-15],[13,-25],[-21,-1],[-8,-13],[-3,-33],[1,-11],[8,-38],[5,-17],[4,-9],[52,-64],[54,-18],[13,-11],[-6,-10],[-6,-5],[-6,-11],[-3,-24],[7,-9],[15,-31],[6,-19],[-5,-9],[-6,-6],[-6,-11],[-3,-23],[57,-29],[27,-30],[26,-50],[-5,-7],[-10,-4],[-2,-13],[-3,14],[0,-14],[-24,19],[-12,0],[-1,-19],[2,-23],[10,-2],[22,13],[108,-34],[51,10],[60,-31],[19,-33],[51,-42],[22,6],[29,-16],[10,-17],[-3,-11],[-3,-8],[-3,-4],[-4,-1],[3,-17],[4,-8],[5,-2],[6,2],[-14,-31],[-16,-18],[-131,14],[-131,14],[-10,-38],[4,-8],[6,-20],[2,-7],[-10,-2],[-23,-21],[-12,-2],[8,-22],[10,-6],[20,3],[86,-59],[33,-60],[128,-61],[-8,-28],[-14,-27],[-15,-21],[-11,-8],[3,-20],[3,-9],[4,-7],[3,-12],[1,-13],[-2,-8],[-1,-6],[-1,-10],[-2,-10],[-1,-14],[1,-12],[4,-4],[18,4],[48,-23]],[[4096,2860],[0,1],[0,10],[-1,10],[-3,5],[-6,7],[-11,39],[-2,16],[4,18],[-10,23],[-5,15],[-2,21],[6,10],[-1,45],[7,22],[10,9],[12,5],[2,-1],[0,-255]],[[4096,2],[-13,-2]],[[2825,0],[-6,16],[-28,20],[-12,33],[-10,39],[-9,22],[-11,11],[-44,2],[-36,30],[-16,-5],[-8,-7],[-7,-12],[-12,-36],[-28,-30],[-44,5],[-3,3],[-3,8],[-2,8],[-1,9],[-2,8],[-15,18],[-49,-6],[-5,5],[-6,13],[-6,15],[-4,14],[0,8],[1,8],[1,10],[-2,11],[-3,9],[-154,14],[-9,6],[-17,25],[-69,13],[-17,17],[-27,42],[-16,11],[-17,24],[-8,7],[-88,2],[-38,25],[-44,-13],[-40,-34],[-142,-28],[9,-10],[16,-7],[8,-19],[-3,0],[0,-13],[23,0],[-8,-34],[-14,-1],[-16,10],[-11,-5],[-6,-15],[-20,-14],[-3,-8],[-2,-9],[-3,-7],[-4,0],[2,24],[-107,23],[2,0],[-13,2],[-6,-6],[-3,-19],[32,-4],[15,-10],[15,-22],[-20,-24],[-21,8],[-29,-24],[-6,-22],[6,-46],[11,-33],[13,-10],[26,5],[10,-4],[25,-31],[6,-15]],[[4096,1238],[-53,67],[-14,6],[-7,10],[-2,9],[-2,8],[-1,8],[-4,9],[-28,31],[-105,25],[-105,25],[-27,-12],[-36,-52],[-13,-8],[-11,11],[-18,-10],[-4,-14],[-2,-19],[-2,-18],[-3,-14],[-3,-9],[8,-42],[2,-19],[-3,-6],[-3,-7],[-4,-23],[5,-20],[10,-99],[-5,-15],[-5,-20],[-3,-23],[1,-20],[8,-24],[17,-16],[5,-23],[6,-17],[17,-17],[47,-81],[98,-64],[98,-65],[-3,-16],[-8,-18],[0,-9],[5,-10],[15,-8],[46,12],[13,10],[13,3],[26,-16],[34,37]],[[2912,1412],[15,0],[40,35],[-22,50],[-5,23],[-12,30],[-11,19],[-12,9],[-28,2],[-8,5],[-13,25],[-6,1],[-13,-6],[-40,41],[-15,7],[-62,-24],[-6,-6],[-4,-15],[-4,-17],[-3,-11],[-8,-4],[-22,16],[-5,-5],[-3,-8],[-4,-3],[-12,21],[-13,14],[-6,12],[-13,16],[-28,-22],[-14,-1],[-50,24],[2,-5],[3,-19],[-25,0],[5,24],[-108,16],[-108,15],[-13,-7],[-37,-51],[-41,-22],[-15,0],[-19,41],[-8,-14],[-7,-24],[-8,-14],[-9,3],[-8,9],[-4,23],[4,38],[-15,53],[-23,-1],[-43,-61],[-6,-4],[-12,11],[-6,-1],[-12,-14],[-63,-20],[-30,-31],[-22,-10],[-33,-42],[-38,-13],[-9,-25],[0,-21],[2,-23],[-1,-16],[-11,1],[1,-15],[1,-10],[-2,-10],[-3,-14],[7,-13],[-3,-12],[-9,-9],[-7,-2],[9,-28],[66,-116],[12,-41],[5,-11],[32,-33],[151,-1],[151,-1],[150,0],[151,-1],[38,-35],[50,-12],[31,19],[11,-3],[9,-13],[-2,-7],[0,-6],[0,-5],[-1,-7],[38,13],[17,-12],[8,-2],[7,14],[-7,0],[-15,12],[-5,11],[11,-2],[25,-21],[11,3],[12,10],[12,0],[23,-23],[13,9],[16,33],[9,43],[-10,33],[4,10],[3,12],[1,14],[-3,29],[1,7],[2,7],[2,12],[37,53],[-3,12],[-3,11],[-3,8],[-3,5],[12,43],[14,19],[31,-1]],[[0,1554],[37,-9],[39,19],[20,-8],[9,4],[11,28],[-10,28],[-93,141],[-13,8]],[[1580,1677],[18,-11],[8,5],[9,17],[-3,7],[-2,4],[-3,1],[-2,0],[15,8],[27,43],[44,18],[15,-10],[8,0],[6,8],[4,18],[-22,0],[30,24],[0,12],[-20,-26],[-26,-18],[-25,1],[-19,31],[11,18],[28,-5],[14,10],[23,34],[13,6],[27,-7],[4,-8],[2,-11],[-1,-10],[-1,-9],[0,-6],[8,-17],[8,-7],[102,35],[101,35],[38,41],[49,14],[16,24],[19,-6],[8,2],[19,42],[8,5],[40,0],[38,-21],[18,0],[19,21],[7,14],[5,15],[14,54],[19,38],[-5,0],[5,18],[6,12],[6,6],[6,0],[0,12],[-11,19],[-2,13],[13,39],[-74,98],[-6,48],[-27,28],[-55,15],[-25,29],[12,24],[178,155],[11,20],[8,31],[-11,39],[-5,16],[-23,14],[-67,90],[-52,26],[-72,74],[-87,26],[-17,-9],[-45,-53],[-14,-6],[-133,84],[3,20],[6,9],[6,6],[5,12],[1,18],[0,20],[1,17],[10,14],[7,16],[3,16],[-2,8],[-20,12],[-8,0],[-18,-15],[-9,-3],[-9,9],[-74,105],[-20,15],[-39,-14],[-69,30],[-24,54],[-140,69],[-39,42],[-127,19],[-127,19],[-75,-78],[-2,-14],[5,-15],[11,-18],[-5,-8],[-9,-20],[-5,-8],[4,-16],[15,-20],[-3,-19],[-2,-22],[0,-50],[5,-15],[23,-24],[7,-15],[-5,-24],[9,-14],[21,4],[10,-4],[31,-38],[9,-20],[-5,-12],[-2,-1],[0,-11],[8,-6],[-2,-12],[-8,-13],[-8,-5],[-78,0],[-12,14],[-6,1],[-7,-15],[13,-25],[-21,-1],[-8,-13],[-3,-33],[1,-11],[8,-38],[5,-17],[4,-9],[52,-64],[54,-18],[13,-11],[-6,-10],[-6,-5],[-6,-11],[-3,-24],[7,-9],[15,-31],[6,-19],[-5,-9],[-6,-6],[-6,-11],[-3,-23],[57,-29],[27,-30],[26,-50],[-5,-7],[-10,-4],[-2,-13],[-3,14],[0,-14],[-24,19],[-12,0],[-1,-19],[2,-23],[10,-2],[22,13],[108,-34],[51,10],[60,-31],[19,-33],[51,-42],[22,6],[29,-16],[10,-17],[-3,-11],[-3,-8],[-3,-4],[-4,-1],[3,-17],[4,-8],[5,-2],[6,2],[-14,-31],[-16,-18],[-131,14],[-131,14],[-10,-38],[4,-8],[6,-20],[2,-7],[-10,-2],[-23,-21],[-12,-2],[8,-22],[10,-6],[20,3],[86,-59],[33,-60],[128,-61],[-8,-28],[-14,-27],[-15,-21],[-11,-8],[3,-20],[3,-9],[4,-7],[3,-12],[1,-13],[-2,-8],[-1,-6],[-1,-10],[-2,-10],[-1,-14],[1,-12],[4,-4],[18,4],[48,-23]],[[0,2366],[58,33],[11,0],[9,-12],[5,-21],[1,-16],[-2,-15],[1,-20],[7,-35],[12,-23],[60,-51],[16,-23],[-1,-37],[-7,-8],[-9,1],[-8,-5],[-3,-30],[1,-23],[2,-17],[6,-32],[11,-43],[51,-98],[10,-28],[4,-30],[-7,-24],[5,-11],[80,-35],[40,-44],[62,-7],[62,-56],[20,5],[6,11],[10,28],[6,12],[10,8],[112,21],[112,22],[9,10],[14,29],[15,21],[18,8],[3,8],[1,12],[-3,8],[-6,11],[-11,28],[-3,16],[4,15],[-13,48],[12,20],[27,21],[10,26],[1,13],[1,16],[-1,31],[1,13],[7,41],[-17,2],[-19,21],[-91,182],[-40,31],[-10,17],[-14,49],[-12,54],[-11,30],[-14,12],[-72,-1],[-12,25],[5,20],[12,78],[3,29],[-6,43],[-12,29],[-27,30],[14,33],[51,36],[5,10],[3,13],[1,13],[3,15],[6,13],[11,21],[6,15],[-5,10],[-5,4],[-10,-1],[9,29],[26,12],[10,31],[-11,27],[-16,14],[-16,3],[-19,-10],[-22,2],[-4,5],[-3,12],[-3,16],[-3,14],[-13,15],[-39,-27],[-24,5],[-22,20],[11,33],[38,38],[13,36],[-35,65],[-104,63],[-15,22],[-4,26],[0,26],[-8,17],[-18,11],[-45,-11],[-27,-40],[-61,1],[-27,-18],[-25,-31],[-35,14],[-1,29],[-11,10],[-45,-3],[-9,9],[-9,27],[17,27],[18,61],[34,85],[11,19],[-9,33],[-44,49],[-2,0],[-1,-7],[-1,-10],[-1,-10],[-3,-7],[-4,-1],[-30,20]],[[3463,4096],[-52,-14],[-149,-18],[-86,26],[-82,-5],[-8,-7],[-16,-21],[-8,-7],[-59,25],[-30,-12],[-53,33],[-37,-1],[-19,-7],[-18,-18],[-11,-32],[-2,-32],[-39,-64],[-7,-37],[-5,-10],[-7,-5],[-6,0],[-15,10],[-44,-21],[-46,-8],[-32,-30],[-69,-33],[-30,-36],[8,-33],[76,-116],[25,-14],[12,-19],[11,-29],[9,-35],[11,-23],[37,-5],[83,13],[65,-32],[22,-28],[82,-46],[16,-18],[-3,-12],[1,-16],[-3,-11],[-5,-7],[-35,-3],[-147,81],[-77,-6],[-13,-26],[19,-24],[39,-80],[26,-22],[10,-23],[5,-8],[6,-3],[55,20],[9,-17],[-9,-17],[-26,-19],[-10,0],[0,-11],[45,-76],[24,-24],[24,-9],[87,25],[12,11],[2,6],[0,8],[1,7],[2,3],[8,2],[21,18],[14,5],[29,-15],[28,-31],[167,-46],[167,-46],[20,13],[13,-4],[3,-32],[-5,-29],[-16,6],[-10,10],[-43,19],[-114,-26],[-114,-25],[-18,11],[-9,0],[-9,-11],[28,-11],[-10,-27],[-15,-10],[-28,1],[3,0],[-92,23],[1,-14],[1,-6],[-22,2],[-12,-13],[-8,-41],[14,-52],[30,-55],[18,-7],[52,-58],[20,-6],[8,-14],[-2,-9],[-3,-27],[41,-41],[41,-8],[40,35],[22,6],[16,-29],[-13,-14],[-31,-6],[-11,-27],[7,-10],[39,-1],[5,-10],[-4,-27],[29,-61],[19,-20],[15,-8],[7,3],[5,9],[8,23],[40,23],[14,-14],[20,-9],[59,-70],[153,-27],[109,-55],[102,17],[92,-17],[12,13],[11,28],[5,33],[-9,32],[-15,22],[-8,18],[-4,24],[1,27],[5,14],[12,18],[-18,23],[-80,6],[-40,26],[-17,30],[16,22],[61,-22],[75,24],[70,-20],[34,-36],[17,-34]],[[4096,2860],[0,1],[0,10],[-1,10],[-3,5],[-6,7],[-11,39],[-2,16],[4,18],[-10,23],[-5,15],[-2,21],[6,10],[-1,45],[7,22],[10,9],[12,5],[2,-1]],[[2912,1412],[-31,1],[-14,-19],[-12,-43],[3,-5],[3,-8],[3,-11],[3,-12],[-37,-53],[-2,-12],[-2,-7],[-1,-7],[3,-29],[-1,-14],[-3,-12],[-4,-10],[10,-33],[-9,-43],[-16,-33],[-13,-9],[-23,23],[-12,0],[-12,-10],[-11,-3],[-25,21],[-11,2],[5,-11],[15,-12],[7,0],[-7,-14],[-8,2],[-17,12],[-38,-13],[1,7],[0,5],[0,6],[2,7],[-9,13],[-11,3],[-31,-19],[-50,12],[-38,35],[-151,1],[-150,0],[-151,1],[-151,1],[-32,33],[-5,11],[-12,41],[-66,116],[-9,28],[7,2],[9,9],[3,12],[-7,13],[3,14],[2,10],[-1,10],[-1,15],[11,-1],[1,16],[-2,23],[0,21],[9,25],[38,13],[33,42],[22,10],[30,31],[63,20],[12,14],[6,1],[12,-11],[6,4],[43,61],[23,1],[15,-53],[-4,-38],[4,-23],[8,-9],[9,-3],[8,14],[7,24],[8,14],[19,-41],[15,0],[41,22],[37,51],[13,7],[108,-15],[108,-16],[-5,-24],[25,0],[-3,19],[-2,5],[50,-24],[14,1],[28,22],[13,-16],[6,-12],[13,-14],[12,-21],[4,3],[3,8],[5,5],[22,-16],[8,4],[3,11],[4,17],[4,15],[6,6],[62,24],[15,-7],[40,-41],[13,6],[6,-1],[13,-25],[8,-5],[28,-2],[12,-9],[11,-19],[12,-30],[5,-23],[22,-50],[-40,-35],[-15,0]],[[4096,675],[-34,-37],[-26,16],[-13,-3],[-13,-10],[-46,-12],[-15,8],[-5,10],[0,9],[8,18],[3,16],[-98,65],[-98,64],[-47,81],[-17,17],[-6,17],[-5,23],[-17,16],[-8,24],[-1,20],[3,23],[5,20],[5,15],[-10,99],[-5,20],[4,23],[3,7],[3,6],[-2,19],[-8,42],[3,9],[3,14],[2,18],[2,19],[4,14],[18,10],[11,-11],[13,8],[36,52],[27,12],[105,-25],[105,-25],[28,-31],[4,-9],[1,-8],[2,-8],[2,-9],[7,-10],[14,-6],[53,-67],[0,-563]],[[0,2366],[0,1376],[30,-20],[4,1],[3,7],[1,10],[1,10],[1,7],[2,0],[44,-49],[9,-33],[-11,-19],[-34,-85],[-18,-61],[-17,-27],[9,-27],[9,-9],[45,3],[11,-10],[1,-29],[35,-14],[25,31],[27,18],[61,-1],[27,40],[45,11],[18,-11],[8,-17],[0,-26],[4,-26],[15,-22],[104,-63],[35,-65],[-13,-36],[-38,-38],[-11,-33],[22,-20],[24,-5],[39,27],[13,-15],[3,-14],[3,-16],[3,-12],[4,-5],[22,-2],[19,10],[16,-3],[16,-14],[11,-27],[-10,-31],[-26,-12],[-9,-29],[10,1],[5,-4],[5,-10],[-6,-15],[-11,-21],[-6,-13],[-3,-15],[-1,-13],[-3,-13],[-5,-10],[-51,-36],[-14,-33],[27,-30],[12,-29],[6,-43],[-3,-29],[-12,-78],[-5,-20],[12,-25],[72,1],[14,-12],[11,-30],[12,-54],[14,-49],[10,-17],[40,-31],[91,-182],[19,-21],[17,-2],[-7,-41],[-1,-13],[1,-31],[-1,-16],[-1,-13],[-10,-26],[-27,-21],[-12,-20],[13,-48],[-4,-15],[3,-16],[11,-28],[6,-11],[3,-8],[-1,-12],[-3,-8],[-18,-8],[-15,-21],[-14,-29],[-9,-10],[-112,-22],[-112,-21],[-10,-8],[-6,-12],[-10,-28],[-6,-11],[-20,-5],[-62,56],[-62,7],[-40,44],[-80,35],[-5,11],[7,24],[-4,30],[-10,28],[-51,98],[-11,43],[-6,32],[-2,17],[-1,23],[3,30],[8,5],[9,-1],[7,8],[1,37],[-16,23],[-60,51],[-12,23],[-7,35],[-1,20],[2,15],[-1,16],[-5,21],[-9,12],[-11,0],[-58,-33]],[[1580,1677],[-48,23],[-18,-4],[-4,4],[-1,12],[1,14],[2,10],[1,10],[1,6],[2,8],[-1,13],[-3,12],[-4,7],[-3,9],[-3,20],[11,8],[15,21],[14,27],[8,28],[-128,61],[-33,60],[-86,59],[-20,-3],[-10,6],[-8,22],[12,2],[23,21],[10,2],[-2,7],[-6,20],[-4,8],[10,38],[131,-14],[131,-14],[16,18],[14,31],[-6,-2],[-5,2],[-4,8],[-3,17],[4,1],[3,4],[3,8],[3,11],[-10,17],[-29,16],[-22,-6],[-51,42],[-19,33],[-60,31],[-51,-10],[-108,34],[-22,-13],[-10,2],[-2,23],[1,19],[12,0],[24,-19],[0,14],[3,-14],[2,13],[10,4],[5,7],[-26,50],[-27,30],[-57,29],[3,23],[6,11],[6,6],[5,9],[-6,19],[-15,31],[-7,9],[3,24],[6,11],[6,5],[6,10],[-13,11],[-54,18],[-52,64],[-4,9],[-5,17],[-8,38],[-1,11],[3,33],[8,13],[21,1],[-13,25],[7,15],[6,-1],[12,-14],[78,0],[8,5],[8,13],[2,12],[-8,6],[0,11],[2,1],[5,12],[-9,20],[-31,38],[-10,4],[-21,-4],[-9,14],[5,24],[-7,15],[-23,24],[-5,15],[0,50],[2,22],[3,19],[-15,20],[-4,16],[5,8],[9,20],[5,8],[-11,18],[-5,15],[2,14],[75,78],[127,-19],[127,-19],[39,-42],[140,-69],[24,-54],[69,-30],[39,14],[20,-15],[74,-105],[9,-9],[9,3],[18,15],[8,0],[20,-12],[2,-8],[-3,-16],[-7,-16],[-10,-14],[-1,-17],[0,-20],[-1,-18],[-5,-12],[-6,-6],[-6,-9],[-3,-20],[133,-84],[14,6],[45,53],[17,9],[87,-26],[72,-74],[52,-26],[67,-90],[23,-14],[5,-16],[11,-39],[-8,-31],[-11,-20],[-178,-155],[-12,-24],[25,-29],[55,-15],[27,-28],[6,-48],[74,-98],[-13,-39],[2,-13],[11,-19],[0,-12],[-6,0],[-6,-6],[-6,-12],[-5,-18],[5,0],[-19,-38],[-14,-54],[-5,-15],[-7,-14],[-19,-21],[-18,0],[-38,21],[-40,0],[-8,-5],[-19,-42],[-8,-2],[-19,6],[-16,-24],[-49,-14],[-38,-41],[-101,-35],[-102,-35],[-8,7],[-8,17],[0,6],[1,9],[1,10],[-2,11],[-4,8],[-27,7],[-13,-6],[-23,-34],[-14,-10],[-28,5],[-11,-18],[19,-31],[25,-1],[26,18],[20,26],[0,-12],[-30,-24],[22,0],[-4,-18],[-6,-8],[-8,0],[-15,10],[-44,-18],[-27,-43],[-15,-8],[2,0],[3,-1],[2,-4],[3,-7],[-9,-17],[-8,-5],[-18,11]],[[4096,2],[0,-2],[-13,0],[13,2]],[[0,1554],[0,211],[13,-8],[93,-141],[10,-28],[-11,-28],[-9,-4],[-20,8],[-39,-19],[-37,9]],[[2825,0],[-1132,0],[-6,15],[-25,31],[-10,4],[-26,-5],[-13,10],[-11,33],[-6,46],[6,22],[29,24],[21,-8],[20,24],[-15,22],[-15,10],[-32,4],[3,19],[6,6],[13,-2],[-2,0],[107,-23],[-2,-24],[4,0],[3,7],[2,9],[3,8],[20,14],[6,15],[11,5],[16,-10],[14,1],[8,34],[-23,0],[0,13],[3,0],[-8,19],[-16,7],[-9,10],[142,28],[40,34],[44,13],[38,-25],[88,-2],[8,-7],[17,-24],[16,-11],[27,-42],[17,-17],[69,-13],[17,-25],[9,-6],[154,-14],[3,-9],[2,-11],[-1,-10],[-1,-8],[0,-8],[4,-14],[6,-15],[6,-13],[5,-5],[49,6],[15,-18],[2,-8],[1,-9],[2,-8],[3,-8],[3,-3],[44,-5],[28,30],[12,36],[7,12],[8,7],[16,5],[36,-30],[44,-2],[11,-11],[9,-22],[10,-39],[12,-33],[28,-20],[6,-16]],[[4096,2860],[0,-321],[-17,34],[-34,36],[-70,20],[-75,-24],[-61,22],[-16,-22],[17,-30],[40,-26],[80,-6],[18,-23],[-12,-18],[-5,-14],[-1,-27],[4,-24],[8,-18],[15,-22],[9,-32],[-5,-33],[-11,-28],[-12,-13],[-92,17],[-102,-17],[-109,55],[-153,27],[-59,70],[-20,9],[-14,14],[-40,-23],[-8,-23],[-5,-9],[-7,-3],[-15,8],[-19,20],[-29,61],[4,27],[-5,10],[-39,1],[-7,10],[11,27],[31,6],[13,14],[-16,29],[-22,-6],[-40,-35],[-41,8],[-41,41],[3,27],[2,9],[-8,14],[-20,6],[-52,58],[-18,7],[-30,55],[-14,52],[8,41],[12,13],[22,-2],[-1,6],[-1,14],[92,-23],[-3,0],[28,-1],[15,10],[10,27],[-28,11],[9,11],[9,0],[18,-11],[114,25],[114,26],[43,-19],[10,-10],[16,-6],[5,29],[-3,32],[-13,4],[-20,-13],[-167,46],[-167,46],[-28,31],[-29,15],[-14,-5],[-21,-18],[-8,-2],[-2,-3],[-1,-7],[0,-8],[-2,-6],[-12,-11],[-87,-25],[-24,9],[-24,24],[-45,76],[0,11],[10,0],[26,19],[9,17],[-9,17],[-55,-20],[-6,3],[-5,8],[-10,23],[-26,22],[-39,80],[-19,24],[13,26],[77,6],[147,-81],[35,3],[5,7],[3,11],[-1,16],[3,12],[-16,18],[-82,46],[-22,28],[-65,32],[-83,-13],[-37,5],[-11,23],[-9,35],[-11,29],[-12,19],[-25,14],[-76,116],[-8,33],[30,36],[69,33],[32,30],[46,8],[44,21],[15,-10],[6,0],[7,5],[5,10],[7,37],[39,64],[2,32],[11,32],[18,18],[19,7],[37,1],[53,-33],[30,12],[59,-25],[8,7],[16,21],[8,7],[82,5],[86,-26],[149,18],[52,14],[633,0],[0,-981],[-2,1],[-12,-5],[-10,-9],[-7,-22],[1,-45],[-6,-10],[2,-21],[5,-15],[10,-23],[-4,-18],[2,-16],[11,-39],[6,-7],[3,-5],[1,-10],[0,-10],[0,-1]]]}