{"objects":{"water":{"type":"GeometryCollection","geometries":[{"type":"MultiPolygon","properties":{"source":"naturalearthdata.com","kind":"ocean","area":989871000000000,"sort_rank":200,"min_zoom":0,"id":1},"arcs":[[[0],[1],[2],[3],[4],[5]],[[6]],[[7]],[[8]]]},{"type":"LineString","properties":{"source":"naturalearthdata.com","kind":"ocean","sort_rank":205,"boundary":true,"min_zoom":0,"id":973},"arcs":[9]},{"type":"MultiLineString","properties":{"source":"naturalearthdata.com","kind":"ocean","sort_rank":205,"boundary":true,"min_zoom":0,"id":974},"arcs":[[10],[11],[12]]},{"type":"LineString","properties":{"source":"naturalearthdata.com","kind":"ocean","sort_rank":205,"boundary":true,"min_zoom":0,"id":975},"arcs":[13]},{"type":"LineString","properties":{"source":"naturalearthdata.com","kind":"ocean","sort_rank":205,"boundary":true,"min_zoom":0,"id":976},"arcs":[14]},{"type":"LineString","properties":{"source":"naturalearthdata.com","kind":"ocean","sort_rank":205,"boundary":true,"min_zoom":0,"id":978},"arcs":[15]},{"type":"LineString","properties":{"source":"naturalearthdata.com","kind":"ocean","sort_rank":205,"boundary":true,"min_zoom":0,"id":979},"arcs":[16]},{"type":"LineString","properties":{"source":"naturalearthdata.com","kind":"ocean","sort_rank":205,"boundary":true,"min_zoom":0,"id":982},"arcs":[17]},{"type":"MultiLineString","properties":{"source":"naturalearthdata.com","kind":"ocean","sort_rank":205,"boundary":true,"min_zoom":0,"id":991},"arcs":[[18],[19],[20]]},{"type":"MultiLineString","properties":{"source":"naturalearthdata.com","kind":"ocean","sort_rank":205,"boundary":true,"min_zoom":0,"id":992},"arcs":[[21],[22]]},{"type":"LineString","properties":{"source":"naturalearthdata.com","kind":"ocean","sort_rank":205,"boundary":true,"min_zoom":0,"id":993},"arcs":[23]},{"type":"MultiLineString","properties":{"source":"naturalearthdata.com","kind":"ocean","sort_rank":205,"boundary":true,"min_zoom":0,"id":996},"arcs":[[24],[25],[26]]}]},"buildings":{"type":"GeometryCollection","geometries":[]},"places":{"type":"GeometryCollection","geometries":[{"type":"Point","properties":{"name:pt":"Resolute","collision_rank":371,"name:nl":"Resolute","name:id":"Resolute","name":"Resolute","name:hi":null,"name:tr":"Resolute","name:sv":"Resolute","name:ar":"\u0642\u0631\u064a\u0629 \u0631\u064a\u0632\u0648\u0644\u0648\u062a","min_zoom":5.0,"name:it":"Resolute","name:vi":"Resolute","name:ru":"\u0420\u0435\u0437\u043e\u043b\u044c\u044e\u0442","name:pl":"Resolute","name:hu":null,"id":7028,"name:ja":"\u30ec\u30be\u30ea\u30e5\u30fc\u30c8","name:el":"\u03a1\u03b5\u03c3\u03bf\u03bb\u03bf\u03cd\u03c4","kind":"locality","name:en":"Resolute","population_rank":2,"source":"naturalearthdata.com","name:bn":"\u09b0\u09c7\u099c\u09cb\u09b2\u09bf\u0989\u099f","name:de":"Resolute Bay","name:ko":null,"name:fr":"Resolute","wikidata_id":"Q606622","population":250,"name:zh":"\u5805\u6bc5\u7063","name:es":"Resolute"},"coordinates":[2312,964]}]},"transit":{"type":"GeometryCollection","geometries":[]},"pois":{"type":"GeometryCollection","geometries":[]},"boundaries":{"type":"GeometryCollection","geometries":[]},"roads":{"type":"GeometryCollection","geometries":[]},"earth":{"type":"GeometryCollection","geometries":[{"type":"MultiPolygon","properties":{"sort_rank":10,"source":"naturalearthdata.com","min_zoom":1.5,"kind":"earth","area":383187630897},"arcs":[[[27]]]},{"type":"MultiPolygon","properties":{"sort_rank":10,"source":"naturalearthdata.com","kind":"earth","min_zoom":2.0,"area":208531522065},"arcs":[[[28]]]},{"type":"MultiPolygon","properties":{"sort_rank":10,"source":"naturalearthdata.com","min_zoom":0.5,"kind":"earth","area":885996023338},"arcs":[[[29]],[[30]],[[31]]]},{"type":"MultiPolygon","properties":{"sort_rank":10,"source":"naturalearthdata.com","min_zoom":3.0,"kind":"earth","area":85393833487},"arcs":[[[32]],[[33]],[[34]],[[35]],[[36]],[[37]]]},{"type":"MultiPolygon","properties":{"sort_rank":10,"source":"naturalearthdata.com","min_zoom":0,"kind":"earth","area":13131386715102},"arcs":[[[38]],[[39]]]}]},"landuse":{"type":"GeometryCollection","geometries":[{"type":"MultiPolygon","properties":{"source":"openstreetmap.org","kind":"park","area":253370693600,"tier":2,"min_zoom":4.0,"id":-7025660,"sort_rank":24},"arcs":[[[40]]]}]}},"type":"Topology","transform":{"translate":[-101.25,74.0195433115],"scale":[0.002746582,0.0006887874]},"arcs":[[[4096,826],[0,-826],[-516,0],[-56,20],[-61,-20],[-17,0],[-11,13],[-25,-13],[-156,0],[-2,7],[-20,34],[-21,21],[-31,11],[-46,48],[-9,-2],[-18,-20],[-2,-6],[-9,2],[-7,12],[5,22],[-6,22],[-11,12],[-80,14],[-93,53],[-68,0],[-75,-7],[-23,-18],[-13,-37],[5,-19],[-1,-22],[2,-18],[9,-10],[-12,-15],[-13,1],[-12,14],[-21,60],[-13,16],[-165,-11],[-8,-5],[-5,-9],[-6,-23],[-4,-8],[-10,-6],[-69,-5],[-25,11],[-6,-5],[-29,-45],[-15,-15],[-32,-13],[-35,-31],[-32,-10],[-943,0],[10,19],[18,57],[-5,43],[-11,21],[-14,8],[-163,-34],[-129,-94],[-82,0],[-6,-3],[-13,-17],[-890,0],[0,2279],[7,-2],[28,20],[13,-1],[6,3],[14,18],[93,25],[93,25],[27,-12],[45,21],[20,-7],[9,0],[19,22],[121,23],[122,24],[-31,-17],[-9,-13],[134,26],[133,26],[9,-6],[5,-15],[-7,-11],[-17,-11],[-157,-20],[-158,-21],[2,-7],[3,-22],[-14,-17],[-5,-2],[0,-10],[72,0],[-14,-30],[-17,-9],[-18,-1],[-70,-39],[-18,-2],[0,-9],[9,0],[29,-9],[30,10],[9,-10],[-165,-30],[0,-11],[120,-30],[-31,-27],[-67,13],[-32,-15],[110,-11],[-12,-21],[-124,-14],[-124,-14],[0,-11],[38,4],[18,-9],[17,-25],[-5,0],[7,-22],[23,-7],[10,-10],[-12,-18],[-15,-5],[-28,3],[-3,-24],[-14,-4],[-17,7],[-11,11],[8,10],[19,9],[8,1],[-8,10],[-8,1],[-42,-30],[-7,-11],[13,-15],[26,-12],[50,-56],[13,-8],[93,32],[-12,-37],[-15,-12],[-16,-2],[-15,-9],[19,-24],[37,9],[30,-13],[20,0],[20,-11],[19,1],[8,-12],[-11,-14],[-146,8],[-26,-11],[-22,-32],[5,-16],[8,-10],[22,-8],[20,-26],[0,-10],[-4,1],[-3,-2],[-6,-9],[14,-29],[3,-13],[1,-23],[-1,-24],[-3,-21],[-1,-22],[2,-28],[9,-24],[14,-13],[125,-28],[124,-27],[43,10],[12,15],[6,4],[19,-7],[-5,21],[-17,14],[-5,25],[5,4],[15,36],[20,23],[6,12],[16,54],[9,14],[9,-13],[0,-18],[-5,-18],[-31,-74],[-4,-25],[5,-24],[-8,-17],[-2,-3],[11,-14],[153,28],[6,13],[-2,19],[-9,23],[10,20],[15,10],[14,-3],[9,-16],[-4,-2],[-2,-3],[-4,-16],[2,-4],[3,-11],[2,-4],[-5,-11],[10,-12],[21,11],[9,-8],[-15,-20],[14,-15],[130,27],[131,28],[21,-18],[6,7],[3,19],[3,30],[0,29],[-3,17],[-3,9],[-2,21],[-3,10],[-6,8],[-14,5],[-27,29],[-11,19],[-7,24],[3,1],[7,9],[-7,8],[-3,1],[22,21],[4,14],[-8,26],[15,-1],[9,-6],[6,-14],[0,-13],[-5,-22],[0,-14],[7,-26],[73,-67],[31,0],[31,19],[27,34],[-3,15],[-4,9],[-5,5],[-5,1],[0,-10],[7,-10],[-6,-4],[-26,24],[3,17],[2,3],[5,-1],[-14,13],[-26,-2],[-13,9],[4,18],[7,5],[14,-3],[-9,39],[-34,39],[-12,32],[3,9],[-7,18],[-8,-7],[-2,-20],[5,-20],[0,-10],[-9,0],[-24,19],[14,34],[6,7],[-3,10],[23,19],[-14,17],[-16,-10],[-15,-26],[-10,-31],[3,0],[-9,-9],[-11,2],[-10,14],[-5,24],[5,-2],[5,4],[5,7],[5,10],[-5,15],[-6,6],[-7,-1],[-5,-10],[8,-10],[-9,0],[-5,3],[-4,7],[8,31],[8,19],[9,8],[13,2],[-8,-30],[9,1],[17,15],[9,4],[0,-10],[-1,-3],[0,-1],[-1,-2],[0,-4],[30,10],[8,8],[3,10],[-3,8],[-51,21],[-12,13],[9,18],[79,1],[3,-2],[2,-1],[4,3],[2,4],[1,3],[2,3],[2,1],[-11,14],[-50,30],[-28,-7],[-13,13],[10,6],[20,1],[10,12],[-8,11],[-18,0],[-9,8],[8,11],[27,0],[-4,22],[4,13],[8,5],[23,-11],[4,-8],[0,-5],[1,-19],[1,-8],[4,-16],[4,-12],[5,-8],[7,-2],[6,3],[6,8],[3,14],[-1,19],[-4,16],[-4,13],[-8,21],[-21,21],[-1,15],[10,9],[16,-10],[12,1],[-4,38],[14,-3],[89,-116],[-4,-5],[-3,-8],[0,-12],[2,-14],[-2,-16],[0,-13],[2,-11],[7,-19],[52,-41],[9,-2],[9,12],[-34,56],[-13,43],[-5,70],[0,14],[2,36],[2,3],[2,4],[1,8],[0,5],[-1,7],[-1,4],[0,-2],[0,51],[1,25],[4,24],[3,13],[4,3],[2,8],[1,21],[-3,8],[-17,28],[-65,8],[-6,5],[-13,19],[-6,7],[-82,17],[-16,12],[15,21],[35,25],[24,6],[25,30],[3,11],[2,11],[4,11],[20,37],[7,22],[-2,25],[-16,45],[-7,26],[-3,14],[-2,15],[3,12],[-2,10],[-2,11],[0,11],[3,8],[4,3],[3,5],[3,30],[2,11],[3,8],[3,10],[2,15],[1,12],[1,40],[1,14],[5,14],[14,27],[5,12],[6,26],[0,20],[-5,48],[3,0],[-8,29],[-9,22],[-57,65],[-9,24],[2,7],[2,16],[1,7],[-6,8],[-13,7],[-6,6],[4,11],[9,20],[2,13],[1,12],[3,25],[1,8],[0,18],[8,13],[9,11],[7,12],[1,18],[-3,17],[-6,16],[-3,14],[6,13],[6,17],[-51,44],[-98,25],[-8,6],[-15,28],[-7,6],[-4,-3],[-3,-7],[-1,-6],[-2,-4],[-5,1],[-11,17],[-16,7],[-18,0],[-17,9],[-13,37],[22,0],[18,-18],[6,-3],[46,10],[-9,3],[-19,13],[-38,10],[-32,27],[-4,7],[1,18],[8,23],[0,14],[-7,14],[-10,7],[-147,-6],[11,-29],[18,-11],[36,0],[42,22],[28,-12],[0,-10],[-11,1],[-5,-3],[-4,-9],[3,0],[9,-9],[-14,-31],[-24,-7],[-44,8],[3,-38],[-9,-11],[-11,10],[0,29],[-19,19],[-26,3],[-26,-11],[-19,-21],[1,-5],[2,-11],[2,-4],[-4,-6],[-3,-4],[-4,-1],[-4,1],[5,-13],[2,-15],[-2,-16],[-5,-16],[5,-6],[12,0],[5,-4],[3,-9],[2,-13],[3,-12],[5,-5],[9,-6],[10,-15],[11,-19],[7,-20],[-12,-20],[7,-9],[4,-2],[4,2],[0,-11],[-20,-3],[-10,5],[-8,18],[0,23],[-9,8],[-12,-3],[-9,-8],[0,-10],[5,0],[-9,-5],[-27,14],[-6,-14],[3,-19],[7,-20],[15,-26],[0,-9],[-18,4],[-15,13],[-30,47],[-5,30],[12,21],[31,24],[-9,20],[-12,5],[-24,-4],[0,-11],[2,0],[0,-10],[-13,5],[-84,127],[-60,17],[13,6],[26,-8],[11,12],[-15,28],[-18,13],[-37,-1],[-9,-6],[-23,-31],[-8,-2],[-152,57],[-23,-7],[-19,-21],[-15,-1],[-56,-59],[-27,-10],[-20,-27],[-7,-3],[1,-11],[3,-9],[3,-6],[3,-4],[-11,-12],[-94,-37],[9,-38],[105,-145],[129,12],[27,-28],[9,1],[21,16],[10,3],[-12,-20],[-3,-9],[42,-51],[12,-4],[26,6],[12,-11],[-8,-9],[-18,-11],[-9,-1],[9,-13],[56,-17],[-19,-15],[-61,15],[-13,11],[-15,21],[-14,12],[-13,-14],[7,-10],[26,-9],[-3,-11],[15,-10],[5,0],[0,-10],[-134,15],[-18,-19],[-6,-30],[12,-23],[113,-63],[63,21],[8,-4],[34,-43],[37,-15],[6,-6],[13,-19],[9,-6],[103,33],[-16,-20],[-35,-8],[-46,-30],[-14,1],[-32,20],[-52,8],[-31,22],[-16,2],[-15,-15],[1,-6],[1,-14],[-37,0],[7,-14],[26,-23],[5,-10],[1,-12],[1,-13],[2,-16],[8,-33],[8,-15],[24,-3],[-2,-15],[-4,-11],[-4,-8],[-5,-6],[16,0],[5,-5],[3,-7],[1,-7],[0,-7],[2,-6],[9,-3],[8,2],[9,-1],[7,-16],[-4,-3],[-5,-7],[-3,-11],[1,-13],[4,-7],[5,2],[4,-2],[1,-19],[16,20],[119,47],[19,-16],[-19,-19],[-10,-3],[-12,11],[-6,2],[-6,-4],[-2,-12],[-1,-13],[-3,-5],[-14,-7],[-11,1],[-5,-4],[-11,-24],[-3,-3],[-52,-13],[-20,-37],[-10,-11],[-5,1],[-4,10],[-2,7],[-1,10],[0,9],[3,8],[-1,10],[-2,10],[-2,6],[-5,4],[-6,-2],[-19,-19],[-11,-4],[-11,1],[-8,10],[7,13],[10,5],[8,9],[5,23],[-27,8],[-9,9],[-4,10],[-6,27],[-4,8],[-33,59],[-5,13],[-16,31],[-98,24],[0,9],[61,20],[13,31],[-117,-40],[10,16],[33,24],[-4,20],[-6,8],[-13,11],[-3,9],[-4,14],[-4,12],[-13,10],[-34,43],[-42,31],[-52,10],[-10,9],[2,22],[13,59],[-3,0],[3,15],[3,13],[4,8],[5,4],[-10,20],[-48,41],[-12,22],[0,270],[33,15],[150,96],[151,97],[31,36],[-139,29],[-125,-35],[-19,-24],[-3,-6],[-2,-8],[-2,-11],[0,-12],[-2,-3],[-3,0],[-12,-7],[-17,-4],[-20,-41],[-18,-13],[-3,0],[0,282],[1693,0],[104,-47],[-10,-14],[-38,-7],[-4,3],[-8,14],[-5,4],[-7,-1],[-2,-3],[-3,-6],[7,-11],[0,-10],[-21,-4],[-6,-6],[0,-10],[6,0],[18,10],[7,0],[26,-13],[12,-13],[6,-4],[18,6],[6,-6],[-15,-20],[-20,1],[-37,30],[0,-11],[-11,15],[-13,-4],[-26,-20],[-7,1],[-7,5],[-3,9],[5,14],[-23,30],[-4,1],[-9,-2],[-4,1],[-4,5],[-7,13],[-18,11],[-9,-2],[-5,-16],[2,-22],[6,-12],[8,-6],[7,-1],[-10,-22],[-12,-17],[-12,-9],[-11,-1],[15,-34],[19,-19],[38,-7],[31,20],[67,-24],[8,-7],[4,-14],[2,-17],[4,-13],[11,-17],[17,-16],[53,-1],[-5,-16],[-2,-5],[19,-11],[5,-13],[2,-11],[3,-8],[9,-14],[13,-5],[28,14],[13,-11],[-4,-5],[-4,-8],[-3,-11],[-1,-15],[40,0],[32,20],[10,-1],[0,-10],[6,-9],[12,7],[38,61],[9,8],[12,3],[-5,-21],[-43,-83],[-13,-15],[-14,-9],[-95,4],[-9,-9],[-10,-26],[24,-54],[25,-39],[29,-19],[18,-27],[8,-7],[98,-23],[48,25],[17,-6],[-7,-6],[-10,-6],[-9,-9],[-2,-18],[7,-14],[12,-3],[21,8],[10,16],[5,3],[12,2],[6,-3],[5,-7],[15,-25],[7,-6],[7,9],[12,17],[103,-40],[15,-17],[-4,-19],[-5,-9],[-6,-3],[-7,1],[3,12],[2,5],[2,4],[-14,17],[-55,0],[-16,-10],[0,-6],[1,-6],[-1,-6],[-8,-11],[-70,-28],[-25,25],[-6,-10],[-3,-21],[-3,-24],[2,-13],[1,-7],[-1,-7],[-2,-14],[83,0],[28,-19],[9,0],[7,6],[9,22],[7,12],[55,23],[17,21],[15,39],[4,6],[31,0],[-2,-10],[3,-4],[7,-15],[-2,-2],[-6,-9],[22,-19],[152,15],[43,-36],[22,8],[23,-6],[37,13],[51,-27],[25,12],[-11,16],[-26,4],[-11,20],[4,6],[14,34],[7,12],[7,6],[16,2],[5,-20],[-5,-6],[-9,-7],[-4,-7],[29,-2],[109,101],[30,9],[29,-7],[25,-31],[-2,0],[1,-3],[1,-4],[1,-6],[2,-7],[-8,-15],[-3,-4],[5,-23],[7,-16],[16,-22],[28,-63],[34,-19],[12,-14],[6,-18],[2,-29],[7,-24],[9,-16],[17,-12],[8,-16],[7,-22],[4,-25],[0,-8],[-4,-16],[0,-6],[0,-9],[3,-22],[1,-9],[3,-49],[3,-9],[10,-2],[7,-4],[7,-12],[5,-17],[-2,-17],[6,-13],[6,-6],[13,0],[6,-3],[3,-8],[5,-25],[10,-20],[53,-42],[30,-4],[13,-13],[8,-18],[3,-17],[6,-48],[-1,-21],[-3,-17],[-3,-15],[-18,-48],[-2,-10],[8,-34],[35,-52],[4,-22],[6,-12],[7,-9],[-22,-35],[-3,-15],[3,-15],[17,-14],[7,-11],[-14,-29],[-16,-16],[-39,-20],[-6,-10],[-10,-24],[-7,-12],[-15,-18],[-30,-82],[-30,-117],[11,-6],[27,11],[12,-5],[-9,-15],[-20,-18],[-8,-17],[-5,-16],[-10,-54],[3,-23],[1,-19],[0,-17],[-3,-15],[-10,-18],[-4,-17],[12,-4],[22,-31],[11,-5],[-2,-14],[-1,-5],[8,-6],[9,-2],[6,-8],[0,-24],[16,-13],[16,0],[60,27],[6,-9],[-1,-10],[-20,-15],[8,-21],[30,-29],[-16,-20],[-37,13],[-17,-22],[-4,1],[-4,-2],[-2,-10],[1,-8],[4,-2],[5,0],[1,-17],[-1,-13],[-3,-8],[-5,-2],[0,-10],[11,-12],[49,-90],[4,-21],[-11,-16],[13,-13],[6,-9],[6,-18],[-1,-6],[0,-5],[1,-7],[2,-12],[-2,-15],[0,-8],[0,-11],[-1,-15],[-2,-4],[-2,0],[-3,-6],[-9,-28],[-3,-19],[1,-18],[16,-38],[40,-26],[18,-21],[0,11],[20,-21],[-22,-21],[-6,-17],[10,-10],[12,-5],[7,8],[-4,27],[36,8],[17,-6],[17,-22],[-5,-17],[-14,-14],[-6,-10],[20,-27],[44,-29],[42,-3],[11,8],[8,21],[3,20],[-1,18],[-4,13],[-8,9],[16,24],[12,-23],[5,-38],[-8,-23],[10,-29],[-3,-10],[68,-10],[-7,28],[-23,56],[0,25],[-5,11],[-7,8],[-5,11],[-1,19],[3,10],[14,17],[5,3],[7,-3],[5,-8],[6,-3],[8,5],[72,128],[14,43],[8,17],[11,10],[-3,0],[12,1],[5,-2],[5,-8],[0,-13],[2,-15],[2,-18],[-4,-24],[-4,-8],[-12,-8],[-5,-9],[-12,-50],[-17,-32],[-35,-32],[-12,-50],[28,-23],[15,-2],[12,15],[2,9],[2,11],[2,11],[4,10],[8,6],[18,2],[6,10],[6,-3],[3,1],[4,2],[-2,-15],[-3,-7],[-10,-7],[5,-18],[2,-21],[2,-22],[3,-19],[11,-24],[50,-55],[33,-5],[58,35],[-4,-16],[-18,-24],[96,-68],[8,4],[8,14],[13,28],[8,6],[3,-3]],[[1279,656],[5,-3],[11,-14],[5,-4],[16,4],[54,67],[13,9],[20,-5],[7,5],[31,76],[8,25],[4,24],[-6,10],[-34,35],[-33,2],[-16,-11],[-11,-31],[7,0],[-10,-17],[-28,-23],[0,-25],[-6,-15],[-44,-39],[-14,-40],[3,-15],[6,-9],[12,-6]],[[2144,829],[-23,36],[-25,26],[-26,14],[-34,-3],[-20,-13],[-14,-25],[7,-39],[-8,1],[-15,15],[-7,-4],[-20,-22],[10,-23],[24,-17],[21,-30],[134,-53],[13,3],[21,30],[-4,36],[-34,68]],[[2845,1343],[2,33],[-7,30],[-18,45],[-8,29],[-5,8],[-7,3],[-25,-18],[-7,8],[6,13],[6,10],[22,10],[14,14],[7,3],[-5,24],[-3,7],[9,17],[8,18],[1,23],[-8,26],[-27,52],[-8,23],[21,38],[5,16],[5,25],[-1,13],[-61,50],[-49,7],[0,10],[29,-2],[15,7],[11,14],[-2,10],[-5,30],[-3,10],[-5,4],[-34,14],[-38,61],[-36,33],[-11,18],[-12,33],[-125,189],[-92,29],[-92,29],[-8,-4],[-17,-24],[-5,-3],[-29,0],[-5,-4],[-7,-19],[-5,-8],[-15,-12],[-15,-4],[-15,5],[-19,14],[-5,0],[-5,-4],[-6,-9],[-4,-11],[-2,-8],[-5,-25],[-5,-14],[-5,2],[-9,17],[-8,6],[-6,1],[-26,-26],[-25,-9],[-74,-69],[-18,-52],[6,-27],[9,-15],[11,-7],[21,-5],[9,-9],[3,-12],[-9,-15],[-15,0],[-8,-8],[-4,-2],[-23,6],[-8,6],[0,17],[-6,17],[-9,9],[-29,6],[-6,-5],[-2,-11],[-1,-14],[-3,0],[-6,9],[-29,-7],[-15,-16],[-8,-37],[8,-7],[9,1],[18,16],[0,3],[0,13],[0,4],[2,1],[5,-2],[8,3],[95,-32],[-9,-18],[-49,-32],[0,10],[13,17],[5,3],[-12,30],[-15,-19],[-23,-71],[-39,-27],[-14,-2],[4,-9],[1,-2],[-5,-19],[87,23],[11,-14],[-15,-14],[-33,-2],[-15,-10],[-5,-10],[-2,-11],[2,-9],[6,-3],[16,9],[8,1],[8,-10],[-34,-23],[-20,13],[-80,-30],[-19,-20],[3,-7],[3,-6],[4,-4],[3,-3],[-3,-22],[-4,-3],[-10,15],[-8,8],[-9,2],[-2,-4],[-1,-11],[0,-10],[-2,-4],[0,-11],[-12,-44],[-7,-24],[-19,-40],[1,-6],[1,-14],[-8,-9],[-3,-15],[2,-22],[4,-25],[-3,-29],[-3,-17],[-4,-14],[10,-10],[8,9],[9,14],[8,8],[62,4],[8,-7],[2,-22],[-3,-15],[-9,-1],[-15,11],[4,-17],[1,-21],[-2,-19],[-6,-13],[6,-27],[15,-12],[29,-1],[13,7],[5,8],[5,16],[1,12],[-1,10],[0,9],[2,8],[1,9],[17,31],[-2,16],[4,17],[-2,16],[21,8],[10,-1],[4,-16],[-9,-11],[-10,-20],[-8,-23],[-6,-26],[13,0],[4,5],[7,13],[4,3],[5,1],[3,-3],[2,-10],[2,-19],[-29,-8],[-8,-12],[6,-28],[9,-17],[22,-15],[-2,0],[13,-27],[15,-20],[17,-12],[17,0],[-3,-19],[-5,-9],[-6,-3],[-6,1],[10,-12],[57,-8],[0,10],[-1,13],[3,11],[6,4],[5,-9],[-3,0],[13,-31],[16,-9],[43,2],[5,-7],[3,-14],[-19,-39],[2,-32],[10,-11],[22,2],[-8,34],[-2,19],[0,18],[7,15],[10,6],[18,-1],[0,-11],[-30,-29],[8,-10],[11,1],[10,8],[9,10],[2,7],[3,10],[4,9],[6,5],[5,-3],[92,-107],[-3,-19],[-7,-24],[-3,-17],[8,-12],[9,-6],[17,-2],[18,-16],[9,-3],[18,30],[16,1],[14,-15],[6,-32],[18,-30],[99,-4],[10,16],[50,25],[7,-4],[13,-17],[14,-10],[107,13],[106,13],[28,24],[16,28],[8,20],[3,21],[-5,24],[-12,9],[-23,6],[26,-2],[14,9],[5,28],[1,29],[9,75],[-1,14],[3,35],[1,21],[-1,23],[-3,20],[-6,38]],[[1702,2059],[5,6],[11,20],[10,9],[-1,10],[-3,10],[-2,5],[-10,38],[-2,17],[4,24],[10,24],[12,13],[24,13],[-1,6],[-2,13],[15,0],[7,-7],[-1,-17],[-5,-8],[-6,-4],[-7,-7],[-3,-16],[6,-26],[14,-20],[27,-21],[12,-19],[10,-22],[11,-12],[15,11],[5,10],[9,23],[6,9],[14,12],[8,10],[5,15],[-5,11],[6,8],[30,13],[5,7],[9,20],[-9,29],[-23,24],[-10,18],[0,-11],[-7,15],[-10,3],[-21,-7],[-57,60],[-32,14],[-18,-35],[0,-16],[3,-31],[0,-13],[-7,-10],[-35,-10],[-50,-38],[-13,19],[-128,-100],[13,-26],[2,-14],[-7,-9],[0,-10],[6,-5],[5,-13],[9,-32],[8,-7],[4,-7],[-1,-11],[-3,-8],[-3,-5],[-4,-2],[-4,1],[10,-18],[23,-4],[10,-9],[-1,-27],[10,2],[23,25],[45,19],[13,21],[-8,5],[-8,3],[-8,6],[-6,16],[10,18],[37,2]],[[2463,2844],[-11,23],[-6,5],[-3,-12],[-45,-35],[-69,-18],[-21,-23],[4,-28],[8,-21],[9,-14],[9,-7],[-2,-63],[4,-51],[11,-40],[18,-31],[31,-22],[124,26],[8,17],[-2,36],[-7,27],[-27,62],[-9,13],[-1,3],[0,19],[0,4],[-11,41],[0,29],[0,23],[-2,19],[-10,18]],[[4096,3572],[0,-162],[-23,9],[-140,53],[-23,-6],[-17,-20],[-7,-2],[-23,37],[-32,5],[-28,20],[-54,5],[-3,2],[-10,18],[-150,10],[-6,8],[-13,23],[-6,9],[-17,14],[-18,6],[0,10],[79,15],[74,-53],[26,0],[23,17],[-4,9],[-1,2],[7,29],[10,-10],[11,-25],[8,-14],[99,-43],[59,17],[8,26],[-12,7],[-6,7],[-4,16],[3,5],[3,6],[3,9],[3,10],[-13,34],[-14,19],[-86,34],[-13,27],[-12,32],[-16,22],[-33,21],[-30,4],[-17,16],[-110,32],[-102,-21],[-103,-21],[-2,-10],[-52,-56],[-30,6],[-36,-30],[-13,-5],[-11,4],[-23,21],[-22,9],[-61,-38],[-12,3],[-32,26],[-38,8],[-12,12],[-47,-4],[-13,-16],[6,-24],[2,-5],[-22,-41],[-12,-14],[-12,-5],[-2,-6],[-4,-28],[-4,-11],[-6,-12],[-21,-23],[-4,-9],[-7,-23],[-4,-9],[-7,-7],[-45,-18],[-28,-34],[8,-24],[12,-6],[25,0],[-18,-28],[-19,6],[-19,30],[-16,43],[9,16],[47,36],[6,7],[3,5],[5,15],[14,23],[32,32],[14,25],[-5,22],[4,13],[7,11],[6,14],[1,10],[0,26],[0,8],[27,59],[5,20],[-1,56],[-3,30],[-4,19],[-3,0],[-13,-9],[-7,2],[-5,6],[-9,21],[0,9],[5,10],[-19,22],[-19,9],[-2,4],[-5,18],[-3,8],[-5,3],[-12,3],[-10,21],[1258,0],[-59,-7],[-48,-18],[-73,-46],[-15,-27],[-8,-33],[1,-26],[8,-25],[110,-204],[23,-74],[17,-26],[33,-29],[24,-9]],[[0,2515],[0,39],[8,0],[29,16],[31,1],[12,15],[-7,9],[50,11],[-28,-35],[-59,-10],[-28,-25],[-4,-10],[-3,-10],[-1,-1]],[[4096,2901],[-3,0],[-15,-10],[-11,-26],[0,-19],[-11,-36],[-1,-26],[-23,3],[-7,7],[-12,27],[-6,10],[-26,7],[-8,-7],[-3,-21],[-5,-9],[-28,-19],[-20,-43],[-10,-11],[-4,27],[4,34],[11,18],[12,13],[10,15],[-14,15],[-16,7],[-15,-2],[-40,-38],[-14,-5],[-13,13],[5,14],[5,5],[12,0],[-8,17],[-13,13],[-14,5],[-9,-5],[-5,-12],[-9,-37],[-7,-15],[-28,-46],[-40,-28],[-9,-11],[1,-4],[4,-16],[-6,-11],[-7,-37],[-7,-11],[0,9],[-8,-18],[-1,13],[4,36],[-2,17],[-5,17],[-3,15],[15,23],[35,24],[16,2],[7,8],[0,18],[-4,17],[-7,8],[-9,2],[-17,17],[-8,11],[11,10],[25,-4],[11,13],[-17,22],[-44,-13],[-19,12],[21,21],[148,-3],[148,-2],[22,16],[15,37],[-132,40],[-25,-11],[-14,-14],[-10,-20],[-12,-12],[-54,17],[0,11],[24,-1],[11,5],[10,14],[1,6],[1,8],[1,8],[2,8],[6,5],[11,-2],[6,7],[-8,11],[-19,1],[-17,13],[-166,45],[-45,-27],[-15,7],[0,10],[20,20],[0,10],[31,17],[4,18],[-6,15],[-70,44],[-12,13],[-10,2],[-21,5],[-10,16],[137,-60],[27,-40],[168,-40],[169,-39],[34,-23],[18,-4],[15,16],[-17,20],[-119,19],[-11,21],[130,4],[36,0],[0,-236]],[[1285,0],[10,19],[18,57],[-5,43],[-11,21],[-14,8],[-163,-34],[-129,-94],[-82,0],[-6,-3],[-13,-17]],[[3580,0],[-56,20],[-61,-20]],[[3446,0],[-11,13],[-25,-13]],[[3254,0],[-2,7],[-20,34],[-21,21],[-31,11],[-46,48],[-9,-2],[-18,-20],[-2,-6],[-9,2],[-7,12],[5,22],[-6,22],[-11,12],[-80,14],[-93,53],[-68,0],[-75,-7],[-23,-18],[-13,-37],[5,-19],[-1,-22],[2,-18],[9,-10],[-12,-15],[-13,1],[-12,14],[-21,60],[-13,16],[-165,-11],[-8,-5],[-5,-9],[-6,-23],[-4,-8],[-10,-6],[-69,-5],[-25,11],[-6,-5],[-29,-45],[-15,-15],[-32,-13],[-35,-31],[-32,-10]],[[1279,656],[5,-3],[11,-14],[5,-4],[16,4],[54,67],[13,9],[20,-5],[7,5],[31,76],[8,25],[4,24],[-6,10],[-34,35],[-33,2],[-16,-11],[-11,-31],[7,0],[-10,-17],[-28,-23],[0,-25],[-6,-15],[-44,-39],[-14,-40],[3,-15],[6,-9],[12,-6]],[[2144,829],[-23,36],[-25,26],[-26,14],[-34,-3],[-20,-13],[-14,-25],[7,-39],[-8,1],[-15,15],[-7,-4],[-20,-22],[10,-23],[24,-17],[21,-30],[134,-53],[13,3],[21,30],[-4,36],[-34,68]],[[2845,1343],[2,33],[-7,30],[-18,45],[-8,29],[-5,8],[-7,3],[-25,-18],[-7,8],[6,13],[6,10],[22,10],[14,14],[7,3],[-5,24],[-3,7],[9,17],[8,18],[1,23],[-8,26],[-27,52],[-8,23],[21,38],[5,16],[5,25],[-1,13],[-61,50],[-49,7],[0,10],[29,-2],[15,7],[11,14],[-2,10],[-5,30],[-3,10],[-5,4],[-34,14],[-38,61],[-36,33],[-11,18],[-12,33],[-125,189],[-92,29],[-92,29],[-8,-4],[-17,-24],[-5,-3],[-29,0],[-5,-4],[-7,-19],[-5,-8],[-15,-12],[-15,-4],[-15,5],[-19,14],[-5,0],[-5,-4],[-6,-9],[-4,-11],[-2,-8],[-5,-25],[-5,-14],[-5,2],[-9,17],[-8,6],[-6,1],[-26,-26],[-25,-9],[-74,-69],[-18,-52],[6,-27],[9,-15],[11,-7],[21,-5],[9,-9],[3,-12],[-9,-15],[-15,0],[-8,-8],[-4,-2],[-23,6],[-8,6],[0,17],[-6,17],[-9,9],[-29,6],[-6,-5],[-2,-11],[-1,-14],[-3,0],[-6,9],[-29,-7],[-15,-16],[-8,-37],[8,-7],[9,1],[18,16],[0,3],[0,13],[0,4],[2,1],[5,-2],[8,3],[95,-32],[-9,-18],[-49,-32],[0,10],[13,17],[5,3],[-12,30],[-15,-19],[-23,-71],[-39,-27],[-14,-2],[4,-9],[1,-2],[-5,-19],[87,23],[11,-14],[-15,-14],[-33,-2],[-15,-10],[-5,-10],[-2,-11],[2,-9],[6,-3],[16,9],[8,1],[8,-10],[-34,-23],[-20,13],[-80,-30],[-19,-20],[3,-7],[3,-6],[4,-4],[3,-3],[-3,-22],[-4,-3],[-10,15],[-8,8],[-9,2],[-2,-4],[-1,-11],[0,-10],[-2,-4],[0,-11],[-12,-44],[-7,-24],[-19,-40],[1,-6],[1,-14],[-8,-9],[-3,-15],[2,-22],[4,-25],[-3,-29],[-3,-17],[-4,-14],[10,-10],[8,9],[9,14],[8,8],[62,4],[8,-7],[2,-22],[-3,-15],[-9,-1],[-15,11],[4,-17],[1,-21],[-2,-19],[-6,-13],[6,-27],[15,-12],[29,-1],[13,7],[5,8],[5,16],[1,12],[-1,10],[0,9],[2,8],[1,9],[17,31],[-2,16],[4,17],[-2,16],[21,8],[10,-1],[4,-16],[-9,-11],[-10,-20],[-8,-23],[-6,-26],[13,0],[4,5],[7,13],[4,3],[5,1],[3,-3],[2,-10],[2,-19],[-29,-8],[-8,-12],[6,-28],[9,-17],[22,-15],[-2,0],[13,-27],[15,-20],[17,-12],[17,0],[-3,-19],[-5,-9],[-6,-3],[-6,1],[10,-12],[57,-8],[0,10],[-1,13],[3,11],[6,4],[5,-9],[-3,0],[13,-31],[16,-9],[43,2],[5,-7],[3,-14],[-19,-39],[2,-32],[10,-11],[22,2],[-8,34],[-2,19],[0,18],[7,15],[10,6],[18,-1],[0,-11],[-30,-29],[8,-10],[11,1],[10,8],[9,10],[2,7],[3,10],[4,9],[6,5],[5,-3],[92,-107],[-3,-19],[-7,-24],[-3,-17],[8,-12],[9,-6],[17,-2],[18,-16],[9,-3],[18,30],[16,1],[14,-15],[6,-32],[18,-30],[99,-4],[10,16],[50,25],[7,-4],[13,-17],[14,-10],[107,13],[106,13],[28,24],[16,28],[8,20],[3,21],[-5,24],[-12,9],[-23,6],[26,-2],[14,9],[5,28],[1,29],[9,75],[-1,14],[3,35],[1,21],[-1,23],[-3,20],[-6,38]],[[1702,2059],[5,6],[11,20],[10,9],[-1,10],[-3,10],[-2,5],[-10,38],[-2,17],[4,24],[10,24],[12,13],[24,13],[-1,6],[-2,13],[15,0],[7,-7],[-1,-17],[-5,-8],[-6,-4],[-7,-7],[-3,-16],[6,-26],[14,-20],[27,-21],[12,-19],[10,-22],[11,-12],[15,11],[5,10],[9,23],[6,9],[14,12],[8,10],[5,15],[-5,11],[6,8],[30,13],[5,7],[9,20],[-9,29],[-23,24],[-10,18],[0,-11],[-7,15],[-10,3],[-21,-7],[-57,60],[-32,14],[-18,-35],[0,-16],[3,-31],[0,-13],[-7,-10],[-35,-10],[-50,-38],[-13,19],[-128,-100],[13,-26],[2,-14],[-7,-9],[0,-10],[6,-5],[5,-13],[9,-32],[8,-7],[4,-7],[-1,-11],[-3,-8],[-3,-5],[-4,-2],[-4,1],[10,-18],[23,-4],[10,-9],[-1,-27],[10,2],[23,25],[45,19],[13,21],[-8,5],[-8,3],[-8,6],[-6,16],[10,18],[37,2]],[[2463,2844],[-11,23],[-6,5],[-3,-12],[-45,-35],[-69,-18],[-21,-23],[4,-28],[8,-21],[9,-14],[9,-7],[-2,-63],[4,-51],[11,-40],[18,-31],[31,-22],[124,26],[8,17],[-2,36],[-7,27],[-27,62],[-9,13],[-1,3],[0,19],[0,4],[-11,41],[0,29],[0,23],[-2,19],[-10,18]],[[1393,2178],[0,14],[2,36],[2,3],[2,4],[1,8],[0,5],[-1,7],[-1,4],[0,-2],[0,51],[1,25],[4,24],[3,13],[4,3],[2,8],[1,21],[-3,8],[-17,28],[-65,8],[-6,5],[-13,19],[-6,7],[-82,17],[-16,12],[15,21],[35,25],[24,6],[25,30],[3,11],[2,11],[4,11],[20,37],[7,22],[-2,25],[-16,45],[-7,26],[-3,14],[-2,15],[3,12],[-2,10],[-2,11],[0,11],[3,8],[4,3],[3,5],[3,30],[2,11],[3,8],[3,10],[2,15],[1,12],[1,40],[1,14],[5,14],[14,27],[5,12],[6,26],[0,20],[-5,48],[3,0],[-8,29],[-9,22],[-57,65],[-9,24],[2,7],[2,16],[1,7],[-6,8],[-13,7],[-6,6],[4,11],[9,20],[2,13],[1,12],[3,25],[1,8],[0,18],[8,13],[9,11],[7,12],[1,18],[-3,17],[-6,16],[-3,14],[6,13],[6,17],[-51,44],[-98,25],[-8,6],[-15,28],[-7,6],[-4,-3],[-3,-7],[-1,-6],[-2,-4],[-5,1],[-11,17],[-16,7],[-18,0],[-17,9],[-13,37],[22,0],[18,-18],[6,-3],[46,10],[-9,3],[-19,13],[-38,10],[-32,27],[-4,7],[1,18],[8,23],[0,14],[-7,14],[-10,7],[-147,-6],[11,-29],[18,-11],[36,0],[42,22],[28,-12],[0,-10],[-11,1],[-5,-3],[-4,-9],[3,0],[9,-9],[-14,-31],[-24,-7],[-44,8],[3,-38],[-9,-11],[-11,10],[0,29],[-19,19],[-26,3],[-26,-11],[-19,-21],[1,-5],[2,-11],[2,-4],[-4,-6],[-3,-4],[-4,-1],[-4,1],[5,-13],[2,-15],[-2,-16],[-5,-16],[5,-6],[12,0],[5,-4],[3,-9],[2,-13],[3,-12],[5,-5],[9,-6],[10,-15],[11,-19],[7,-20],[-12,-20],[7,-9],[4,-2],[4,2],[0,-11],[-20,-3],[-10,5],[-8,18],[0,23],[-9,8],[-12,-3],[-9,-8],[0,-10],[5,0],[-9,-5],[-27,14],[-6,-14],[3,-19],[7,-20],[15,-26],[0,-9],[-18,4],[-15,13],[-30,47],[-5,30],[12,21],[31,24],[-9,20],[-12,5],[-24,-4],[0,-11],[2,0],[0,-10],[-13,5],[-84,127],[-60,17],[13,6],[26,-8],[11,12],[-15,28],[-18,13],[-37,-1],[-9,-6],[-23,-31],[-8,-2],[-152,57],[-23,-7],[-19,-21],[-15,-1],[-56,-59],[-27,-10],[-20,-27],[-7,-3],[1,-11],[3,-9],[3,-6],[3,-4],[-11,-12],[-94,-37],[9,-38],[105,-145],[129,12],[27,-28],[9,1],[21,16],[10,3],[-12,-20],[-3,-9],[42,-51],[12,-4],[26,6],[12,-11],[-8,-9],[-18,-11],[-9,-1],[9,-13],[56,-17],[-19,-15],[-61,15],[-13,11],[-15,21],[-14,12],[-13,-14],[7,-10],[26,-9],[-3,-11],[15,-10],[5,0],[0,-10],[-134,15],[-18,-19],[-6,-30],[12,-23],[113,-63],[63,21],[8,-4],[34,-43],[37,-15],[6,-6],[13,-19],[9,-6],[103,33],[-16,-20],[-35,-8],[-46,-30],[-14,1],[-32,20],[-52,8],[-31,22],[-16,2],[-15,-15],[1,-6],[1,-14],[-37,0],[7,-14],[26,-23],[5,-10],[1,-12],[1,-13],[2,-16],[8,-33],[8,-15],[24,-3],[-2,-15],[-4,-11],[-4,-8],[-5,-6],[16,0],[5,-5],[3,-7],[1,-7],[0,-7],[2,-6],[9,-3],[8,2],[9,-1],[7,-16],[-4,-3],[-5,-7],[-3,-11],[1,-13],[4,-7],[5,2],[4,-2],[1,-19],[16,20],[119,47],[19,-16],[-19,-19],[-10,-3],[-12,11],[-6,2],[-6,-4],[-2,-12],[-1,-13],[-3,-5],[-14,-7],[-11,1],[-5,-4],[-11,-24],[-3,-3],[-52,-13],[-20,-37],[-10,-11],[-5,1],[-4,10],[-2,7],[-1,10],[0,9],[3,8],[-1,10],[-2,10],[-2,6],[-5,4],[-6,-2],[-19,-19],[-11,-4],[-11,1],[-8,10],[7,13],[10,5],[8,9],[5,23],[-27,8],[-9,9],[-4,10],[-6,27],[-4,8],[-33,59],[-5,13],[-16,31],[-98,24],[0,9],[61,20],[13,31],[-117,-40],[10,16],[33,24],[-4,20],[-6,8],[-13,11],[-3,9],[-4,14],[-4,12],[-13,10],[-34,43],[-42,31],[-52,10],[-10,9],[2,22],[13,59],[-3,0],[3,15],[3,13],[4,8],[5,4],[-10,20],[-48,41],[-12,22]],[[0,2554],[8,0],[29,16],[31,1],[12,15],[-7,9],[50,11],[-28,-35],[-59,-10],[-28,-25],[-4,-10],[-3,-10],[-1,-1]],[[0,2279],[7,-2],[28,20],[13,-1],[6,3],[14,18],[93,25],[93,25],[27,-12],[45,21],[20,-7],[9,0],[19,22],[121,23],[122,24],[-31,-17],[-9,-13],[134,26],[133,26],[9,-6],[5,-15],[-7,-11],[-17,-11],[-157,-20],[-158,-21],[2,-7],[3,-22],[-14,-17],[-5,-2],[0,-10],[72,0],[-14,-30],[-17,-9],[-18,-1],[-70,-39],[-18,-2],[0,-9],[9,0],[29,-9],[30,10],[9,-10],[-165,-30],[0,-11],[120,-30],[-31,-27],[-67,13],[-32,-15],[110,-11],[-12,-21],[-124,-14],[-124,-14],[0,-11],[38,4],[18,-9],[17,-25],[-5,0],[7,-22],[23,-7],[10,-10],[-12,-18],[-15,-5],[-28,3],[-3,-24],[-14,-4],[-17,7],[-11,11],[8,10],[19,9],[8,1],[-8,10],[-8,1],[-42,-30],[-7,-11],[13,-15],[26,-12],[50,-56],[13,-8],[93,32],[-12,-37],[-15,-12],[-16,-2],[-15,-9],[19,-24],[37,9],[30,-13],[20,0],[20,-11],[19,1],[8,-12],[-11,-14],[-146,8],[-26,-11],[-22,-32],[5,-16],[8,-10],[22,-8],[20,-26],[0,-10],[-4,1],[-3,-2],[-6,-9],[14,-29],[3,-13],[1,-23],[-1,-24],[-3,-21],[-1,-22],[2,-28],[9,-24],[14,-13],[125,-28],[124,-27],[43,10],[12,15],[6,4],[19,-7],[-5,21],[-17,14],[-5,25],[5,4],[15,36],[20,23],[6,12],[16,54],[9,14],[9,-13],[0,-18],[-5,-18],[-31,-74],[-4,-25],[5,-24],[-8,-17],[-2,-3],[11,-14],[153,28],[6,13],[-2,19],[-9,23],[10,20],[15,10],[14,-3],[9,-16],[-4,-2],[-2,-3],[-4,-16],[2,-4],[3,-11],[2,-4],[-5,-11],[10,-12],[21,11],[9,-8],[-15,-20],[14,-15],[130,27],[131,28],[21,-18],[6,7],[3,19],[3,30],[0,29],[-3,17],[-3,9],[-2,21],[-3,10],[-6,8],[-14,5],[-27,29],[-11,19],[-7,24],[3,1],[7,9],[-7,8],[-3,1],[22,21],[4,14],[-8,26],[15,-1],[9,-6],[6,-14],[0,-13],[-5,-22],[0,-14],[7,-26],[73,-67],[31,0],[31,19],[27,34],[-3,15],[-4,9],[-5,5],[-5,1],[0,-10],[7,-10],[-6,-4],[-26,24],[3,17],[2,3],[5,-1],[-14,13],[-26,-2],[-13,9],[4,18],[7,5],[14,-3],[-9,39],[-34,39],[-12,32],[3,9],[-7,18],[-8,-7],[-2,-20],[5,-20],[0,-10],[-9,0],[-24,19],[14,34],[6,7],[-3,10],[23,19],[-14,17],[-16,-10],[-15,-26],[-10,-31],[3,0],[-9,-9],[-11,2],[-10,14],[-5,24],[5,-2],[5,4],[5,7],[5,10],[-5,15],[-6,6],[-7,-1],[-5,-10],[8,-10],[-9,0],[-5,3],[-4,7],[8,31],[8,19],[9,8],[13,2],[-8,-30],[9,1],[17,15],[9,4],[0,-10],[-1,-3],[0,-1],[-1,-2],[0,-4],[30,10],[8,8],[3,10],[-3,8],[-51,21],[-12,13],[9,18],[79,1],[3,-2],[2,-1],[4,3],[2,4],[1,3],[2,3],[2,1],[-11,14],[-50,30],[-28,-7],[-13,13],[10,6],[20,1],[10,12],[-8,11],[-18,0],[-9,8],[8,11],[27,0],[-4,22],[4,13],[8,5],[23,-11],[4,-8],[0,-5],[1,-19],[1,-8],[4,-16],[4,-12],[5,-8],[7,-2],[6,3],[6,8],[3,14],[-1,19],[-4,16],[-4,13],[-8,21],[-21,21],[-1,15],[10,9],[16,-10],[12,1],[-4,38],[14,-3],[89,-116],[-4,-5],[-3,-8],[0,-12],[2,-14],[-2,-16],[0,-13],[2,-11],[7,-19],[52,-41],[9,-2],[9,12],[-34,56],[-13,43],[-5,70]],[[33,3720],[150,96],[151,97],[31,36],[-139,29],[-125,-35],[-19,-24],[-3,-6],[-2,-8],[-2,-11],[0,-12],[-2,-3],[-3,0],[-12,-7],[-17,-4],[-20,-41],[-18,-13],[-3,0]],[[0,3705],[33,15]],[[4083,4096],[-59,-7],[-48,-18],[-73,-46],[-15,-27],[-8,-33],[1,-26],[8,-25],[110,-204],[23,-74],[17,-26],[33,-29],[24,-9]],[[4096,2901],[-3,0],[-15,-10],[-11,-26],[0,-19],[-11,-36],[-1,-26],[-23,3],[-7,7],[-12,27],[-6,10],[-26,7],[-8,-7],[-3,-21],[-5,-9],[-28,-19],[-20,-43],[-10,-11],[-4,27],[4,34],[11,18],[12,13],[10,15],[-14,15],[-16,7],[-15,-2],[-40,-38],[-14,-5],[-13,13],[5,14],[5,5],[12,0],[-8,17],[-13,13],[-14,5],[-9,-5],[-5,-12],[-9,-37],[-7,-15],[-28,-46],[-40,-28],[-9,-11],[1,-4],[4,-16],[-6,-11],[-7,-37],[-7,-11],[0,9],[-8,-18],[-1,13],[4,36],[-2,17],[-5,17],[-3,15],[15,23],[35,24],[16,2],[7,8],[0,18],[-4,17],[-7,8],[-9,2],[-17,17],[-8,11],[11,10],[25,-4],[11,13],[-17,22],[-44,-13],[-19,12],[21,21],[148,-3],[148,-2],[22,16],[15,37],[-132,40],[-25,-11],[-14,-14],[-10,-20],[-12,-12],[-54,17],[0,11],[24,-1],[11,5],[10,14],[1,6],[1,8],[1,8],[2,8],[6,5],[11,-2],[6,7],[-8,11],[-19,1],[-17,13],[-166,45],[-45,-27],[-15,7],[0,10],[20,20],[0,10],[31,17],[4,18],[-6,15],[-70,44],[-12,13],[-10,2],[-21,5],[-10,16],[137,-60],[27,-40],[168,-40],[169,-39],[34,-23],[18,-4],[15,16],[-17,20],[-119,19],[-11,21],[130,4],[36,0]],[[4096,3410],[-23,9],[-140,53],[-23,-6],[-17,-20],[-7,-2],[-23,37],[-32,5],[-28,20],[-54,5],[-3,2],[-10,18],[-150,10],[-6,8],[-13,23],[-6,9],[-17,14],[-18,6],[0,10],[79,15],[74,-53],[26,0],[23,17],[-4,9],[-1,2],[7,29],[10,-10],[11,-25],[8,-14],[99,-43],[59,17],[8,26],[-12,7],[-6,7],[-4,16],[3,5],[3,6],[3,9],[3,10],[-13,34],[-14,19],[-86,34],[-13,27],[-12,32],[-16,22],[-33,21],[-30,4],[-17,16],[-110,32],[-102,-21],[-103,-21],[-2,-10],[-52,-56],[-30,6],[-36,-30],[-13,-5],[-11,4],[-23,21],[-22,9],[-61,-38],[-12,3],[-32,26],[-38,8],[-12,12],[-47,-4],[-13,-16],[6,-24],[2,-5],[-22,-41],[-12,-14],[-12,-5],[-2,-6],[-4,-28],[-4,-11],[-6,-12],[-21,-23],[-4,-9],[-7,-23],[-4,-9],[-7,-7],[-45,-18],[-28,-34],[8,-24],[12,-6],[25,0],[-18,-28],[-19,6],[-19,30],[-16,43],[9,16],[47,36],[6,7],[3,5],[5,15],[14,23],[32,32],[14,25],[-5,22],[4,13],[7,11],[6,14],[1,10],[0,26],[0,8],[27,59],[5,20],[-1,56],[-3,30],[-4,19],[-3,0],[-13,-9],[-7,2],[-5,6],[-9,21],[0,9],[5,10],[-19,22],[-19,9],[-2,4],[-5,18],[-3,8],[-5,3],[-12,3],[-10,21]],[[1693,4096],[104,-47],[-10,-14],[-38,-7],[-4,3],[-8,14],[-5,4],[-7,-1],[-2,-3],[-3,-6],[7,-11],[0,-10],[-21,-4],[-6,-6],[0,-10],[6,0],[18,10],[7,0],[26,-13],[12,-13],[6,-4],[18,6],[6,-6],[-15,-20],[-20,1],[-37,30],[0,-11],[-11,15],[-13,-4],[-26,-20],[-7,1],[-7,5],[-3,9],[5,14],[-23,30],[-4,1],[-9,-2],[-4,1],[-4,5],[-7,13],[-18,11],[-9,-2],[-5,-16],[2,-22],[6,-12],[8,-6],[7,-1],[-10,-22],[-12,-17],[-12,-9],[-11,-1],[15,-34],[19,-19],[38,-7],[31,20],[67,-24],[8,-7],[4,-14],[2,-17],[4,-13],[11,-17],[17,-16],[53,-1],[-5,-16],[-2,-5],[19,-11],[5,-13],[2,-11],[3,-8],[9,-14],[13,-5],[28,14],[13,-11],[-4,-5],[-4,-8],[-3,-11],[-1,-15],[40,0],[32,20],[10,-1],[0,-10],[6,-9],[12,7],[38,61],[9,8],[12,3],[-5,-21],[-43,-83],[-13,-15],[-14,-9],[-95,4],[-9,-9],[-10,-26],[24,-54],[25,-39],[29,-19],[18,-27],[8,-7],[98,-23],[48,25],[17,-6],[-7,-6],[-10,-6],[-9,-9],[-2,-18],[7,-14],[12,-3],[21,8],[10,16],[5,3],[12,2],[6,-3],[5,-7],[15,-25],[7,-6],[7,9],[12,17],[103,-40],[15,-17],[-4,-19],[-5,-9],[-6,-3],[-7,1],[3,12],[2,5],[2,4],[-14,17],[-55,0],[-16,-10],[0,-6],[1,-6],[-1,-6],[-8,-11],[-70,-28],[-25,25],[-6,-10],[-3,-21],[-3,-24],[2,-13],[1,-7],[-1,-7],[-2,-14],[83,0],[28,-19],[9,0],[7,6],[9,22],[7,12],[55,23],[17,21],[15,39],[4,6],[31,0],[-2,-10],[3,-4],[7,-15],[-2,-2],[-6,-9],[22,-19],[152,15],[43,-36],[22,8],[23,-6],[37,13],[51,-27],[25,12],[-11,16],[-26,4],[-11,20],[4,6],[14,34],[7,12],[7,6],[16,2],[5,-20],[-5,-6],[-9,-7],[-4,-7],[29,-2],[109,101],[30,9],[29,-7],[25,-31],[-2,0],[1,-3],[1,-4],[1,-6],[2,-7],[-8,-15],[-3,-4],[5,-23],[7,-16],[16,-22],[28,-63],[34,-19],[12,-14],[6,-18],[2,-29],[7,-24],[9,-16],[17,-12],[8,-16],[7,-22],[4,-25],[0,-8],[-4,-16],[0,-6],[0,-9],[3,-22],[1,-9],[3,-49],[3,-9],[10,-2],[7,-4],[7,-12],[5,-17],[-2,-17],[6,-13],[6,-6],[13,0],[6,-3],[3,-8],[5,-25],[10,-20],[53,-42],[30,-4],[13,-13],[8,-18],[3,-17],[6,-48],[-1,-21],[-3,-17],[-3,-15],[-18,-48],[-2,-10],[8,-34],[35,-52],[4,-22],[6,-12],[7,-9],[-22,-35],[-3,-15],[3,-15],[17,-14],[7,-11],[-14,-29],[-16,-16],[-39,-20],[-6,-10],[-10,-24],[-7,-12],[-15,-18],[-30,-82],[-30,-117],[11,-6],[27,11],[12,-5],[-9,-15],[-20,-18],[-8,-17],[-5,-16],[-10,-54],[3,-23],[1,-19],[0,-17],[-3,-15],[-10,-18],[-4,-17],[12,-4],[22,-31],[11,-5],[-2,-14],[-1,-5],[8,-6],[9,-2],[6,-8],[0,-24],[16,-13],[16,0],[60,27],[6,-9],[-1,-10],[-20,-15],[8,-21],[30,-29],[-16,-20],[-37,13],[-17,-22],[-4,1],[-4,-2],[-2,-10],[1,-8],[4,-2],[5,0],[1,-17],[-1,-13],[-3,-8],[-5,-2],[0,-10],[11,-12],[49,-90],[4,-21],[-11,-16],[13,-13],[6,-9],[6,-18],[-1,-6],[0,-5],[1,-7],[2,-12],[-2,-15],[0,-8],[0,-11],[-1,-15],[-2,-4],[-2,0],[-3,-6],[-9,-28],[-3,-19],[1,-18],[16,-38],[40,-26],[18,-21],[0,11],[20,-21],[-22,-21],[-6,-17],[10,-10],[12,-5],[7,8],[-4,27],[36,8],[17,-6],[17,-22],[-5,-17],[-14,-14],[-6,-10],[20,-27],[44,-29],[42,-3],[11,8],[8,21],[3,20],[-1,18],[-4,13],[-8,9],[16,24],[12,-23],[5,-38],[-8,-23],[10,-29],[-3,-10],[68,-10],[-7,28],[-23,56],[0,25],[-5,11],[-7,8],[-5,11],[-1,19],[3,10],[14,17],[5,3],[7,-3],[5,-8],[6,-3],[8,5],[72,128],[14,43],[8,17],[11,10],[-3,0],[12,1],[5,-2],[5,-8],[0,-13],[2,-15],[2,-18],[-4,-24],[-4,-8],[-12,-8],[-5,-9],[-12,-50],[-17,-32],[-35,-32],[-12,-50],[28,-23],[15,-2],[12,15],[2,9],[2,11],[2,11],[4,10],[8,6],[18,2],[6,10],[6,-3],[3,1],[4,2],[-2,-15],[-3,-7],[-10,-7],[5,-18],[2,-21],[2,-22],[3,-19],[11,-24],[50,-55],[33,-5],[58,35],[-4,-16],[-18,-24],[96,-68],[8,4],[8,14],[13,28],[8,6],[3,-3]],[[2845,1343],[6,-38],[3,-20],[1,-23],[-1,-21],[-3,-35],[1,-14],[-9,-75],[-1,-29],[-5,-28],[-14,-9],[-26,2],[23,-6],[12,-9],[5,-24],[-3,-21],[-8,-20],[-16,-28],[-28,-24],[-106,-13],[-107,-13],[-14,10],[-13,17],[-7,4],[-50,-25],[-10,-16],[-99,4],[-18,30],[-6,32],[-14,15],[-16,-1],[-18,-30],[-9,3],[-18,16],[-17,2],[-9,6],[-8,12],[3,17],[7,24],[3,19],[-92,107],[-5,3],[-6,-5],[-4,-9],[-3,-10],[-2,-7],[-9,-10],[-10,-8],[-11,-1],[-8,10],[30,29],[0,11],[-18,1],[-10,-6],[-7,-15],[0,-18],[2,-19],[8,-34],[-22,-2],[-10,11],[-2,32],[19,39],[-3,14],[-5,7],[-43,-2],[-16,9],[-13,31],[3,0],[-5,9],[-6,-4],[-3,-11],[1,-13],[0,-10],[-57,8],[-10,12],[6,-1],[6,3],[5,9],[3,19],[-17,0],[-17,12],[-15,20],[-13,27],[2,0],[-22,15],[-9,17],[-6,28],[8,12],[29,8],[-2,19],[-2,10],[-3,3],[-5,-1],[-4,-3],[-7,-13],[-4,-5],[-13,0],[6,26],[8,23],[10,20],[9,11],[-4,16],[-10,1],[-21,-8],[2,-16],[-4,-17],[2,-16],[-17,-31],[-1,-9],[-2,-8],[0,-9],[1,-10],[-1,-12],[-5,-16],[-5,-8],[-13,-7],[-29,1],[-15,12],[-6,27],[6,13],[2,19],[-1,21],[-4,17],[15,-11],[9,1],[3,15],[-2,22],[-8,7],[-62,-4],[-8,-8],[-9,-14],[-8,-9],[-10,10],[4,14],[3,17],[3,29],[-4,25],[-2,22],[3,15],[8,9],[-1,14],[-1,6],[19,40],[7,24],[12,44],[0,11],[2,4],[0,10],[1,11],[2,4],[9,-2],[8,-8],[10,-15],[4,3],[3,22],[-3,3],[-4,4],[-3,6],[-3,7],[19,20],[80,30],[20,-13],[34,23],[-8,10],[-8,-1],[-16,-9],[-6,3],[-2,9],[2,11],[5,10],[15,10],[33,2],[15,14],[-11,14],[-87,-23],[5,19],[-1,2],[-4,9],[14,2],[39,27],[23,71],[15,19],[12,-30],[-5,-3],[-13,-17],[0,-10],[49,32],[9,18],[-95,32],[-8,-3],[-5,2],[-2,-1],[0,-4],[0,-13],[0,-3],[-18,-16],[-9,-1],[-8,7],[8,37],[15,16],[29,7],[6,-9],[3,0],[1,14],[2,11],[6,5],[29,-6],[9,-9],[6,-17],[0,-17],[8,-6],[23,-6],[4,2],[8,8],[15,0],[9,15],[-3,12],[-9,9],[-21,5],[-11,7],[-9,15],[-6,27],[18,52],[74,69],[25,9],[26,26],[6,-1],[8,-6],[9,-17],[5,-2],[5,14],[5,25],[2,8],[4,11],[6,9],[5,4],[5,0],[19,-14],[15,-5],[15,4],[15,12],[5,8],[7,19],[5,4],[29,0],[5,3],[17,24],[8,4],[92,-29],[92,-29],[125,-189],[12,-33],[11,-18],[36,-33],[38,-61],[34,-14],[5,-4],[3,-10],[5,-30],[2,-10],[-11,-14],[-15,-7],[-29,2],[0,-10],[49,-7],[61,-50],[1,-13],[-5,-25],[-5,-16],[-21,-38],[8,-23],[27,-52],[8,-26],[-1,-23],[-8,-18],[-9,-17],[3,-7],[5,-24],[-7,-3],[-14,-14],[-22,-10],[-6,-10],[-6,-13],[7,-8],[25,18],[7,-3],[5,-8],[8,-29],[18,-45],[7,-30],[-2,-33]],[[1285,0],[-395,0],[13,17],[6,3],[82,0],[129,94],[163,34],[14,-8],[11,-21],[5,-43],[-18,-57],[-10,-19]],[[3254,0],[-1026,0],[32,10],[35,31],[32,13],[15,15],[29,45],[6,5],[25,-11],[69,5],[10,6],[4,8],[6,23],[5,9],[8,5],[165,11],[13,-16],[21,-60],[12,-14],[13,-1],[12,15],[-9,10],[-2,18],[1,22],[-5,19],[13,37],[23,18],[75,7],[68,0],[93,-53],[80,-14],[11,-12],[6,-22],[-5,-22],[7,-12],[9,-2],[2,6],[18,20],[9,2],[46,-48],[31,-11],[21,-21],[20,-34],[2,-7]],[[3446,0],[-36,0],[25,13],[11,-13]],[[3580,0],[-117,0],[61,20],[56,-20]],[[2144,829],[34,-68],[4,-36],[-21,-30],[-13,-3],[-134,53],[-21,30],[-24,17],[-10,23],[20,22],[7,4],[15,-15],[8,-1],[-7,39],[14,25],[20,13],[34,3],[26,-14],[25,-26],[23,-36]],[[1702,2059],[-37,-2],[-10,-18],[6,-16],[8,-6],[8,-3],[8,-5],[-13,-21],[-45,-19],[-23,-25],[-10,-2],[1,27],[-10,9],[-23,4],[-10,18],[4,-1],[4,2],[3,5],[3,8],[1,11],[-4,7],[-8,7],[-9,32],[-5,13],[-6,5],[0,10],[7,9],[-2,14],[-13,26],[128,100],[13,-19],[50,38],[35,10],[7,10],[0,13],[-3,31],[0,16],[18,35],[32,-14],[57,-60],[21,7],[10,-3],[7,-15],[0,11],[10,-18],[23,-24],[9,-29],[-9,-20],[-5,-7],[-30,-13],[-6,-8],[5,-11],[-5,-15],[-8,-10],[-14,-12],[-6,-9],[-9,-23],[-5,-10],[-15,-11],[-11,12],[-10,22],[-12,19],[-27,21],[-14,20],[-6,26],[3,16],[7,7],[6,4],[5,8],[1,17],[-7,7],[-15,0],[2,-13],[1,-6],[-24,-13],[-12,-13],[-10,-24],[-4,-24],[2,-17],[10,-38],[2,-5],[3,-10],[1,-10],[-10,-9],[-11,-20],[-5,-6]],[[2463,2844],[10,-18],[2,-19],[0,-23],[0,-29],[11,-41],[0,-4],[0,-19],[1,-3],[9,-13],[27,-62],[7,-27],[2,-36],[-8,-17],[-124,-26],[-31,22],[-18,31],[-11,40],[-4,51],[2,63],[-9,7],[-9,14],[-8,21],[-4,28],[21,23],[69,18],[45,35],[3,12],[6,-5],[11,-23]],[[4096,4096],[0,-524],[-24,9],[-33,29],[-17,26],[-23,74],[-110,204],[-8,25],[-1,26],[8,33],[15,27],[73,46],[48,18],[59,7],[13,0]],[[0,3705],[0,109],[3,0],[18,13],[20,41],[17,4],[12,7],[3,0],[2,3],[0,12],[2,11],[2,8],[3,6],[19,24],[125,35],[139,-29],[-31,-36],[-151,-97],[-150,-96],[-33,-15]],[[1279,656],[-12,6],[-6,9],[-3,15],[14,40],[44,39],[6,15],[0,25],[28,23],[10,17],[-7,0],[11,31],[16,11],[33,-2],[34,-35],[6,-10],[-4,-24],[-8,-25],[-31,-76],[-7,-5],[-20,5],[-13,-9],[-54,-67],[-16,-4],[-5,4],[-11,14],[-5,3]],[[0,2554],[0,881],[12,-22],[48,-41],[10,-20],[-5,-4],[-4,-8],[-3,-13],[-3,-15],[3,0],[-13,-59],[-2,-22],[10,-9],[52,-10],[42,-31],[34,-43],[13,-10],[4,-12],[4,-14],[3,-9],[13,-11],[6,-8],[4,-20],[-33,-24],[-10,-16],[117,40],[-13,-31],[-61,-20],[0,-9],[98,-24],[16,-31],[5,-13],[33,-59],[4,-8],[6,-27],[4,-10],[9,-9],[27,-8],[-5,-23],[-8,-9],[-10,-5],[-7,-13],[8,-10],[11,-1],[11,4],[19,19],[6,2],[5,-4],[2,-6],[2,-10],[1,-10],[-3,-8],[0,-9],[1,-10],[2,-7],[4,-10],[5,-1],[10,11],[20,37],[52,13],[3,3],[11,24],[5,4],[11,-1],[14,7],[3,5],[1,13],[2,12],[6,4],[6,-2],[12,-11],[10,3],[19,19],[-19,16],[-119,-47],[-16,-20],[-1,19],[-4,2],[-5,-2],[-4,7],[-1,13],[3,11],[5,7],[4,3],[-7,16],[-9,1],[-8,-2],[-9,3],[-2,6],[0,7],[-1,7],[-3,7],[-5,5],[-16,0],[5,6],[4,8],[4,11],[2,15],[-24,3],[-8,15],[-8,33],[-2,16],[-1,13],[-1,12],[-5,10],[-26,23],[-7,14],[37,0],[-1,14],[-1,6],[15,15],[16,-2],[31,-22],[52,-8],[32,-20],[14,-1],[46,30],[35,8],[16,20],[-103,-33],[-9,6],[-13,19],[-6,6],[-37,15],[-34,43],[-8,4],[-63,-21],[-113,63],[-12,23],[6,30],[18,19],[134,-15],[0,10],[-5,0],[-15,10],[3,11],[-26,9],[-7,10],[13,14],[14,-12],[15,-21],[13,-11],[61,-15],[19,15],[-56,17],[-9,13],[9,1],[18,11],[8,9],[-12,11],[-26,-6],[-12,4],[-42,51],[3,9],[12,20],[-10,-3],[-21,-16],[-9,-1],[-27,28],[-129,-12],[-105,145],[-9,38],[94,37],[11,12],[-3,4],[-3,6],[-3,9],[-1,11],[7,3],[20,27],[27,10],[56,59],[15,1],[19,21],[23,7],[152,-57],[8,2],[23,31],[9,6],[37,1],[18,-13],[15,-28],[-11,-12],[-26,8],[-13,-6],[60,-17],[84,-127],[13,-5],[0,10],[-2,0],[0,11],[24,4],[12,-5],[9,-20],[-31,-24],[-12,-21],[5,-30],[30,-47],[15,-13],[18,-4],[0,9],[-15,26],[-7,20],[-3,19],[6,14],[27,-14],[9,5],[-5,0],[0,10],[9,8],[12,3],[9,-8],[0,-23],[8,-18],[10,-5],[20,3],[0,11],[-4,-2],[-4,2],[-7,9],[12,20],[-7,20],[-11,19],[-10,15],[-9,6],[-5,5],[-3,12],[-2,13],[-3,9],[-5,4],[-12,0],[-5,6],[5,16],[2,16],[-2,15],[-5,13],[4,-1],[4,1],[3,4],[4,6],[-2,4],[-2,11],[-1,5],[19,21],[26,11],[26,-3],[19,-19],[0,-29],[11,-10],[9,11],[-3,38],[44,-8],[24,7],[14,31],[-9,9],[-3,0],[4,9],[5,3],[11,-1],[0,10],[-28,12],[-42,-22],[-36,0],[-18,11],[-11,29],[147,6],[10,-7],[7,-14],[0,-14],[-8,-23],[-1,-18],[4,-7],[32,-27],[38,-10],[19,-13],[9,-3],[-46,-10],[-6,3],[-18,18],[-22,0],[13,-37],[17,-9],[18,0],[16,-7],[11,-17],[5,-1],[2,4],[1,6],[3,7],[4,3],[7,-6],[15,-28],[8,-6],[98,-25],[51,-44],[-6,-17],[-6,-13],[3,-14],[6,-16],[3,-17],[-1,-18],[-7,-12],[-9,-11],[-8,-13],[0,-18],[-1,-8],[-3,-25],[-1,-12],[-2,-13],[-9,-20],[-4,-11],[6,-6],[13,-7],[6,-8],[-1,-7],[-2,-16],[-2,-7],[9,-24],[57,-65],[9,-22],[8,-29],[-3,0],[5,-48],[0,-20],[-6,-26],[-5,-12],[-14,-27],[-5,-14],[-1,-14],[-1,-40],[-1,-12],[-2,-15],[-3,-10],[-3,-8],[-2,-11],[-3,-30],[-3,-5],[-4,-3],[-3,-8],[0,-11],[2,-11],[2,-10],[-3,-12],[2,-15],[3,-14],[7,-26],[16,-45],[2,-25],[-7,-22],[-20,-37],[-4,-11],[-2,-11],[-3,-11],[-25,-30],[-24,-6],[-35,-25],[-15,-21],[16,-12],[82,-17],[6,-7],[13,-19],[6,-5],[65,-8],[17,-28],[3,-8],[-1,-21],[-2,-8],[-4,-3],[-3,-13],[-4,-24],[-1,-25],[0,-51],[0,2],[1,-4],[1,-7],[0,-5],[-1,-8],[-2,-4],[-2,-3],[-2,-36],[0,-14],[5,-70],[13,-43],[34,-56],[-9,-12],[-9,2],[-52,41],[-7,19],[-2,11],[0,13],[2,16],[-2,14],[0,12],[3,8],[4,5],[-89,116],[-14,3],[4,-38],[-12,-1],[-16,10],[-10,-9],[1,-15],[21,-21],[8,-21],[4,-13],[4,-16],[1,-19],[-3,-14],[-6,-8],[-6,-3],[-7,2],[-5,8],[-4,12],[-4,16],[-1,8],[-1,19],[0,5],[-4,8],[-23,11],[-8,-5],[-4,-13],[4,-22],[-27,0],[-8,-11],[9,-8],[18,0],[8,-11],[-10,-12],[-20,-1],[-10,-6],[13,-13],[28,7],[50,-30],[11,-14],[-2,-1],[-2,-3],[-1,-3],[-2,-4],[-4,-3],[-2,1],[-3,2],[-79,-1],[-9,-18],[12,-13],[51,-21],[3,-8],[-3,-10],[-8,-8],[-30,-10],[0,4],[1,2],[0,1],[1,3],[0,10],[-9,-4],[-17,-15],[-9,-1],[8,30],[-13,-2],[-9,-8],[-8,-19],[-8,-31],[4,-7],[5,-3],[9,0],[-8,10],[5,10],[7,1],[6,-6],[5,-15],[-5,-10],[-5,-7],[-5,-4],[-5,2],[5,-24],[10,-14],[11,-2],[9,9],[-3,0],[10,31],[15,26],[16,10],[14,-17],[-23,-19],[3,-10],[-6,-7],[-14,-34],[24,-19],[9,0],[0,10],[-5,20],[2,20],[8,7],[7,-18],[-3,-9],[12,-32],[34,-39],[9,-39],[-14,3],[-7,-5],[-4,-18],[13,-9],[26,2],[14,-13],[-5,1],[-2,-3],[-3,-17],[26,-24],[6,4],[-7,10],[0,10],[5,-1],[5,-5],[4,-9],[3,-15],[-27,-34],[-31,-19],[-31,0],[-73,67],[-7,26],[0,14],[5,22],[0,13],[-6,14],[-9,6],[-15,1],[8,-26],[-4,-14],[-22,-21],[3,-1],[7,-8],[-7,-9],[-3,-1],[7,-24],[11,-19],[27,-29],[14,-5],[6,-8],[3,-10],[2,-21],[3,-9],[3,-17],[0,-29],[-3,-30],[-3,-19],[-6,-7],[-21,18],[-131,-28],[-130,-27],[-14,15],[15,20],[-9,8],[-21,-11],[-10,12],[5,11],[-2,4],[-3,11],[-2,4],[4,16],[2,3],[4,2],[-9,16],[-14,3],[-15,-10],[-10,-20],[9,-23],[2,-19],[-6,-13],[-153,-28],[-11,14],[2,3],[8,17],[-5,24],[4,25],[31,74],[5,18],[0,18],[-9,13],[-9,-14],[-16,-54],[-6,-12],[-20,-23],[-15,-36],[-5,-4],[5,-25],[17,-14],[5,-21],[-19,7],[-6,-4],[-12,-15],[-43,-10],[-124,27],[-125,28],[-14,13],[-9,24],[-2,28],[1,22],[3,21],[1,24],[-1,23],[-3,13],[-14,29],[6,9],[3,2],[4,-1],[0,10],[-20,26],[-22,8],[-8,10],[-5,16],[22,32],[26,11],[146,-8],[11,14],[-8,12],[-19,-1],[-20,11],[-20,0],[-30,13],[-37,-9],[-19,24],[15,9],[16,2],[15,12],[12,37],[-93,-32],[-13,8],[-50,56],[-26,12],[-13,15],[7,11],[42,30],[8,-1],[8,-10],[-8,-1],[-19,-9],[-8,-10],[11,-11],[17,-7],[14,4],[3,24],[28,-3],[15,5],[12,18],[-10,10],[-23,7],[-7,22],[5,0],[-17,25],[-18,9],[-38,-4],[0,11],[124,14],[124,14],[12,21],[-110,11],[32,15],[67,-13],[31,27],[-120,30],[0,11],[165,30],[-9,10],[-30,-10],[-29,9],[-9,0],[0,9],[18,2],[70,39],[18,1],[17,9],[14,30],[-72,0],[0,10],[5,2],[14,17],[-3,22],[-2,7],[158,21],[157,20],[17,11],[7,11],[-5,15],[-9,6],[-133,-26],[-134,-26],[9,13],[31,17],[-122,-24],[-121,-23],[-19,-22],[-9,0],[-20,7],[-45,-21],[-27,12],[-93,-25],[-93,-25],[-14,-18],[-6,-3],[-13,1],[-28,-20],[-7,2],[0,236],[1,1],[3,10],[4,10],[28,25],[59,10],[28,35],[-50,-11],[7,-9],[-12,-15],[-31,-1],[-29,-16],[-8,0]],[[4096,2901],[0,-2075],[-3,3],[-8,-6],[-13,-28],[-8,-14],[-8,-4],[-96,68],[18,24],[4,16],[-58,-35],[-33,5],[-50,55],[-11,24],[-3,19],[-2,22],[-2,21],[-5,18],[10,7],[3,7],[2,15],[-4,-2],[-3,-1],[-6,3],[-6,-10],[-18,-2],[-8,-6],[-4,-10],[-2,-11],[-2,-11],[-2,-9],[-12,-15],[-15,2],[-28,23],[12,50],[35,32],[17,32],[12,50],[5,9],[12,8],[4,8],[4,24],[-2,18],[-2,15],[0,13],[-5,8],[-5,2],[-12,-1],[3,0],[-11,-10],[-8,-17],[-14,-43],[-72,-128],[-8,-5],[-6,3],[-5,8],[-7,3],[-5,-3],[-14,-17],[-3,-10],[1,-19],[5,-11],[7,-8],[5,-11],[0,-25],[23,-56],[7,-28],[-68,10],[3,10],[-10,29],[8,23],[-5,38],[-12,23],[-16,-24],[8,-9],[4,-13],[1,-18],[-3,-20],[-8,-21],[-11,-8],[-42,3],[-44,29],[-20,27],[6,10],[14,14],[5,17],[-17,22],[-17,6],[-36,-8],[4,-27],[-7,-8],[-12,5],[-10,10],[6,17],[22,21],[-20,21],[0,-11],[-18,21],[-40,26],[-16,38],[-1,18],[3,19],[9,28],[3,6],[2,0],[2,4],[1,15],[0,11],[0,8],[2,15],[-2,12],[-1,7],[0,5],[1,6],[-6,18],[-6,9],[-13,13],[11,16],[-4,21],[-49,90],[-11,12],[0,10],[5,2],[3,8],[1,13],[-1,17],[-5,0],[-4,2],[-1,8],[2,10],[4,2],[4,-1],[17,22],[37,-13],[16,20],[-30,29],[-8,21],[20,15],[1,10],[-6,9],[-60,-27],[-16,0],[-16,13],[0,24],[-6,8],[-9,2],[-8,6],[1,5],[2,14],[-11,5],[-22,31],[-12,4],[4,17],[10,18],[3,15],[0,17],[-1,19],[-3,23],[10,54],[5,16],[8,17],[20,18],[9,15],[-12,5],[-27,-11],[-11,6],[30,117],[30,82],[15,18],[7,12],[10,24],[6,10],[39,20],[16,16],[14,29],[-7,11],[-17,14],[-3,15],[3,15],[22,35],[-7,9],[-6,12],[-4,22],[-35,52],[-8,34],[2,10],[18,48],[3,15],[3,17],[1,21],[-6,48],[-3,17],[-8,18],[-13,13],[-30,4],[-53,42],[-10,20],[-5,25],[-3,8],[-6,3],[-13,0],[-6,6],[-6,13],[2,17],[-5,17],[-7,12],[-7,4],[-10,2],[-3,9],[-3,49],[-1,9],[-3,22],[0,9],[0,6],[4,16],[0,8],[-4,25],[-7,22],[-8,16],[-17,12],[-9,16],[-7,24],[-2,29],[-6,18],[-12,14],[-34,19],[-28,63],[-16,22],[-7,16],[-5,23],[3,4],[8,15],[-2,7],[-1,6],[-1,4],[-1,3],[2,0],[-25,31],[-29,7],[-30,-9],[-109,-101],[-29,2],[4,7],[9,7],[5,6],[-5,20],[-16,-2],[-7,-6],[-7,-12],[-14,-34],[-4,-6],[11,-20],[26,-4],[11,-16],[-25,-12],[-51,27],[-37,-13],[-23,6],[-22,-8],[-43,36],[-152,-15],[-22,19],[6,9],[2,2],[-7,15],[-3,4],[2,10],[-31,0],[-4,-6],[-15,-39],[-17,-21],[-55,-23],[-7,-12],[-9,-22],[-7,-6],[-9,0],[-28,19],[-83,0],[2,14],[1,7],[-1,7],[-2,13],[3,24],[3,21],[6,10],[25,-25],[70,28],[8,11],[1,6],[-1,6],[0,6],[16,10],[55,0],[14,-17],[-2,-4],[-2,-5],[-3,-12],[7,-1],[6,3],[5,9],[4,19],[-15,17],[-103,40],[-12,-17],[-7,-9],[-7,6],[-15,25],[-5,7],[-6,3],[-12,-2],[-5,-3],[-10,-16],[-21,-8],[-12,3],[-7,14],[2,18],[9,9],[10,6],[7,6],[-17,6],[-48,-25],[-98,23],[-8,7],[-18,27],[-29,19],[-25,39],[-24,54],[10,26],[9,9],[95,-4],[14,9],[13,15],[43,83],[5,21],[-12,-3],[-9,-8],[-38,-61],[-12,-7],[-6,9],[0,10],[-10,1],[-32,-20],[-40,0],[1,15],[3,11],[4,8],[4,5],[-13,11],[-28,-14],[-13,5],[-9,14],[-3,8],[-2,11],[-5,13],[-19,11],[2,5],[5,16],[-53,1],[-17,16],[-11,17],[-4,13],[-2,17],[-4,14],[-8,7],[-67,24],[-31,-20],[-38,7],[-19,19],[-15,34],[11,1],[12,9],[12,17],[10,22],[-7,1],[-8,6],[-6,12],[-2,22],[5,16],[9,2],[18,-11],[7,-13],[4,-5],[4,-1],[9,2],[4,-1],[23,-30],[-5,-14],[3,-9],[7,-5],[7,-1],[26,20],[13,4],[11,-15],[0,11],[37,-30],[20,-1],[15,20],[-6,6],[-18,-6],[-6,4],[-12,13],[-26,13],[-7,0],[-18,-10],[-6,0],[0,10],[6,6],[21,4],[0,10],[-7,11],[3,6],[2,3],[7,1],[5,-4],[8,-14],[4,-3],[38,7],[10,14],[-104,47],[1132,0],[10,-21],[12,-3],[5,-3],[3,-8],[5,-18],[2,-4],[19,-9],[19,-22],[-5,-10],[0,-9],[9,-21],[5,-6],[7,-2],[13,9],[3,0],[4,-19],[3,-30],[1,-56],[-5,-20],[-27,-59],[0,-8],[0,-26],[-1,-10],[-6,-14],[-7,-11],[-4,-13],[5,-22],[-14,-25],[-32,-32],[-14,-23],[-5,-15],[-3,-5],[-6,-7],[-47,-36],[-9,-16],[16,-43],[19,-30],[19,-6],[18,28],[-25,0],[-12,6],[-8,24],[28,34],[45,18],[7,7],[4,9],[7,23],[4,9],[21,23],[6,12],[4,11],[4,28],[2,6],[12,5],[12,14],[22,41],[-2,5],[-6,24],[13,16],[47,4],[12,-12],[38,-8],[32,-26],[12,-3],[61,38],[22,-9],[23,-21],[11,-4],[13,5],[36,30],[30,-6],[52,56],[2,10],[103,21],[102,21],[110,-32],[17,-16],[30,-4],[33,-21],[16,-22],[12,-32],[13,-27],[86,-34],[14,-19],[13,-34],[-3,-10],[-3,-9],[-3,-6],[-3,-5],[4,-16],[6,-7],[12,-7],[-8,-26],[-59,-17],[-99,43],[-8,14],[-11,25],[-10,10],[-7,-29],[1,-2],[4,-9],[-23,-17],[-26,0],[-74,53],[-79,-15],[0,-10],[18,-6],[17,-14],[6,-9],[13,-23],[6,-8],[150,-10],[10,-18],[3,-2],[54,-5],[28,-20],[32,-5],[23,-37],[7,2],[17,20],[23,6],[140,-53],[23,-9],[0,-273],[-36,0],[-130,-4],[11,-21],[119,-19],[17,-20],[-15,-16],[-18,4],[-34,23],[-169,39],[-168,40],[-27,40],[-137,60],[10,-16],[21,-5],[10,-2],[12,-13],[70,-44],[6,-15],[-4,-18],[-31,-17],[0,-10],[-20,-20],[0,-10],[15,-7],[45,27],[166,-45],[17,-13],[19,-1],[8,-11],[-6,-7],[-11,2],[-6,-5],[-2,-8],[-1,-8],[-1,-8],[-1,-6],[-10,-14],[-11,-5],[-24,1],[0,-11],[54,-17],[12,12],[10,20],[14,14],[25,11],[132,-40],[-15,-37],[-22,-16],[-148,2],[-148,3],[-21,-21],[19,-12],[44,13],[17,-22],[-11,-13],[-25,4],[-11,-10],[8,-11],[17,-17],[9,-2],[7,-8],[4,-17],[0,-18],[-7,-8],[-16,-2],[-35,-24],[-15,-23],[3,-15],[5,-17],[2,-17],[-4,-36],[1,-13],[8,18],[0,-9],[7,11],[7,37],[6,11],[-4,16],[-1,4],[9,11],[40,28],[28,46],[7,15],[9,37],[5,12],[9,5],[14,-5],[13,-13],[8,-17],[-12,0],[-5,-5],[-5,-14],[13,-13],[14,5],[40,38],[15,2],[16,-7],[14,-15],[-10,-15],[-12,-13],[-11,-18],[-4,-34],[4,-27],[10,11],[20,43],[28,19],[5,9],[3,21],[8,7],[26,-7],[6,-10],[12,-27],[7,-7],[23,-3],[1,26],[11,36],[0,19],[11,26],[15,10],[3,0]],[[0,2278],[0,196],[834,30],[512,93],[-98,-92],[177,-65],[-2,-372],[43,-59],[-29,-29],[-67,67],[-86,170],[-1,0],[4,-92],[-31,-65],[-953,-3],[69,103],[139,57],[-24,181],[-487,-120]]]}