{"objects":{"water":{"type":"GeometryCollection","geometries":[{"type":"MultiPolygon","properties":{"source":"naturalearthdata.com","kind":"ocean","area":989871000000000,"sort_rank":200,"min_zoom":0,"id":1},"arcs":[[[0],[1],[2],[3],[4]],[[5]],[[6]],[[7]]]},{"type":"MultiLineString","properties":{"source":"naturalearthdata.com","kind":"ocean","sort_rank":205,"boundary":true,"min_zoom":0,"id":251},"arcs":[[8],[9]]},{"type":"LineString","properties":{"source":"naturalearthdata.com","kind":"ocean","sort_rank":205,"boundary":true,"min_zoom":0,"id":484},"arcs":[10]},{"type":"MultiLineString","properties":{"source":"naturalearthdata.com","kind":"ocean","sort_rank":205,"boundary":true,"min_zoom":0,"id":496},"arcs":[[11],[12],[13],[14],[15],[16],[17]]},{"type":"LineString","properties":{"source":"naturalearthdata.com","kind":"ocean","sort_rank":205,"boundary":true,"min_zoom":0,"id":965},"arcs":[18]},{"type":"LineString","properties":{"source":"naturalearthdata.com","kind":"ocean","sort_rank":205,"boundary":true,"min_zoom":0,"id":966},"arcs":[19]},{"type":"LineString","properties":{"source":"naturalearthdata.com","kind":"ocean","sort_rank":205,"boundary":true,"min_zoom":0,"id":967},"arcs":[20]},{"type":"LineString","properties":{"source":"naturalearthdata.com","kind":"ocean","sort_rank":205,"boundary":true,"min_zoom":0,"id":968},"arcs":[21]},{"type":"MultiLineString","properties":{"source":"naturalearthdata.com","kind":"ocean","sort_rank":205,"boundary":true,"min_zoom":0,"id":972},"arcs":[[22],[23],[24]]},{"type":"MultiLineString","properties":{"source":"naturalearthdata.com","kind":"ocean","sort_rank":205,"boundary":true,"min_zoom":0,"id":973},"arcs":[[25],[26]]},{"type":"MultiLineString","properties":{"source":"naturalearthdata.com","kind":"ocean","sort_rank":205,"boundary":true,"min_zoom":0,"id":974},"arcs":[[27],[28],[29],[30]]}]},"buildings":{"type":"GeometryCollection","geometries":[]},"places":{"type":"GeometryCollection","geometries":[]},"transit":{"type":"GeometryCollection","geometries":[]},"pois":{"type":"GeometryCollection","geometries":[]},"boundaries":{"type":"GeometryCollection","geometries":[]},"roads":{"type":"GeometryCollection","geometries":[]},"earth":{"type":"GeometryCollection","geometries":[{"type":"MultiPolygon","properties":{"sort_rank":10,"source":"naturalearthdata.com","kind":"earth","min_zoom":2.0,"area":208531522065},"arcs":[[[31]]]},{"type":"MultiPolygon","properties":{"sort_rank":10,"source":"naturalearthdata.com","min_zoom":0.5,"kind":"earth","area":885996023338},"arcs":[[[32]],[[33]]]},{"type":"MultiPolygon","properties":{"sort_rank":10,"source":"naturalearthdata.com","kind":"earth","min_zoom":5.0,"area":12275035991},"arcs":[[[34]]]},{"type":"MultiPolygon","properties":{"sort_rank":10,"source":"naturalearthdata.com","min_zoom":3.0,"kind":"earth","area":85393833487},"arcs":[[[35]],[[36]]]},{"type":"MultiPolygon","properties":{"sort_rank":10,"source":"naturalearthdata.com","min_zoom":0,"kind":"earth","area":13131386715102},"arcs":[[[37]],[[38]],[[39]],[[40]],[[41]]]}]},"landuse":{"type":"GeometryCollection","geometries":[]}},"type":"Topology","transform":{"translate":[-101.25,70.612614238],"scale":[0.002746582,0.0008317698]},"arcs":[[[4096,1013],[0,-1013],[-804,0],[-3,4],[-12,11],[-5,-15],[-15,0],[0,1],[2,16],[-1,8],[-4,3],[-15,14],[-19,9],[-6,7],[1,3],[1,1],[0,4],[-72,26],[-17,-13],[-6,4],[8,9],[-12,0],[8,16],[4,6],[5,2],[-4,14],[-8,5],[-15,-2],[0,8],[20,7],[0,9],[-5,-1],[-3,2],[-3,6],[-2,11],[8,9],[-6,11],[-19,16],[-9,12],[-19,14],[-46,9],[-27,38],[-7,16],[-4,22],[10,-1],[9,-8],[21,-31],[1,-1],[9,1],[16,8],[6,7],[-8,12],[-8,17],[-4,22],[2,24],[-2,7],[2,19],[3,56],[2,20],[4,16],[9,30],[-10,22],[-2,9],[2,18],[1,8],[5,10],[1,6],[0,6],[-2,10],[0,9],[1,18],[2,10],[0,10],[-3,20],[-6,17],[-19,41],[2,15],[-1,14],[-2,14],[-3,43],[-5,14],[-13,15],[3,10],[3,12],[0,12],[-4,12],[-10,12],[-10,6],[-30,5],[-7,9],[-7,12],[-6,17],[-2,10],[0,6],[0,5],[0,4],[-1,9],[-1,7],[-2,5],[-4,3],[-2,25],[-15,17],[-37,22],[-4,9],[-3,11],[-6,12],[-9,9],[-46,22],[-32,30],[-37,59],[-25,22],[-6,11],[38,59],[3,13],[1,22],[-6,38],[-14,17],[-18,-1],[-14,-13],[-9,-12],[-9,-6],[-19,-2],[-9,2],[-5,7],[-9,23],[-15,14],[-25,-35],[-15,5],[1,22],[-7,12],[-11,-1],[-9,-13],[-11,-38],[-6,-16],[-44,-86],[-5,1],[2,21],[8,48],[-2,14],[-2,13],[0,14],[3,13],[1,5],[0,12],[1,3],[4,1],[2,3],[3,5],[2,8],[-6,11],[-6,4],[-11,1],[-4,-6],[-3,-13],[-3,-7],[-7,10],[2,15],[-2,12],[-4,6],[-6,0],[-3,-6],[-2,-9],[-12,-51],[-5,-12],[-15,-21],[-4,4],[-3,4],[-1,7],[1,10],[-3,0],[5,22],[-2,16],[-13,28],[23,28],[13,9],[27,4],[6,5],[3,12],[0,22],[-6,9],[-7,4],[-6,6],[9,5],[10,0],[10,4],[8,15],[3,21],[-4,8],[-25,12],[-3,7],[-1,14],[-1,14],[-1,6],[-21,15],[-123,-32],[-123,-32],[0,-8],[2,-3],[1,-4],[0,-4],[2,-5],[-13,-27],[-5,-6],[7,-8],[3,-1],[0,-8],[-4,-2],[-3,-4],[-1,-4],[3,-20],[11,-12],[13,-7],[11,4],[18,13],[104,-12],[13,-12],[7,-2],[43,41],[12,-7],[-15,-22],[-16,-17],[-17,-7],[-17,4],[-17,11],[-55,7],[-11,-7],[-3,-1],[-15,7],[-7,-2],[-19,-15],[-29,-4],[-8,-12],[-5,-25],[-3,-8],[-6,-10],[-2,-7],[-2,-16],[0,-15],[3,-12],[7,-6],[-6,-15],[-9,-5],[-70,3],[-8,-6],[-16,-21],[-8,-5],[-4,-4],[-6,-18],[-4,-4],[-11,1],[-5,-2],[-5,-7],[2,-10],[-3,-9],[-16,-22],[-6,-2],[-13,3],[-26,-9],[-13,-11],[-10,-14],[2,-9],[3,-6],[3,-2],[5,1],[-5,-16],[-15,-11],[-5,-22],[7,-6],[15,-4],[7,-7],[15,-27],[6,-6],[43,-2],[10,-11],[12,-8],[49,-8],[6,16],[13,9],[24,4],[-25,-21],[-8,-11],[0,-4],[1,-10],[-1,-4],[-5,-9],[-4,-2],[-6,-2],[-5,-5],[-5,-26],[-4,-6],[-1,-6],[8,-18],[7,-13],[9,-10],[8,-7],[8,-3],[0,-7],[-15,0],[1,-5],[2,-12],[-43,0],[4,-17],[15,-12],[6,-13],[-2,-3],[-3,-9],[-2,-3],[1,-20],[-7,-3],[-11,3],[-8,-1],[-9,-7],[-9,2],[-66,71],[-16,29],[3,0],[-8,23],[-10,12],[-22,14],[-54,-1],[-19,-16],[-10,-17],[-10,-26],[-10,-28],[-7,-28],[2,-7],[-9,-12],[-7,-6],[-44,1],[-13,-8],[-9,-17],[3,-2],[4,-3],[3,-5],[3,-7],[-3,-8],[13,8],[4,0],[-6,-41],[-3,-25],[-1,-16],[5,-11],[26,-31],[-6,-16],[-8,10],[-9,16],[-8,3],[-24,-29],[-8,-4],[-3,-6],[-2,-15],[10,-11],[17,-31],[10,-7],[7,1],[8,4],[3,9],[-5,19],[1,4],[1,2],[3,2],[3,-6],[10,-15],[0,-10],[-1,-2],[-2,-2],[-12,-31],[-9,-15],[-10,-9],[-12,0],[4,-11],[1,-9],[-2,-21],[-1,-5],[-3,-4],[-1,-4],[0,-16],[0,-5],[-8,-61],[-3,-17],[-22,-70],[-7,-41],[5,-41],[11,-21],[39,-28],[9,-15],[5,-18],[4,-20],[7,-21],[18,-29],[29,-31],[28,-17],[15,10],[-3,0],[6,16],[7,12],[80,63],[32,8],[-6,-7],[-13,-6],[-12,-15],[-15,-11],[-7,-2],[-34,-45],[-1,-25],[1,-13],[-1564,0],[-6,9],[2,1],[6,6],[-6,8],[-19,10],[-18,24],[-9,25],[-11,-3],[-12,-14],[-11,-8],[-39,29],[-10,-4],[11,-27],[5,-16],[2,-19],[-1,-18],[-1,-3],[-211,0],[0,2067],[8,4],[4,-1],[6,-6],[12,-28],[12,-13],[25,-8],[11,-13],[-5,-2],[-4,-3],[-9,-11],[6,-9],[11,3],[6,-3],[0,-7],[-4,-3],[-9,-14],[5,-10],[3,-11],[3,-10],[-1,-10],[18,-29],[5,-4],[6,4],[4,8],[4,6],[6,-1],[-4,12],[-1,4],[11,8],[4,0],[2,-3],[4,-11],[3,-2],[7,4],[7,9],[8,5],[59,-30],[5,-21],[7,-1],[5,-9],[5,-12],[5,-11],[6,-6],[21,-11],[-7,-7],[-2,-1],[6,-29],[9,-1],[10,5],[9,-8],[-1,-12],[-1,-12],[-2,-10],[-6,-7],[19,-21],[6,-3],[-2,0],[11,-18],[17,-46],[12,-23],[32,-29],[16,-21],[9,-37],[7,-7],[15,-19],[8,-6],[62,-10],[7,-11],[6,-46],[4,-7],[4,-4],[10,-18],[4,-4],[8,-3],[15,-11],[5,-7],[4,-11],[3,-17],[-1,0],[-1,-6],[0,-8],[1,-7],[4,-8],[8,-6],[4,-6],[4,-13],[3,-13],[1,-12],[2,-12],[2,-32],[14,-26],[18,-17],[46,-24],[5,-12],[-1,-17],[-3,-13],[-5,-7],[-6,1],[17,-45],[18,-38],[-3,-19],[3,-15],[8,-24],[1,-9],[2,-16],[2,-8],[8,-15],[3,-6],[3,-18],[0,-14],[3,-9],[8,-3],[34,3],[10,7],[26,35],[9,3],[10,-5],[8,-11],[43,-88],[15,-20],[17,-7],[4,-8],[4,0],[9,8],[0,4],[-1,8],[-1,5],[13,8],[44,-8],[12,13],[25,39],[11,5],[3,8],[31,49],[37,27],[9,19],[7,18],[15,31],[12,34],[13,33],[7,11],[-7,7],[-16,5],[-2,6],[-5,-3],[-4,0],[-2,4],[-4,7],[-3,9],[-7,32],[-4,4],[-11,1],[-5,3],[-10,20],[-5,4],[-5,0],[-3,5],[-1,16],[-3,13],[-5,5],[-10,3],[-9,5],[-4,14],[-3,19],[-6,20],[6,6],[-2,8],[-6,7],[-12,6],[-3,4],[-3,2],[-8,-7],[-2,0],[-1,2],[-2,4],[8,53],[15,44],[37,69],[-3,0],[8,6],[15,-1],[8,3],[-3,12],[-10,29],[15,7],[-1,-4],[0,-1],[-1,0],[0,-2],[5,-8],[6,0],[5,-2],[1,-15],[-3,-10],[-36,-73],[-6,-27],[-4,-53],[-3,-8],[-2,-5],[4,-14],[5,-12],[30,-52],[12,-13],[28,-13],[16,0],[47,16],[8,-3],[16,-11],[51,-5],[15,-15],[6,-11],[8,-7],[81,-1],[9,4],[50,44],[32,11],[47,44],[1,18],[8,19],[16,29],[12,42],[7,17],[10,6],[26,-3],[12,4],[13,16],[9,17],[11,14],[11,3],[12,-18],[-15,-6],[-7,-7],[-3,-15],[3,-21],[8,-2],[33,15],[13,13],[11,23],[24,91],[-3,20],[-6,6],[-16,-1],[-19,-10],[-19,-18],[-19,-10],[-18,13],[0,9],[25,29],[12,6],[10,11],[4,3],[6,-3],[8,-11],[5,-3],[13,6],[9,20],[6,31],[2,38],[-8,17],[-54,-30],[-11,4],[-20,18],[-10,4],[-17,-3],[-8,2],[-9,8],[124,44],[10,14],[4,19],[2,23],[-2,21],[-6,11],[2,0],[-5,19],[-4,32],[-3,33],[0,24],[-9,-6],[-6,-1],[-6,4],[-9,11],[17,9],[6,7],[-2,9],[-2,7],[-3,5],[-3,4],[-9,-16],[-15,7],[-26,26],[-45,16],[-13,16],[50,0],[19,-10],[9,1],[52,43],[2,4],[2,5],[2,5],[3,1],[10,0],[3,3],[7,10],[6,12],[2,6],[2,8],[2,7],[3,6],[7,4],[15,-1],[6,4],[7,13],[-1,12],[-3,15],[-3,21],[-1,23],[-3,15],[-10,24],[-3,9],[-1,9],[-3,8],[-4,7],[-3,-1],[-10,-7],[-4,-1],[2,12],[7,11],[3,10],[-8,13],[-8,24],[-4,28],[3,27],[-44,56],[-6,10],[7,9],[14,14],[6,10],[-3,7],[-2,11],[-3,15],[-29,0],[7,-7],[-2,-10],[-12,-21],[-8,-8],[-19,1],[-81,-47],[-50,-74],[-14,-7],[-19,-1],[-12,9],[6,24],[-4,7],[-2,2],[2,2],[4,4],[2,2],[-2,5],[-3,19],[21,26],[5,11],[30,30],[2,6],[-3,14],[-16,43],[-5,7],[-6,3],[-15,-4],[-6,4],[-2,21],[-2,10],[-11,27],[-4,8],[-18,17],[-55,8],[0,8],[46,9],[7,4],[4,12],[6,33],[-3,14],[1,9],[4,4],[5,-2],[-11,31],[-147,89],[-64,6],[-14,8],[-40,-5],[-11,-5],[-15,-16],[-7,-2],[-6,10],[-13,-24],[-35,-25],[-16,-18],[-18,-40],[-25,-38],[-4,-9],[-3,-11],[-2,-13],[0,-17],[-3,-12],[-5,3],[-5,11],[-3,15],[0,33],[2,14],[3,11],[3,12],[-4,11],[-11,14],[9,19],[1,6],[-4,13],[-7,7],[-14,4],[7,16],[31,22],[22,9],[43,53],[15,35],[117,143],[4,8],[1,9],[1,10],[1,8],[8,16],[34,34],[20,3],[8,4],[-3,10],[28,-1],[107,56],[11,1],[15,-20],[11,1],[7,9],[-1,19],[4,14],[3,5],[3,5],[-6,13],[-2,4],[2,0],[-7,15],[-17,8],[-8,10],[25,9],[7,7],[-6,27],[-14,6],[-46,-9],[-11,4],[-10,14],[3,8],[-18,14],[-19,-17],[-20,-25],[-17,-13],[-6,1],[-6,3],[-6,6],[-4,10],[-3,10],[0,5],[2,5],[2,9],[4,12],[4,10],[2,12],[-5,16],[19,4],[39,-26],[19,13],[-2,14],[-6,25],[-2,15],[4,10],[9,-1],[53,-36],[21,2],[16,21],[2,19],[64,44],[9,18],[-1,26],[13,29],[-1,10],[-2,22],[-4,29],[-10,14],[-21,12],[-10,14],[-33,77],[-12,15],[-24,17],[-74,4],[-39,35],[-16,2],[-31,-16],[-25,-23],[-13,-5],[-12,11],[9,15],[19,20],[9,14],[-14,12],[-48,-20],[2,0],[-11,-20],[-8,-24],[-9,-21],[-26,-13],[-18,-23],[-159,-29],[-25,-16],[-28,-4],[-3,-6],[-1,0],[-10,-1],[-11,-8],[-10,-14],[-5,-19],[-3,0],[-15,29],[-28,3],[-51,-15],[-17,3],[-10,-3],[-7,-12],[-3,-19],[-1,-21],[-1,-16],[-6,-5],[-4,-1],[-14,7],[-7,1],[3,9],[6,8],[5,10],[1,15],[-4,9],[-50,45],[-14,28],[-6,0],[-7,-2],[-6,2],[-7,9],[-11,23],[-7,9],[-68,16],[-10,7],[-11,23],[-5,5],[-6,-10],[-4,12],[-11,23],[-3,6],[2,13],[4,11],[4,10],[3,8],[-72,15],[-9,-5],[-25,-3],[-8,-4],[-14,-16],[-22,-8],[-13,-13],[-10,-23],[-9,-34],[10,0],[5,-2],[5,-6],[-2,-3],[-1,-4],[-1,-4],[-1,-5],[64,-12],[20,12],[28,46],[14,10],[13,-24],[-3,33],[2,1],[8,-1],[5,-9],[0,-19],[-3,-21],[-2,-12],[-8,-13],[-22,-13],[-9,-11],[-1,-4],[0,-6],[0,-6],[-2,-6],[-1,-2],[-3,-3],[-5,-11],[-7,-11],[-4,-9],[5,-13],[1,-14],[-3,-7],[-7,9],[-5,11],[-2,7],[-1,11],[-2,5],[-38,32],[-47,11],[-41,42],[-82,12],[-12,-8],[-9,-20],[-9,-16],[-13,-4],[-24,7],[3,0],[-17,14],[-8,1],[0,-22],[-30,-2],[-14,-12],[-9,-29],[4,-5],[5,-2],[9,0],[-11,-22],[-31,-14],[-8,-22],[5,0],[15,9],[4,-3],[8,-13],[5,-1],[0,-9],[-11,-3],[-4,-14],[4,-16],[11,-8],[29,0],[21,-8],[8,-1],[-3,-19],[-4,-12],[-6,-7],[-7,-2],[4,-12],[10,-8],[19,-5],[7,-2],[8,-6],[7,-3],[6,7],[5,10],[7,6],[7,0],[6,-7],[10,-22],[12,-4],[24,4],[-2,-14],[2,-7],[2,-6],[0,-13],[-2,-10],[-8,-20],[-4,-7],[-7,-22],[-1,-23],[6,-18],[38,-31],[16,-22],[7,-25],[-7,-13],[-15,4],[-13,14],[-2,16],[-13,21],[-35,9],[-15,20],[-2,9],[-5,22],[-3,10],[-17,41],[-21,17],[-6,8],[-15,32],[-5,8],[-7,3],[-22,-10],[-92,14],[-7,-15],[0,512],[890,0],[-13,-15],[-52,-13],[-14,-14],[4,-12],[4,-10],[5,-7],[5,-4],[-10,-8],[-35,8],[-107,-40],[-18,-18],[10,-31],[21,-20],[39,-14],[135,2],[12,-5],[9,-18],[-3,-6],[-116,10],[-9,-8],[10,-15],[70,-17],[20,14],[22,3],[26,-6],[9,3],[7,10],[-10,11],[2,22],[9,12],[24,-36],[93,26],[92,26],[7,6],[12,15],[3,1],[3,3],[3,8],[3,15],[2,4],[4,2],[3,4],[10,15],[5,5],[34,15],[33,27],[32,50],[943,0],[-43,-12],[-16,-21],[-7,-22],[-6,-33],[-1,-35],[5,-30],[7,-15],[9,-15],[10,-11],[16,-11],[17,-26],[9,0],[2,4],[3,14],[3,6],[11,12],[11,5],[9,-4],[16,-16],[8,-4],[0,-9],[-58,-24],[6,-26],[10,-17],[20,-21],[4,-7],[7,-16],[22,-28],[6,-10],[26,-22],[56,-8],[23,-35],[-66,-9],[-79,26],[-25,25],[-57,83],[-11,10],[-12,-1],[-16,-19],[-4,4],[-3,8],[-3,9],[-4,6],[-7,3],[-8,-1],[-5,-2],[-49,-44],[-21,-3],[-9,-5],[-8,-16],[8,-13],[3,-3],[-5,-8],[-12,-4],[-6,-4],[10,-18],[2,-10],[-15,-31],[31,-14],[15,-18],[16,-26],[6,-16],[-5,-7],[-6,1],[-6,7],[-4,11],[-6,7],[-7,-2],[-13,-9],[4,-13],[2,-6],[3,-5],[-5,-7],[-6,-2],[-11,0],[19,-23],[6,-15],[-7,-19],[3,-1],[2,-2],[4,-6],[-8,-10],[-8,-17],[-4,-23],[4,-28],[11,-41],[6,-15],[9,-5],[-6,-25],[-1,-11],[2,-14],[-2,-8],[-3,-6],[-4,-2],[-3,-1],[3,-13],[12,-12],[6,-12],[0,-8],[-1,-9],[-1,-10],[3,-9],[-2,-17],[2,-14],[4,-9],[6,-2],[0,-8],[-10,-1],[0,-24],[3,-32],[0,-26],[4,-4],[9,-3],[3,-5],[3,-10],[2,-8],[4,-4],[-7,-9],[-25,5],[-13,-5],[-6,-9],[-14,-38],[6,-15],[6,-9],[3,-12],[0,-21],[-5,-21],[-8,-5],[-7,-1],[-5,-7],[0,-17],[8,-10],[8,-7],[4,-11],[1,-19],[3,-14],[5,-12],[6,-8],[-9,-20],[-6,-34],[-4,-40],[-1,-34],[3,-26],[8,-13],[9,-6],[21,0],[3,-4],[-7,-14],[17,-33],[6,-7],[-19,8],[-9,-1],[-7,-16],[5,-7],[2,0],[-1,-30],[16,-12],[35,-8],[1,-6],[0,-8],[1,-9],[4,-8],[19,-10],[7,-11],[11,-27],[7,-12],[-7,-5],[-4,-4],[-1,-7],[0,-7],[2,-8],[2,-7],[2,-3],[1,-4],[3,-21],[2,-8],[5,-7],[5,-2],[18,-1],[8,-6],[6,-11],[5,-37],[6,-13],[12,-22],[-5,-6],[-6,-3],[-12,1],[15,-17],[5,-8],[-27,10],[-6,-6],[0,-10],[2,-15],[7,-28],[5,-12],[5,-9],[4,-10],[3,-18],[0,-13],[-4,-24],[-1,-17],[2,-16],[0,-9],[-1,-9],[-5,-7],[-1,-9],[-1,-20],[-2,-13],[-2,-12],[-2,-16],[-1,-15],[0,-9],[7,-22],[9,-13],[3,-9],[-6,-7],[23,-19],[100,33],[18,-8],[-105,-35],[-11,-15],[-8,-5],[-21,2],[-5,-6],[3,-13],[38,1],[-22,-30],[-14,-8],[-2,-11],[1,-13],[0,-9],[-1,-15],[-5,-25],[-1,-17],[5,-2],[32,7],[0,-9],[-19,-12],[-4,-9],[10,-9],[144,59],[47,0],[6,3],[0,-8],[9,10],[85,8],[20,-28],[36,2],[25,-23],[13,-7],[10,5],[-1,5],[-1,8],[-1,5],[7,2],[6,5],[-15,25],[17,49],[-11,-4],[-9,-15],[-8,-18],[-9,-12],[-13,-4],[-16,2],[-10,11],[6,24],[48,13],[7,24],[1,1],[2,5],[3,7],[2,8],[0,5],[-1,13],[1,6],[3,23],[1,8],[3,10],[30,66],[5,21],[1,13],[4,9],[10,14],[5,10],[3,8],[7,24],[13,29],[15,10],[16,3],[15,10],[23,27],[9,18],[9,27],[5,27],[4,10],[6,3],[7,2],[8,4],[6,10],[4,18],[-3,8],[3,0],[-14,63],[-21,60],[-25,43],[-12,15],[-45,20],[-12,18],[-2,16],[3,12],[5,13],[3,16],[-2,31],[1,11],[6,3],[-3,13],[-4,4],[-5,-3],[-4,-9],[-2,-7],[-2,-2],[-2,0],[-3,-3],[-9,-15],[-1,-3],[-52,4],[-61,29],[-15,0],[-14,-8],[-12,-14],[-6,-2],[-5,9],[-2,12],[0,13],[2,13],[3,11],[12,18],[17,1],[31,-12],[101,8],[102,8],[35,16],[36,-4],[18,12],[13,16],[6,1],[8,-7],[17,-29],[8,-4],[35,0],[8,-3],[16,-16],[153,-35],[17,-17],[42,-5],[30,-15],[78,25],[27,19],[8,11],[15,39],[8,13],[56,59],[8,20],[14,49],[9,22],[41,67],[3,7],[1,9],[0,19],[1,17],[2,6],[4,2],[14,31],[23,33],[11,23],[8,34],[0,6],[36,83],[0,12],[-94,21],[14,15],[49,1],[30,17],[17,-6],[10,3],[9,8],[8,12],[8,21],[13,54],[9,23],[26,28],[4,9],[2,15],[4,12],[6,8],[6,2],[-3,0],[3,5],[1,5],[1,7],[0,12],[2,5],[36,48],[5,17],[-20,41],[-8,23],[5,10],[4,-3],[8,-11],[4,-2],[34,0],[22,13],[55,102],[17,19],[28,48],[13,39],[12,18],[25,57],[4,21],[0,20],[-2,17],[-7,8],[3,13],[6,12],[8,7],[6,2],[4,-6],[2,-8],[2,-10],[4,-10],[10,-3],[9,16],[16,53],[-17,17],[-9,6],[-9,2],[-15,9],[-2,-5],[-4,-13],[-105,44],[-130,65],[-137,11],[-17,5],[516,0],[0,-2396],[-1,-2],[1,-5],[0,-6],[-4,-6],[2,-6],[2,-11],[0,-9],[-4,-5],[-12,-26],[-2,-6],[0,-5],[-1,-4],[-2,-2],[-8,1],[-4,-1],[-3,-4],[-7,-21],[5,-15],[24,-26],[5,0],[4,-5],[1,-15],[3,-11],[1,-1],[0,-276],[-1,-4],[0,-7],[1,-1],[0,-22],[-14,-7],[-2,-9],[4,-13],[12,-10],[0,-72],[-4,0],[4,-8],[0,-60],[-1,-6],[1,-1]],[[2156,1484],[-10,0],[-25,-14],[-10,-11],[1,-5],[1,-4],[1,-4],[2,-4],[-1,-11],[-1,-5],[7,-9],[15,5],[8,-4],[-11,-22],[-30,-15],[-7,-21],[20,-13],[10,-3],[15,7],[11,1],[8,6],[-1,19],[4,24],[18,66],[-5,13],[-6,5],[-14,-1]],[[1997,2720],[-5,7],[-5,0],[-23,-24],[21,-54],[9,-12],[9,-3],[6,5],[4,13],[3,19],[-3,18],[-5,11],[-11,20]],[[1577,2555],[27,3],[8,-3],[18,-17],[7,1],[5,5],[13,28],[19,32],[1,27],[-8,16],[-20,24],[10,31],[4,17],[-1,17],[-13,11],[-12,-2],[-11,-11],[-23,-32],[-23,-21],[-8,-19],[5,-27],[-9,-16],[-24,-15],[16,-34],[7,-11],[12,-4]],[[1521,3036],[-7,-17],[-9,-16],[-7,-18],[-3,-23],[1,-21],[3,-18],[9,-30],[3,-32],[15,-34],[31,-41],[14,-7],[55,8],[27,13],[20,26],[3,7],[4,10],[1,6],[2,19],[2,8],[5,13],[6,12],[5,14],[4,18],[-4,38],[-24,50],[-3,20],[-9,-9],[-10,-15],[-10,-11],[-10,2],[-4,11],[11,24],[5,22],[-8,19],[-5,6],[-4,0],[-13,11],[-17,3],[-18,-6],[-24,-24],[-27,-17],[-10,-21]],[[3446,4096],[17,0],[-14,-4],[-3,4]],[[3254,4096],[156,0],[-49,-21],[-9,-9],[-6,-3],[-14,3],[-3,-3],[-3,-9],[-1,-24],[-1,-9],[2,0],[-6,-8],[-74,-9],[3,8],[-3,0],[18,34],[5,17],[-15,33]],[[0,2530],[0,766],[67,-35],[13,1],[0,-6],[-4,-12],[4,-10],[20,-25],[43,-23],[73,22],[65,51],[51,3],[-4,7],[-10,9],[-4,2],[-1,4],[-6,28],[3,3],[7,14],[-5,16],[3,6],[8,0],[7,-6],[19,-28],[11,-23],[20,-23],[3,-8],[9,-29],[5,-12],[25,-32],[14,-25],[20,-12],[26,-26],[39,5],[18,-8],[-15,-19],[-67,-6],[-16,4],[-36,36],[6,14],[6,11],[-28,-8],[-7,3],[-4,7],[-11,23],[-12,18],[-6,6],[-6,-1],[-12,-13],[-6,1],[-3,14],[5,8],[-11,-3],[-17,-28],[-9,-11],[1,-4],[1,-8],[0,-4],[-9,-7],[-30,-9],[0,-9],[8,1],[8,-6],[9,-8],[7,-11],[-14,-9],[-6,-6],[0,-10],[-16,0],[-4,-4],[-4,-9],[-4,-20],[-5,-9],[24,-20],[10,-18],[-4,-27],[17,-9],[9,0],[4,5],[3,14],[5,7],[7,5],[16,26],[17,10],[19,0],[13,-9],[-6,-7],[-13,-2],[-6,-7],[13,-8],[-6,-6],[-11,-4],[-6,-6],[13,-11],[29,7],[13,-22],[-11,-13],[-9,-20],[9,-7],[18,7],[8,-7],[-5,-13],[-2,-3],[15,0],[-5,-11],[-2,-10],[2,-10],[5,-11],[-15,8],[-7,-1],[-3,-16],[47,-32],[-1,-9],[0,-3],[-1,-5],[7,-7],[0,-9],[-12,-5],[-3,-3],[-4,-13],[1,-4],[2,-2],[1,-7],[1,1],[2,-3],[2,-7],[0,-6],[-3,-9],[-5,0],[-18,9],[-24,-18],[-38,-7],[-4,3],[-4,8],[-2,13],[1,16],[6,13],[18,4],[3,13],[-5,32],[-9,3],[-4,-14],[8,-17],[-11,2],[-11,6],[-11,10],[-9,15],[-7,17],[1,11],[12,26],[0,1],[0,1],[-3,1],[-1,1],[-2,3],[-3,5],[1,0],[3,-5],[1,-1],[2,-2],[1,0],[1,0],[0,-1],[1,0],[7,0],[7,5],[7,9],[4,12],[-3,8],[-4,8],[-4,6],[-4,1],[-4,-3],[-1,-4],[-1,-5],[-3,-7],[-1,-6],[-1,-5],[-4,-2],[0,3],[-7,14],[-3,0],[5,-8],[-6,4],[-5,-3],[-11,-18],[2,-4],[3,-9],[2,-4],[-20,-49],[6,-12],[25,2],[9,-7],[-15,-21],[-5,-12],[19,-24],[1,-13],[-10,-20],[7,-11],[17,-6],[8,-13],[1,-10],[5,-43],[-5,-23],[-7,-12],[-16,-18],[-9,-19],[-5,-7],[-6,-3],[-4,2],[-3,4],[-3,5],[-2,6],[-3,-9],[-1,6],[-2,3],[-2,1],[-3,0],[-29,7],[-60,-10],[-27,10],[5,0],[-4,4],[-3,3],[-4,-2],[-4,-5],[1,-9],[-1,-5],[-2,-2],[-3,-1],[0,-8],[17,-10],[5,-6],[-10,-20],[-13,-14],[-14,-7],[-13,-1],[-6,5],[-7,7],[-7,5],[-7,-5],[-7,-8],[-5,-2],[-6,2],[-23,23],[-42,6]],[[1892,0],[-1,13],[1,25],[34,45],[7,2],[15,11],[12,15],[13,6],[6,7],[-32,-8],[-80,-63],[-7,-12],[-6,-16],[3,0],[-15,-10],[-28,17],[-29,31],[-18,29],[-7,21],[-4,20],[-5,18],[-9,15],[-39,28],[-11,21],[-5,41],[7,41],[22,70],[3,17],[8,61],[0,5],[0,16],[1,4],[3,4],[1,5],[2,21],[-1,9],[-4,11],[12,0],[10,9],[9,15],[12,31],[2,2],[1,2],[0,10],[-10,15],[-3,6],[-3,-2],[-1,-2],[-1,-4],[5,-19],[-3,-9],[-8,-4],[-7,-1],[-10,7],[-17,31],[-10,11],[2,15],[3,6],[8,4],[24,29],[8,-3],[9,-16],[8,-10],[6,16],[-26,31],[-5,11],[1,16],[3,25],[6,41],[-4,0],[-13,-8],[3,8],[-3,7],[-3,5],[-4,3],[-3,2],[9,17],[13,8],[44,-1],[7,6],[9,12],[-2,7],[7,28],[10,28],[10,26],[10,17],[19,16],[54,1],[22,-14],[10,-12],[8,-23],[-3,0],[16,-29],[66,-71],[9,-2],[9,7],[8,1],[11,-3],[7,3],[-1,20],[2,3],[3,9],[2,3],[-6,13],[-15,12],[-4,17],[43,0],[-2,12],[-1,5],[15,0],[0,7],[-8,3],[-8,7],[-9,10],[-7,13],[-8,18],[1,6],[4,6],[5,26],[5,5],[6,2],[4,2],[5,9],[1,4],[-1,10],[0,4],[8,11],[25,21],[-24,-4],[-13,-9],[-6,-16],[-49,8],[-12,8],[-10,11],[-43,2],[-6,6],[-15,27],[-7,7],[-15,4],[-7,6],[5,22],[15,11],[5,16],[-5,-1],[-3,2],[-3,6],[-2,9],[10,14],[13,11],[26,9],[13,-3],[6,2],[16,22],[3,9],[-2,10],[5,7],[5,2],[11,-1],[4,4],[6,18],[4,4],[8,5],[16,21],[8,6],[70,-3],[9,5],[6,15],[-7,6],[-3,12],[0,15],[2,16],[2,7],[6,10],[3,8],[5,25],[8,12],[29,4],[19,15],[7,2],[15,-7],[3,1],[11,7],[55,-7],[17,-11],[17,-4],[17,7],[16,17],[15,22],[-12,7],[-43,-41],[-7,2],[-13,12],[-104,12],[-18,-13],[-11,-4],[-13,7],[-11,12],[-3,20],[1,4],[3,4],[4,2],[0,8],[-3,1],[-7,8],[5,6],[13,27],[-2,5],[0,4],[-1,4],[-2,3],[0,8],[123,32],[123,32],[21,-15],[1,-6],[1,-14],[1,-14],[3,-7],[25,-12],[4,-8],[-3,-21],[-8,-15],[-10,-4],[-10,0],[-9,-5],[6,-6],[7,-4],[6,-9],[0,-22],[-3,-12],[-6,-5],[-27,-4],[-13,-9],[-23,-28],[13,-28],[2,-16],[-5,-22],[3,0],[-1,-10],[1,-7],[3,-4],[4,-4],[15,21],[5,12],[12,51],[2,9],[3,6],[6,0],[4,-6],[2,-12],[-2,-15],[7,-10],[3,7],[3,13],[4,6],[11,-1],[6,-4],[6,-11],[-2,-8],[-3,-5],[-2,-3],[-4,-1],[-1,-3],[0,-12],[-1,-5],[-3,-13],[0,-14],[2,-13],[2,-14],[-8,-48],[-2,-21],[5,-1],[44,86],[6,16],[11,38],[9,13],[11,1],[7,-12],[-1,-22],[15,-5],[25,35],[15,-14],[9,-23],[5,-7],[9,-2],[19,2],[9,6],[9,12],[14,13],[18,1],[14,-17],[6,-38],[-1,-22],[-3,-13],[-38,-59],[6,-11],[25,-22],[37,-59],[32,-30],[46,-22],[9,-9],[6,-12],[3,-11],[4,-9],[37,-22],[15,-17],[2,-25],[4,-3],[2,-5],[1,-7],[1,-9],[0,-4],[0,-5],[0,-6],[2,-10],[6,-17],[7,-12],[7,-9],[30,-5],[10,-6],[10,-12],[4,-12],[0,-12],[-3,-12],[-3,-10],[13,-15],[5,-14],[3,-43],[2,-14],[1,-14],[-2,-15],[19,-41],[6,-17],[3,-20],[0,-10],[-2,-10],[-1,-18],[0,-9],[2,-10],[0,-6],[-1,-6],[-5,-10],[-1,-8],[-2,-18],[2,-9],[10,-22],[-9,-30],[-4,-16],[-2,-20],[-3,-56],[-2,-19],[2,-7],[-2,-24],[4,-22],[8,-17],[8,-12],[-6,-7],[-16,-8],[-9,-1],[-1,1],[-21,31],[-9,8],[-10,1],[4,-22],[7,-16],[27,-38],[46,-9],[19,-14],[9,-12],[19,-16],[6,-11],[-8,-9],[2,-11],[3,-6],[3,-2],[5,1],[0,-9],[-20,-7],[0,-8],[15,2],[8,-5],[4,-14],[-5,-2],[-4,-6],[-8,-16],[12,0],[-8,-9],[6,-4],[17,13],[72,-26],[0,-4],[-1,-1],[-1,-3],[6,-7],[19,-9],[15,-14],[4,-3],[1,-8],[-2,-16],[0,-1]],[[3272,0],[5,15],[12,-11],[3,-4]],[[328,0],[-6,9],[2,1],[6,6],[-6,8],[-19,10],[-18,24],[-9,25],[-11,-3],[-12,-14],[-11,-8],[-39,29],[-10,-4],[11,-27],[5,-16],[2,-19],[-1,-18],[-1,-3]],[[4096,1013],[-1,1],[1,6]],[[4096,1080],[-4,8],[4,0]],[[4096,1160],[-12,10],[-4,13],[2,9],[14,7]],[[4096,1221],[-1,1],[0,7],[1,4]],[[4096,1509],[-1,1],[-3,11],[-1,15],[-4,5],[-5,0],[-24,26],[-5,15],[7,21],[3,4],[4,1],[8,-1],[2,2],[1,4],[0,5],[2,6],[12,26],[4,5]],[[4096,1664],[-2,11],[-2,6],[4,6]],[[4096,1693],[-1,5],[1,2]],[[2156,1484],[-10,0],[-25,-14],[-10,-11],[1,-5],[1,-4],[1,-4],[2,-4],[-1,-11],[-1,-5],[7,-9],[15,5],[8,-4],[-11,-22],[-30,-15],[-7,-21],[20,-13],[10,-3],[15,7],[11,1],[8,6],[-1,19],[4,24],[18,66],[-5,13],[-6,5],[-14,-1]],[[1997,2720],[-5,7],[-5,0],[-23,-24],[21,-54],[9,-12],[9,-3],[6,5],[4,13],[3,19],[-3,18],[-5,11],[-11,20]],[[1577,2555],[27,3],[8,-3],[18,-17],[7,1],[5,5],[13,28],[19,32],[1,27],[-8,16],[-20,24],[10,31],[4,17],[-1,17],[-13,11],[-12,-2],[-11,-11],[-23,-32],[-23,-21],[-8,-19],[5,-27],[-9,-16],[-24,-15],[16,-34],[7,-11],[12,-4]],[[1521,3036],[-7,-17],[-9,-16],[-7,-18],[-3,-23],[1,-21],[3,-18],[9,-30],[3,-32],[15,-34],[31,-41],[14,-7],[55,8],[27,13],[20,26],[3,7],[4,10],[1,6],[2,19],[2,8],[5,13],[6,12],[5,14],[4,18],[-4,38],[-24,50],[-3,20],[-9,-9],[-10,-15],[-10,-11],[-10,2],[-4,11],[11,24],[5,22],[-8,19],[-5,6],[-4,0],[-13,11],[-17,3],[-18,-6],[-24,-24],[-27,-17],[-10,-21]],[[1794,2229],[-1,23],[-3,15],[-10,24],[-3,9],[-1,9],[-3,8],[-4,7],[-3,-1],[-10,-7],[-4,-1],[2,12],[7,11],[3,10],[-8,13],[-8,24],[-4,28],[3,27],[-44,56],[-6,10],[7,9],[14,14],[6,10],[-3,7],[-2,11],[-3,15],[-29,0],[7,-7],[-2,-10],[-12,-21],[-8,-8],[-19,1],[-81,-47],[-50,-74],[-14,-7],[-19,-1],[-12,9],[6,24],[-4,7],[-2,2],[2,2],[4,4],[2,2],[-2,5],[-3,19],[21,26],[5,11],[30,30],[2,6],[-3,14],[-16,43],[-5,7],[-6,3],[-15,-4],[-6,4],[-2,21],[-2,10],[-11,27],[-4,8],[-18,17],[-55,8],[0,8],[46,9],[7,4],[4,12],[6,33],[-3,14],[1,9],[4,4],[5,-2],[-11,31],[-147,89],[-64,6],[-14,8],[-40,-5],[-11,-5],[-15,-16],[-7,-2],[-6,10],[-13,-24],[-35,-25],[-16,-18],[-18,-40],[-25,-38],[-4,-9],[-3,-11],[-2,-13],[0,-17],[-3,-12],[-5,3],[-5,11],[-3,15],[0,33],[2,14],[3,11],[3,12],[-4,11],[-11,14],[9,19],[1,6],[-4,13],[-7,7],[-14,4],[7,16],[31,22],[22,9],[43,53],[15,35],[117,143],[4,8],[1,9],[1,10],[1,8],[8,16],[34,34],[20,3],[8,4],[-3,10],[28,-1],[107,56],[11,1],[15,-20],[11,1],[7,9],[-1,19],[4,14],[3,5],[3,5],[-6,13],[-2,4],[2,0],[-7,15],[-17,8],[-8,10],[25,9],[7,7],[-6,27],[-14,6],[-46,-9],[-11,4],[-10,14],[3,8],[-18,14],[-19,-17],[-20,-25],[-17,-13],[-6,1],[-6,3],[-6,6],[-4,10],[-3,10],[0,5],[2,5],[2,9],[4,12],[4,10],[2,12],[-5,16],[19,4],[39,-26],[19,13],[-2,14],[-6,25],[-2,15],[4,10],[9,-1],[53,-36],[21,2],[16,21],[2,19],[64,44],[9,18],[-1,26],[13,29],[-1,10],[-2,22],[-4,29],[-10,14],[-21,12],[-10,14],[-33,77],[-12,15],[-24,17],[-74,4],[-39,35],[-16,2],[-31,-16],[-25,-23],[-13,-5],[-12,11],[9,15],[19,20],[9,14],[-14,12],[-48,-20],[2,0],[-11,-20],[-8,-24],[-9,-21],[-26,-13],[-18,-23],[-159,-29],[-25,-16],[-28,-4],[-3,-6],[-1,0],[-10,-1],[-11,-8],[-10,-14],[-5,-19],[-3,0],[-15,29],[-28,3],[-51,-15],[-17,3],[-10,-3],[-7,-12],[-3,-19],[-1,-21],[-1,-16],[-6,-5],[-4,-1],[-14,7],[-7,1],[3,9],[6,8],[5,10],[1,15],[-4,9],[-50,45],[-14,28],[-6,0],[-7,-2],[-6,2],[-7,9],[-11,23],[-7,9],[-68,16],[-10,7],[-11,23],[-5,5],[-6,-10],[-4,12],[-11,23],[-3,6],[2,13],[4,11],[4,10],[3,8],[-72,15],[-9,-5],[-25,-3],[-8,-4],[-14,-16],[-22,-8],[-13,-13],[-10,-23],[-9,-34],[10,0],[5,-2],[5,-6],[-2,-3],[-1,-4],[-1,-4],[-1,-5],[64,-12],[20,12],[28,46],[14,10],[13,-24],[-3,33],[2,1],[8,-1],[5,-9],[0,-19],[-3,-21],[-2,-12],[-8,-13],[-22,-13],[-9,-11],[-1,-4],[0,-6],[0,-6],[-2,-6],[-1,-2],[-3,-3],[-5,-11],[-7,-11],[-4,-9],[5,-13],[1,-14],[-3,-7],[-7,9],[-5,11],[-2,7],[-1,11],[-2,5],[-38,32],[-47,11],[-41,42],[-82,12],[-12,-8],[-9,-20],[-9,-16],[-13,-4],[-24,7],[3,0],[-17,14],[-8,1],[0,-22],[-30,-2],[-14,-12],[-9,-29],[4,-5],[5,-2],[9,0],[-11,-22],[-31,-14],[-8,-22],[5,0],[15,9],[4,-3],[8,-13],[5,-1],[0,-9],[-11,-3],[-4,-14],[4,-16],[11,-8],[29,0],[21,-8],[8,-1],[-3,-19],[-4,-12],[-6,-7],[-7,-2],[4,-12],[10,-8],[19,-5],[7,-2],[8,-6],[7,-3],[6,7],[5,10],[7,6],[7,0],[6,-7],[10,-22],[12,-4],[24,4],[-2,-14],[2,-7],[2,-6],[0,-13],[-2,-10],[-8,-20],[-4,-7],[-7,-22],[-1,-23],[6,-18],[38,-31],[16,-22],[7,-25],[-7,-13],[-15,4],[-13,14],[-2,16],[-13,21],[-35,9],[-15,20],[-2,9],[-5,22],[-3,10],[-17,41],[-21,17],[-6,8],[-15,32],[-5,8],[-7,3],[-22,-10],[-92,14],[-7,-15]],[[0,3296],[67,-35],[13,1],[0,-6],[-4,-12],[4,-10],[20,-25],[43,-23],[73,22],[65,51],[51,3],[-4,7],[-10,9],[-4,2],[-1,4],[-6,28],[3,3],[7,14],[-5,16],[3,6],[8,0],[7,-6],[19,-28],[11,-23],[20,-23],[3,-8],[9,-29],[5,-12],[25,-32],[14,-25],[20,-12],[26,-26],[39,5],[18,-8],[-15,-19],[-67,-6],[-16,4],[-36,36],[6,14],[6,11],[-28,-8],[-7,3],[-4,7],[-11,23],[-12,18],[-6,6],[-6,-1],[-12,-13],[-6,1],[-3,14],[5,8],[-11,-3],[-17,-28],[-9,-11],[1,-4],[1,-8],[0,-4],[-9,-7],[-30,-9],[0,-9],[8,1],[8,-6],[9,-8],[7,-11],[-14,-9],[-6,-6],[0,-10],[-16,0],[-4,-4],[-4,-9],[-4,-20],[-5,-9],[24,-20],[10,-18],[-4,-27],[17,-9],[9,0],[4,5],[3,14],[5,7],[7,5],[16,26],[17,10],[19,0],[13,-9],[-6,-7],[-13,-2],[-6,-7],[13,-8],[-6,-6],[-11,-4],[-6,-6],[13,-11],[29,7],[13,-22],[-11,-13],[-9,-20],[9,-7],[18,7],[8,-7],[-5,-13],[-2,-3],[15,0],[-5,-11],[-2,-10],[2,-10],[5,-11],[-15,8],[-7,-1],[-3,-16],[47,-32],[-1,-9],[0,-3],[-1,-5],[7,-7],[0,-9],[-12,-5],[-3,-3],[-4,-13],[1,-4],[2,-2],[1,-7],[1,1],[2,-3],[2,-7],[0,-6],[-3,-9],[-5,0],[-18,9],[-24,-18],[-38,-7],[-4,3],[-4,8],[-2,13],[1,16],[6,13],[18,4],[3,13],[-5,32],[-9,3],[-4,-14],[8,-17],[-11,2],[-11,6],[-11,10],[-9,15],[-7,17],[1,11],[12,26],[0,1],[0,1],[-3,1],[-1,1],[-2,3],[-3,5],[1,0],[3,-5],[1,-1],[2,-2],[1,0],[1,0],[0,-1],[1,0],[7,0],[7,5],[7,9],[4,12],[-3,8],[-4,8],[-4,6],[-4,1],[-4,-3],[-1,-4],[-1,-5],[-3,-7],[-1,-6],[-1,-5],[-4,-2],[0,3],[-7,14],[-3,0],[5,-8],[-6,4],[-5,-3],[-11,-18],[2,-4],[3,-9],[2,-4],[-20,-49],[6,-12],[25,2],[9,-7],[-15,-21],[-5,-12],[19,-24],[1,-13],[-10,-20],[7,-11],[17,-6],[8,-13],[1,-10],[5,-43],[-5,-23],[-7,-12],[-16,-18],[-9,-19],[-5,-7],[-6,-3],[-4,2],[-3,4],[-3,5],[-2,6],[-3,-9],[-1,6],[-2,3],[-2,1],[-3,0],[-29,7],[-60,-10],[-27,10],[5,0],[-4,4],[-3,3],[-4,-2],[-4,-5],[1,-9],[-1,-5],[-2,-2],[-3,-1],[0,-8],[17,-10],[5,-6],[-10,-20],[-13,-14],[-14,-7],[-13,-1],[-6,5],[-7,7],[-7,5],[-7,-5],[-7,-8],[-5,-2],[-6,2],[-23,23],[-42,6]],[[0,2067],[8,4],[4,-1],[6,-6],[12,-28],[12,-13],[25,-8],[11,-13],[-5,-2],[-4,-3],[-9,-11],[6,-9],[11,3],[6,-3],[0,-7],[-4,-3],[-9,-14],[5,-10],[3,-11],[3,-10],[-1,-10],[18,-29],[5,-4],[6,4],[4,8],[4,6],[6,-1],[-4,12],[-1,4],[11,8],[4,0],[2,-3],[4,-11],[3,-2],[7,4],[7,9],[8,5],[59,-30],[5,-21],[7,-1],[5,-9],[5,-12],[5,-11],[6,-6],[21,-11],[-7,-7],[-2,-1],[6,-29],[9,-1],[10,5],[9,-8],[-1,-12],[-1,-12],[-2,-10],[-6,-7],[19,-21],[6,-3],[-2,0],[11,-18],[17,-46],[12,-23],[32,-29],[16,-21],[9,-37],[7,-7],[15,-19],[8,-6],[62,-10],[7,-11],[6,-46],[4,-7],[4,-4],[10,-18],[4,-4],[8,-3],[15,-11],[5,-7],[4,-11],[3,-17],[-1,0],[-1,-6],[0,-8],[1,-7],[4,-8],[8,-6],[4,-6],[4,-13],[3,-13],[1,-12],[2,-12],[2,-32],[14,-26],[18,-17],[46,-24],[5,-12],[-1,-17],[-3,-13],[-5,-7],[-6,1],[17,-45],[18,-38],[-3,-19],[3,-15],[8,-24],[1,-9],[2,-16],[2,-8],[8,-15],[3,-6],[3,-18],[0,-14],[3,-9],[8,-3],[34,3],[10,7],[26,35],[9,3],[10,-5],[8,-11],[43,-88],[15,-20],[17,-7],[4,-8],[4,0],[9,8],[0,4],[-1,8],[-1,5],[13,8],[44,-8],[12,13],[25,39],[11,5],[3,8],[31,49],[37,27],[9,19],[7,18],[15,31],[12,34],[13,33],[7,11],[-7,7],[-16,5],[-2,6],[-5,-3],[-4,0],[-2,4],[-4,7],[-3,9],[-7,32],[-4,4],[-11,1],[-5,3],[-10,20],[-5,4],[-5,0],[-3,5],[-1,16],[-3,13],[-5,5],[-10,3],[-9,5],[-4,14],[-3,19],[-6,20],[6,6],[-2,8],[-6,7],[-12,6],[-3,4],[-3,2],[-8,-7],[-2,0],[-1,2],[-2,4],[8,53],[15,44],[37,69],[-3,0],[8,6],[15,-1],[8,3],[-3,12],[-10,29],[15,7],[-1,-4],[0,-1],[-1,0],[0,-2],[5,-8],[6,0],[5,-2],[1,-15],[-3,-10],[-36,-73],[-6,-27],[-4,-53],[-3,-8],[-2,-5],[4,-14],[5,-12],[30,-52],[12,-13],[28,-13],[16,0],[47,16],[8,-3],[16,-11],[51,-5],[15,-15],[6,-11],[8,-7],[81,-1],[9,4],[50,44],[32,11],[47,44],[1,18],[8,19],[16,29],[12,42],[7,17],[10,6],[26,-3],[12,4],[13,16],[9,17],[11,14],[11,3],[12,-18],[-15,-6],[-7,-7],[-3,-15],[3,-21],[8,-2],[33,15],[13,13],[11,23],[24,91],[-3,20],[-6,6],[-16,-1],[-19,-10],[-19,-18],[-19,-10],[-18,13],[0,9],[25,29],[12,6],[10,11],[4,3],[6,-3],[8,-11],[5,-3],[13,6],[9,20],[6,31],[2,38],[-8,17],[-54,-30],[-11,4],[-20,18],[-10,4],[-17,-3],[-8,2],[-9,8],[124,44],[10,14],[4,19],[2,23],[-2,21],[-6,11],[2,0],[-5,19],[-4,32],[-3,33],[0,24],[-9,-6],[-6,-1],[-6,4],[-9,11],[17,9],[6,7],[-2,9],[-2,7],[-3,5],[-3,4],[-9,-16],[-15,7],[-26,26],[-45,16],[-13,16],[50,0],[19,-10],[9,1],[52,43],[2,4],[2,5],[2,5],[3,1],[10,0],[3,3],[7,10],[6,12],[2,6],[2,8],[2,7],[3,6],[7,4],[15,-1],[6,4],[7,13],[-1,12],[-3,15],[-3,21]],[[729,3898],[135,2],[12,-5],[9,-18],[-3,-6],[-116,10],[-9,-8],[10,-15],[70,-17],[20,14],[22,3],[26,-6],[9,3],[7,10],[-10,11],[2,22],[9,12],[24,-36],[93,26],[92,26],[7,6],[12,15],[3,1],[3,3],[3,8],[3,15],[2,4],[4,2],[3,4],[10,15],[5,5],[34,15],[33,27],[32,50]],[[890,4096],[-13,-15],[-52,-13],[-14,-14],[4,-12],[4,-10],[5,-7],[5,-4],[-10,-8],[-35,8],[-107,-40],[-18,-18],[10,-31],[21,-20],[39,-14]],[[3990,3980],[-15,9],[-2,-5],[-4,-13],[-105,44],[-130,65],[-137,11],[-17,5]],[[3463,4096],[-14,-4],[-3,4]],[[3410,4096],[-49,-21],[-9,-9],[-6,-3],[-14,3],[-3,-3],[-3,-9],[-1,-24],[-1,-9],[2,0],[-6,-8],[-74,-9],[3,8],[-3,0],[18,34],[5,17],[-15,33]],[[2228,4096],[-43,-12],[-16,-21],[-7,-22],[-6,-33],[-1,-35],[5,-30],[7,-15],[9,-15],[10,-11],[16,-11],[17,-26],[9,0],[2,4],[3,14],[3,6],[11,12],[11,5],[9,-4],[16,-16],[8,-4],[0,-9],[-58,-24],[6,-26],[10,-17],[20,-21],[4,-7],[7,-16],[22,-28],[6,-10],[26,-22],[56,-8],[23,-35],[-66,-9],[-79,26],[-25,25],[-57,83],[-11,10],[-12,-1],[-16,-19],[-4,4],[-3,8],[-3,9],[-4,6],[-7,3],[-8,-1],[-5,-2],[-49,-44],[-21,-3],[-9,-5],[-8,-16],[8,-13],[3,-3],[-5,-8],[-12,-4],[-6,-4],[10,-18],[2,-10],[-15,-31],[31,-14],[15,-18],[16,-26],[6,-16],[-5,-7],[-6,1],[-6,7],[-4,11],[-6,7],[-7,-2],[-13,-9],[4,-13],[2,-6],[3,-5],[-5,-7],[-6,-2],[-11,0],[19,-23],[6,-15],[-7,-19],[3,-1],[2,-2],[4,-6],[-8,-10],[-8,-17],[-4,-23],[4,-28],[11,-41],[6,-15],[9,-5],[-6,-25],[-1,-11],[2,-14],[-2,-8],[-3,-6],[-4,-2],[-3,-1],[3,-13],[12,-12],[6,-12],[0,-8],[-1,-9],[-1,-10],[3,-9],[-2,-17],[2,-14],[4,-9],[6,-2],[0,-8],[-10,-1],[0,-24],[3,-32],[0,-26],[4,-4],[9,-3],[3,-5],[3,-10],[2,-8],[4,-4],[-7,-9],[-25,5],[-13,-5],[-6,-9],[-14,-38],[6,-15],[6,-9],[3,-12],[0,-21],[-5,-21],[-8,-5],[-7,-1],[-5,-7],[0,-17],[8,-10],[8,-7],[4,-11],[1,-19],[3,-14],[5,-12],[6,-8],[-9,-20],[-6,-34],[-4,-40],[-1,-34],[3,-26],[8,-13],[9,-6],[21,0],[3,-4],[-7,-14],[17,-33],[6,-7],[-19,8],[-9,-1],[-7,-16],[5,-7],[2,0],[-1,-30],[16,-12],[35,-8],[1,-6],[0,-8],[1,-9],[4,-8],[19,-10],[7,-11],[11,-27],[7,-12],[-7,-5],[-4,-4],[-1,-7],[0,-7],[2,-8],[2,-7],[2,-3],[1,-4],[3,-21],[2,-8],[5,-7],[5,-2],[18,-1],[8,-6],[6,-11],[5,-37],[6,-13],[12,-22],[-5,-6],[-6,-3],[-12,1],[15,-17],[5,-8],[-27,10],[-6,-6],[0,-10],[2,-15],[7,-28],[5,-12],[5,-9],[4,-10],[3,-18],[0,-13],[-4,-24],[-1,-17],[2,-16],[0,-9],[-1,-9],[-5,-7],[-1,-9],[-1,-20],[-2,-13],[-2,-12],[-2,-16],[-1,-15],[0,-9],[7,-22],[9,-13],[3,-9],[-6,-7],[23,-19],[100,33],[18,-8],[-105,-35],[-11,-15],[-8,-5],[-21,2],[-5,-6],[3,-13],[38,1],[-22,-30],[-14,-8],[-2,-11],[1,-13],[0,-9],[-1,-15],[-5,-25],[-1,-17],[5,-2],[32,7],[0,-9],[-19,-12],[-4,-9],[10,-9],[144,59],[47,0],[6,3],[0,-8],[9,10],[85,8],[20,-28],[36,2],[25,-23],[13,-7],[10,5],[-1,5],[-1,8],[-1,5],[7,2],[6,5],[-15,25],[17,49],[-11,-4],[-9,-15],[-8,-18],[-9,-12],[-13,-4],[-16,2],[-10,11],[6,24],[48,13],[7,24],[1,1],[2,5],[3,7],[2,8],[0,5],[-1,13],[1,6],[3,23],[1,8],[3,10],[30,66],[5,21],[1,13],[4,9],[10,14],[5,10],[3,8],[7,24],[13,29],[15,10],[16,3],[15,10],[23,27],[9,18],[9,27],[5,27],[4,10],[6,3],[7,2],[8,4],[6,10],[4,18],[-3,8],[3,0],[-14,63],[-21,60],[-25,43],[-12,15],[-45,20],[-12,18],[-2,16],[3,12],[5,13],[3,16],[-2,31],[1,11],[6,3],[-3,13],[-4,4],[-5,-3],[-4,-9],[-2,-7],[-2,-2],[-2,0],[-3,-3],[-9,-15],[-1,-3],[-52,4],[-61,29],[-15,0],[-14,-8],[-12,-14],[-6,-2],[-5,9],[-2,12],[0,13],[2,13],[3,11],[12,18],[17,1],[31,-12],[101,8],[102,8],[35,16],[36,-4],[18,12],[13,16],[6,1],[8,-7],[17,-29],[8,-4],[35,0],[8,-3],[16,-16],[153,-35],[17,-17],[42,-5],[30,-15],[78,25],[27,19],[8,11],[15,39],[8,13],[56,59],[8,20],[14,49],[9,22],[41,67],[3,7],[1,9],[0,19],[1,17],[2,6],[4,2],[14,31],[23,33],[11,23],[8,34],[0,6],[36,83],[0,12],[-94,21],[14,15],[49,1],[30,17],[17,-6],[10,3],[9,8],[8,12],[8,21],[13,54],[9,23],[26,28],[4,9],[2,15],[4,12],[6,8],[6,2],[-3,0],[3,5],[1,5],[1,7],[0,12],[2,5],[36,48],[5,17],[-20,41],[-8,23],[5,10],[4,-3],[8,-11],[4,-2],[34,0],[22,13],[55,102],[17,19],[28,48],[13,39],[12,18],[25,57],[4,21],[0,20],[-2,17],[-7,8],[3,13],[6,12],[8,7],[6,2],[4,-6],[2,-8],[2,-10],[4,-10],[10,-3],[9,16],[16,53],[-17,17],[-9,6],[-9,2]],[[890,4096],[395,0],[-32,-50],[-33,-27],[-34,-15],[-5,-5],[-10,-15],[-3,-4],[-4,-2],[-2,-4],[-3,-15],[-3,-8],[-3,-3],[-3,-1],[-12,-15],[-7,-6],[-92,-26],[-93,-26],[-24,36],[-9,-12],[-2,-22],[10,-11],[-7,-10],[-9,-3],[-26,6],[-22,-3],[-20,-14],[-70,17],[-10,15],[9,8],[116,-10],[3,6],[-9,18],[-12,5],[-135,-2],[-39,14],[-21,20],[-10,31],[18,18],[107,40],[35,-8],[10,8],[-5,4],[-5,7],[-4,10],[-4,12],[14,14],[52,13],[13,15]],[[2156,1484],[14,1],[6,-5],[5,-13],[-18,-66],[-4,-24],[1,-19],[-8,-6],[-11,-1],[-15,-7],[-10,3],[-20,13],[7,21],[30,15],[11,22],[-8,4],[-15,-5],[-7,9],[1,5],[1,11],[-2,4],[-1,4],[-1,4],[-1,5],[10,11],[25,14],[10,0]],[[3463,4096],[117,0],[17,-5],[137,-11],[130,-65],[105,-44],[4,13],[2,5],[15,-9],[9,-2],[9,-6],[17,-17],[-16,-53],[-9,-16],[-10,3],[-4,10],[-2,10],[-2,8],[-4,6],[-6,-2],[-8,-7],[-6,-12],[-3,-13],[7,-8],[2,-17],[0,-20],[-4,-21],[-25,-57],[-12,-18],[-13,-39],[-28,-48],[-17,-19],[-55,-102],[-22,-13],[-34,0],[-4,2],[-8,11],[-4,3],[-5,-10],[8,-23],[20,-41],[-5,-17],[-36,-48],[-2,-5],[0,-12],[-1,-7],[-1,-5],[-3,-5],[3,0],[-6,-2],[-6,-8],[-4,-12],[-2,-15],[-4,-9],[-26,-28],[-9,-23],[-13,-54],[-8,-21],[-8,-12],[-9,-8],[-10,-3],[-17,6],[-30,-17],[-49,-1],[-14,-15],[94,-21],[0,-12],[-36,-83],[0,-6],[-8,-34],[-11,-23],[-23,-33],[-14,-31],[-4,-2],[-2,-6],[-1,-17],[0,-19],[-1,-9],[-3,-7],[-41,-67],[-9,-22],[-14,-49],[-8,-20],[-56,-59],[-8,-13],[-15,-39],[-8,-11],[-27,-19],[-78,-25],[-30,15],[-42,5],[-17,17],[-153,35],[-16,16],[-8,3],[-35,0],[-8,4],[-17,29],[-8,7],[-6,-1],[-13,-16],[-18,-12],[-36,4],[-35,-16],[-102,-8],[-101,-8],[-31,12],[-17,-1],[-12,-18],[-3,-11],[-2,-13],[0,-13],[2,-12],[5,-9],[6,2],[12,14],[14,8],[15,0],[61,-29],[52,-4],[1,3],[9,15],[3,3],[2,0],[2,2],[2,7],[4,9],[5,3],[4,-4],[3,-13],[-6,-3],[-1,-11],[2,-31],[-3,-16],[-5,-13],[-3,-12],[2,-16],[12,-18],[45,-20],[12,-15],[25,-43],[21,-60],[14,-63],[-3,0],[3,-8],[-4,-18],[-6,-10],[-8,-4],[-7,-2],[-6,-3],[-4,-10],[-5,-27],[-9,-27],[-9,-18],[-23,-27],[-15,-10],[-16,-3],[-15,-10],[-13,-29],[-7,-24],[-3,-8],[-5,-10],[-10,-14],[-4,-9],[-1,-13],[-5,-21],[-30,-66],[-3,-10],[-1,-8],[-3,-23],[-1,-6],[1,-13],[0,-5],[-2,-8],[-3,-7],[-2,-5],[-1,-1],[-7,-24],[-48,-13],[-6,-24],[10,-11],[16,-2],[13,4],[9,12],[8,18],[9,15],[11,4],[-17,-49],[15,-25],[-6,-5],[-7,-2],[1,-5],[1,-8],[1,-5],[-10,-5],[-13,7],[-25,23],[-36,-2],[-20,28],[-85,-8],[-9,-10],[0,8],[-6,-3],[-47,0],[-144,-59],[-10,9],[4,9],[19,12],[0,9],[-32,-7],[-5,2],[1,17],[5,25],[1,15],[0,9],[-1,13],[2,11],[14,8],[22,30],[-38,-1],[-3,13],[5,6],[21,-2],[8,5],[11,15],[105,35],[-18,8],[-100,-33],[-23,19],[6,7],[-3,9],[-9,13],[-7,22],[0,9],[1,15],[2,16],[2,12],[2,13],[1,20],[1,9],[5,7],[1,9],[0,9],[-2,16],[1,17],[4,24],[0,13],[-3,18],[-4,10],[-5,9],[-5,12],[-7,28],[-2,15],[0,10],[6,6],[27,-10],[-5,8],[-15,17],[12,-1],[6,3],[5,6],[-12,22],[-6,13],[-5,37],[-6,11],[-8,6],[-18,1],[-5,2],[-5,7],[-2,8],[-3,21],[-1,4],[-2,3],[-2,7],[-2,8],[0,7],[1,7],[4,4],[7,5],[-7,12],[-11,27],[-7,11],[-19,10],[-4,8],[-1,9],[0,8],[-1,6],[-35,8],[-16,12],[1,30],[-2,0],[-5,7],[7,16],[9,1],[19,-8],[-6,7],[-17,33],[7,14],[-3,4],[-21,0],[-9,6],[-8,13],[-3,26],[1,34],[4,40],[6,34],[9,20],[-6,8],[-5,12],[-3,14],[-1,19],[-4,11],[-8,7],[-8,10],[0,17],[5,7],[7,1],[8,5],[5,21],[0,21],[-3,12],[-6,9],[-6,15],[14,38],[6,9],[13,5],[25,-5],[7,9],[-4,4],[-2,8],[-3,10],[-3,5],[-9,3],[-4,4],[0,26],[-3,32],[0,24],[10,1],[0,8],[-6,2],[-4,9],[-2,14],[2,17],[-3,9],[1,10],[1,9],[0,8],[-6,12],[-12,12],[-3,13],[3,1],[4,2],[3,6],[2,8],[-2,14],[1,11],[6,25],[-9,5],[-6,15],[-11,41],[-4,28],[4,23],[8,17],[8,10],[-4,6],[-2,2],[-3,1],[7,19],[-6,15],[-19,23],[11,0],[6,2],[5,7],[-3,5],[-2,6],[-4,13],[13,9],[7,2],[6,-7],[4,-11],[6,-7],[6,-1],[5,7],[-6,16],[-16,26],[-15,18],[-31,14],[15,31],[-2,10],[-10,18],[6,4],[12,4],[5,8],[-3,3],[-8,13],[8,16],[9,5],[21,3],[49,44],[5,2],[8,1],[7,-3],[4,-6],[3,-9],[3,-8],[4,-4],[16,19],[12,1],[11,-10],[57,-83],[25,-25],[79,-26],[66,9],[-23,35],[-56,8],[-26,22],[-6,10],[-22,28],[-7,16],[-4,7],[-20,21],[-10,17],[-6,26],[58,24],[0,9],[-8,4],[-16,16],[-9,4],[-11,-5],[-11,-12],[-3,-6],[-3,-14],[-2,-4],[-9,0],[-17,26],[-16,11],[-10,11],[-9,15],[-7,15],[-5,30],[1,35],[6,33],[7,22],[16,21],[43,12],[1026,0],[15,-33],[-5,-17],[-18,-34],[3,0],[-3,-8],[74,9],[6,8],[-2,0],[1,9],[1,24],[3,9],[3,3],[14,-3],[6,3],[9,9],[49,21],[36,0],[3,-4],[14,4]],[[1577,2555],[-12,4],[-7,11],[-16,34],[24,15],[9,16],[-5,27],[8,19],[23,21],[23,32],[11,11],[12,2],[13,-11],[1,-17],[-4,-17],[-10,-31],[20,-24],[8,-16],[-1,-27],[-19,-32],[-13,-28],[-5,-5],[-7,-1],[-18,17],[-8,3],[-27,-3]],[[328,0],[-117,0],[1,3],[1,18],[-2,19],[-5,16],[-11,27],[10,4],[39,-29],[11,8],[12,14],[11,3],[9,-25],[18,-24],[19,-10],[6,-8],[-6,-6],[-2,-1],[6,-9]],[[1521,3036],[10,21],[27,17],[24,24],[18,6],[17,-3],[13,-11],[4,0],[5,-6],[8,-19],[-5,-22],[-11,-24],[4,-11],[10,-2],[10,11],[10,15],[9,9],[3,-20],[24,-50],[4,-38],[-4,-18],[-5,-14],[-6,-12],[-5,-13],[-2,-8],[-2,-19],[-1,-6],[-4,-10],[-3,-7],[-20,-26],[-27,-13],[-55,-8],[-14,7],[-31,41],[-15,34],[-3,32],[-9,30],[-3,18],[-1,21],[3,23],[7,18],[9,16],[7,17]],[[3257,0],[-1365,0],[-1,13],[1,25],[34,45],[7,2],[15,11],[12,15],[13,6],[6,7],[-32,-8],[-80,-63],[-7,-12],[-6,-16],[3,0],[-15,-10],[-28,17],[-29,31],[-18,29],[-7,21],[-4,20],[-5,18],[-9,15],[-39,28],[-11,21],[-5,41],[7,41],[22,70],[3,17],[8,61],[0,5],[0,16],[1,4],[3,4],[1,5],[2,21],[-1,9],[-4,11],[12,0],[10,9],[9,15],[12,31],[2,2],[1,2],[0,10],[-10,15],[-3,6],[-3,-2],[-1,-2],[-1,-4],[5,-19],[-3,-9],[-8,-4],[-7,-1],[-10,7],[-17,31],[-10,11],[2,15],[3,6],[8,4],[24,29],[8,-3],[9,-16],[8,-10],[6,16],[-26,31],[-5,11],[1,16],[3,25],[6,41],[-4,0],[-13,-8],[3,8],[-3,7],[-3,5],[-4,3],[-3,2],[9,17],[13,8],[44,-1],[7,6],[9,12],[-2,7],[7,28],[10,28],[10,26],[10,17],[19,16],[54,1],[22,-14],[10,-12],[8,-23],[-3,0],[16,-29],[66,-71],[9,-2],[9,7],[8,1],[11,-3],[7,3],[-1,20],[2,3],[3,9],[2,3],[-6,13],[-15,12],[-4,17],[43,0],[-2,12],[-1,5],[15,0],[0,7],[-8,3],[-8,7],[-9,10],[-7,13],[-8,18],[1,6],[4,6],[5,26],[5,5],[6,2],[4,2],[5,9],[1,4],[-1,10],[0,4],[8,11],[25,21],[-24,-4],[-13,-9],[-6,-16],[-49,8],[-12,8],[-10,11],[-43,2],[-6,6],[-15,27],[-7,7],[-15,4],[-7,6],[5,22],[15,11],[5,16],[-5,-1],[-3,2],[-3,6],[-2,9],[10,14],[13,11],[26,9],[13,-3],[6,2],[16,22],[3,9],[-2,10],[5,6],[0,1],[5,2],[11,-1],[4,4],[6,18],[4,4],[8,5],[16,21],[8,6],[70,-3],[9,5],[6,15],[-7,6],[-3,12],[0,15],[2,16],[2,7],[6,10],[3,8],[5,25],[8,12],[29,4],[19,15],[7,2],[15,-7],[3,1],[11,7],[55,-7],[17,-11],[17,-4],[17,7],[16,17],[15,22],[-12,7],[-43,-41],[-7,2],[-13,12],[-104,12],[-18,-13],[-11,-4],[-13,7],[-11,12],[-3,20],[1,4],[3,4],[4,2],[0,8],[-3,1],[-7,8],[5,6],[13,27],[-2,5],[0,4],[-1,4],[-2,3],[0,8],[123,32],[123,32],[21,-15],[1,-6],[1,-14],[1,-14],[3,-7],[25,-12],[4,-8],[-3,-21],[-8,-15],[-10,-4],[-10,0],[-9,-5],[6,-6],[7,-4],[6,-9],[0,-22],[-3,-12],[-6,-5],[-27,-4],[-13,-9],[-23,-28],[13,-28],[2,-16],[-5,-22],[3,0],[-1,-10],[1,-7],[3,-4],[4,-4],[15,21],[5,12],[12,51],[2,9],[3,6],[6,0],[4,-6],[2,-12],[-2,-15],[7,-10],[3,7],[3,13],[4,6],[11,-1],[6,-4],[6,-11],[-2,-8],[-3,-5],[-2,-3],[-4,-1],[-1,-3],[0,-12],[-1,-5],[-3,-13],[0,-14],[2,-13],[2,-14],[-8,-48],[-1,-12],[-1,-9],[5,-1],[5,10],[39,76],[6,16],[11,38],[9,13],[11,1],[7,-12],[-1,-22],[15,-5],[25,35],[15,-14],[9,-23],[5,-7],[9,-2],[19,2],[9,6],[9,12],[14,13],[18,1],[14,-17],[6,-38],[-1,-22],[-3,-13],[-24,-38],[-14,-21],[6,-11],[25,-22],[37,-59],[32,-30],[46,-22],[9,-9],[6,-12],[3,-11],[4,-9],[37,-22],[15,-17],[2,-25],[4,-3],[2,-5],[1,-7],[1,-9],[0,-4],[0,-5],[0,-6],[2,-10],[6,-17],[7,-12],[7,-9],[30,-5],[10,-6],[10,-12],[4,-12],[0,-12],[-3,-12],[-3,-10],[13,-15],[5,-14],[3,-43],[2,-14],[1,-14],[-2,-15],[19,-41],[6,-17],[3,-20],[0,-10],[-2,-10],[-1,-18],[0,-9],[2,-10],[0,-6],[-1,-6],[-5,-10],[-1,-8],[-2,-18],[2,-9],[10,-22],[-9,-30],[-4,-16],[-2,-20],[-3,-56],[-2,-19],[2,-7],[-2,-24],[4,-22],[8,-17],[8,-12],[-6,-7],[-16,-8],[-9,-1],[-1,1],[-21,31],[-9,8],[-10,1],[4,-22],[7,-16],[27,-38],[46,-9],[19,-14],[9,-12],[19,-16],[6,-11],[-8,-9],[2,-11],[3,-6],[3,-2],[5,1],[0,-9],[-20,-7],[0,-8],[15,2],[8,-5],[4,-14],[-5,-2],[-4,-6],[-8,-16],[12,0],[-8,-9],[6,-4],[17,13],[72,-26],[0,-4],[-1,-1],[-1,-3],[6,-7],[19,-9],[15,-14],[4,-3],[1,-8],[-2,-16],[0,-1]],[[3292,0],[-20,0],[5,15],[12,-11],[3,-4]],[[4096,1160],[-12,10],[-4,13],[2,9],[14,7],[0,-39]],[[4096,1509],[-1,1],[-3,11],[-1,15],[-4,5],[-5,0],[-24,26],[-5,15],[7,21],[3,4],[4,1],[8,-1],[2,2],[1,4],[0,5],[2,6],[12,26],[4,5],[0,-146]],[[0,3296],[0,288],[7,15],[92,-14],[22,10],[7,-3],[5,-8],[15,-32],[6,-8],[21,-17],[17,-41],[3,-10],[5,-22],[2,-9],[15,-20],[35,-9],[13,-21],[2,-16],[13,-14],[15,-4],[7,13],[-7,25],[-16,22],[-38,31],[-6,18],[1,23],[7,22],[4,7],[8,20],[2,10],[0,13],[-2,6],[-2,7],[2,14],[-24,-4],[-12,4],[-10,22],[-6,7],[-7,0],[-7,-6],[-5,-10],[-6,-7],[-7,3],[-8,6],[-7,2],[-19,5],[-10,8],[-4,12],[7,2],[6,7],[4,12],[3,19],[-8,1],[-21,8],[-29,0],[-11,8],[-4,16],[4,14],[11,3],[0,9],[-5,1],[-8,13],[-4,3],[-15,-9],[-5,0],[8,22],[31,14],[11,22],[-9,0],[-5,2],[-4,5],[9,29],[14,12],[30,2],[0,22],[8,-1],[17,-14],[-3,0],[24,-7],[13,4],[9,16],[9,20],[12,8],[82,-12],[41,-42],[47,-11],[38,-32],[2,-5],[1,-11],[2,-7],[5,-11],[7,-9],[3,7],[-1,14],[-5,13],[4,9],[7,11],[5,11],[3,3],[1,2],[2,6],[0,6],[0,6],[1,4],[9,11],[22,13],[8,13],[2,12],[3,21],[0,19],[-5,9],[-8,1],[-2,-1],[3,-33],[-13,24],[-14,-10],[-28,-46],[-20,-12],[-64,12],[1,5],[1,4],[1,4],[2,3],[-5,6],[-5,2],[-10,0],[9,34],[10,23],[13,13],[22,8],[14,16],[8,4],[25,3],[9,5],[72,-15],[-3,-8],[-4,-10],[-4,-11],[-2,-13],[3,-6],[11,-23],[4,-12],[6,10],[5,-5],[11,-23],[10,-7],[68,-16],[7,-9],[11,-23],[7,-9],[6,-2],[7,2],[6,0],[14,-28],[50,-45],[4,-9],[-1,-15],[-5,-10],[-6,-8],[-3,-9],[7,-1],[14,-7],[4,1],[6,5],[1,16],[1,21],[3,19],[7,12],[10,3],[17,-3],[51,15],[28,-3],[15,-29],[3,0],[5,19],[10,14],[11,8],[10,1],[1,0],[3,6],[28,4],[25,16],[159,29],[18,23],[26,13],[9,21],[8,24],[11,20],[-2,0],[48,20],[14,-12],[-9,-14],[-19,-20],[-9,-15],[12,-11],[13,5],[25,23],[31,16],[16,-2],[39,-35],[74,-4],[24,-17],[12,-15],[33,-77],[10,-14],[21,-12],[10,-14],[4,-29],[2,-22],[1,-10],[-13,-29],[1,-26],[-9,-18],[-64,-44],[-2,-19],[-16,-21],[-21,-2],[-53,36],[-9,1],[-4,-10],[2,-15],[6,-25],[2,-14],[-19,-13],[-39,26],[-19,-4],[5,-16],[-2,-12],[-4,-10],[-4,-12],[-2,-9],[-2,-5],[0,-5],[3,-10],[4,-10],[6,-6],[6,-3],[6,-1],[17,13],[20,25],[19,17],[18,-14],[-3,-8],[10,-14],[11,-4],[46,9],[14,-6],[6,-27],[-7,-7],[-25,-9],[8,-10],[17,-8],[7,-15],[-2,0],[2,-4],[6,-13],[-3,-5],[-3,-5],[-4,-14],[1,-19],[-7,-9],[-11,-1],[-15,20],[-11,-1],[-107,-56],[-28,1],[3,-10],[-8,-4],[-20,-3],[-34,-34],[-8,-16],[-1,-8],[-1,-10],[-1,-9],[-4,-8],[-117,-143],[-15,-35],[-43,-53],[-22,-9],[-31,-22],[-7,-16],[14,-4],[7,-7],[4,-13],[-1,-6],[-9,-19],[11,-14],[4,-11],[-3,-12],[-3,-11],[-2,-14],[0,-33],[3,-15],[5,-11],[5,-3],[3,12],[0,17],[2,13],[3,11],[4,9],[25,38],[18,40],[16,18],[35,25],[13,24],[6,-10],[7,2],[15,16],[11,5],[40,5],[14,-8],[64,-6],[147,-89],[11,-31],[-5,2],[-4,-4],[-1,-9],[3,-14],[-6,-33],[-4,-12],[-7,-4],[-46,-9],[0,-8],[55,-8],[18,-17],[4,-8],[11,-27],[2,-10],[2,-21],[6,-4],[15,4],[6,-3],[5,-7],[16,-43],[3,-14],[-2,-6],[-30,-30],[-5,-11],[-21,-26],[3,-19],[2,-5],[-2,-2],[-4,-4],[-2,-2],[2,-2],[4,-7],[-6,-24],[12,-9],[19,1],[14,7],[50,74],[81,47],[19,-1],[8,8],[12,21],[2,10],[-7,7],[29,0],[3,-15],[2,-11],[3,-7],[-6,-10],[-14,-14],[-7,-9],[6,-10],[44,-56],[-3,-27],[4,-28],[8,-24],[8,-13],[-3,-10],[-7,-11],[-2,-12],[4,1],[10,7],[3,1],[4,-7],[3,-8],[1,-9],[3,-9],[10,-24],[3,-15],[1,-23],[3,-21],[3,-15],[1,-12],[-7,-13],[-6,-4],[-15,1],[-7,-4],[-3,-6],[-2,-7],[-2,-8],[-2,-6],[-6,-12],[-7,-10],[-3,-3],[-10,0],[-3,-1],[-2,-5],[-2,-5],[-2,-4],[-52,-43],[-9,-1],[-19,10],[-50,0],[13,-16],[45,-16],[26,-26],[15,-7],[9,16],[3,-4],[3,-5],[2,-7],[2,-9],[-6,-7],[-17,-9],[9,-11],[6,-4],[6,1],[9,6],[0,-24],[3,-33],[4,-32],[5,-19],[-2,0],[6,-11],[2,-21],[-2,-23],[-4,-19],[-10,-14],[-124,-44],[9,-8],[8,-2],[17,3],[10,-4],[20,-18],[11,-4],[54,30],[8,-17],[-2,-38],[-6,-31],[-9,-20],[-13,-6],[-5,3],[-8,11],[-6,3],[-4,-3],[-10,-11],[-12,-6],[-25,-29],[0,-9],[18,-13],[19,10],[19,18],[19,10],[16,1],[6,-6],[3,-20],[-24,-91],[-11,-23],[-13,-13],[-33,-15],[-8,2],[-3,21],[3,15],[7,7],[15,6],[-12,18],[-11,-3],[-11,-14],[-9,-17],[-13,-16],[-12,-4],[-26,3],[-10,-6],[-7,-17],[-12,-42],[-16,-29],[-8,-19],[-1,-18],[-47,-44],[-32,-11],[-50,-44],[-9,-4],[-81,1],[-8,7],[-6,11],[-15,15],[-51,5],[-16,11],[-8,3],[-47,-16],[-16,0],[-28,13],[-12,13],[-30,52],[-5,12],[-4,14],[2,5],[3,8],[4,53],[6,27],[36,73],[3,10],[-1,15],[-5,2],[-6,0],[-5,8],[0,2],[1,0],[0,1],[1,4],[-15,-7],[10,-29],[3,-12],[-8,-3],[-15,1],[-8,-6],[3,0],[-37,-69],[-15,-44],[-8,-53],[2,-4],[1,-2],[2,0],[8,7],[3,-2],[3,-4],[12,-6],[6,-7],[2,-8],[-6,-6],[6,-20],[3,-19],[4,-14],[9,-5],[10,-3],[5,-5],[3,-13],[1,-16],[3,-5],[5,0],[5,-4],[10,-20],[5,-3],[11,-1],[4,-4],[7,-32],[3,-9],[4,-7],[2,-4],[4,0],[5,3],[2,-6],[16,-5],[7,-7],[-7,-11],[-13,-33],[-12,-34],[-15,-31],[-7,-18],[-9,-19],[-37,-27],[-31,-49],[-3,-8],[-11,-5],[-25,-39],[-12,-13],[-44,8],[-13,-8],[1,-5],[1,-8],[0,-4],[-9,-8],[-4,0],[-4,8],[-17,7],[-15,20],[-43,88],[-8,11],[-10,5],[-9,-3],[-26,-35],[-10,-7],[-34,-3],[-8,3],[-3,9],[0,14],[-3,18],[-3,6],[-8,15],[-2,8],[-2,16],[-1,9],[-8,24],[-3,15],[3,19],[-18,38],[-17,45],[6,-1],[5,7],[3,13],[1,17],[-5,12],[-46,24],[-18,17],[-14,26],[-2,32],[-2,12],[-1,12],[-3,13],[-4,13],[-4,6],[-8,6],[-4,8],[-1,7],[0,8],[1,6],[1,0],[-3,17],[-4,11],[-5,7],[-15,11],[-8,3],[-4,4],[-10,18],[-4,4],[-4,7],[-6,46],[-7,11],[-62,10],[-8,6],[-15,19],[-7,7],[-9,37],[-16,21],[-32,29],[-12,23],[-17,46],[-11,18],[2,0],[-6,3],[-19,21],[6,7],[2,10],[1,12],[1,12],[-9,8],[-10,-5],[-9,1],[-6,29],[2,1],[7,7],[-21,11],[-6,6],[-5,11],[-5,12],[-5,9],[-7,1],[-5,21],[-59,30],[-8,-5],[-7,-9],[-7,-4],[-3,2],[-4,11],[-2,3],[-4,0],[-11,-8],[1,-4],[4,-12],[-6,1],[-4,-6],[-4,-8],[-6,-4],[-5,4],[-18,29],[1,10],[-3,10],[-3,11],[-5,10],[9,14],[4,3],[0,7],[-6,3],[-11,-3],[-6,9],[9,11],[4,3],[5,2],[-11,13],[-25,8],[-12,13],[-12,28],[-6,6],[-4,1],[-8,-4],[0,463],[42,-6],[23,-23],[6,-2],[5,2],[7,8],[7,5],[7,-5],[7,-7],[6,-5],[13,1],[14,7],[13,14],[10,20],[-5,6],[-17,10],[0,8],[3,1],[2,2],[1,5],[-1,9],[4,5],[4,2],[3,-3],[4,-4],[-5,0],[27,-10],[60,10],[29,-7],[3,0],[2,-1],[2,-3],[1,-6],[3,9],[2,-6],[3,-5],[3,-4],[4,-2],[6,3],[5,7],[9,19],[16,18],[7,12],[5,23],[-5,43],[-1,10],[-8,13],[-17,6],[-7,11],[10,20],[-1,13],[-19,24],[5,12],[15,21],[-9,7],[-25,-2],[-6,12],[20,49],[-2,4],[-3,9],[-2,4],[11,18],[5,3],[6,-4],[-5,8],[3,0],[7,-14],[0,-3],[4,2],[1,5],[1,6],[3,7],[1,5],[1,4],[4,3],[4,-1],[4,-6],[4,-8],[3,-8],[-4,-12],[-7,-9],[-7,-5],[-7,0],[-1,0],[0,1],[-1,0],[-1,0],[-2,2],[-1,1],[-3,5],[-1,0],[3,-5],[2,-3],[1,-1],[3,-1],[0,-1],[0,-1],[-12,-26],[-1,-11],[7,-17],[9,-15],[11,-10],[11,-6],[11,-2],[-8,17],[4,14],[9,-3],[5,-32],[-3,-13],[-18,-4],[-6,-13],[-1,-16],[2,-13],[4,-8],[4,-3],[38,7],[24,18],[18,-9],[5,0],[3,9],[0,6],[-2,7],[-2,3],[-1,-1],[-1,7],[-2,2],[-1,4],[4,13],[3,3],[12,5],[0,9],[-7,7],[1,5],[0,3],[1,9],[-47,32],[3,16],[7,1],[15,-8],[-5,11],[-2,10],[2,10],[5,11],[-15,0],[2,3],[5,13],[-8,7],[-18,-7],[-9,7],[9,20],[11,13],[-13,22],[-29,-7],[-13,11],[6,6],[11,4],[6,6],[-13,8],[6,7],[13,2],[6,7],[-13,9],[-19,0],[-17,-10],[-16,-26],[-7,-5],[-5,-7],[-3,-14],[-4,-5],[-9,0],[-17,9],[4,27],[-10,18],[-24,20],[5,9],[4,20],[4,9],[4,4],[16,0],[0,10],[6,6],[14,9],[-7,11],[-9,8],[-8,6],[-8,-1],[0,9],[30,9],[9,7],[0,4],[-1,8],[-1,4],[9,11],[17,28],[11,3],[-5,-8],[3,-14],[6,-1],[12,13],[6,1],[6,-6],[12,-18],[11,-23],[4,-7],[7,-3],[28,8],[-6,-11],[-6,-14],[36,-36],[16,-4],[67,6],[15,19],[-18,8],[-39,-5],[-26,26],[-20,12],[-14,25],[-25,32],[-5,12],[-9,29],[-3,8],[-20,23],[-11,23],[-19,28],[-7,6],[-8,0],[-3,-6],[5,-16],[-7,-14],[-3,-3],[6,-28],[1,-4],[4,-2],[10,-9],[4,-7],[-51,-3],[-65,-51],[-73,-22],[-43,23],[-20,25],[-4,10],[4,12],[0,6],[-13,-1],[-67,35]]]}