{"objects":{"water":{"type":"GeometryCollection","geometries":[{"type":"MultiPolygon","properties":{"source":"naturalearthdata.com","kind":"ocean","area":989871000000000,"sort_rank":200,"min_zoom":0,"id":1},"arcs":[[[1],[2],[3],[4],[5],[6],[7],[8]]]},{"type":"LineString","properties":{"source":"naturalearthdata.com","kind":"ocean","sort_rank":205,"boundary":true,"min_zoom":0,"id":1802},"arcs":[9]},{"type":"LineString","properties":{"source":"naturalearthdata.com","kind":"ocean","sort_rank":205,"boundary":true,"min_zoom":0,"id":1803},"arcs":[10]},{"type":"LineString","properties":{"source":"naturalearthdata.com","kind":"ocean","sort_rank":205,"boundary":true,"min_zoom":0,"id":1804},"arcs":[11]},{"type":"LineString","properties":{"source":"naturalearthdata.com","kind":"ocean","sort_rank":205,"boundary":true,"min_zoom":0,"id":1805},"arcs":[12]},{"type":"LineString","properties":{"source":"naturalearthdata.com","kind":"ocean","sort_rank":205,"boundary":true,"min_zoom":0,"id":1806},"arcs":[13]},{"type":"LineString","properties":{"source":"naturalearthdata.com","kind":"ocean","sort_rank":205,"boundary":true,"min_zoom":0,"id":1807},"arcs":[14]},{"type":"LineString","properties":{"source":"naturalearthdata.com","kind":"ocean","sort_rank":205,"boundary":true,"min_zoom":0,"id":2989},"arcs":[15]},{"type":"LineString","properties":{"source":"naturalearthdata.com","kind":"ocean","sort_rank":205,"boundary":true,"min_zoom":0,"id":4015},"arcs":[16]},{"type":"Point","properties":{"name:ia":"Mar de Okhotsk","label_placement":true,"collision_rank":398,"name:ko":"\uc624\ud638\uce20\ud06c \ud574","name:ar":"\u0628\u062d\u0631 \u0623\u0648\u062e\u0648\u062a\u0633\u0643","name:cs":"Ochotsk\u00e9 mo\u0159e","name:tt":"\u041e\u0445\u043e\u0442 \u0434\u0438\u04a3\u0433\u0435\u0437\u0435","min_zoom":3.0,"name:ru":"\u041e\u0445\u043e\u0442\u0441\u043a\u043e\u0435 \u043c\u043e\u0440\u0435","name:pl":"Morze Ochockie","id":305639187,"name:fa":"\u062f\u0631\u06cc\u0627\u06cc \u0627\u062e\u062a\u0633\u06a9","sort_rank":200,"name:fi":"Ohotanmeri","name:da":"Okhotske Hav","name:de":"Ochotskisches Meer","source":"openstreetmap.org","name:fr":"Mer d'Okhotsk","name:zh":"\u9102\u970d\u6b21\u514b\u6d77","name:sl":"Ohotsko morje","name:sk":"Ochotsk\u00e9 more","name:ja":"\u30aa\u30db\u30fc\u30c4\u30af\u6d77","name:lt":"Ochotsko j\u016bra","name:he":"\u05d9\u05dd \u05d0\u05d5\u05d7\u05d5\u05e6\u05e7","kind":"sea","name:uk":"\u041e\u0445\u043e\u0442\u0441\u044c\u043a\u0435 \u043c\u043e\u0440\u0435","name:be":"\u0410\u0445\u043e\u0446\u043a\u0430\u0435 \u043c\u043e\u0440\u0430","name:hu":"Ohotszki-tenger","name:hr":"Ohotsko more","name:el":"\u0398\u03ac\u03bb\u03b1\u03c3\u03c3\u03b1 \u03c4\u03bf\u03c5 \u039f\u03c7\u03cc\u03c4\u03c3\u03ba","name:eo":"O\u0125otska maro","name:en":"Sea of Okhotsk","name":"Sea of Okhotsk","wikidata_id":"Q41602","name:et":"Ohhoota meri","name:nl":"Zee van Ochotsk","name:es":"Mar de Ojotsk"},"coordinates":[1365,3632]}]},"buildings":{"type":"GeometryCollection","geometries":[]},"places":{"type":"GeometryCollection","geometries":[]},"transit":{"type":"GeometryCollection","geometries":[]},"pois":{"type":"GeometryCollection","geometries":[]},"boundaries":{"type":"GeometryCollection","geometries":[{"type":"LineString","properties":{"sort_rank":256,"kind_detail":"4","kind":"region","min_zoom":2.0,"source":"naturalearthdata.com"},"arcs":[0]}]},"roads":{"type":"GeometryCollection","geometries":[{"type":"LineString","properties":{"source":"naturalearthdata.com","kind":"minor_road","sort_rank":355,"kind_detail":"tertiary","min_zoom":5.2,"id":14020},"arcs":[17]}]},"earth":{"type":"GeometryCollection","geometries":[{"type":"MultiPolygon","properties":{"sort_rank":10,"source":"naturalearthdata.com","kind":"earth","min_zoom":2.0,"area":81316714394},"arcs":[[[18]]]},{"type":"MultiPolygon","properties":{"sort_rank":10,"source":"naturalearthdata.com","kind":"earth","min_zoom":5.0,"area":7305942466},"arcs":[[[19]],[[20]]]},{"type":"MultiPolygon","properties":{"sort_rank":10,"source":"naturalearthdata.com","min_zoom":3.0,"kind":"earth","area":43052408803},"arcs":[[[21]],[[22]],[[23]]]},{"type":"MultiPolygon","properties":{"sort_rank":10,"source":"naturalearthdata.com","min_zoom":0,"kind":"earth","area":46840771247929},"arcs":[[[24]]]}]},"landuse":{"type":"GeometryCollection","geometries":[{"type":"MultiPolygon","properties":{"kind":"nature_reserve","protect_class":"4","area":282381055847,"sort_rank":23,"source":"openstreetmap.org","min_zoom":4.0,"tier":2,"id":-9173183},"arcs":[[[25]]]}]}},"type":"Topology","transform":{"translate":[146.25,48.9224992638],"scale":[0.002746582,0.0016733579]},"arcs":[[[3578,1407],[82,-55],[67,-59],[25,-74],[9,-91],[29,-85],[65,-110],[60,-102]],[[4096,1509],[0,-1509],[-4096,0],[0,4096],[3418,0],[-5,-82],[-7,-35],[-7,-36],[-7,-52],[-5,-41],[-1,-48],[22,-233],[2,-13],[10,-25],[1,-12],[-2,-11],[-1,-14],[33,-205],[29,-133],[23,-79],[5,-28],[1,-15],[-1,-11],[10,-45],[8,-24],[2,-12],[5,-36],[3,-20],[2,-12],[1,-43],[2,-10],[4,-40],[19,-123],[5,-51],[1,-42],[16,-103],[4,-64],[20,-82],[24,-80],[8,-21],[5,-18],[9,-15],[4,-11],[10,-11],[10,-4],[27,-3],[5,-8],[-2,-13],[-7,-11],[-9,-9],[-9,-6],[2,11],[0,8],[-2,7],[-5,7],[-2,1],[-2,0],[-1,-2],[-2,1],[-7,8],[-4,3],[-2,3],[-3,3],[-4,0],[5,-23],[2,-6],[11,-19],[7,-13],[8,-14],[24,-113],[17,-154],[5,-109],[-5,-78],[1,-6],[2,-12],[0,-7],[-1,-6],[-3,-13],[-1,-7],[0,-26],[0,-12],[2,-13],[-1,-5],[-1,-1],[1,-3],[1,-1],[2,-1],[1,-2],[2,-3],[4,-6],[2,-3],[1,-6],[1,-7],[-1,-45],[2,-14],[4,-14],[4,-5],[5,-5],[6,-4],[5,-2],[19,-2],[5,-4],[13,-25],[11,-9],[-1,-23],[-7,-23],[2,-9],[1,-9],[12,2],[7,-8],[1,-9],[-3,-16],[5,-11],[-3,-20],[-25,-45],[-12,-16],[4,-11],[18,14],[10,14],[12,15],[8,11],[7,10],[6,4],[5,12],[9,13],[16,8],[17,22],[29,32],[18,18],[17,9],[21,23],[23,19],[5,8],[3,12],[8,14],[16,21],[13,12],[22,-2],[10,9],[5,17],[-6,12],[7,18],[3,4]],[[2817,26],[-22,9],[-4,1],[-4,-8],[-1,-8],[2,-7],[4,-8],[3,0],[5,-2],[7,0],[9,1],[6,3],[5,6],[-1,5],[-4,4],[-5,4]],[[3027,140],[-10,2],[-16,6],[-13,1],[-3,-1],[-2,-3],[-1,-5],[5,-9],[7,-22],[5,-10],[9,-5],[7,4],[8,6],[10,4],[8,5],[-1,11],[-6,11],[-7,5]],[[2985,535],[-10,-1],[-9,-7],[-6,-9],[-2,-6],[2,-8],[4,-10],[8,-10],[13,-2],[4,9],[5,11],[7,12],[-5,17],[-11,4]],[[3595,1025],[-1,8],[0,6],[1,6],[0,6],[0,28],[-2,13],[-5,10],[-11,9],[-12,-5],[-12,-10],[-11,-5],[-32,-34],[-4,-8],[-3,-11],[-3,-27],[-3,-8],[-13,-22],[-11,-26],[-1,-6],[-2,-13],[-2,-6],[-3,-6],[-18,-27],[-10,-12],[-11,-9],[-10,-3],[-6,2],[-10,7],[-7,-1],[-2,-2],[-3,-8],[-2,-2],[-4,-1],[-23,0],[-12,-3],[-12,-6],[-9,-10],[-14,-24],[-10,-8],[-19,10],[-12,-1],[-12,-7],[-5,-11],[0,-8],[2,-5],[17,-16],[4,-6],[-2,-8],[-1,-5],[4,-16],[1,-8],[-2,-7],[-4,-7],[-4,-6],[-3,-6],[-2,-9],[-1,-9],[2,-8],[4,-7],[5,0],[8,5],[11,0],[20,-5],[10,-5],[3,-6],[-2,-8],[-6,-14],[12,-3],[6,10],[4,14],[21,50],[7,11],[22,17],[23,8],[54,4],[3,2],[12,22],[3,5],[5,5],[12,3],[6,4],[2,6],[2,6],[16,26],[18,36],[3,5],[5,5],[5,4],[5,5],[1,7],[0,8],[-1,5],[0,6],[1,8],[3,7],[3,5],[4,2],[5,2],[3,0],[5,-1],[2,1],[3,3],[6,7],[6,5],[0,7],[-2,13],[1,7],[3,15],[1,4],[-2,8],[-7,9],[-4,8]],[[3718,1166],[-10,1],[-14,-4],[-14,-7],[-10,-8],[-18,-22],[-10,-8],[-12,-3],[-8,-5],[-6,-11],[-5,-15],[-1,-14],[5,-15],[10,-10],[11,-6],[8,-6],[5,-11],[11,2],[7,1],[12,-1],[11,-4],[8,0],[0,15],[9,10],[9,19],[5,10],[5,7],[6,11],[4,10],[-3,9],[-1,9],[-1,10],[-2,15],[-3,11],[-8,10]],[[3391,1127],[13,1],[17,-2],[9,3],[1,35],[-15,25],[-32,11],[-26,-5],[-10,-22],[8,-20],[9,-14],[11,-9],[15,-3]],[[3126,435],[-5,-3],[-16,-23],[-3,-2],[-4,-2],[-3,-3],[-1,-6],[1,-4],[3,-7],[1,-5],[-3,-6],[-11,-18],[-3,-7],[-4,-14],[-3,-7],[-3,-7],[-12,-13],[-6,-8],[-4,-19],[-7,-11],[-1,-9],[1,-20],[-1,-6],[-1,-7],[0,-4],[1,-3],[3,-2],[24,-12],[7,-2],[8,1],[1,2],[4,8],[3,2],[3,1],[7,-1],[3,2],[2,2],[9,7],[2,3],[0,3],[0,4],[1,4],[6,9],[1,5],[-5,12],[1,2],[1,3],[1,4],[-1,3],[-5,7],[-1,4],[-4,13],[-1,14],[2,13],[7,9],[-2,4],[6,10],[16,16],[3,9],[1,11],[5,21],[1,11],[-8,-3],[-5,4],[-5,7],[-7,4]],[[2817,26],[-22,9],[-4,1],[-4,-8],[-1,-8],[2,-7],[4,-8],[3,0],[5,-2],[7,0],[9,1],[6,3],[5,6],[-1,5],[-4,4],[-5,4]],[[3027,140],[-10,2],[-16,6],[-13,1],[-3,-1],[-2,-3],[-1,-5],[5,-9],[7,-22],[5,-10],[9,-5],[7,4],[8,6],[10,4],[8,5],[-1,11],[-6,11],[-7,5]],[[2985,535],[-10,-1],[-9,-7],[-6,-9],[-2,-6],[2,-8],[4,-10],[8,-10],[13,-2],[4,9],[5,11],[7,12],[-5,17],[-11,4]],[[3595,1025],[-1,8],[0,6],[1,6],[0,6],[0,28],[-2,13],[-5,10],[-11,9],[-12,-5],[-12,-10],[-11,-5],[-32,-34],[-4,-8],[-3,-11],[-3,-27],[-3,-8],[-13,-22],[-11,-26],[-1,-6],[-2,-13],[-2,-6],[-3,-6],[-18,-27],[-10,-12],[-11,-9],[-10,-3],[-6,2],[-10,7],[-7,-1],[-2,-2],[-3,-8],[-2,-2],[-4,-1],[-23,0],[-12,-3],[-12,-6],[-9,-10],[-14,-24],[-10,-8],[-19,10],[-12,-1],[-12,-7],[-5,-11],[0,-8],[2,-5],[17,-16],[4,-6],[-2,-8],[-1,-5],[4,-16],[1,-8],[-2,-7],[-4,-7],[-4,-6],[-3,-6],[-2,-9],[-1,-9],[2,-8],[4,-7],[5,0],[8,5],[11,0],[20,-5],[10,-5],[3,-6],[-2,-8],[-6,-14],[12,-3],[6,10],[4,14],[21,50],[7,11],[22,17],[23,8],[54,4],[3,2],[12,22],[3,5],[5,5],[12,3],[6,4],[2,6],[2,6],[16,26],[18,36],[3,5],[5,5],[5,4],[5,5],[1,7],[0,8],[-1,5],[0,6],[1,8],[3,7],[3,5],[4,2],[5,2],[3,0],[5,-1],[2,1],[3,3],[6,7],[6,5],[0,7],[-2,13],[1,7],[3,15],[1,4],[-2,8],[-7,9],[-4,8]],[[3718,1166],[-10,1],[-14,-4],[-14,-7],[-10,-8],[-18,-22],[-10,-8],[-12,-3],[-8,-5],[-6,-11],[-5,-15],[-1,-14],[5,-15],[10,-10],[11,-6],[8,-6],[5,-11],[11,2],[7,1],[12,-1],[11,-4],[8,0],[0,15],[9,10],[9,19],[5,10],[5,7],[6,11],[4,10],[-3,9],[-1,9],[-1,10],[-2,15],[-3,11],[-8,10]],[[3391,1127],[13,1],[17,-2],[9,3],[1,35],[-15,25],[-32,11],[-26,-5],[-10,-22],[8,-20],[9,-14],[11,-9],[15,-3]],[[3126,435],[-5,-3],[-16,-23],[-3,-2],[-4,-2],[-3,-3],[-1,-6],[1,-4],[3,-7],[1,-5],[-3,-6],[-11,-18],[-3,-7],[-4,-14],[-3,-7],[-3,-7],[-12,-13],[-6,-8],[-4,-19],[-7,-11],[-1,-9],[1,-20],[-1,-6],[-1,-7],[0,-4],[1,-3],[3,-2],[24,-12],[7,-2],[8,1],[1,2],[4,8],[3,2],[3,1],[7,-1],[3,2],[2,2],[9,7],[2,3],[0,3],[0,4],[1,4],[6,9],[1,5],[-5,12],[1,2],[1,3],[1,4],[-1,3],[-5,7],[-1,4],[-4,13],[-1,14],[2,13],[7,9],[-2,4],[6,10],[16,16],[3,9],[1,11],[5,21],[1,11],[-8,-3],[-5,4],[-5,7],[-7,4]],[[3418,4096],[-5,-82],[-7,-35],[-7,-36],[-7,-52],[-5,-41],[-1,-48],[22,-233],[2,-13],[10,-25],[1,-12],[-2,-11],[-1,-14],[33,-205],[29,-133],[23,-79],[5,-28],[1,-15],[-1,-11],[10,-45],[8,-24],[2,-12],[5,-36],[3,-20],[2,-12],[1,-43],[2,-10],[4,-40],[19,-123],[5,-51],[1,-42],[16,-103],[4,-64],[20,-82],[24,-80],[8,-21],[5,-18],[9,-15],[4,-11],[10,-11],[10,-4],[27,-3],[5,-8],[-2,-13],[-7,-11],[-9,-9],[-9,-6],[2,11],[0,8],[-2,7],[-5,7],[-2,1],[-2,0],[-1,-2],[-2,1],[-7,8],[-4,3],[-2,3],[-3,3],[-4,0],[5,-23],[2,-6],[11,-19],[7,-13],[8,-14],[24,-113],[17,-154],[5,-109],[-5,-78],[1,-6],[2,-12],[0,-7],[-1,-6],[-3,-13],[-1,-7],[0,-26],[0,-12],[2,-13],[-1,-5],[-1,-1],[1,-3],[1,-1],[2,-1],[1,-2],[2,-3],[4,-6],[2,-3],[1,-6],[1,-7],[-1,-45],[2,-14],[4,-14],[4,-5],[5,-5],[6,-4],[5,-2],[19,-2],[5,-4],[13,-25],[11,-9],[-1,-23],[-7,-23],[2,-9],[1,-9],[12,2],[7,-8],[1,-9],[-3,-16],[5,-11],[-3,-20],[-25,-45],[-12,-16],[4,-11],[18,14],[10,14],[12,15],[8,11],[7,10],[6,4],[5,12],[9,13],[16,8],[17,22],[29,32],[18,18],[17,9],[21,23],[23,19],[5,8],[3,12],[8,14],[16,21],[13,12],[22,-2],[10,9],[5,17],[-6,12],[7,18],[3,4]],[[4096,2544],[-1,0],[-13,2],[-6,5],[-3,12],[4,20],[3,37],[3,20],[13,28]],[[3595,1025],[4,-8],[7,-9],[2,-8],[-1,-4],[-3,-15],[-1,-7],[2,-13],[0,-7],[-6,-5],[-6,-7],[-3,-3],[-2,-1],[-5,1],[-3,0],[-5,-2],[-4,-2],[-3,-5],[-3,-7],[-1,-8],[0,-6],[1,-5],[0,-8],[-1,-7],[-5,-5],[-5,-4],[-5,-5],[-3,-5],[-18,-36],[-16,-26],[-2,-6],[-2,-6],[-6,-4],[-12,-3],[-5,-5],[-3,-5],[-12,-22],[-3,-2],[-54,-4],[-23,-8],[-22,-17],[-7,-11],[-21,-50],[-4,-14],[-6,-10],[-12,3],[6,14],[2,8],[-3,6],[-10,5],[-20,5],[-11,0],[-8,-5],[-5,0],[-4,7],[-2,8],[1,9],[2,9],[3,6],[4,6],[4,7],[2,7],[-1,8],[-4,16],[1,5],[2,8],[-4,6],[-17,16],[-2,5],[0,8],[5,11],[12,7],[12,1],[19,-10],[10,8],[14,24],[9,10],[12,6],[12,3],[23,0],[4,1],[2,2],[3,8],[2,2],[7,1],[10,-7],[6,-2],[10,3],[11,9],[10,12],[18,27],[3,6],[2,6],[2,13],[1,6],[11,26],[13,22],[3,8],[3,27],[3,11],[4,8],[32,34],[11,5],[12,10],[12,5],[11,-9],[5,-10],[2,-13],[0,-28],[0,-6],[-1,-6],[0,-6],[1,-8]],[[3027,140],[7,-5],[6,-11],[1,-11],[-8,-5],[-10,-4],[-8,-6],[-7,-4],[-9,5],[-5,10],[-7,22],[-5,9],[1,5],[2,3],[3,1],[13,-1],[16,-6],[10,-2]],[[2985,535],[11,-4],[5,-17],[-7,-12],[-5,-11],[-4,-9],[-13,2],[-8,10],[-4,10],[-2,8],[2,6],[6,9],[9,7],[10,1]],[[3126,435],[7,-4],[5,-7],[5,-4],[8,3],[-1,-11],[-5,-21],[-1,-11],[-3,-9],[-16,-16],[-6,-10],[2,-4],[-7,-9],[-2,-13],[1,-14],[4,-13],[1,-4],[5,-7],[1,-3],[-1,-4],[-1,-3],[-1,-2],[5,-12],[-1,-5],[-6,-9],[-1,-4],[0,-4],[0,-3],[-2,-3],[-9,-7],[-2,-2],[-3,-2],[-7,1],[-3,-1],[-3,-2],[-4,-8],[-1,-2],[-8,-1],[-7,2],[-24,12],[-3,2],[-1,3],[0,4],[1,7],[1,6],[-1,20],[1,9],[7,11],[4,19],[6,8],[12,13],[3,7],[3,7],[4,14],[3,7],[11,18],[3,6],[-1,5],[-3,7],[-1,4],[1,6],[3,3],[4,2],[3,2],[16,23],[5,3]],[[3718,1166],[8,-10],[3,-11],[2,-15],[1,-10],[1,-9],[3,-9],[-4,-10],[-6,-11],[-5,-7],[-5,-10],[-9,-19],[-9,-10],[0,-15],[-8,0],[-11,4],[-12,1],[-7,-1],[-11,-2],[-5,11],[-8,6],[-11,6],[-10,10],[-5,15],[1,14],[5,15],[6,11],[8,5],[12,3],[10,8],[18,22],[10,8],[14,7],[14,4],[10,-1]],[[3391,1127],[-15,3],[-11,9],[-9,14],[-8,20],[10,22],[26,5],[32,-11],[15,-25],[-1,-35],[-9,-3],[-17,2],[-13,-1]],[[3418,4096],[678,0],[0,-2587],[-3,-4],[-7,-18],[6,-12],[-5,-17],[-10,-9],[-22,2],[-13,-12],[-16,-21],[-8,-14],[-3,-12],[-5,-8],[-23,-19],[-21,-23],[-17,-9],[-18,-18],[-29,-32],[-17,-22],[-16,-8],[-9,-13],[-5,-12],[-6,-4],[-7,-10],[-8,-11],[-12,-15],[-10,-14],[-18,-14],[-4,11],[12,16],[25,45],[3,20],[-5,11],[3,16],[-1,9],[-7,8],[-12,-2],[-1,9],[-2,9],[7,23],[1,23],[-11,9],[-13,25],[-5,4],[-19,2],[-5,2],[-6,4],[-5,5],[-4,5],[-4,14],[-2,14],[1,45],[-1,7],[-1,6],[-2,3],[-4,6],[-2,3],[-1,2],[-2,1],[-1,1],[-1,3],[1,1],[1,5],[-2,13],[0,12],[0,26],[1,7],[3,13],[1,6],[0,7],[-2,12],[-1,6],[5,78],[-5,109],[-17,154],[-24,113],[-8,14],[-7,13],[-11,19],[-2,6],[-5,23],[4,0],[3,-3],[2,-3],[4,-3],[7,-8],[2,-1],[1,2],[2,0],[2,-1],[5,-7],[2,-7],[0,-8],[-2,-11],[9,6],[9,9],[7,11],[2,13],[-5,8],[-27,3],[-10,4],[-10,11],[-4,11],[-9,15],[-5,18],[-8,21],[-24,80],[-20,82],[-4,64],[-16,103],[-1,42],[-5,51],[-19,123],[-4,40],[-2,10],[-1,43],[-2,12],[-3,20],[0,6],[-5,30],[-2,12],[-8,24],[-10,45],[1,11],[-1,15],[-5,28],[-23,79],[-29,133],[-33,205],[1,14],[2,11],[-1,12],[-10,25],[-2,13],[-22,233],[1,48],[5,41],[7,52],[7,36],[7,35],[5,82]],[[4096,1525],[0,-91],[-28,-12],[-18,-55],[-256,-227],[-34,50],[36,56],[-23,44],[21,10],[4,59],[-60,52],[-12,98],[68,48],[38,-3],[-20,-80],[54,-35],[7,74],[-23,35],[61,48],[158,-44],[27,-27]]]}