{"objects":{"water":{"type":"GeometryCollection","geometries":[{"type":"MultiPolygon","properties":{"source":"naturalearthdata.com","kind":"ocean","area":989871000000000,"sort_rank":200,"min_zoom":0,"id":1},"arcs":[[[1],[2],[3],[4],[5],[6],[7],[8],[9],[10],[11]]]},{"type":"LineString","properties":{"source":"naturalearthdata.com","kind":"ocean","sort_rank":205,"boundary":true,"min_zoom":0,"id":1787},"arcs":[12]},{"type":"MultiLineString","properties":{"source":"naturalearthdata.com","kind":"ocean","sort_rank":205,"boundary":true,"min_zoom":0,"id":1789},"arcs":[[13],[14]]},{"type":"LineString","properties":{"source":"naturalearthdata.com","kind":"ocean","sort_rank":205,"boundary":true,"min_zoom":0,"id":1792},"arcs":[15]},{"type":"LineString","properties":{"source":"naturalearthdata.com","kind":"ocean","sort_rank":205,"boundary":true,"min_zoom":0,"id":1795},"arcs":[16]},{"type":"LineString","properties":{"source":"naturalearthdata.com","kind":"ocean","sort_rank":205,"boundary":true,"min_zoom":0,"id":1797},"arcs":[17]},{"type":"LineString","properties":{"source":"naturalearthdata.com","kind":"ocean","sort_rank":205,"boundary":true,"min_zoom":0,"id":1798},"arcs":[18]},{"type":"LineString","properties":{"source":"naturalearthdata.com","kind":"ocean","sort_rank":205,"boundary":true,"min_zoom":0,"id":1799},"arcs":[19]},{"type":"LineString","properties":{"source":"naturalearthdata.com","kind":"ocean","sort_rank":205,"boundary":true,"min_zoom":0,"id":1800},"arcs":[20]},{"type":"LineString","properties":{"source":"naturalearthdata.com","kind":"ocean","sort_rank":205,"boundary":true,"min_zoom":0,"id":1801},"arcs":[21]},{"type":"LineString","properties":{"source":"naturalearthdata.com","kind":"ocean","sort_rank":205,"boundary":true,"min_zoom":0,"id":2982},"arcs":[22]},{"type":"LineString","properties":{"source":"naturalearthdata.com","kind":"ocean","sort_rank":205,"boundary":true,"min_zoom":0,"id":4120},"arcs":[23]}]},"buildings":{"type":"GeometryCollection","geometries":[]},"places":{"type":"GeometryCollection","geometries":[]},"transit":{"type":"GeometryCollection","geometries":[]},"pois":{"type":"GeometryCollection","geometries":[]},"boundaries":{"type":"GeometryCollection","geometries":[{"type":"LineString","properties":{"kind:jp":"country","kind":"disputed_claim","sort_rank":250,"kind_detail":"2","kind:ru":"unrecognized_country","source":"naturalearthdata.com","min_zoom":4.0,"kind:cn":"country"},"arcs":[0]}]},"roads":{"type":"GeometryCollection","geometries":[]},"earth":{"type":"GeometryCollection","geometries":[{"type":"MultiPolygon","properties":{"sort_rank":10,"source":"naturalearthdata.com","kind":"earth","min_zoom":2.0,"area":81316714394},"arcs":[[[24]],[[25]],[[26]]]},{"type":"MultiPolygon","properties":{"sort_rank":10,"source":"naturalearthdata.com","kind":"earth","min_zoom":4.0,"area":7777054921},"arcs":[[[27]],[[28]],[[29]]]},{"type":"MultiPolygon","properties":{"sort_rank":10,"source":"naturalearthdata.com","kind":"earth","min_zoom":5.0,"area":7305942466},"arcs":[[[30]],[[31]]]},{"type":"MultiPolygon","properties":{"sort_rank":10,"source":"naturalearthdata.com","min_zoom":3.0,"kind":"earth","area":43052408803},"arcs":[[[32]],[[33]],[[34]]]}]},"landuse":{"type":"GeometryCollection","geometries":[{"type":"MultiPolygon","properties":{"kind":"nature_reserve","protect_class":"7","area":137727454309,"sort_rank":23,"source":"openstreetmap.org","min_zoom":4.0,"tier":2,"id":-7008496},"arcs":[[[35]]]}]}},"type":"Topology","transform":{"translate":[146.25,40.9798980696],"scale":[0.002746582,0.0019391116]},"arcs":[[[1132,2167],[-20,39],[-25,46],[-18,34],[-10,36],[-7,42],[-8,47],[-5,30],[-14,56],[-10,38],[-7,29],[-6,23],[-16,37],[-16,37],[-6,16]],[[0,1798],[0,2298],[4096,0],[0,-4096],[-4096,0],[0,1697],[9,1],[11,5],[8,5],[14,13],[3,5],[10,18],[2,1],[3,2],[12,6],[4,1],[5,-2],[11,-8],[4,1],[2,2],[4,3],[2,2],[1,3],[2,5],[2,3],[2,5],[6,21],[-7,1],[-30,-11],[-39,-4],[-10,3],[-20,15],[-9,4],[-2,1]],[[230,1485],[-3,4],[-5,5],[-5,1],[-5,-4],[-5,-6],[-8,4],[-10,-3],[-35,-20],[-9,-4],[-16,-3],[0,-4],[2,-6],[1,-6],[-3,-14],[-1,-8],[3,-3],[6,-1],[9,-8],[6,-1],[5,1],[5,2],[8,7],[-3,7],[7,-2],[5,2],[6,3],[6,1],[3,1],[4,3],[3,4],[3,4],[3,4],[3,0],[2,-2],[3,0],[9,8],[5,2],[7,0],[6,3],[4,6],[4,8],[2,8],[-6,-2],[-6,1],[-5,4],[-5,4]],[[928,2288],[-1,7],[2,2],[9,5],[11,11],[-2,8],[-19,19],[-13,5],[-13,-1],[-29,-12],[-7,0],[-3,-2],[-1,-2],[-4,-9],[-2,-3],[-3,-1],[-8,-1],[-4,-2],[-3,-3],[-7,-11],[-10,-9],[-10,-7],[-3,-4],[-7,-13],[-1,-2],[-9,-5],[-8,-10],[-14,-20],[-18,-13],[-89,-12],[-10,1],[-9,8],[-4,6],[-1,5],[1,4],[0,7],[-1,7],[-2,5],[-10,20],[-2,5],[-1,14],[-1,7],[-3,4],[-4,-3],[-8,-8],[-9,-7],[-8,-9],[-4,-13],[1,-6],[4,-12],[0,-5],[-2,-21],[2,-6],[4,-5],[4,-5],[0,-7],[-3,-3],[-38,-11],[-9,-6],[-9,-10],[-23,-38],[-9,-9],[-9,-5],[-10,-1],[-9,7],[-4,5],[-6,3],[-5,1],[-6,-4],[-3,-4],[-1,-3],[1,-4],[1,-6],[-2,-14],[-2,-11],[-4,-10],[-6,-10],[-5,-4],[-16,-12],[-18,-18],[-35,-17],[-8,-9],[3,-15],[-12,-11],[-10,5],[-14,13],[-15,-4],[-5,-16],[9,-10],[15,-3],[15,-8],[-1,-13],[-1,-8],[-16,-21],[-9,-14],[-14,-5],[-8,5],[-14,11],[-11,-3],[4,-14],[6,-8],[4,-11],[-6,-9],[-8,-8],[-6,4],[-8,6],[-1,9],[-3,10],[-5,2],[-3,-10],[1,-10],[2,-9],[5,-10],[-4,-7],[-12,-7],[-5,-9],[-7,-8],[-4,-7],[-2,-7],[2,-9],[5,-6],[13,0],[10,-6],[7,0],[4,8],[3,10],[6,12],[9,12],[13,17],[21,18],[15,-6],[26,11],[17,31],[6,10],[15,14],[21,25],[36,22],[25,23],[4,5],[5,12],[3,6],[11,12],[4,5],[6,4],[1,6],[-8,6],[-2,10],[2,9],[10,14],[17,6],[9,-8],[5,-12],[11,-13],[3,2],[7,7],[5,2],[8,0],[12,0],[17,-1],[19,19],[10,3],[12,17],[16,21],[22,27],[32,33],[22,14],[24,8],[35,5],[11,6],[32,25],[10,4],[22,2],[30,-4],[11,0],[9,4],[12,7],[10,10],[0,10],[-13,17],[-3,6]],[[1487,2698],[-17,-8],[-15,-3],[-13,-6],[-10,-10],[10,-13],[-1,-5],[-5,-6],[-5,-4],[-11,-5],[-5,-1],[-10,1],[-5,0],[-27,-11],[-36,-39],[-14,-20],[-12,-22],[-14,-19],[-22,-10],[-21,0],[-10,-4],[-5,-15],[-10,-14],[-2,-2],[-6,0],[-2,-2],[-1,-3],[0,-6],[0,-3],[-10,-18],[-5,-11],[-2,-2],[-5,-4],[-2,-2],[-6,-10],[-11,-3],[-6,-23],[-5,-13],[-3,-2],[-3,-4],[34,-2],[7,4],[5,5],[3,1],[1,3],[0,8],[1,7],[3,-3],[7,-14],[12,3],[24,19],[19,19],[32,39],[10,10],[19,8],[0,8],[9,6],[9,-1],[9,-1],[10,3],[5,10],[18,14],[10,5],[10,9],[1,7],[4,5],[13,3],[2,2],[-6,9],[4,19],[14,12],[6,15],[15,4],[13,13],[15,6],[11,10],[18,21],[11,10],[15,15],[20,21],[-34,-11],[-29,11],[-23,-10]],[[2168,3171],[-2,0],[0,7],[2,6],[3,5],[5,3],[0,4],[-25,-22],[-39,-62],[-37,-32],[-10,-13],[-18,-29],[-13,-8],[-33,3],[-15,-7],[3,-6],[0,-6],[-1,-5],[1,-4],[3,-5],[5,-4],[6,-4],[4,-1],[14,-7],[18,13],[14,13],[7,10],[4,10],[12,2],[12,10],[5,6],[8,6],[10,18],[3,3],[3,3],[3,4],[1,6],[4,5],[19,13],[7,8],[6,20],[4,7],[40,37],[-6,10],[-9,-4],[-9,-8],[-9,-5]],[[2277,3302],[-20,2],[-8,-2],[-5,-8],[0,-14],[6,-11],[19,-9],[15,-1],[6,13],[-1,12],[-6,13],[-6,5]],[[2465,3517],[-7,-7],[-7,-9],[-4,-9],[0,-8],[-1,-10],[-1,-11],[5,-6],[5,7],[7,0],[6,0],[7,5],[4,8],[4,11],[-1,9],[-1,10],[-1,7],[-4,7],[-11,-4]],[[2563,3660],[-11,14],[-7,5],[-9,6],[-18,-2],[-2,-15],[9,-12],[6,-9],[12,-6],[6,0],[9,-4],[7,5],[1,6],[-3,6],[0,6]],[[2899,4094],[-10,1],[-14,-3],[-10,-8],[-1,-12],[-6,-2],[0,-4],[2,-7],[-2,-6],[-8,-12],[-4,-4],[-27,-15],[-6,-9],[-1,-11],[3,0],[6,-3],[4,-1],[11,0],[6,3],[2,5],[-1,7],[2,7],[9,10],[33,21],[7,8],[8,11],[4,13],[-7,11]],[[1672,2820],[-1,4],[-5,5],[-3,6],[-3,5],[-4,-4],[-3,-7],[-2,-2],[-2,-2],[11,-6],[9,-3],[5,1],[-2,3]],[[37,1371],[-2,1],[-3,0],[-7,5],[-2,0],[-5,-7],[-5,-3],[-4,-1],[-2,0],[1,-1],[26,-4],[5,2],[-2,8]],[[230,1485],[-3,4],[-5,5],[-5,1],[-5,-4],[-5,-6],[-8,4],[-10,-3],[-35,-20],[-9,-4],[-16,-3],[0,-4],[2,-6],[1,-6],[-3,-14],[-1,-8],[3,-3],[6,-1],[9,-8],[6,-1],[5,1],[5,2],[8,7],[-3,7],[7,-2],[5,2],[6,3],[6,1],[3,1],[4,3],[3,4],[3,4],[3,4],[3,0],[2,-2],[3,0],[9,8],[5,2],[7,0],[6,3],[4,6],[4,8],[2,8],[-6,-2],[-6,1],[-5,4],[-5,4]],[[80,1779],[-39,-4],[-10,3],[-20,15],[-9,4],[-2,1]],[[0,1697],[9,1],[11,5],[8,5],[14,13],[3,5],[10,18],[2,1],[3,2],[12,6],[4,1],[5,-2],[11,-8],[4,1],[2,2],[4,3],[2,2],[1,3],[2,5],[2,3],[2,5],[6,21],[-7,1],[-30,-11]],[[928,2288],[-1,7],[2,2],[9,5],[11,11],[-2,8],[-19,19],[-13,5],[-13,-1],[-29,-12],[-7,0],[-3,-2],[-1,-2],[-4,-9],[-2,-3],[-3,-1],[-8,-1],[-4,-2],[-3,-3],[-7,-11],[-10,-9],[-10,-7],[-3,-4],[-7,-13],[-1,-2],[-9,-5],[-8,-10],[-14,-20],[-18,-13],[-89,-12],[-10,1],[-9,8],[-4,6],[-1,5],[1,4],[0,7],[-1,7],[-2,5],[-10,20],[-2,5],[-1,14],[-1,7],[-3,4],[-4,-3],[-8,-8],[-9,-7],[-8,-9],[-4,-13],[1,-6],[4,-12],[0,-5],[-2,-21],[2,-6],[4,-5],[4,-5],[0,-7],[-3,-3],[-38,-11],[-9,-6],[-9,-10],[-23,-38],[-9,-9],[-9,-5],[-10,-1],[-9,7],[-4,5],[-6,3],[-5,1],[-6,-4],[-3,-4],[-1,-3],[1,-4],[1,-6],[-2,-14],[-2,-11],[-4,-10],[-6,-10],[-5,-4],[-16,-12],[-18,-18],[-35,-17],[-8,-9],[3,-15],[-12,-11],[-10,5],[-14,13],[-15,-4],[-5,-16],[9,-10],[15,-3],[15,-8],[-1,-13],[-1,-8],[-16,-21],[-9,-14],[-14,-5],[-8,5],[-14,11],[-11,-3],[4,-14],[6,-8],[4,-11],[-6,-9],[-8,-8],[-6,4],[-8,6],[-1,9],[-3,10],[-5,2],[-3,-10],[1,-10],[2,-9],[5,-10],[-4,-7],[-12,-7],[-5,-9],[-7,-8],[-4,-7],[-2,-7],[2,-9],[5,-6],[13,0],[10,-6],[7,0],[4,8],[3,10],[6,12],[9,12],[13,17],[21,18],[15,-6],[26,11],[17,31],[6,10],[15,14],[21,25],[36,22],[25,23],[4,5],[5,12],[3,6],[11,12],[4,5],[6,4],[1,6],[-8,6],[-2,10],[2,9],[10,14],[17,6],[9,-8],[5,-12],[11,-13],[3,2],[7,7],[5,2],[8,0],[12,0],[17,-1],[19,19],[10,3],[12,17],[16,21],[22,27],[32,33],[22,14],[24,8],[35,5],[11,6],[32,25],[10,4],[22,2],[30,-4],[11,0],[9,4],[12,7],[10,10],[0,10],[-13,17],[-3,6]],[[1487,2698],[-17,-8],[-15,-3],[-13,-6],[-10,-10],[10,-13],[-1,-5],[-5,-6],[-5,-4],[-11,-5],[-5,-1],[-10,1],[-5,0],[-27,-11],[-36,-39],[-14,-20],[-12,-22],[-14,-19],[-22,-10],[-21,0],[-10,-4],[-5,-15],[-10,-14],[-2,-2],[-6,0],[-2,-2],[-1,-3],[0,-6],[0,-3],[-10,-18],[-5,-11],[-2,-2],[-5,-4],[-2,-2],[-6,-10],[-11,-3],[-6,-23],[-5,-13],[-3,-2],[-3,-4],[34,-2],[7,4],[5,5],[3,1],[1,3],[0,8],[1,7],[3,-3],[7,-14],[12,3],[24,19],[19,19],[32,39],[10,10],[19,8],[0,8],[9,6],[9,-1],[9,-1],[10,3],[5,10],[18,14],[10,5],[10,9],[1,7],[4,5],[13,3],[2,2],[-6,9],[4,19],[14,12],[6,15],[15,4],[13,13],[15,6],[11,10],[18,21],[11,10],[15,15],[20,21],[-34,-11],[-29,11],[-23,-10]],[[2168,3171],[-2,0],[0,7],[2,6],[3,5],[5,3],[0,4],[-25,-22],[-39,-62],[-37,-32],[-10,-13],[-18,-29],[-13,-8],[-33,3],[-15,-7],[3,-6],[0,-6],[-1,-5],[1,-4],[3,-5],[5,-4],[6,-4],[4,-1],[14,-7],[18,13],[14,13],[7,10],[4,10],[12,2],[12,10],[5,6],[8,6],[10,18],[3,3],[3,3],[3,4],[1,6],[4,5],[19,13],[7,8],[6,20],[4,7],[40,37],[-6,10],[-9,-4],[-9,-8],[-9,-5]],[[2277,3302],[-20,2],[-8,-2],[-5,-8],[0,-14],[6,-11],[19,-9],[15,-1],[6,13],[-1,12],[-6,13],[-6,5]],[[2465,3517],[-7,-7],[-7,-9],[-4,-9],[0,-8],[-1,-10],[-1,-11],[5,-6],[5,7],[7,0],[6,0],[7,5],[4,8],[4,11],[-1,9],[-1,10],[-1,7],[-4,7],[-11,-4]],[[2563,3660],[-11,14],[-7,5],[-9,6],[-18,-2],[-2,-15],[9,-12],[6,-9],[12,-6],[6,0],[9,-4],[7,5],[1,6],[-3,6],[0,6]],[[2899,4094],[-10,1],[-14,-3],[-10,-8],[-1,-12],[-6,-2],[0,-4],[2,-7],[-2,-6],[-8,-12],[-4,-4],[-27,-15],[-6,-9],[-1,-11],[3,0],[6,-3],[4,-1],[11,0],[6,3],[2,5],[-1,7],[2,7],[9,10],[33,21],[7,8],[8,11],[4,13],[-7,11]],[[1672,2820],[-1,4],[-5,5],[-3,6],[-3,5],[-4,-4],[-3,-7],[-2,-2],[-2,-2],[11,-6],[9,-3],[5,1],[-2,3]],[[37,1371],[2,-8],[-5,-2],[-26,4],[-1,1],[2,0],[4,1],[5,3],[5,7],[2,0],[7,-5],[3,0],[2,-1]],[[0,1697],[0,101],[2,-1],[9,-4],[20,-15],[10,-3],[39,4],[30,11],[7,-1],[-6,-21],[-2,-5],[-2,-3],[-2,-5],[-1,-3],[-2,-2],[-4,-3],[-2,-2],[-4,-1],[-11,8],[-5,2],[-4,-1],[-12,-6],[-3,-2],[-2,-1],[-10,-18],[-3,-5],[-14,-13],[-8,-5],[-11,-5],[-9,-1]],[[928,2288],[3,-6],[13,-17],[0,-10],[-10,-10],[-12,-7],[-9,-4],[-11,0],[-30,4],[-22,-2],[-10,-4],[-32,-25],[-11,-6],[-35,-5],[-24,-8],[-22,-14],[-32,-33],[-22,-27],[-16,-21],[-12,-17],[-10,-3],[-19,-19],[-17,1],[-12,0],[-8,0],[-5,-2],[-7,-7],[-3,-2],[-11,13],[-5,12],[-9,8],[-17,-6],[-10,-14],[-2,-9],[2,-10],[8,-6],[-1,-6],[-6,-4],[-4,-5],[-11,-12],[-3,-6],[-5,-12],[-4,-5],[-25,-23],[-36,-22],[-21,-25],[-15,-14],[-6,-10],[-17,-31],[-26,-11],[-15,6],[-21,-18],[-13,-17],[-9,-12],[-6,-12],[-3,-10],[-4,-8],[-7,0],[-10,6],[-13,0],[-5,6],[-2,9],[2,7],[4,7],[7,8],[5,9],[12,7],[4,7],[-5,10],[-2,9],[-1,10],[3,10],[5,-2],[3,-10],[1,-9],[8,-6],[6,-4],[8,8],[6,9],[-4,11],[-6,8],[-4,14],[11,3],[14,-11],[8,-5],[14,5],[9,14],[16,21],[1,8],[1,13],[-15,8],[-15,3],[-9,10],[5,16],[15,4],[14,-13],[10,-5],[12,11],[-3,15],[8,9],[35,17],[18,18],[16,12],[5,4],[6,10],[4,10],[2,11],[2,14],[-1,6],[-1,4],[1,3],[3,4],[6,4],[5,-1],[6,-3],[4,-5],[9,-7],[10,1],[9,5],[9,9],[23,38],[9,10],[9,6],[38,11],[3,3],[0,7],[-4,5],[-4,5],[-2,6],[2,21],[0,5],[-4,12],[-1,6],[4,13],[8,9],[9,7],[8,8],[4,3],[3,-4],[1,-7],[1,-14],[2,-5],[10,-20],[2,-5],[1,-7],[0,-7],[-1,-4],[1,-5],[4,-6],[9,-8],[10,-1],[89,12],[18,13],[14,20],[8,10],[9,5],[1,2],[7,13],[3,4],[10,7],[10,9],[7,11],[3,3],[4,2],[8,1],[3,1],[2,3],[4,9],[1,2],[3,2],[7,0],[29,12],[13,1],[13,-5],[19,-19],[2,-8],[-11,-11],[-9,-5],[-2,-2],[1,-7]],[[1487,2698],[23,10],[29,-11],[34,11],[-20,-21],[-15,-15],[-11,-10],[-18,-21],[-11,-10],[-15,-6],[-13,-13],[-15,-4],[-6,-15],[-14,-12],[-4,-19],[6,-9],[-2,-2],[-13,-3],[-4,-5],[-1,-7],[-10,-9],[-10,-5],[-18,-14],[-5,-10],[-10,-3],[-9,1],[-9,1],[-9,-6],[0,-8],[-19,-8],[-10,-10],[-32,-39],[-19,-19],[-24,-19],[-12,-3],[-7,14],[-3,3],[-1,-7],[0,-8],[-1,-3],[-3,-1],[-5,-5],[-7,-4],[-34,2],[3,4],[3,2],[5,13],[6,23],[11,3],[6,10],[2,2],[5,4],[2,2],[5,11],[10,18],[0,3],[0,6],[1,3],[2,2],[6,0],[2,2],[10,14],[5,15],[10,4],[21,0],[22,10],[14,19],[12,22],[14,20],[36,39],[27,11],[5,0],[10,-1],[5,1],[11,5],[5,4],[5,6],[1,5],[-10,13],[10,10],[13,6],[15,3],[17,8]],[[37,1371],[2,-8],[-5,-2],[-26,4],[-1,1],[2,0],[4,1],[5,3],[5,7],[2,0],[7,-5],[3,0],[2,-1]],[[1672,2820],[2,-3],[-5,-1],[-9,3],[-11,6],[2,2],[2,2],[3,7],[4,4],[3,-5],[3,-6],[5,-5],[1,-4]],[[2465,3517],[11,4],[4,-7],[1,-7],[1,-10],[1,-9],[-4,-11],[-4,-8],[-7,-5],[-6,0],[-7,0],[-5,-7],[-5,6],[1,11],[1,10],[0,8],[4,9],[7,9],[7,7]],[[2277,3302],[6,-5],[6,-13],[1,-12],[-6,-13],[-15,1],[-19,9],[-6,11],[0,14],[5,8],[8,2],[20,-2]],[[2563,3660],[0,-6],[3,-6],[-1,-6],[-7,-5],[-9,4],[-6,0],[-12,6],[-6,9],[-9,12],[2,15],[18,2],[9,-6],[7,-5],[11,-14]],[[230,1485],[5,-4],[5,-4],[6,-1],[6,2],[-2,-8],[-4,-8],[-4,-6],[-6,-3],[-7,0],[-5,-2],[-9,-8],[-3,0],[-2,2],[-3,0],[-3,-4],[-3,-4],[-3,-4],[-4,-3],[-3,-1],[-6,-1],[-6,-3],[-5,-2],[-7,2],[3,-7],[-8,-7],[-5,-2],[-5,-1],[-6,1],[-9,8],[-6,1],[-3,3],[1,8],[3,14],[-1,6],[-2,6],[0,4],[16,3],[9,4],[35,20],[10,3],[8,-4],[5,6],[5,4],[5,-1],[5,-5],[3,-4]],[[2168,3171],[9,5],[9,8],[9,4],[6,-10],[-40,-37],[-4,-7],[-6,-20],[-7,-8],[-19,-13],[-4,-5],[-1,-6],[-3,-4],[-3,-3],[-3,-3],[-10,-18],[-8,-6],[-5,-6],[-12,-10],[-12,-2],[-4,-10],[-7,-10],[-14,-13],[-18,-13],[-14,7],[-4,1],[-6,4],[-5,4],[-3,5],[-1,4],[1,5],[0,6],[-3,6],[15,7],[33,-3],[13,8],[18,29],[10,13],[37,32],[39,62],[25,22],[0,-4],[-5,-3],[-3,-5],[-2,-6],[0,-7],[2,0]],[[2899,4094],[7,-11],[-4,-13],[-8,-11],[-7,-8],[-33,-21],[-9,-10],[-2,-7],[1,-7],[-2,-5],[-6,-3],[-11,0],[-4,1],[-6,3],[-3,0],[1,11],[6,9],[27,15],[4,4],[8,12],[2,6],[-2,7],[0,4],[6,2],[1,12],[10,8],[14,3],[10,-1]],[[210,1793],[36,100],[85,29],[-28,69],[48,-11],[55,57],[58,-44],[-1,-38],[-108,-115],[-48,-4],[-42,-67],[-55,24]]]}