{"objects":{"water":{"type":"GeometryCollection","geometries":[{"type":"MultiPolygon","properties":{"source":"naturalearthdata.com","kind":"ocean","area":989871000000000,"sort_rank":200,"min_zoom":0,"id":1},"arcs":[[[0],[1]]]},{"type":"LineString","properties":{"source":"naturalearthdata.com","kind":"ocean","sort_rank":205,"boundary":true,"min_zoom":0,"id":3348},"arcs":[2]},{"type":"LineString","properties":{"source":"naturalearthdata.com","kind":"ocean","sort_rank":205,"boundary":true,"min_zoom":0,"id":3718},"arcs":[3]}]},"buildings":{"type":"GeometryCollection","geometries":[]},"places":{"type":"GeometryCollection","geometries":[]},"transit":{"type":"GeometryCollection","geometries":[]},"pois":{"type":"GeometryCollection","geometries":[]},"boundaries":{"type":"GeometryCollection","geometries":[]},"roads":{"type":"GeometryCollection","geometries":[]},"earth":{"type":"GeometryCollection","geometries":[]},"landuse":{"type":"GeometryCollection","geometries":[{"type":"MultiPolygon","properties":{"kind":"nature_reserve","protect_class":"4","area":282381055847,"sort_rank":23,"source":"openstreetmap.org","min_zoom":4.0,"tier":2,"id":-9173183},"arcs":[[[4]]]}]}},"type":"Topology","transform":{"translate":[146.25,21.9430455334],"scale":[0.002746582,0.002443632]},"arcs":[[[4096,0],[-4096,0],[0,4096],[4096,0],[0,-4096]],[[2809,968],[-4,3],[-5,-2],[5,-8],[4,7]],[[2812,960],[0,-2],[2,-1],[2,1],[0,3],[-1,2],[-3,-3]],[[2809,968],[-4,-7],[-5,8],[5,2],[4,-3]],[[357,0],[-357,0],[0,687],[129,-55],[176,-119],[52,-513]]]}