{"objects":{"water":{"type":"GeometryCollection","geometries":[{"type":"MultiPolygon","properties":{"source":"naturalearthdata.com","kind":"ocean","area":989871000000000,"sort_rank":200,"min_zoom":0,"id":1},"arcs":[[[0],[1]]]},{"type":"LineString","properties":{"source":"naturalearthdata.com","kind":"ocean","sort_rank":205,"boundary":true,"min_zoom":0,"id":3504},"arcs":[2]}]},"buildings":{"type":"GeometryCollection","geometries":[]},"places":{"type":"GeometryCollection","geometries":[]},"transit":{"type":"GeometryCollection","geometries":[]},"pois":{"type":"GeometryCollection","geometries":[]},"boundaries":{"type":"GeometryCollection","geometries":[]},"roads":{"type":"GeometryCollection","geometries":[]},"earth":{"type":"GeometryCollection","geometries":[]},"landuse":{"type":"GeometryCollection","geometries":[]}},"type":"Topology","transform":{"translate":[146.25,76.8408164144],"scale":[0.002746582,0.0005689742]},"arcs":[[[4096,0],[-4096,0],[0,4096],[4096,0],[0,-4096]],[[3791,469],[-9,14],[-18,17],[-14,1],[-8,-8],[-7,-17],[-6,-24],[9,-18],[50,-6],[2,0],[4,6],[1,13],[-3,15],[-1,7]],[[3791,469],[-9,14],[-18,17],[-14,1],[-8,-8],[-7,-17],[-6,-24],[9,-18],[50,-6],[2,0],[4,6],[1,13],[-3,15],[-1,7]]]}