{"objects":{"water":{"type":"GeometryCollection","geometries":[{"type":"MultiPolygon","properties":{"source":"naturalearthdata.com","kind":"ocean","area":989871000000000,"sort_rank":200,"min_zoom":0,"id":1},"arcs":[[[0],[1],[2]]]},{"type":"MultiLineString","properties":{"source":"naturalearthdata.com","kind":"ocean","sort_rank":205,"boundary":true,"min_zoom":0,"id":1950},"arcs":[[3],[4]]},{"type":"LineString","properties":{"source":"naturalearthdata.com","kind":"ocean","sort_rank":205,"boundary":true,"min_zoom":0,"id":1964},"arcs":[5]},{"type":"LineString","properties":{"source":"naturalearthdata.com","kind":"ocean","sort_rank":205,"boundary":true,"min_zoom":0,"id":3503},"arcs":[6]}]},"buildings":{"type":"GeometryCollection","geometries":[]},"places":{"type":"GeometryCollection","geometries":[]},"transit":{"type":"GeometryCollection","geometries":[]},"pois":{"type":"GeometryCollection","geometries":[]},"boundaries":{"type":"GeometryCollection","geometries":[]},"roads":{"type":"GeometryCollection","geometries":[]},"earth":{"type":"GeometryCollection","geometries":[{"type":"MultiPolygon","properties":{"sort_rank":10,"source":"naturalearthdata.com","kind":"earth","min_zoom":4.0,"area":15774806584},"arcs":[[[7]]]},{"type":"MultiPolygon","properties":{"sort_rank":10,"source":"naturalearthdata.com","min_zoom":1.0,"kind":"earth","area":163947459751},"arcs":[[[8]]]},{"type":"MultiPolygon","properties":{"sort_rank":10,"source":"naturalearthdata.com","min_zoom":3.0,"kind":"earth","area":66069933958},"arcs":[[[9]]]}]},"landuse":{"type":"GeometryCollection","geometries":[]}},"type":"Topology","transform":{"translate":[146.25,74.0195433115],"scale":[0.002746582,0.0006887874]},"arcs":[[[0,1989],[0,2107],[4096,0],[0,-4096],[-4096,0],[0,1674],[145,-64],[112,-108],[48,-71],[83,-46],[74,-3],[53,-26],[24,-33],[-2,-10],[9,-11],[19,-11],[19,-30],[116,-123],[126,-22],[126,-22],[125,-22],[31,20],[154,-9],[5,6],[15,39],[9,13],[148,64],[148,64],[13,19],[13,39],[4,38],[-6,26],[-9,19],[-1,17],[2,8],[11,16],[2,0],[3,-1],[2,0],[1,6],[0,15],[24,29],[6,21],[-3,10],[12,42],[17,33],[19,20],[17,4],[-11,14],[-24,15],[-12,2],[-43,5],[-13,-10],[-3,-7],[-1,-9],[1,-11],[-2,-13],[-5,-13],[-5,-10],[-36,-31],[-13,-1],[-10,10],[7,12],[18,13],[8,14],[-53,9],[-55,45],[-19,4],[-18,-17],[5,9],[7,10],[6,11],[1,14],[-7,22],[-8,16],[-17,18],[-121,21],[-122,21],[-122,20],[-65,-44],[-17,-22],[-42,-6],[-30,10],[-11,-2],[-23,-13],[-19,10],[-1,8],[2,16],[-29,39],[-13,32],[5,34],[24,39],[7,5],[3,8],[10,52],[-12,4],[-50,52],[-104,-2],[-104,-1],[-55,33],[-114,-2],[-15,-15],[22,-19],[11,-15],[5,-25],[-21,5],[-7,6],[-1,5],[2,6],[0,5],[-4,2],[-29,-5],[-15,-14],[-14,-22],[-9,-28],[35,19],[18,0],[13,-29],[-8,-8],[-40,-5],[-22,-14],[-131,43],[-9,14],[-16,39],[-7,10],[-16,9],[-8,11],[-3,21],[3,14],[17,35],[-1,5],[-2,14],[8,0],[10,5],[8,11],[7,16],[-28,27],[-4,10],[-4,25],[-4,9],[-64,56],[-18,4],[-17,-17],[-13,-45],[-5,-46],[4,-32],[8,-23],[12,-19],[-10,-12],[-22,-5],[-10,-12],[-10,-22],[-5,-16],[2,-15],[11,-17],[-8,-17],[-5,-3]],[[1138,3947],[25,18],[3,26],[-19,2],[-152,-44],[-42,-8],[-29,-25],[-23,-28],[-39,-24],[-21,-13],[-33,-22],[-12,-22],[-2,-18],[8,-9],[52,-1],[69,10],[95,-2],[56,-2],[20,10],[3,17],[-9,33],[3,34],[6,28],[19,20],[22,20]],[[2412,3095],[-4,22],[4,21],[1,15],[-10,7],[-8,0],[-43,-14],[-33,-25],[-18,-24],[-5,-19],[10,-20],[44,-46],[25,-16],[19,8],[12,18],[9,22],[3,27],[-2,15],[-4,9]],[[1667,1661],[-43,5],[-13,-10],[-3,-7],[-1,-9],[1,-11],[-2,-13],[-5,-13],[-5,-10],[-36,-31],[-13,-1],[-10,10],[7,12],[18,13],[8,14],[-53,9],[-55,45],[-19,4],[-18,-17],[5,9],[7,10],[6,11],[1,14],[-7,22],[-8,16],[-17,18],[-121,21],[-122,21],[-122,20],[-65,-44],[-17,-22],[-42,-6],[-30,10],[-11,-2],[-23,-13],[-19,10],[-1,8],[2,16],[-29,39],[-13,32],[5,34],[24,39],[7,5],[3,8],[10,52],[-12,4],[-50,52],[-104,-2],[-104,-1],[-55,33],[-114,-2],[-15,-15],[22,-19],[11,-15],[5,-25],[-21,5],[-7,6],[-1,5],[2,6],[0,5],[-4,2],[-29,-5],[-15,-14],[-14,-22],[-9,-28],[35,19],[18,0],[13,-29],[-8,-8],[-40,-5],[-22,-14],[-131,43],[-9,14],[-16,39],[-7,10],[-16,9],[-8,11],[-3,21],[3,14],[17,35],[-1,5],[-2,14],[8,0],[10,5],[8,11],[7,16],[-28,27],[-4,10],[-4,25],[-4,9],[-64,56],[-18,4],[-17,-17],[-13,-45],[-5,-46],[4,-32],[8,-23],[12,-19],[-10,-12],[-22,-5],[-10,-12],[-10,-22],[-5,-16],[2,-15],[11,-17],[-8,-17],[-5,-3]],[[0,1674],[145,-64],[112,-108],[48,-71],[83,-46],[74,-3],[53,-26],[24,-33],[-2,-10],[9,-11],[19,-11],[19,-30],[116,-123],[126,-22],[126,-22],[125,-22],[31,20],[154,-9],[5,6],[15,39],[9,13],[148,64],[148,64],[13,19],[13,39],[4,38],[-6,26],[-9,19],[-1,17],[2,8],[11,16],[2,0],[3,-1],[2,0],[1,6],[0,15],[24,29],[6,21],[-3,10],[12,42],[17,33],[19,20],[17,4],[-11,14],[-24,15],[-12,2]],[[1138,3947],[25,18],[3,26],[-19,2],[-152,-44],[-42,-8],[-29,-25],[-23,-28],[-39,-24],[-21,-13],[-33,-22],[-12,-22],[-2,-18],[8,-9],[52,-1],[69,10],[95,-2],[56,-2],[20,10],[3,17],[-9,33],[3,34],[6,28],[19,20],[22,20]],[[2412,3095],[-4,22],[4,21],[1,15],[-10,7],[-8,0],[-43,-14],[-33,-25],[-18,-24],[-5,-19],[10,-20],[44,-46],[25,-16],[19,8],[12,18],[9,22],[3,27],[-2,15],[-4,9]],[[2412,3095],[4,-9],[2,-15],[-3,-27],[-9,-22],[-12,-18],[-19,-8],[-25,16],[-44,46],[-10,20],[5,19],[18,24],[33,25],[43,14],[8,0],[10,-7],[-1,-15],[-4,-21],[4,-22]],[[0,1674],[0,315],[5,3],[8,17],[-11,17],[-2,15],[5,16],[10,22],[10,12],[22,5],[10,12],[-12,19],[-8,23],[-4,32],[5,46],[13,45],[17,17],[18,-4],[64,-56],[4,-9],[4,-25],[4,-10],[28,-27],[-7,-16],[-8,-11],[-10,-5],[-8,0],[2,-14],[1,-5],[-17,-35],[-3,-14],[3,-21],[8,-11],[16,-9],[7,-10],[16,-39],[9,-14],[131,-43],[22,14],[40,5],[8,8],[-13,29],[-18,0],[-35,-19],[9,28],[14,22],[15,14],[29,5],[4,-2],[0,-5],[-2,-6],[1,-5],[7,-6],[21,-5],[-5,25],[-11,15],[-22,19],[15,15],[114,2],[55,-33],[104,1],[104,2],[50,-52],[12,-4],[-10,-52],[-3,-8],[-7,-5],[-24,-39],[-5,-34],[13,-32],[29,-39],[-2,-16],[1,-8],[19,-10],[23,13],[11,2],[30,-10],[42,6],[17,22],[65,44],[122,-20],[122,-21],[121,-21],[17,-18],[8,-16],[7,-22],[-1,-14],[-6,-11],[-7,-10],[-5,-9],[18,17],[19,-4],[55,-45],[53,-9],[-8,-14],[-18,-13],[-7,-12],[10,-10],[13,1],[36,31],[5,10],[5,13],[2,13],[-1,11],[1,9],[3,7],[13,10],[43,-5],[12,-2],[24,-15],[11,-14],[-17,-4],[-19,-20],[-17,-33],[-12,-42],[3,-10],[-6,-21],[-24,-29],[0,-15],[-1,-6],[-2,0],[-3,1],[-2,0],[-11,-16],[-2,-8],[1,-17],[9,-19],[6,-26],[-4,-38],[-13,-39],[-13,-19],[-148,-64],[-148,-64],[-9,-13],[-15,-39],[-5,-6],[-154,9],[-31,-20],[-125,22],[-126,22],[-126,22],[-116,123],[-19,30],[-19,11],[-9,11],[2,10],[-24,33],[-53,26],[-74,3],[-83,46],[-48,71],[-112,108],[-145,64]],[[1138,3947],[-22,-20],[-19,-20],[-6,-28],[-3,-34],[9,-33],[-3,-17],[-20,-10],[-56,2],[-95,2],[-69,-10],[-52,1],[-8,9],[2,18],[12,22],[33,22],[21,13],[39,24],[23,28],[29,25],[42,8],[152,44],[19,-2],[-3,-26],[-25,-18]]]}