{"objects":{"water":{"type":"GeometryCollection","geometries":[{"type":"Polygon","properties":{"source":"naturalearthdata.com","kind":"ocean","area":990044000000000,"sort_rank":200,"min_zoom":0,"id":1},"arcs":[[0],[1]]},{"type":"LineString","properties":{"source":"naturalearthdata.com","kind":"ocean","sort_rank":205,"boundary":true,"min_zoom":0,"id":63},"arcs":[2]}]},"buildings":{"type":"GeometryCollection","geometries":[]},"places":{"type":"GeometryCollection","geometries":[]},"transit":{"type":"GeometryCollection","geometries":[]},"pois":{"type":"GeometryCollection","geometries":[]},"boundaries":{"type":"GeometryCollection","geometries":[]},"roads":{"type":"GeometryCollection","geometries":[]},"earth":{"type":"GeometryCollection","geometries":[{"type":"MultiPolygon","properties":{"sort_rank":10,"source":"naturalearthdata.com","kind":"earth","min_zoom":2.0,"area":437295020042},"arcs":[[[3]]]}]},"landuse":{"type":"GeometryCollection","geometries":[]}},"type":"Topology","transform":{"translate":[-45.0,-55.7765730187],"scale":[0.0054931641,0.0036124695]},"arcs":[[[4096,0],[-4096,0],[0,4096],[4096,0],[0,-4096]],[[1330,454],[12,-9],[24,4],[62,-32],[13,-11],[14,-9],[22,1],[6,-8],[5,-10],[17,-17],[19,-9],[22,-4],[6,-6],[5,-10],[25,-34],[11,-24],[23,-20],[7,-4],[27,9],[13,11],[12,8],[-21,15],[-1,20],[4,23],[-12,-3],[-13,0],[-7,3],[-8,27],[-10,21],[-11,6],[-10,20],[-7,10],[-11,-7],[-4,-7],[-7,-2],[-17,17],[-19,-4],[7,20],[-18,23],[-10,0],[-8,2],[-8,4],[-15,1],[-14,-9],[-17,14],[-24,1],[-25,14],[-2,7],[-28,-2],[-75,-1],[-13,-3],[19,-6],[54,-4],[-13,-9],[-1,-17]],[[1657,338],[-12,-3],[-13,0],[-7,3],[-8,27],[-10,21],[-11,6],[-10,20],[-7,10],[-11,-7],[-4,-7],[-7,-2],[-17,17],[-19,-4],[7,20],[-18,23],[-10,0],[-8,2],[-8,4],[-15,1],[-14,-9],[-17,14],[-24,1],[-25,14],[-2,7],[-28,-2],[-75,-1],[-13,-3],[19,-6],[54,-4],[-13,-9],[-1,-17],[12,-9],[24,4],[62,-32],[13,-11],[14,-9],[22,1],[6,-8],[5,-10],[17,-17],[19,-9],[22,-4],[6,-6],[5,-10],[25,-34],[11,-24],[23,-20],[7,-4],[27,9],[13,11],[12,8],[-21,15],[-1,20],[4,23]],[[1438,474],[17,-14],[14,9],[15,-1],[8,-4],[8,-2],[10,0],[18,-23],[-7,-20],[19,4],[17,-17],[7,2],[4,7],[11,7],[7,-10],[10,-20],[11,-6],[10,-21],[8,-27],[7,-3],[13,0],[12,3],[-4,-23],[1,-20],[21,-15],[-12,-8],[-13,-11],[-27,-9],[-7,4],[-23,20],[-11,24],[-25,34],[-5,10],[-6,6],[-22,4],[-19,9],[-17,17],[-5,10],[-6,8],[-22,-1],[-14,9],[-13,11],[-62,32],[-24,-4],[-12,9],[1,17],[13,9],[-54,4],[-19,6],[13,3],[75,1],[28,2],[2,-7],[25,-14],[24,-1]]]}