{"objects":{"water":{"type":"GeometryCollection","geometries":[{"type":"Polygon","properties":{"source":"naturalearthdata.com","kind":"ocean","area":990044000000000,"sort_rank":200,"min_zoom":0,"id":1},"arcs":[[0],[1]]},{"type":"LineString","properties":{"source":"naturalearthdata.com","kind":"ocean","sort_rank":205,"boundary":true,"min_zoom":0,"id":316},"arcs":[2]},{"type":"Point","properties":{"label_placement":true,"alt_name:eo":"Skotia Maro","collision_rank":398,"name:ko":"\uc2a4\ucf54\uc0e4 \ud574","name:ar":"\u0628\u062d \u0633\u0643\u0648\u062a\u064a\u0627","name:cs":"mo\u0159e Scotia","min_zoom":3.0,"alt_name:cs":"Skotsk\u00e9 mo\u0159e","name:it":"Mare di Scotia","name:be":"\u041c\u043e\u0440\u0430 \u0421\u043a\u043e\u0448\u0430","name:ru":"\u041c\u043e\u0440\u0435 \u0421\u043a\u043e\u0448\u0430","name:pl":"Morze Scotia","id":305639392,"name:fa":"\u062f\u0631\u06cc\u0627\u06cc \u0627\u0633\u06a9\u0648\u0634\u06cc\u0627","sort_rank":200,"name:fi":"Skotianmeri","name:de":"Schottische See","source":"openstreetmap.org","name:fr":"Mer de Scotia","name:zh":"\u65af\u79d1\u820d\u6d77","name:sl":"\u0160kotsko morje","name:sk":"\u0160k\u00f3tske more","name:lt":"Skotijos j\u016bra","name:hi":"\u0938\u094d\u0915\u094b\u0936\u093f\u092f\u093e \u0938\u093e\u0917\u0930","name:he":"\u05d9\u05dd \u05e1\u05e7\u05d5\u05d8\u05d9\u05d4","kind":"sea","name:uk":"\u041c\u043e\u0440\u0435 \u0421\u043a\u043e\u0448\u0430","name:sv":"Scotiahavet","name:hu":"Scotia-tenger","name:hr":"\u0160kotsko more","name:eo":"Skoti\u015dipa Maro","name:en":"Scotia Sea","name":"Scotia Sea","wikidata_id":"Q204703","name:es":"Mar del Scotia"},"coordinates":[624,3370]}]},"buildings":{"type":"GeometryCollection","geometries":[]},"places":{"type":"GeometryCollection","geometries":[]},"transit":{"type":"GeometryCollection","geometries":[]},"pois":{"type":"GeometryCollection","geometries":[]},"boundaries":{"type":"GeometryCollection","geometries":[]},"roads":{"type":"GeometryCollection","geometries":[]},"earth":{"type":"GeometryCollection","geometries":[{"type":"MultiPolygon","properties":{"sort_rank":10,"source":"naturalearthdata.com","kind":"earth","min_zoom":4.0,"area":7877484944},"arcs":[[[3]]]}]},"landuse":{"type":"GeometryCollection","geometries":[]}},"type":"Topology","transform":{"translate":[-45.0,-66.5132604431],"scale":[0.0054931641,0.0026212616]},"arcs":[[[4096,0],[-4096,0],[0,4096],[4096,0],[0,-4096]],[[3383,3080],[29,-20],[-1,22],[-3,13],[-4,7],[-18,0],[-9,-13],[6,-9]],[[3404,3102],[-18,0],[-9,-13],[6,-9],[29,-20],[-1,22],[-3,13],[-4,7]],[[3411,3082],[1,-22],[-29,20],[-6,9],[9,13],[18,0],[4,-7],[3,-13]]]}