{"objects":{"water":{"type":"GeometryCollection","geometries":[{"type":"Polygon","properties":{"source":"naturalearthdata.com","kind":"ocean","area":990044000000000,"sort_rank":200,"min_zoom":0,"id":1},"arcs":[[0],[1],[2]]},{"type":"LineString","properties":{"source":"naturalearthdata.com","kind":"ocean","sort_rank":205,"boundary":true,"min_zoom":0,"id":122},"arcs":[3]},{"type":"LineString","properties":{"source":"naturalearthdata.com","kind":"ocean","sort_rank":205,"boundary":true,"min_zoom":0,"id":255},"arcs":[4]},{"type":"MultiLineString","properties":{"source":"naturalearthdata.com","kind":"ocean","sort_rank":205,"boundary":true,"min_zoom":0,"id":256},"arcs":[[5],[6]]},{"type":"LineString","properties":{"source":"naturalearthdata.com","kind":"ocean","sort_rank":205,"boundary":true,"min_zoom":0,"id":261},"arcs":[7]},{"type":"MultiLineString","properties":{"source":"naturalearthdata.com","kind":"ocean","sort_rank":205,"boundary":true,"min_zoom":0,"id":1386},"arcs":[[8],[9]]}]},"buildings":{"type":"GeometryCollection","geometries":[]},"places":{"type":"GeometryCollection","geometries":[]},"transit":{"type":"GeometryCollection","geometries":[]},"pois":{"type":"GeometryCollection","geometries":[]},"boundaries":{"type":"GeometryCollection","geometries":[]},"roads":{"type":"GeometryCollection","geometries":[]},"earth":{"type":"GeometryCollection","geometries":[{"type":"MultiPolygon","properties":{"sort_rank":10,"source":"naturalearthdata.com","kind":"earth","min_zoom":2.0,"area":437295020042},"arcs":[[[10]],[[11]]]},{"type":"MultiPolygon","properties":{"sort_rank":10,"source":"naturalearthdata.com","min_zoom":3.0,"kind":"earth","area":152379014469},"arcs":[[[12]]]},{"type":"MultiPolygon","properties":{"sort_rank":10,"source":"naturalearthdata.com","min_zoom":0,"kind":"earth","area":130720926000100},"arcs":[[[13]],[[14]],[[15]]]}]},"landuse":{"type":"GeometryCollection","geometries":[]}},"type":"Topology","transform":{"translate":[-45.0,-82.6762849783],"scale":[0.0054931641,0.0008557008]},"arcs":[[[2079,4096],[107,-67],[82,8],[136,59],[271,0],[23,-155],[-6,-212],[30,-117],[18,-16],[854,-191],[107,-14],[25,20],[42,-16],[39,-51],[124,-52],[-31,-123],[-81,-52],[-40,-62],[-926,-128],[-37,-12],[-48,-48],[-115,-66],[-107,-33],[-54,-166],[-59,6],[-113,-19],[-82,-62],[-64,-21],[-24,15],[-25,-25],[-186,-74],[-178,-55],[-35,-111],[-47,-78],[-34,-92],[-49,-34],[-49,-46],[-56,-17],[-73,-105],[-146,128],[-138,84],[-181,-174],[-123,-156],[-86,-8],[-39,-50],[-56,-97],[-50,-129],[-61,-222],[-95,-191],[-112,-299],[-89,-295],[-72,-72],[-41,16],[-30,-56],[-99,-78],[0,2479],[268,140],[7,16],[6,26],[0,38],[-6,32],[-49,88],[3,20],[7,15],[19,19],[19,5],[41,-10],[37,102],[14,105],[8,259],[-4,120],[-28,148],[-16,59],[-10,150],[1328,0],[-14,-11],[-35,-17],[-60,-16],[-6,-86],[22,-13],[442,-74],[21,43],[-2,17],[-9,32],[-72,65],[-81,60],[229,0]],[[2260,3527],[13,-29],[31,11],[62,78],[8,4],[5,42],[-40,44],[-41,-6],[-23,-67],[-15,-77]],[[2425,3555],[-58,-115],[32,-137],[41,-44],[137,-60],[77,-84],[71,87],[42,12],[15,-4],[19,23],[-47,101],[-144,105],[-21,101],[-15,-92],[4,-53],[-27,-55],[-24,23],[-88,180],[-14,12]],[[0,2764],[268,140],[7,16],[6,26],[0,38],[-6,32],[-49,88],[3,20],[7,15],[19,19],[19,5],[41,-10],[37,102],[14,105],[8,259],[-4,120],[-28,148],[-16,59],[-10,150]],[[2551,3340],[-24,23],[-88,180],[-14,12],[-58,-115],[32,-137],[41,-44],[137,-60],[77,-84],[71,87],[42,12],[15,-4],[19,23],[-47,101],[-144,105],[-21,101],[-15,-92],[4,-53],[-27,-55]],[[2003,3971],[-72,65],[-81,60]],[[1644,4096],[-14,-11],[-35,-17],[-60,-16],[-6,-86],[22,-13],[442,-74],[21,43],[-2,17],[-9,32]],[[2374,3591],[5,42],[-40,44],[-41,-6],[-23,-67],[-15,-77],[13,-29],[31,11],[62,78],[8,4]],[[0,285],[99,78],[30,56],[41,-16],[72,72],[89,295],[112,299],[95,191],[61,222],[50,129],[56,97],[39,50],[86,8],[123,156],[181,174],[138,-84],[146,-128],[73,105],[56,17],[49,46],[49,34],[34,92],[47,78],[35,111],[178,55],[186,74],[25,25],[24,-15],[64,21],[82,62],[113,19],[59,-6],[54,166],[107,33],[115,66],[48,48],[37,12],[926,128],[40,62],[81,52],[31,123],[-124,52],[-39,51],[-42,16],[-25,-20],[-107,14],[-854,191],[-18,16],[-30,117],[6,212],[-23,155]],[[2404,4096],[-136,-59],[-82,-8],[-107,67]],[[2527,3363],[24,-23],[27,55],[-4,53],[15,92],[21,-101],[144,-105],[47,-101],[-19,-23],[-15,4],[-42,-12],[-71,-87],[-77,84],[-137,60],[-41,44],[-32,137],[58,115],[14,-12],[88,-180]],[[1644,4096],[206,0],[81,-60],[72,-65],[9,-32],[2,-17],[-21,-43],[-442,74],[-22,13],[6,86],[60,16],[35,17],[14,11]],[[2304,3509],[-31,-11],[-13,29],[15,77],[23,67],[41,6],[40,-44],[-5,-42],[-8,-4],[-62,-78]],[[0,2764],[0,1332],[316,0],[10,-150],[16,-59],[28,-148],[4,-120],[-8,-259],[-14,-105],[-37,-102],[-41,10],[-19,-5],[-19,-19],[-7,-15],[-3,-20],[49,-88],[6,-32],[0,-38],[-6,-26],[-7,-16],[-268,-140]],[[2675,4096],[1421,0],[0,-4096],[-4096,0],[0,285],[99,78],[30,56],[41,-16],[72,72],[89,295],[112,299],[95,191],[61,222],[50,129],[56,97],[39,50],[86,8],[123,156],[181,174],[138,-84],[146,-128],[73,105],[56,17],[49,46],[49,34],[34,92],[47,78],[35,111],[178,55],[186,74],[25,25],[24,-15],[64,21],[82,62],[113,19],[59,-6],[54,166],[107,33],[115,66],[48,48],[37,12],[926,128],[40,62],[81,52],[31,123],[-124,52],[-39,51],[-42,16],[-25,-20],[-107,14],[-854,191],[-18,16],[-30,117],[6,212],[-23,155]],[[2079,4096],[325,0],[-136,-59],[-82,-8],[-107,67]]]}