{"objects":{"water":{"type":"GeometryCollection","geometries":[{"type":"MultiPolygon","properties":{"source":"naturalearthdata.com","kind":"ocean","area":990044000000000,"sort_rank":200,"min_zoom":0,"id":1},"arcs":[[[0]],[[1],[2]],[[3]],[[4]],[[5]]]},{"type":"LineString","properties":{"source":"naturalearthdata.com","kind":"ocean","sort_rank":205,"boundary":true,"min_zoom":0,"id":14},"arcs":[6]},{"type":"MultiLineString","properties":{"source":"naturalearthdata.com","kind":"ocean","sort_rank":205,"boundary":true,"min_zoom":0,"id":1351},"arcs":[[7],[8],[9],[10],[11]]}]},"buildings":{"type":"GeometryCollection","geometries":[]},"places":{"type":"GeometryCollection","geometries":[]},"transit":{"type":"GeometryCollection","geometries":[]},"pois":{"type":"GeometryCollection","geometries":[]},"boundaries":{"type":"GeometryCollection","geometries":[]},"roads":{"type":"GeometryCollection","geometries":[]},"earth":{"type":"GeometryCollection","geometries":[{"type":"MultiPolygon","properties":{"sort_rank":10,"source":"naturalearthdata.com","min_zoom":0,"kind":"earth","area":119982075948881},"arcs":[[[12]],[[13]]]}]},"landuse":{"type":"GeometryCollection","geometries":[]}},"type":"Topology","transform":{"translate":[-45.0,66.5132604431],"scale":[0.0054931641,0.0018325886]},"arcs":[[[4096,1889],[0,-1889],[-2191,0],[2,6],[9,37],[10,21],[19,3],[9,-6],[12,16],[18,39],[40,118],[50,127],[14,45],[6,33],[-4,20],[3,12],[8,6],[20,30],[10,24],[25,77],[9,17],[11,11],[23,12],[86,93],[14,6],[18,22],[20,37],[1,40],[-17,41],[-21,41],[2,6],[13,0],[11,6],[8,12],[-3,18],[-14,26],[-8,27],[-2,27],[35,-29],[72,-84],[58,-56],[46,-26],[35,-10],[23,6],[43,25],[1,24],[-19,34],[-1,14],[73,-31],[22,3],[26,40],[16,14],[18,7],[28,0],[52,-12],[32,5],[30,18],[42,16],[89,47],[44,18],[50,8],[106,49],[34,10],[48,28],[30,10],[31,2],[26,14],[20,27],[17,17],[33,19],[47,40],[13,21],[4,14],[4,36],[7,14],[49,25],[33,40],[2,15],[-19,37],[10,6],[48,12],[23,14],[53,48],[28,18],[14,21],[-1,27],[-5,19],[-8,12],[9,3],[55,-18],[16,5],[21,12],[6,21],[-10,30],[-10,20],[-9,10],[10,4],[47,-2],[58,28],[34,1],[6,6],[-13,43],[10,10],[39,12],[17,12],[20,5],[21,11]],[[4096,2352],[0,-382],[-123,-5],[-90,14],[-68,23],[-128,62],[-143,31],[-17,-3],[-97,-55],[-47,-14],[-61,12],[-50,-23],[-22,-33],[-23,-56],[-20,-25],[-45,20],[13,53],[42,50],[23,21],[24,14],[55,21],[35,20],[12,22],[-10,22],[-10,14],[-10,6],[-13,1],[-155,-37],[-76,-3],[-96,41],[-16,0],[-59,-16],[-21,-2],[6,9],[92,47],[21,15],[49,44],[14,24],[8,32],[9,45],[-3,30],[-22,16],[-32,14],[-20,23],[18,8],[75,-3],[36,-4],[65,-22],[49,-5],[63,3],[26,10],[76,45],[26,23],[50,49],[13,45],[-5,56],[-11,39],[-16,22],[-42,10],[-68,-2],[-52,4],[-68,17],[-10,38],[14,13],[14,2],[59,-25],[86,3],[60,-10],[41,-22],[39,-33],[34,-41],[41,-33],[46,-27],[40,-34],[33,-42],[21,-54],[6,-67],[18,-73],[29,-77],[33,-51],[84,-57],[25,-5],[45,5],[46,-8],[15,31],[10,124],[4,24],[1,23],[5,9]],[[3509,2471],[-17,1],[-95,-68],[-51,-24],[-65,-7],[-48,3],[-27,4],[-42,21],[-16,-9],[-7,-58],[6,-42],[-17,-39],[-24,-15],[-5,-11],[-13,-44],[0,-15],[6,-10],[19,-8],[38,14],[107,29],[91,12],[48,-23],[12,-31],[10,-1],[31,30],[25,35],[20,14],[73,30],[10,22],[-1,11],[-5,15],[-16,21],[8,8],[4,9],[1,13],[0,15],[-7,32],[-5,12],[-28,18],[-8,12],[-12,24]],[[4096,2723],[0,-7],[-1,5],[1,2]],[[4096,3081],[0,-134],[-11,8],[-56,23],[-16,16],[-61,44],[-54,32],[-38,34],[-81,60],[-32,20],[-28,39],[-17,10],[-33,-26],[-50,-24],[-15,25],[14,15],[53,29],[24,18],[10,42],[-22,156],[-4,11],[-4,7],[-31,-7],[-46,-25],[-22,-18],[-60,-7],[-75,-41],[-20,-15],[-34,-12],[-15,3],[-33,21],[82,43],[23,-1],[40,29],[110,42],[16,31],[32,18],[37,17],[29,-4],[15,-63],[35,-128],[52,-103],[39,-25],[33,-33],[85,-36],[91,-56],[38,-35]],[[4096,3697],[0,-158],[-64,46],[-26,48],[-45,12],[-39,36],[-46,32],[-35,44],[-42,6],[-83,7],[-85,-14],[-39,-19],[-24,-47],[-114,-42],[-32,-3],[-42,-12],[-58,-27],[-58,8],[-22,-2],[-29,-35],[-11,0],[-13,11],[-9,13],[-5,14],[16,12],[38,9],[37,1],[36,-6],[24,2],[13,12],[21,31],[-11,16],[-103,52],[-18,34],[53,-31],[38,-17],[66,-20],[43,-29],[20,-3],[58,13],[14,8],[39,54],[25,22],[52,30],[43,14],[2,15],[-24,22],[-67,87],[-27,30],[-18,25],[1,6],[31,-20],[44,-44],[37,-44],[22,-19],[20,-9],[20,2],[21,13],[20,24],[33,50],[73,-121],[96,-79],[44,-28],[89,-32]],[[3556,2328],[8,8],[4,9],[1,13],[0,15],[-7,32],[-5,12],[-28,18],[-8,12],[-12,24],[-17,1],[-95,-68],[-51,-24],[-65,-7],[-48,3],[-27,4],[-42,21],[-16,-9],[-7,-58],[6,-42],[-17,-39],[-24,-15],[-5,-11],[-13,-44],[0,-15],[6,-10],[19,-8],[38,14],[107,29],[91,12],[48,-23],[12,-31],[10,-1],[31,30],[25,35],[20,14],[73,30],[10,22],[-1,11],[-5,15],[-16,21]],[[4096,3697],[-89,32],[-44,28],[-96,79],[-73,121],[-33,-50],[-20,-24],[-21,-13],[-20,-2],[-20,9],[-22,19],[-37,44],[-44,44],[-31,20],[-1,-6],[18,-25],[27,-30],[67,-87],[24,-22],[-2,-15],[-43,-14],[-52,-30],[-25,-22],[-39,-54],[-14,-8],[-58,-13],[-20,3],[-43,29],[-66,20],[-38,17],[-53,31],[18,-34],[103,-52],[11,-16],[-21,-31],[-13,-12],[-24,-2],[-36,6],[-37,-1],[-38,-9],[-16,-12],[5,-14],[9,-13],[13,-11],[11,0],[29,35],[22,2],[58,-8],[58,27],[42,12],[32,3],[114,42],[24,47],[39,19],[85,14],[83,-7],[42,-6],[35,-44],[46,-32],[39,-36],[45,-12],[26,-48],[64,-46]],[[4096,3081],[-38,35],[-91,56],[-85,36],[-33,33],[-39,25],[-52,103],[-35,128],[-15,63],[-29,4],[-37,-17],[-32,-18],[-16,-31],[-110,-42],[-40,-29],[-23,1],[-82,-43],[33,-21],[15,-3],[34,12],[20,15],[75,41],[60,7],[22,18],[46,25],[31,7],[4,-7],[4,-11],[22,-156],[-10,-42],[-24,-18],[-53,-29],[-14,-15],[15,-25],[50,24],[33,26],[17,-10],[28,-39],[32,-20],[81,-60],[38,-34],[54,-32],[61,-44],[16,-16],[56,-23],[11,-8]],[[4096,2723],[-1,-2],[1,-5]],[[4096,2352],[-5,-9],[-1,-23],[-4,-24],[-10,-124],[-15,-31],[-46,8],[-45,-5],[-25,5],[-84,57],[-33,51],[-29,77],[-18,73],[-6,67],[-21,54],[-33,42],[-40,34],[-46,27],[-41,33],[-34,41],[-39,33],[-41,22],[-60,10],[-86,-3],[-59,25],[-14,-2],[-14,-13],[10,-38],[68,-17],[52,-4],[68,2],[42,-10],[16,-22],[11,-39],[5,-56],[-13,-45],[-50,-49],[-26,-23],[-76,-45],[-26,-10],[-63,-3],[-49,5],[-65,22],[-36,4],[-75,3],[-18,-8],[20,-23],[32,-14],[22,-16],[3,-30],[-9,-45],[-8,-32],[-14,-24],[-49,-44],[-21,-15],[-92,-47],[-6,-9],[21,2],[59,16],[16,0],[96,-41],[76,3],[155,37],[13,-1],[10,-6],[10,-14],[10,-22],[-12,-22],[-35,-20],[-55,-21],[-24,-14],[-23,-21],[-42,-50],[-13,-53],[45,-20],[20,25],[23,56],[22,33],[50,23],[61,-12],[47,14],[97,55],[17,3],[143,-31],[128,-62],[68,-23],[90,-14],[123,5]],[[4096,1889],[-21,-11],[-20,-5],[-17,-12],[-39,-12],[-10,-10],[13,-43],[-6,-6],[-34,-1],[-58,-28],[-47,2],[-10,-4],[9,-10],[10,-20],[10,-30],[-6,-21],[-21,-12],[-16,-5],[-55,18],[-9,-3],[8,-12],[5,-19],[1,-27],[-14,-21],[-28,-18],[-53,-48],[-23,-14],[-48,-12],[-10,-6],[19,-37],[-2,-15],[-33,-40],[-49,-25],[-7,-14],[-4,-36],[-4,-14],[-13,-21],[-47,-40],[-33,-19],[-17,-17],[-20,-27],[-26,-14],[-31,-2],[-30,-10],[-48,-28],[-34,-10],[-106,-49],[-50,-8],[-44,-18],[-89,-47],[-42,-16],[-30,-18],[-32,-5],[-52,12],[-28,0],[-18,-7],[-16,-14],[-26,-40],[-22,-3],[-73,31],[1,-14],[19,-34],[-1,-24],[-43,-25],[-23,-6],[-35,10],[-46,26],[-58,56],[-72,84],[-35,29],[2,-27],[8,-27],[14,-26],[3,-18],[-8,-12],[-11,-6],[-13,0],[-2,-6],[21,-41],[17,-41],[-1,-40],[-20,-37],[-18,-22],[-14,-6],[-86,-93],[-23,-12],[-11,-11],[-9,-17],[-25,-77],[-10,-24],[-20,-30],[-8,-6],[-3,-12],[4,-20],[-6,-33],[-14,-45],[-50,-127],[-40,-118],[-18,-39],[-12,-16],[-9,6],[-19,-3],[-10,-21],[-9,-37],[-2,-6]],[[3562,2405],[7,-32],[0,-15],[-1,-13],[-4,-9],[-8,-8],[16,-21],[5,-15],[1,-11],[-10,-22],[-73,-30],[-20,-14],[-25,-35],[-31,-30],[-10,1],[-12,31],[-48,23],[-91,-12],[-107,-29],[-38,-14],[-19,8],[-6,10],[0,15],[13,44],[5,11],[24,15],[17,39],[-6,42],[7,58],[16,9],[42,-21],[27,-4],[48,-3],[65,7],[51,24],[95,68],[17,-1],[12,-24],[8,-12],[28,-18],[5,-12]],[[4096,1970],[0,-81],[-21,-11],[-20,-5],[-17,-12],[-39,-12],[-10,-10],[13,-43],[-6,-6],[-34,-1],[-58,-28],[-47,2],[-10,-4],[9,-10],[10,-20],[10,-30],[-6,-21],[-21,-12],[-16,-5],[-55,18],[-9,-3],[8,-12],[5,-19],[1,-27],[-14,-21],[-28,-18],[-53,-48],[-23,-14],[-48,-12],[-10,-6],[19,-37],[-2,-15],[-33,-40],[-49,-25],[-7,-14],[-4,-36],[-4,-14],[-13,-21],[-47,-40],[-33,-19],[-17,-17],[-20,-27],[-26,-14],[-31,-2],[-30,-10],[-48,-28],[-34,-10],[-106,-49],[-50,-8],[-44,-18],[-89,-47],[-42,-16],[-30,-18],[-32,-5],[-52,12],[-28,0],[-18,-7],[-16,-14],[-26,-40],[-22,-3],[-73,31],[1,-14],[19,-34],[-1,-24],[-43,-25],[-23,-6],[-35,10],[-46,26],[-58,56],[-72,84],[-35,29],[2,-27],[8,-27],[14,-26],[3,-18],[-8,-12],[-11,-6],[-13,0],[-2,-6],[21,-41],[17,-41],[-1,-40],[-20,-37],[-18,-22],[-14,-6],[-86,-93],[-23,-12],[-11,-11],[-9,-17],[-25,-77],[-10,-24],[-20,-30],[-8,-6],[-3,-12],[4,-20],[-6,-33],[-14,-45],[-50,-127],[-40,-118],[-18,-39],[-12,-16],[-9,6],[-19,-3],[-10,-21],[-9,-37],[-2,-6],[-1905,0],[0,4096],[4096,0],[0,-399],[-89,32],[-44,28],[-96,79],[-73,121],[-33,-50],[-20,-24],[-21,-13],[-20,-2],[-20,9],[-22,19],[-37,44],[-44,44],[-31,20],[-1,-6],[18,-25],[27,-30],[67,-87],[24,-22],[-2,-15],[-43,-14],[-52,-30],[-25,-22],[-39,-54],[-14,-8],[-58,-13],[-20,3],[-43,29],[-66,20],[-38,17],[-53,31],[18,-34],[103,-52],[11,-16],[-21,-31],[-13,-12],[-24,-2],[-36,6],[-37,-1],[-38,-9],[-16,-12],[5,-14],[9,-13],[13,-11],[11,0],[29,35],[22,2],[58,-8],[58,27],[42,12],[32,3],[114,42],[24,47],[39,19],[85,14],[83,-7],[42,-6],[35,-44],[46,-32],[39,-36],[45,-12],[26,-48],[64,-46],[0,-458],[-38,35],[-91,56],[-85,36],[-33,33],[-39,25],[-52,103],[-35,128],[-15,63],[-29,4],[-37,-17],[-32,-18],[-16,-31],[-110,-42],[-40,-29],[-23,1],[-82,-43],[33,-21],[15,-3],[34,12],[20,15],[75,41],[60,7],[22,18],[46,25],[31,7],[4,-7],[4,-11],[22,-156],[-10,-42],[-24,-18],[-53,-29],[-14,-15],[15,-25],[50,24],[33,26],[17,-10],[28,-39],[32,-20],[81,-60],[38,-34],[54,-32],[61,-44],[16,-16],[56,-23],[11,-8],[0,-224],[-1,-2],[1,-5],[0,-364],[-5,-9],[-1,-23],[-4,-24],[-10,-124],[-15,-31],[-46,8],[-45,-5],[-25,5],[-84,57],[-33,51],[-29,77],[-18,73],[-6,67],[-21,54],[-33,42],[-40,34],[-46,27],[-41,33],[-34,41],[-39,33],[-41,22],[-60,10],[-86,-3],[-59,25],[-14,-2],[-14,-13],[10,-38],[68,-17],[52,-4],[68,2],[42,-10],[16,-22],[11,-39],[5,-56],[-13,-45],[-50,-49],[-26,-23],[-76,-45],[-26,-10],[-63,-3],[-49,5],[-65,22],[-36,4],[-75,3],[-18,-8],[20,-23],[32,-14],[22,-16],[3,-30],[-9,-45],[-8,-32],[-14,-24],[-49,-44],[-21,-15],[-92,-47],[-6,-9],[21,2],[59,16],[16,0],[96,-41],[76,3],[155,37],[13,-1],[10,-6],[10,-14],[10,-22],[-12,-22],[-35,-20],[-55,-21],[-24,-14],[-23,-21],[-42,-50],[-13,-53],[45,-20],[20,25],[23,56],[22,33],[50,23],[61,-12],[47,14],[97,55],[17,3],[143,-31],[128,-62],[68,-23],[90,-14],[123,5]]]}