{"objects":{"water":{"type":"GeometryCollection","geometries":[{"type":"MultiPolygon","properties":{"source":"naturalearthdata.com","kind":"ocean","area":990044000000000,"sort_rank":200,"min_zoom":0,"id":1},"arcs":[[[0],[1],[2],[3],[4],[5],[6],[7]]]},{"type":"LineString","properties":{"source":"naturalearthdata.com","kind":"ocean","sort_rank":205,"boundary":true,"min_zoom":0,"id":160},"arcs":[8]},{"type":"LineString","properties":{"source":"naturalearthdata.com","kind":"ocean","sort_rank":205,"boundary":true,"min_zoom":0,"id":975},"arcs":[9]},{"type":"LineString","properties":{"source":"naturalearthdata.com","kind":"ocean","sort_rank":205,"boundary":true,"min_zoom":0,"id":976},"arcs":[10]},{"type":"LineString","properties":{"source":"naturalearthdata.com","kind":"ocean","sort_rank":205,"boundary":true,"min_zoom":0,"id":977},"arcs":[11]},{"type":"LineString","properties":{"source":"naturalearthdata.com","kind":"ocean","sort_rank":205,"boundary":true,"min_zoom":0,"id":978},"arcs":[12]},{"type":"LineString","properties":{"source":"naturalearthdata.com","kind":"ocean","sort_rank":205,"boundary":true,"min_zoom":0,"id":979},"arcs":[13]},{"type":"LineString","properties":{"source":"naturalearthdata.com","kind":"ocean","sort_rank":205,"boundary":true,"min_zoom":0,"id":980},"arcs":[14]},{"type":"Point","properties":{"label_placement":true,"alt_name:eo":"Norda Atlantika Oceano","collision_rank":398,"name:ms":"Lautan Atlantik Utara","name:tr":"Kuzey Atlantik Okyanusu","name:ar":"\u0634\u0645\u0627\u0644 \u0627\u0644\u0645\u062d\u064a\u0637 \u0627\u0644\u0623\u0637\u0644\u0633\u064a","name:cs":"Severn\u00ed Atlantsk\u00fd oce\u00e1n","min_zoom":3.0,"name:vi":"B\u1eafc \u0110\u1ea1i T\u00e2y D\u01b0\u01a1ng","name:ru":"\u0421\u0435\u0432\u0435\u0440\u043d\u044b\u0439 \u0410\u0442\u043b\u0430\u043d\u0442\u0438\u0447\u0435\u0441\u043a\u0438\u0439 \u043e\u043a\u0435\u0430\u043d","name:pl":"P\u00f3\u0142nocny Atlantyk","id":305639726,"name:mk":"\u0421\u0435\u0432\u0435\u0440\u0435\u043d \u0410\u0442\u043b\u0430\u043d\u0442\u0441\u043a\u0438 \u041e\u043a\u0435\u0430\u043d","name:fa":"\u0627\u0642\u06cc\u0627\u0646\u0648\u0633 \u0627\u0637\u0644\u0633 \u0634\u0645\u0627\u0644\u06cc","sort_rank":200,"name:fi":"Pohjois-Atalannin valtameri","name:de":"Nordatlantischer Ozean","source":"openstreetmap.org","name:fr":"Oc\u00e9an Atlantique Nord","name:zh":"\u5317\u5927\u897f\u6d0b","name:sl":"Severni Atlantski ocean","name:sk":"Severn\u00fd Atlantick\u00fd oce\u00e1n","name:ja":"\u5317\u5927\u897f\u6d0b","name:lt":"\u0160iaur\u0117s Atlanto vandenynas","alt_name:de":"Nordatlantik","kind":"sea","name:be":"\u041f\u0430\u045e\u043d\u043e\u0447\u043d\u044b \u0410\u0442\u043b\u0430\u043d\u0442\u044b\u0447\u043d\u044b \u0430\u043a\u0456\u044f\u043d","name:hu":"\u00c9szak-Atlanti-\u00f3ce\u00e1n","name:hr":"Sjeverni Atlantski ocean","name:el":"\u0392\u03cc\u03c1\u03b5\u03b9\u03bf\u03c2 \u0391\u03c4\u03bb\u03b1\u03bd\u03c4\u03b9\u03ba\u03cc\u03c2 \u03a9\u03ba\u03b5\u03b1\u03bd\u03cc\u03c2","name:eo":"Norda Atlantiko","name:en":"North Atlantic Ocean","name":"Norda Atlantiko","name:is":"Nor\u00f0ur-Atlantshaf","name:ku":"Bakura Okyan\u00fbsa Atlant\u00eek","wikidata_id":"Q350134","alt_name:sl":"Severni Atlantik","name:nl":"Noord Atlantische Oceaan","name:es":"Oc\u00e9ano Atl\u00e1ntico Norte"},"coordinates":[910,3885]}]},"buildings":{"type":"GeometryCollection","geometries":[]},"places":{"type":"GeometryCollection","geometries":[]},"transit":{"type":"GeometryCollection","geometries":[]},"pois":{"type":"GeometryCollection","geometries":[]},"boundaries":{"type":"GeometryCollection","geometries":[]},"roads":{"type":"GeometryCollection","geometries":[]},"earth":{"type":"GeometryCollection","geometries":[{"type":"MultiPolygon","properties":{"sort_rank":10,"source":"naturalearthdata.com","kind":"earth","min_zoom":2.0,"area":465164376090},"arcs":[[[15]]]},{"type":"MultiPolygon","properties":{"sort_rank":10,"source":"naturalearthdata.com","min_zoom":3.0,"kind":"earth","area":261709008765},"arcs":[[[16]],[[17]],[[18]],[[19]],[[20]],[[21]]]}]},"landuse":{"type":"GeometryCollection","geometries":[{"type":"MultiPolygon","properties":{"kind":"nature_reserve","protect_class":"1","area":128517646814,"sort_rank":23,"source":"openstreetmap.org","min_zoom":4.0,"tier":2,"id":-5576598},"arcs":[[[22]]]},{"type":"MultiPolygon","properties":{"kind":"nature_reserve","protect_class":"4","area":816430041478,"sort_rank":23,"source":"openstreetmap.org","min_zoom":4.0,"tier":2,"id":-8890494},"arcs":[[[23]]]},{"type":"MultiPolygon","properties":{"kind":"nature_reserve","protect_class":"6","area":201157227755,"sort_rank":23,"source":"openstreetmap.org","min_zoom":4.0,"tier":2,"id":-7512405},"arcs":[[[24]],[[25],[26],[27]]]}]}},"type":"Topology","transform":{"translate":[-45.0,21.9430455334],"scale":[0.0054931641,0.0046476691]},"arcs":[[[4096,0],[-4096,0],[0,4096],[4096,0],[0,-4096]],[[2502,3751],[14,-4],[8,11],[-1,15],[-11,9],[-11,-5],[-4,-22],[5,-4]],[[3207,3620],[4,-15],[11,-8],[37,-6],[4,2],[6,8],[0,13],[-15,11],[-24,3],[-17,-3],[-6,-5]],[[3102,3592],[-64,23],[23,-19],[17,-8],[48,-16],[9,2],[-33,18]],[[3068,3552],[-46,22],[-20,0],[-7,-8],[3,-12],[14,-11],[22,1],[19,-6],[7,4],[23,2],[-15,8]],[[2984,3573],[-3,8],[-6,6],[-7,5],[-27,-8],[18,-17],[19,1],[6,5]],[[3487,3427],[2,-10],[18,-13],[54,-10],[34,4],[11,6],[2,16],[-16,2],[-58,-3],[-11,2],[-25,15],[-11,-4],[0,-5]],[[3605,3239],[7,-12],[13,2],[10,-2],[1,4],[-3,9],[-7,5],[-15,-1],[-6,-5]],[[3611,3244],[-6,-5],[7,-12],[13,2],[10,-2],[1,4],[-3,9],[-7,5],[-15,-1]],[[2501,3777],[-4,-22],[5,-4],[14,-4],[8,11],[-1,15],[-11,9],[-11,-5]],[[3254,3625],[-24,3],[-17,-3],[-6,-5],[4,-15],[11,-8],[37,-6],[4,2],[6,8],[0,13],[-15,11]],[[3038,3615],[23,-19],[17,-8],[48,-16],[9,2],[-33,18],[-64,23]],[[2968,3592],[-27,-8],[18,-17],[19,1],[6,5],[-3,8],[-6,6],[-7,5]],[[3022,3574],[-20,0],[-7,-8],[3,-12],[14,-11],[22,1],[19,-6],[7,4],[23,2],[-15,8],[-46,22]],[[3534,3419],[-11,2],[-25,15],[-11,-4],[0,-5],[2,-10],[18,-13],[54,-10],[34,4],[11,6],[2,16],[-16,2],[-58,-3]],[[3523,3421],[11,-2],[58,3],[16,-2],[-2,-16],[-11,-6],[-34,-4],[-54,10],[-18,13],[-2,10],[0,5],[11,4],[25,-15]],[[3636,3231],[-1,-4],[-10,2],[-13,-2],[-7,12],[6,5],[15,1],[7,-5],[3,-9]],[[3263,3593],[-4,-2],[-37,6],[-11,8],[-4,15],[6,5],[17,3],[24,-3],[15,-11],[0,-13],[-6,-8]],[[2524,3758],[-8,-11],[-14,4],[-5,4],[4,22],[11,5],[11,-9],[1,-15]],[[3068,3552],[15,-8],[-23,-2],[-7,-4],[-19,6],[-22,-1],[-14,11],[-3,12],[7,8],[20,0],[46,-22]],[[2978,3568],[-19,-1],[-18,17],[27,8],[7,-5],[6,-6],[3,-8],[-6,-5]],[[3135,3574],[-9,-2],[-48,16],[-17,8],[-23,19],[64,-23],[33,-18]],[[3231,3907],[0,122],[140,0],[0,-122],[-140,0]],[[2379,4096],[85,0],[0,-21],[-85,0],[0,21]],[[2458,2809],[218,0],[146,-215],[145,0],[37,323],[273,-22],[-109,-451],[109,-237],[-219,-323],[37,-301],[-237,-22],[55,388],[-55,129],[128,86],[0,194],[-346,21],[-164,215],[-18,215]],[[1969,3068],[191,208],[137,43],[161,150],[45,-68],[-200,-165],[-118,-32],[-173,-190],[-43,54]],[[2433,3408],[40,0],[0,27],[-40,0],[0,-27]],[[2300,3283],[33,0],[0,36],[-33,0],[0,-36]]]}