{"objects":{"water":{"type":"GeometryCollection","geometries":[{"type":"Polygon","properties":{"source":"naturalearthdata.com","kind":"ocean","area":990044000000000,"sort_rank":200,"min_zoom":0,"id":1},"arcs":[[3],[4]]},{"type":"LineString","properties":{"source":"naturalearthdata.com","kind":"ocean","sort_rank":205,"boundary":true,"min_zoom":0,"id":915},"arcs":[5]},{"type":"LineString","properties":{"source":"naturalearthdata.com","kind":"ocean","sort_rank":205,"boundary":true,"min_zoom":0,"id":1201},"arcs":[6]}]},"buildings":{"type":"GeometryCollection","geometries":[]},"places":{"type":"GeometryCollection","geometries":[{"type":"Point","properties":{"name:pt":"Rio de Janeiro","collision_rank":334,"name:nl":"Rio de Janeiro","name:id":"Rio de Janeiro","name":"Rio de Janeiro","name:hi":"\u0930\u093f\u092f\u094b \u0921\u093f \u091c\u0947\u0928\u0947\u0930\u094b","name:tr":"Rio de Janeiro","name:sv":"Rio de Janeiro","name:ar":"\u0631\u064a\u0648 \u062f\u064a \u062c\u0627\u0646\u064a\u0631\u0648","min_zoom":2.0,"name:it":"Rio de Janeiro","name:vi":"Rio de Janeiro","name:ru":"\u0420\u0438\u043e-\u0434\u0435-\u0416\u0430\u043d\u0435\u0439\u0440\u043e","name:pl":"Rio de Janeiro","name:hu":"Rio de Janeiro","id":7284,"name:ja":"\u30ea\u30aa\u30c7\u30b8\u30e3\u30cd\u30a4\u30ed","name:el":"\u03a1\u03af\u03bf \u03bd\u03c4\u03b5 \u03a4\u03b6\u03b1\u03bd\u03ad\u03b9\u03c1\u03bf","kind":"locality","name:en":"Rio de Janeiro","population_rank":14,"source":"naturalearthdata.com","region_capital":true,"name:bn":"\u09b0\u09bf\u0993 \u09a6\u09bf \u099c\u09c7\u09a8\u09c7\u09b0\u09bf\u0993","name:de":"Rio de Janeiro","name:ko":"\ub9ac\uc6b0\ub370\uc790\ub124\uc774\ub8e8","name:fr":"Rio de Janeiro","wikidata_id":"Q8678","population":11748000,"name:zh":"\u91cc\u7ea6\u70ed\u5185\u5362","name:es":"R\u00edo de Janeiro"},"coordinates":[323,3885]}]},"transit":{"type":"GeometryCollection","geometries":[]},"pois":{"type":"GeometryCollection","geometries":[]},"boundaries":{"type":"GeometryCollection","geometries":[{"type":"LineString","properties":{"sort_rank":256,"kind_detail":"4","kind":"region","min_zoom":2.0,"source":"naturalearthdata.com"},"arcs":[0]},{"type":"LineString","properties":{"sort_rank":256,"kind_detail":"4","kind":"region","min_zoom":2.0,"source":"naturalearthdata.com"},"arcs":[1]},{"type":"LineString","properties":{"sort_rank":256,"kind_detail":"4","kind":"region","min_zoom":2.0,"source":"naturalearthdata.com"},"arcs":[2]}]},"roads":{"type":"GeometryCollection","geometries":[]},"earth":{"type":"GeometryCollection","geometries":[{"type":"MultiPolygon","properties":{"sort_rank":10,"source":"naturalearthdata.com","min_zoom":3.0,"kind":"earth","area":152379014469},"arcs":[[[7]]]},{"type":"MultiPolygon","properties":{"sort_rank":10,"source":"naturalearthdata.com","min_zoom":0,"kind":"earth","area":130720926000100},"arcs":[[[8]]]}]},"landuse":{"type":"GeometryCollection","geometries":[{"type":"MultiPolygon","properties":{"kind":"protected_area","protect_class":"2","area":128912765571,"sort_rank":17,"operator":"Instituto Chico Mendes de Conserva\u00e7\u00e3o da Biodiversidade","source":"openstreetmap.org","min_zoom":4.0,"tier":2,"id":-3425638},"arcs":[[[9]]]},{"type":"MultiPolygon","properties":{"kind":"protected_area","protect_class":"5","area":91671077578,"sort_rank":17,"operator":"Instituto Chico Mendes de Conserva\u00e7\u00e3o da Biodiversidade","source":"openstreetmap.org","min_zoom":4.0,"tier":2,"id":-3426369},"arcs":[[[10]],[[11]]]},{"type":"Polygon","properties":{"kind":"nature_reserve","tier":2,"protect_class":"5","area":1471270000,"sort_rank":23,"source":"openstreetmap.org","min_zoom":4.0,"operator":"Secretaria de Estado do Meio Ambiente","id":493746478},"arcs":[[12]]},{"type":"MultiPolygon","properties":{"source":"naturalearthdata.com","kind":"urban_area","area":43063087643,"sort_rank":11,"min_zoom":4.0,"id":433},"arcs":[[[13]],[[14]],[[15]],[[16]],[[17]]]}]}},"type":"Topology","transform":{"translate":[-45.0,-40.9798980696],"scale":[0.0054931641,0.0046476691]},"arcs":[[[34,3805],[-9,20],[10,14],[2,32],[13,11],[25,13],[21,6],[21,-1],[15,7],[5,16],[14,10],[-8,23],[-59,-6],[-18,4],[-2,9],[-22,30],[-12,4]],[[30,3997],[19,9],[12,-2],[12,12],[12,3],[16,10],[28,3],[14,-2],[22,17],[36,14],[15,9],[45,0],[19,1],[22,12],[38,-5],[13,-8],[49,26]],[[30,3997],[-16,-10],[-14,-2]],[[0,3779],[9,8],[52,9],[8,5],[9,9],[-9,9],[-10,5],[-1,22],[8,11],[49,11],[40,-2],[18,14],[33,8],[30,-12],[5,-9],[-21,-8],[-20,2],[-13,-5],[13,-9],[30,7],[37,5],[30,10],[26,1],[6,12],[-3,13],[-5,10],[-1,8],[2,10],[14,5],[12,0],[4,-10],[-6,-17],[3,-11],[12,-9],[11,-5],[23,-2],[45,7],[84,0],[14,-1],[10,22],[9,12],[-8,11],[-2,20],[3,14],[50,58],[22,14],[84,35],[22,18],[2,12],[3366,0],[0,-4096],[-4096,0],[0,3779]],[[142,3851],[-4,2],[-6,-9],[-16,-12],[8,-9],[18,5],[12,5],[10,-1],[-5,6],[-12,6],[-5,7]],[[142,3851],[-4,2],[-6,-9],[-16,-12],[8,-9],[18,5],[12,5],[10,-1],[-5,6],[-12,6],[-5,7]],[[0,3779],[9,8],[52,9],[8,5],[9,9],[-9,9],[-10,5],[-1,22],[8,11],[49,11],[40,-2],[18,14],[33,8],[30,-12],[5,-9],[-21,-8],[-20,2],[-13,-5],[13,-9],[30,7],[37,5],[30,10],[26,1],[6,12],[-3,13],[-5,10],[-1,8],[2,10],[14,5],[12,0],[4,-10],[-6,-17],[3,-11],[12,-9],[11,-5],[23,-2],[45,7],[84,0],[14,-1],[10,22],[9,12],[-8,11],[-2,20],[3,14],[50,58],[22,14],[84,35],[22,18],[2,12]],[[159,3838],[5,-6],[-10,1],[-12,-5],[-18,-5],[-8,9],[16,12],[6,9],[4,-2],[5,-7],[12,-6]],[[0,3779],[0,317],[730,0],[-2,-12],[-22,-18],[-84,-35],[-22,-14],[-50,-58],[-3,-14],[2,-20],[8,-11],[-9,-12],[-10,-22],[-14,1],[-84,0],[-45,-7],[-23,2],[-11,5],[-12,9],[-3,11],[6,17],[-4,10],[-12,0],[-14,-5],[-2,-10],[1,-8],[5,-10],[3,-13],[-6,-12],[-26,-1],[-30,-10],[-37,-5],[-30,-7],[-13,9],[13,5],[20,-2],[21,8],[-5,9],[-30,12],[-33,-8],[-18,-14],[-40,2],[-49,-11],[-8,-11],[1,-22],[10,-5],[9,-9],[-9,-9],[-8,-5],[-52,-9],[-9,-8]],[[15,3802],[38,113],[24,15],[-4,-32],[28,-3],[0,-28],[-22,13],[-35,-31],[6,-60],[-35,13]],[[426,3949],[27,41],[97,-4],[-6,-42],[-29,18],[-26,-34],[-45,-5],[-18,26]],[[28,4096],[6,0],[55,-42],[49,34],[9,-35],[-31,-24],[19,-7],[-57,-24],[0,33],[-31,-8],[2,-39],[-49,-9],[0,11],[1,-3],[35,28],[-20,32],[12,53]],[[0,3784],[17,13],[39,-16],[-5,-46],[-51,0],[0,49]],[[549,3905],[-11,-25],[-21,19],[9,11],[23,-5]],[[494,3889],[-35,-8],[-5,10],[51,11],[-11,-13]],[[367,3890],[-21,11],[37,34],[7,-8],[-23,-37]],[[322,3931],[1,-61],[-53,-10],[9,28],[-1,0],[-38,-20],[-27,17],[31,33],[32,-10],[-16,29],[71,22],[-9,-28]],[[142,3968],[13,14],[20,-1],[-9,-16],[-24,3]]]}