{"objects":{"water":{"type":"GeometryCollection","geometries":[{"type":"MultiPolygon","properties":{"source":"naturalearthdata.com","kind":"ocean","area":989871000000000,"sort_rank":200,"min_zoom":0,"id":1},"arcs":[[[0]],[[1]]]},{"type":"MultiLineString","properties":{"source":"naturalearthdata.com","kind":"ocean","sort_rank":205,"boundary":true,"min_zoom":0,"id":3517},"arcs":[[2],[3]]}]},"buildings":{"type":"GeometryCollection","geometries":[]},"places":{"type":"GeometryCollection","geometries":[]},"transit":{"type":"GeometryCollection","geometries":[]},"pois":{"type":"GeometryCollection","geometries":[]},"boundaries":{"type":"GeometryCollection","geometries":[]},"roads":{"type":"GeometryCollection","geometries":[]},"earth":{"type":"GeometryCollection","geometries":[{"type":"Polygon","properties":{"sort_rank":10,"source":"naturalearthdata.com","min_zoom":0,"kind":"earth","area":92616631212867},"arcs":[[4]]}]},"landuse":{"type":"GeometryCollection","geometries":[]}},"type":"Topology","transform":{"translate":[56.25,-74.0195433115],"scale":[0.002746582,0.0008317698]},"arcs":[[[4096,2428],[0,-1519],[-58,-47],[-43,-12],[-21,13],[-1,43],[-27,-21],[-14,-1],[-12,16],[23,33],[8,23],[0,32],[-19,-19],[-10,-5],[-8,6],[-10,14],[-10,5],[-10,-1],[-67,-56],[-17,3],[-4,7],[-4,9],[-4,8],[-5,2],[-20,-12],[-10,-2],[-46,14],[-9,6],[-8,16],[-2,11],[-4,30],[-2,14],[-3,10],[-3,8],[-4,7],[-3,5],[7,3],[50,46],[6,12],[15,45],[6,8],[50,46],[60,27],[30,33],[13,26],[8,28],[12,78],[5,78],[9,43],[3,22],[4,47],[0,25],[-2,16],[-1,15],[18,68],[15,46],[3,15],[4,45],[4,18],[4,16],[6,13],[-6,13],[5,21],[24,66],[3,14],[3,16],[2,17],[-1,13],[-2,7],[-1,9],[4,48],[0,57],[2,25],[4,18],[2,9],[-1,9],[-2,11],[-1,10],[0,10],[2,13],[-22,10],[-7,16],[3,31],[8,12],[32,0],[10,9],[10,15],[3,8],[5,21],[3,8],[10,12],[5,9],[1,4]],[[4096,2592],[0,-77],[-10,27],[-9,11],[9,29],[10,10]],[[4096,909],[-58,-47],[-43,-12],[-21,13],[-1,43],[-27,-21],[-14,-1],[-12,16],[23,33],[8,23],[0,32],[-19,-19],[-10,-5],[-8,6],[-10,14],[-10,5],[-10,-1],[-67,-56],[-17,3],[-4,7],[-4,9],[-4,8],[-5,2],[-20,-12],[-10,-2],[-46,14],[-9,6],[-8,16],[-2,11],[-4,30],[-2,14],[-3,10],[-3,8],[-4,7],[-3,5],[7,3],[50,46],[6,12],[15,45],[6,8],[50,46],[60,27],[30,33],[13,26],[8,28],[12,78],[5,78],[9,43],[3,22],[4,47],[0,25],[-2,16],[-1,15],[18,68],[15,46],[3,15],[4,45],[4,18],[4,16],[6,13],[-6,13],[5,21],[24,66],[3,14],[3,16],[2,17],[-1,13],[-2,7],[-1,9],[4,48],[0,57],[2,25],[4,18],[2,9],[-1,9],[-2,11],[-1,10],[0,10],[2,13],[-22,10],[-7,16],[3,31],[8,12],[32,0],[10,9],[10,15],[3,8],[5,21],[3,8],[10,12],[5,9],[1,4]],[[4096,2515],[-10,27],[-9,11],[9,29],[10,10]],[[4096,2592],[-10,-10],[-9,-29],[9,-11],[10,-27],[0,-87],[-1,-4],[-5,-9],[-10,-12],[-3,-8],[-5,-21],[-3,-8],[-10,-15],[-10,-9],[-32,0],[-8,-12],[-3,-31],[7,-16],[22,-10],[-2,-13],[0,-10],[1,-10],[2,-11],[1,-9],[-2,-9],[-4,-18],[-2,-25],[0,-57],[-4,-48],[1,-9],[2,-7],[1,-13],[-2,-17],[-3,-16],[-3,-14],[-24,-66],[-5,-21],[6,-13],[-6,-13],[-4,-16],[-4,-18],[-4,-45],[-3,-15],[-15,-46],[-18,-68],[1,-15],[2,-16],[0,-25],[-4,-47],[-3,-22],[-9,-43],[-5,-78],[-12,-78],[-8,-28],[-13,-26],[-30,-33],[-60,-27],[-50,-46],[-6,-8],[-15,-45],[-6,-12],[-50,-46],[-7,-3],[3,-5],[4,-7],[3,-8],[3,-10],[2,-14],[4,-30],[2,-11],[8,-16],[9,-6],[46,-14],[10,2],[20,12],[5,-2],[4,-8],[4,-9],[4,-7],[17,-3],[67,56],[10,1],[10,-5],[10,-14],[8,-6],[10,5],[19,19],[0,-32],[-8,-23],[-23,-33],[12,-16],[14,1],[27,21],[1,-43],[21,-13],[43,12],[58,47],[0,-909],[-4096,0],[0,4096],[4096,0],[0,-1504]]]}