{"objects":{"water":{"type":"GeometryCollection","geometries":[{"type":"MultiPolygon","properties":{"source":"naturalearthdata.com","kind":"ocean","area":989871000000000,"sort_rank":200,"min_zoom":0,"id":1},"arcs":[[[0],[1],[2],[3],[4],[5],[6]]]},{"type":"LineString","properties":{"source":"naturalearthdata.com","kind":"ocean","sort_rank":205,"boundary":true,"min_zoom":0,"id":2000},"arcs":[7]},{"type":"LineString","properties":{"source":"naturalearthdata.com","kind":"ocean","sort_rank":205,"boundary":true,"min_zoom":0,"id":2002},"arcs":[8]},{"type":"LineString","properties":{"source":"naturalearthdata.com","kind":"ocean","sort_rank":205,"boundary":true,"min_zoom":0,"id":2003},"arcs":[9]},{"type":"MultiLineString","properties":{"source":"naturalearthdata.com","kind":"ocean","sort_rank":205,"boundary":true,"min_zoom":0,"id":2007},"arcs":[[10],[11]]},{"type":"MultiLineString","properties":{"source":"naturalearthdata.com","kind":"ocean","sort_rank":205,"boundary":true,"min_zoom":0,"id":2008},"arcs":[[12],[13]]},{"type":"LineString","properties":{"source":"naturalearthdata.com","kind":"ocean","sort_rank":205,"boundary":true,"min_zoom":0,"id":2009},"arcs":[14]},{"type":"LineString","properties":{"source":"naturalearthdata.com","kind":"ocean","sort_rank":205,"boundary":true,"min_zoom":0,"id":3005},"arcs":[15]},{"type":"LineString","properties":{"source":"naturalearthdata.com","kind":"ocean","sort_rank":205,"boundary":true,"min_zoom":0,"id":3006},"arcs":[16]},{"type":"LineString","properties":{"source":"naturalearthdata.com","kind":"ocean","sort_rank":205,"boundary":true,"min_zoom":0,"id":3008},"arcs":[17]},{"type":"MultiLineString","properties":{"source":"naturalearthdata.com","kind":"ocean","sort_rank":205,"boundary":true,"min_zoom":0,"id":3010},"arcs":[[18],[19]]},{"type":"MultiLineString","properties":{"source":"naturalearthdata.com","kind":"ocean","sort_rank":205,"boundary":true,"min_zoom":0,"id":3011},"arcs":[[20],[21]]},{"type":"LineString","properties":{"source":"naturalearthdata.com","kind":"ocean","sort_rank":205,"boundary":true,"min_zoom":0,"id":3506},"arcs":[22]},{"type":"LineString","properties":{"source":"naturalearthdata.com","kind":"ocean","sort_rank":205,"boundary":true,"min_zoom":0,"id":3507},"arcs":[23]}]},"buildings":{"type":"GeometryCollection","geometries":[]},"places":{"type":"GeometryCollection","geometries":[]},"transit":{"type":"GeometryCollection","geometries":[]},"pois":{"type":"GeometryCollection","geometries":[]},"boundaries":{"type":"GeometryCollection","geometries":[]},"roads":{"type":"GeometryCollection","geometries":[]},"earth":{"type":"GeometryCollection","geometries":[{"type":"MultiPolygon","properties":{"sort_rank":10,"source":"naturalearthdata.com","min_zoom":1.5,"kind":"earth","area":142231961128},"arcs":[[[24]],[[25]]]},{"type":"MultiPolygon","properties":{"sort_rank":10,"source":"naturalearthdata.com","kind":"earth","min_zoom":2.0,"area":372226641930},"arcs":[[[26]],[[27]],[[28]],[[29]],[[30]],[[31]],[[32]]]},{"type":"MultiPolygon","properties":{"sort_rank":10,"source":"naturalearthdata.com","kind":"earth","min_zoom":4.0,"area":36266068607},"arcs":[[[33]]]},{"type":"MultiPolygon","properties":{"sort_rank":10,"source":"naturalearthdata.com","kind":"earth","min_zoom":5.0,"area":29754728941},"arcs":[[[34]]]},{"type":"MultiPolygon","properties":{"sort_rank":10,"source":"naturalearthdata.com","min_zoom":3.0,"kind":"earth","area":203468181153},"arcs":[[[35]],[[36]]]}]},"landuse":{"type":"GeometryCollection","geometries":[{"type":"MultiPolygon","properties":{"kind":"nature_reserve","protect_class":"2","area":5534799985934,"sort_rank":23,"source":"openstreetmap.org","min_zoom":4.0,"tier":2,"id":-7008461},"arcs":[[[37]]]}]}},"type":"Topology","transform":{"translate":[56.25,79.1713346408],"scale":[0.002746582,0.0004692088]},"arcs":[[[3301,4096],[795,0],[0,-4096],[-4096,0],[0,1926],[13,-1],[122,-9],[122,-9],[44,36],[15,28],[7,46],[-10,11],[-13,30],[-10,37],[3,29],[24,25],[6,15],[6,26],[-2,18],[-6,10],[-8,3],[-4,16],[-4,37],[-1,42],[1,30],[14,52],[2,21],[-12,83],[-28,40],[-113,9],[-8,-17],[1,-35],[-18,-41],[-93,28],[-50,15],[0,655],[23,6],[13,-34],[-2,-7],[-5,-23],[109,41],[109,40],[4,13],[-1,19],[-1,14],[1,10],[3,10],[-36,72],[-61,57],[-39,6],[-5,13],[7,26],[-17,25],[-102,-21],[0,114],[152,-46],[8,-20],[2,-16],[0,-7],[1,-5],[3,-9],[4,-7],[46,-37],[60,-132],[18,-17],[92,60],[92,60],[26,52],[18,10],[8,11],[4,23],[-6,35],[-7,15],[-125,90],[-125,90],[-125,90],[-10,81],[-110,66],[-26,16],[0,132],[81,-47],[119,-69],[8,-18],[9,-12],[18,6],[8,-17],[-8,-12],[1,-21],[6,-23],[6,-16],[10,-14],[20,-13],[48,0],[20,-17],[12,-44],[-6,-31],[-7,-27],[12,2],[39,-32],[38,-17],[34,-45],[110,-20],[12,13],[35,61],[103,62],[12,20],[-97,47],[-97,47],[-26,59],[-4,16],[-5,30],[-3,9],[-142,86],[-29,-16],[-84,33],[-41,44],[423,0],[3,-19],[-50,-41],[-7,-12],[-2,-25],[15,-37],[135,-160],[42,-20],[71,24],[15,37],[1,43],[33,64],[-16,41],[-106,72],[-49,33],[882,0],[-14,-2],[-38,-50],[-74,-38],[-17,-31],[-18,-29],[-53,-31],[-14,-27],[17,-34],[67,-16],[32,-50],[118,-29],[117,-28],[111,117],[112,116],[7,24],[3,27],[0,23],[-2,17],[-6,7],[8,26],[3,8],[905,0],[4,-23],[16,-14],[8,-11],[7,-29],[-6,-8],[-2,-21],[-1,-26],[-3,-26],[-6,-19],[-48,-50],[-163,-16],[-163,-17],[-38,-48],[-36,-82],[-20,-26],[-41,-27],[-88,-89],[-4,-7],[-3,-13],[-2,-21],[2,-30],[8,-12],[31,-14],[94,-123],[93,-122],[101,47],[101,47],[33,-29],[118,29],[119,29],[28,31],[30,0],[30,45],[121,69],[9,13],[7,19],[6,20],[6,17],[28,18],[106,149],[6,13],[1,20],[-4,33],[-11,47],[-13,29],[-14,15],[-16,5],[53,58],[-5,30],[-7,20],[-16,30],[-21,70]],[[2174,3499],[-5,20],[-51,122],[-169,34],[-15,-7],[-11,-29],[2,-8],[3,-21],[-179,-45],[-178,-45],[-69,-69],[-5,-1],[-4,3],[0,8],[1,10],[-1,8],[-14,15],[-125,-2],[26,30],[79,15],[-12,37],[-19,12],[-117,-25],[-14,-20],[-8,-4],[-26,15],[-9,-2],[-50,-62],[-18,-9],[23,-29],[-13,-57],[-47,-28],[-17,-49],[2,-13],[-7,-16],[-16,-13],[-7,-16],[7,-23],[3,-5],[-7,-19],[-20,-36],[-5,-18],[3,-18],[22,-57],[-11,-42],[9,-34],[18,-21],[14,-4],[-4,-24],[-19,-33],[-13,-1],[-7,-8],[-5,-21],[93,-99],[51,-110],[18,-9],[101,34],[24,31],[35,12],[12,13],[11,26],[-3,15],[46,15],[93,-104],[176,-88],[14,11],[26,51],[46,27],[17,22],[13,35],[6,23],[1,13],[-3,7],[-36,16],[13,20],[107,39],[-7,57],[8,24],[29,21],[0,5],[3,24],[1,7],[3,7],[133,36],[16,18],[11,35],[-20,22],[-20,35],[50,103],[21,29],[10,29],[6,44],[0,47],[-7,18],[-9,13],[-4,31]],[[685,3430],[106,-68],[44,12],[56,52],[29,8],[43,-19],[14,15],[20,49],[6,31],[3,11],[6,2],[-9,24],[-9,50],[-7,27],[-12,22],[-66,44],[-107,-34],[-108,-33],[-51,-65],[-26,-8],[-11,-17],[-26,-9],[-10,-32],[10,-30],[14,-18],[76,1],[15,-15]],[[1002,1725],[54,-55],[18,-3],[-7,-23],[-3,-7],[13,-22],[60,-20],[11,5],[11,24],[3,31],[13,2],[24,-20],[71,44],[45,60],[24,14],[-6,23],[-15,8],[-7,13],[-5,25],[1,12],[2,10],[-1,18],[-1,14],[1,18],[0,21],[-4,20],[-8,19],[-8,11],[-72,31],[-22,26],[-133,-83],[-134,-82],[-6,-13],[-4,-35],[9,-21],[76,-65]],[[466,2046],[13,-6],[54,-63],[93,0],[17,26],[-9,13],[-3,17],[-2,23],[-3,27],[-5,12],[-15,19],[-3,20],[3,24],[7,18],[8,10],[31,19],[2,-2],[2,-6],[5,-26],[2,-6],[2,-4],[4,-4],[20,-7],[40,14],[56,-45],[15,30],[-5,13],[-3,2],[15,48],[3,28],[-5,27],[-12,15],[-111,0],[-11,13],[-6,29],[6,5],[11,31],[6,8],[7,3],[13,16],[46,26],[26,36],[12,4],[48,-15],[11,13],[1,34],[125,-8],[125,-8],[-5,29],[-9,34],[-10,29],[-6,12],[-108,103],[-45,3],[-34,38],[-42,9],[-41,38],[-137,7],[-137,7],[-137,7],[-138,7],[95,-121],[13,-28],[12,-42],[-30,-59],[6,-22],[17,-43],[1,-16],[-1,-22],[-5,-44],[9,-19],[0,-37],[-7,-37],[-10,-22],[7,-20],[17,-27],[6,-25],[-8,-36],[-1,-26],[5,-20],[32,-54],[7,-19],[10,-15],[38,8]],[[934,1589],[-9,0],[-9,3],[-18,23],[-29,64],[0,14],[3,13],[0,8],[-5,6],[-6,2],[-132,-85],[-1,-13],[102,0],[20,-15],[13,-29],[6,-28],[6,-14],[40,-21],[17,5],[4,2],[18,32],[-3,20],[-17,13]],[[1426,2125],[-24,33],[-18,8],[-55,-10],[-3,-16],[4,-17],[33,-44],[65,-17],[10,8],[4,14],[-4,17],[-12,24]],[[0,3156],[23,6],[13,-34],[-2,-7],[-5,-23],[109,41],[109,40],[4,13],[-1,19],[-1,14],[1,10],[3,10],[-36,72],[-61,57],[-39,6],[-5,13],[7,26],[-17,25],[-102,-21]],[[2174,3499],[-5,20],[-51,122],[-169,34],[-15,-7],[-11,-29],[2,-8],[3,-21],[-179,-45],[-178,-45],[-69,-69],[-5,-1],[-4,3],[0,8],[1,10],[-1,8],[-14,15],[-125,-2],[26,30],[79,15],[-12,37],[-19,12],[-117,-25],[-14,-20],[-8,-4],[-26,15],[-9,-2],[-50,-62],[-18,-9],[23,-29],[-13,-57],[-47,-28],[-17,-49],[2,-13],[-7,-16],[-16,-13],[-7,-16],[7,-23],[3,-5],[-7,-19],[-20,-36],[-5,-18],[3,-18],[22,-57],[-11,-42],[9,-34],[18,-21],[14,-4],[-4,-24],[-19,-33],[-13,-1],[-7,-8],[-5,-21],[93,-99],[51,-110],[18,-9],[101,34],[24,31],[35,12],[12,13],[11,26],[-3,15],[46,15],[93,-104],[176,-88],[14,11],[26,51],[46,27],[17,22],[13,35],[6,23],[1,13],[-3,7],[-36,16],[13,20],[107,39],[-7,57],[8,24],[29,21],[0,5],[3,24],[1,7],[3,7],[133,36],[16,18],[11,35],[-20,22],[-20,35],[50,103],[21,29],[10,29],[6,44],[0,47],[-7,18],[-9,13],[-4,31]],[[685,3430],[106,-68],[44,12],[56,52],[29,8],[43,-19],[14,15],[20,49],[6,31],[3,11],[6,2],[-9,24],[-9,50],[-7,27],[-12,22],[-66,44],[-107,-34],[-108,-33],[-51,-65],[-26,-8],[-11,-17],[-26,-9],[-10,-32],[10,-30],[14,-18],[76,1],[15,-15]],[[875,3991],[-106,72],[-49,33]],[[635,4096],[3,-19],[-50,-41],[-7,-12],[-2,-25],[15,-37],[135,-160],[42,-20],[71,24],[15,37],[1,43],[33,64],[-16,41]],[[396,3667],[38,-17],[34,-45],[110,-20],[12,13],[35,61],[103,62],[12,20],[-97,47],[-97,47],[-26,59],[-4,16],[-5,30],[-3,9],[-142,86],[-29,-16],[-84,33],[-41,44]],[[0,4072],[81,-47],[119,-69],[8,-18],[9,-12],[18,6],[8,-17],[-8,-12],[1,-21],[6,-23],[6,-16],[10,-14],[20,-13],[48,0],[20,-17],[12,-44],[-6,-31],[-7,-27],[12,2],[39,-32]],[[0,3537],[152,-46],[8,-20],[2,-16],[0,-7],[1,-5],[3,-9],[4,-7],[46,-37],[60,-132],[18,-17],[92,60],[92,60],[26,52],[18,10],[8,11],[4,23],[-6,35],[-7,15],[-125,90],[-125,90],[-125,90],[-10,81],[-110,66],[-26,16]],[[1002,1725],[-76,65],[-9,21],[4,35],[6,13],[134,82],[133,83],[22,-26],[72,-31],[8,-11],[8,-19],[4,-20],[0,-21],[-1,-18],[1,-14],[1,-18],[-2,-10],[-1,-12],[5,-25],[7,-13],[15,-8],[6,-23],[-24,-14],[-45,-60],[-71,-44],[-24,20],[-13,-2],[-3,-31],[-11,-24],[-11,-5],[-60,20],[-13,22],[3,7],[7,23],[-18,3],[-54,55]],[[0,2501],[50,-15],[93,-28],[18,41],[-1,35],[8,17],[113,-9],[28,-40],[12,-83],[-2,-21],[-14,-52],[-1,-30],[1,-42],[4,-37],[4,-16],[8,-3],[6,-10],[2,-18],[-6,-26],[-6,-15],[-24,-25],[-3,-29],[10,-37],[13,-30],[10,-11],[-7,-46],[-15,-28],[-44,-36],[-122,9],[-122,9],[-13,1]],[[466,2046],[-38,-8],[-10,15],[-7,19],[-32,54],[-5,20],[1,26],[8,36],[-6,25],[-17,27],[-7,20],[10,22],[7,37],[0,37],[-9,19],[5,44],[1,22],[-1,16],[-17,43],[-6,22],[30,59],[-12,42],[-13,28],[-95,121],[138,-7],[137,-7],[137,-7],[137,-7],[41,-38],[42,-9],[34,-38],[45,-3],[108,-103],[6,-12],[10,-29],[9,-34],[5,-29],[-125,8],[-125,8],[-1,-34],[-11,-13],[-48,15],[-12,-4],[-26,-36],[-46,-26],[-13,-16],[-7,-3],[-6,-8],[-11,-31],[-6,-5],[6,-29],[11,-13],[111,0],[12,-15],[5,-27],[-3,-28],[-15,-48],[3,-2],[5,-13],[-15,-30],[-56,45],[-40,-14],[-20,7],[-4,4],[-2,4],[-2,6],[-5,26],[-2,6],[-2,2],[-31,-19],[-8,-10],[-7,-18],[-3,-24],[3,-20],[15,-19],[5,-12],[3,-27],[2,-23],[3,-17],[9,-13],[-17,-26],[-93,0],[-54,63],[-13,6]],[[1459,3975],[17,31],[74,38],[38,50],[14,2]],[[1961,4096],[-3,-8],[-8,-26],[6,-7],[2,-17],[0,-23],[-3,-27],[-7,-24],[-112,-116],[-111,-117],[-117,28],[-118,29],[-32,50],[-67,16],[-17,34],[14,27],[53,31],[18,29]],[[2374,3653],[41,27],[20,26],[36,82],[38,48],[163,17],[163,16],[48,50],[6,19],[3,26],[1,26],[2,21],[6,8],[-7,29],[-8,11],[-16,14],[-4,23]],[[3301,4096],[21,-70],[16,-30],[7,-20],[5,-30],[-53,-58],[16,-5],[14,-15],[13,-29],[11,-47],[4,-33],[-1,-20],[-6,-13],[-106,-149],[-28,-18],[-6,-17],[-6,-20],[-7,-19],[-9,-13],[-121,-69],[-30,-45],[-30,0],[-28,-31],[-119,-29],[-118,-29],[-33,29],[-101,-47],[-101,-47],[-93,122],[-94,123],[-31,14],[-8,12],[-2,30],[2,21],[3,13],[4,7],[88,89]],[[934,1589],[-9,0],[-9,3],[-18,23],[-29,64],[0,14],[3,13],[0,8],[-5,6],[-6,2],[-132,-85],[-1,-13],[102,0],[20,-15],[13,-29],[6,-28],[6,-14],[40,-21],[17,5],[4,2],[18,32],[-3,20],[-17,13]],[[1426,2125],[-24,33],[-18,8],[-55,-10],[-3,-16],[4,-17],[33,-44],[65,-17],[10,8],[4,14],[-4,17],[-12,24]],[[2174,3499],[4,-31],[9,-13],[7,-18],[0,-47],[-6,-44],[-10,-29],[-21,-29],[-50,-103],[20,-35],[20,-22],[-11,-35],[-16,-18],[-133,-36],[-3,-7],[-1,-7],[-3,-24],[0,-5],[-29,-21],[-8,-24],[7,-57],[-107,-39],[-13,-20],[36,-16],[3,-7],[-1,-13],[-6,-23],[-13,-35],[-17,-22],[-46,-27],[-26,-51],[-14,-11],[-176,88],[-93,104],[-46,-15],[3,-15],[-11,-26],[-12,-13],[-35,-12],[-24,-31],[-101,-34],[-18,9],[-51,110],[-93,99],[5,21],[7,8],[13,1],[19,33],[4,24],[-14,4],[-18,21],[-9,34],[11,42],[-22,57],[-3,18],[5,18],[20,36],[7,19],[-3,5],[-7,23],[7,16],[16,13],[7,16],[-2,13],[17,49],[47,28],[13,57],[-23,29],[18,9],[50,62],[9,2],[26,-15],[8,4],[14,20],[117,25],[19,-12],[12,-37],[-79,-15],[-26,-30],[125,2],[14,-15],[1,-8],[-1,-10],[0,-8],[4,-3],[5,1],[69,69],[178,45],[179,45],[-3,21],[-2,8],[11,29],[15,7],[169,-34],[51,-122],[5,-20]],[[2866,4096],[435,0],[21,-70],[16,-30],[7,-20],[5,-30],[-53,-58],[16,-5],[14,-15],[13,-29],[11,-47],[4,-33],[-1,-20],[-6,-13],[-106,-149],[-28,-18],[-6,-17],[-6,-20],[-7,-19],[-9,-13],[-121,-69],[-30,-45],[-30,0],[-28,-31],[-119,-29],[-118,-29],[-33,29],[-101,-47],[-101,-47],[-93,122],[-94,123],[-31,14],[-8,12],[-2,30],[2,21],[3,13],[4,7],[88,89],[41,27],[20,26],[36,82],[38,48],[163,17],[163,16],[48,50],[6,19],[3,26],[1,26],[2,21],[6,8],[-7,29],[-8,11],[-16,14],[-4,23]],[[0,1926],[0,575],[50,-15],[93,-28],[18,41],[-1,35],[8,17],[113,-9],[28,-40],[12,-83],[-2,-21],[-14,-52],[-1,-30],[1,-42],[4,-37],[4,-16],[8,-3],[6,-10],[2,-18],[-6,-26],[-6,-15],[-24,-25],[-3,-29],[10,-37],[13,-30],[10,-11],[-7,-46],[-15,-28],[-44,-36],[-122,9],[-122,9],[-13,1]],[[466,2046],[-38,-8],[-10,15],[-7,19],[-32,54],[-5,20],[1,26],[8,36],[-6,25],[-17,27],[-7,20],[10,22],[7,37],[0,37],[-9,19],[5,44],[1,22],[-1,16],[-17,43],[-6,22],[30,59],[-12,42],[-13,28],[-95,121],[138,-7],[137,-7],[137,-7],[137,-7],[41,-38],[42,-9],[34,-38],[45,-3],[108,-103],[6,-12],[10,-29],[9,-34],[5,-29],[-125,8],[-125,8],[-1,-34],[-11,-13],[-48,15],[-12,-4],[-26,-36],[-46,-26],[-13,-16],[-7,-3],[-6,-8],[-11,-31],[-6,-5],[6,-29],[11,-13],[111,0],[12,-15],[5,-27],[-3,-28],[-15,-48],[3,-2],[5,-13],[-15,-30],[-56,45],[-40,-14],[-20,7],[-4,4],[-2,4],[-2,6],[-5,26],[-2,6],[-2,2],[-31,-19],[-8,-10],[-7,-18],[-3,-24],[3,-20],[15,-19],[5,-12],[3,-27],[2,-23],[3,-17],[9,-13],[-17,-26],[-93,0],[-54,63],[-13,6]],[[0,3156],[0,267],[102,21],[17,-25],[-7,-26],[5,-13],[39,-6],[61,-57],[36,-72],[-3,-10],[-1,-10],[1,-14],[1,-19],[-4,-13],[-109,-40],[-109,-41],[5,23],[2,7],[-13,34],[-23,-6]],[[685,3430],[-15,15],[-76,-1],[-14,18],[-10,30],[10,32],[26,9],[11,17],[26,8],[51,65],[108,33],[107,34],[66,-44],[12,-22],[7,-27],[9,-50],[9,-24],[-6,-2],[-3,-11],[-6,-31],[-20,-49],[-14,-15],[-43,19],[-29,-8],[-56,-52],[-44,-12],[-106,68]],[[0,3537],[0,403],[26,-16],[110,-66],[10,-81],[125,-90],[125,-90],[125,-90],[7,-15],[6,-35],[-4,-23],[-8,-11],[-18,-10],[-26,-52],[-92,-60],[-92,-60],[-18,17],[-60,132],[-46,37],[-4,7],[-3,9],[-1,5],[0,7],[-2,16],[-8,20],[-152,46]],[[0,4072],[0,24],[212,0],[41,-44],[84,-33],[29,16],[142,-86],[3,-9],[5,-30],[4,-16],[26,-59],[97,-47],[97,-47],[-12,-20],[-103,-62],[-35,-61],[-12,-13],[-110,20],[-34,45],[-38,17],[-39,32],[-12,-2],[7,27],[6,31],[-12,44],[-20,17],[-48,0],[-20,13],[-10,14],[-6,16],[-6,23],[-1,21],[8,12],[-8,17],[-18,-6],[-9,12],[-8,18],[-119,69],[-81,47]],[[635,4096],[85,0],[49,-33],[106,-72],[16,-41],[-33,-64],[-1,-43],[-15,-37],[-71,-24],[-42,20],[-135,160],[-15,37],[2,25],[7,12],[50,41],[-3,19]],[[934,1589],[17,-13],[3,-20],[-18,-32],[-4,-2],[-17,-5],[-40,21],[-6,14],[-6,28],[-13,29],[-20,15],[-102,0],[1,13],[132,85],[6,-2],[5,-6],[0,-8],[-3,-13],[0,-14],[29,-64],[18,-23],[9,-3],[9,0]],[[1426,2125],[12,-24],[4,-17],[-4,-14],[-10,-8],[-65,17],[-33,44],[-4,17],[3,16],[55,10],[18,-8],[24,-33]],[[1002,1725],[-76,65],[-9,21],[4,35],[6,13],[134,82],[133,83],[22,-26],[72,-31],[8,-11],[8,-19],[4,-20],[0,-21],[-1,-18],[1,-14],[1,-18],[-2,-10],[-1,-12],[5,-25],[7,-13],[15,-8],[6,-23],[-24,-14],[-45,-60],[-71,-44],[-24,20],[-13,-2],[-3,-31],[-11,-24],[-11,-5],[-60,20],[-13,22],[3,7],[7,23],[-18,3],[-54,55]],[[1602,4096],[359,0],[-3,-8],[-8,-26],[6,-7],[2,-17],[0,-23],[-3,-27],[-7,-24],[-112,-116],[-111,-117],[-117,28],[-118,29],[-32,50],[-67,16],[-17,34],[14,27],[53,31],[18,29],[17,31],[74,38],[38,50],[14,2]],[[0,700],[0,3396],[3550,0],[0,-3396],[-3550,0]]]}