{"objects":{"water":{"type":"GeometryCollection","geometries":[{"type":"MultiPolygon","properties":{"source":"naturalearthdata.com","kind":"ocean","area":989871000000000,"sort_rank":200,"min_zoom":0,"id":1},"arcs":[[[0]]]},{"type":"LineString","properties":{"source":"naturalearthdata.com","kind":"ocean","sort_rank":205,"boundary":true,"min_zoom":0,"id":505},"arcs":[1]}]},"buildings":{"type":"GeometryCollection","geometries":[]},"places":{"type":"GeometryCollection","geometries":[]},"transit":{"type":"GeometryCollection","geometries":[]},"pois":{"type":"GeometryCollection","geometries":[]},"boundaries":{"type":"GeometryCollection","geometries":[]},"roads":{"type":"GeometryCollection","geometries":[]},"earth":{"type":"GeometryCollection","geometries":[{"type":"MultiPolygon","properties":{"sort_rank":10,"source":"naturalearthdata.com","min_zoom":0,"kind":"earth","area":11714569654858},"arcs":[[[2]]]}]},"landuse":{"type":"GeometryCollection","geometries":[{"type":"MultiPolygon","properties":{"kind":"nature_reserve","protect_class":"2","area":5534799985934,"sort_rank":23,"source":"openstreetmap.org","min_zoom":4.0,"tier":2,"id":-7008461},"arcs":[[[3]]]}]}},"type":"Topology","transform":{"translate":[56.25,76.8408164144],"scale":[0.002746582,0.0005689742]},"arcs":[[[3693,0],[-3693,0],[0,4096],[4096,0],[0,-3806],[-8,-3],[-29,-32],[-19,-1],[-49,-58],[-98,-6],[-9,-8],[-14,-37],[-82,-40],[-4,-6],[-2,-7],[-3,-21],[-2,-8],[-19,-21],[-40,-7],[-19,-20],[-5,-12],[-1,-3]],[[4096,290],[-8,-3],[-29,-32],[-19,-1],[-49,-58],[-98,-6],[-9,-8],[-14,-37],[-82,-40],[-4,-6],[-2,-7],[-3,-21],[-2,-8],[-19,-21],[-40,-7],[-19,-20],[-5,-12],[-1,-3]],[[4096,290],[0,-290],[-403,0],[1,3],[5,12],[19,20],[40,7],[19,21],[2,8],[3,21],[2,7],[4,6],[82,40],[14,37],[9,8],[98,6],[49,58],[19,1],[29,32],[8,3]],[[4096,686],[0,-686],[-810,0],[2,4],[80,93],[77,48],[323,326],[114,47],[123,132],[91,36]]]}