{"objects":{"water":{"type":"GeometryCollection","geometries":[{"type":"MultiPolygon","properties":{"source":"naturalearthdata.com","kind":"ocean","area":989871000000000,"sort_rank":200,"min_zoom":0,"id":1},"arcs":[[[0]],[[1],[2]],[[3]],[[4]],[[5]],[[6]]]},{"type":"MultiLineString","properties":{"source":"naturalearthdata.com","kind":"ocean","sort_rank":205,"boundary":true,"min_zoom":0,"id":505},"arcs":[[7],[8],[9],[10],[11],[12],[13]]},{"type":"LineString","properties":{"source":"naturalearthdata.com","kind":"ocean","sort_rank":205,"boundary":true,"min_zoom":0,"id":3004},"arcs":[14]}]},"buildings":{"type":"GeometryCollection","geometries":[]},"places":{"type":"GeometryCollection","geometries":[]},"transit":{"type":"GeometryCollection","geometries":[]},"pois":{"type":"GeometryCollection","geometries":[]},"boundaries":{"type":"GeometryCollection","geometries":[]},"roads":{"type":"GeometryCollection","geometries":[]},"earth":{"type":"GeometryCollection","geometries":[{"type":"MultiPolygon","properties":{"sort_rank":10,"source":"naturalearthdata.com","kind":"earth","min_zoom":5.0,"area":29754728941},"arcs":[[[15]]]},{"type":"MultiPolygon","properties":{"sort_rank":10,"source":"naturalearthdata.com","min_zoom":0,"kind":"earth","area":11714569654858},"arcs":[[[16]]]}]},"landuse":{"type":"GeometryCollection","geometries":[{"type":"MultiPolygon","properties":{"kind":"nature_reserve","protect_class":"2","area":5534799985934,"sort_rank":23,"source":"openstreetmap.org","min_zoom":4.0,"tier":2,"id":-7008461},"arcs":[[[17]]]}]}},"type":"Topology","transform":{"translate":[56.25,74.0195433115],"scale":[0.002746582,0.0006887874]},"arcs":[[[4096,3154],[0,-3154],[-3381,0],[0,14],[-6,25],[-12,13],[-24,7],[23,43],[4,17],[-1,22],[-4,10],[-5,8],[-2,14],[8,17],[19,-11],[20,-24],[12,-26],[-1,-21],[3,-9],[6,0],[5,9],[1,10],[0,32],[1,9],[15,16],[36,-12],[14,25],[-53,0],[-27,17],[-19,43],[5,24],[11,21],[9,8],[4,-19],[1,-30],[4,-4],[13,20],[8,-2],[15,-27],[9,-11],[12,-6],[11,-1],[11,5],[11,13],[-8,11],[-7,6],[-8,9],[-7,22],[55,0],[-10,14],[-35,17],[70,0],[-4,10],[-4,7],[-5,2],[-4,0],[5,14],[11,9],[6,8],[-12,19],[7,20],[-6,10],[-14,4],[-7,6],[1,39],[-9,30],[-22,40],[19,36],[6,15],[-60,73],[-18,35],[0,4],[1,13],[-1,3],[-2,3],[-55,27],[-35,41],[2,7],[2,16],[1,6],[97,-56],[97,-57],[6,-7],[1,-7],[1,-19],[1,-3],[44,-31],[102,-19],[-2,10],[1,19],[-5,11],[-7,7],[-5,7],[-2,20],[6,20],[14,25],[-6,21],[2,15],[12,24],[5,17],[9,39],[6,14],[-10,22],[-40,27],[7,13],[10,11],[11,2],[8,-11],[8,-19],[10,-7],[21,2],[-8,22],[-16,34],[-40,58],[-9,24],[12,13],[13,-13],[25,-38],[33,-31],[21,-35],[21,-15],[30,-50],[31,-35],[40,-23],[16,9],[6,10],[8,23],[6,10],[16,7],[8,9],[0,16],[-1,12],[1,29],[-1,13],[-5,20],[-7,8],[-16,12],[-2,5],[-2,6],[0,7],[-2,7],[-3,6],[-47,2],[-7,12],[-9,27],[-21,48],[-12,19],[19,-19],[26,-16],[23,-42],[11,-8],[34,5],[10,-4],[21,-20],[11,-4],[125,35],[19,25],[16,39],[-8,17],[-9,12],[-10,8],[-9,2],[-7,5],[-9,13],[-8,16],[-5,16],[11,13],[36,-13],[86,16],[12,14],[25,55],[10,15],[-24,65],[-112,8],[-111,8],[-20,15],[-10,23],[67,-21],[44,41],[11,-20],[-3,-4],[-7,-17],[11,0],[55,28],[10,11],[9,21],[-13,20],[2,2],[6,9],[-1,4],[-3,11],[-1,4],[22,41],[-4,12],[1,10],[5,5],[23,6],[9,-6],[6,-18],[-6,-14],[-6,-20],[-3,-24],[0,-22],[8,-18],[13,-9],[35,0],[8,8],[8,16],[7,28],[6,32],[-3,8],[-7,4],[-10,21],[12,10],[6,8],[5,37],[7,9],[50,26],[25,26],[26,13],[59,96],[8,24],[1,30],[-7,39],[38,10],[-5,-18],[1,-10],[4,-9],[2,-13],[1,-14],[-1,-14],[-1,-15],[-1,-16],[9,-33],[13,-17],[15,-2],[13,10],[6,11],[3,13],[2,15],[4,13],[7,13],[10,5],[18,1],[-3,17],[-2,7],[-3,6],[5,7],[10,7],[5,7],[-7,16],[-3,3],[16,31],[3,17],[-7,22],[14,7],[28,-34],[13,7],[4,28],[50,67],[7,20],[6,11],[7,2],[9,-6],[9,-1],[21,12],[25,-26],[18,6],[127,110],[41,5],[108,100],[8,2],[43,-13],[18,12],[30,0],[50,48],[15,5],[14,11],[33,70],[3,15],[-2,16],[-7,7],[-15,6],[23,12],[12,0],[10,-22],[-5,-23],[5,-9],[8,-1],[6,-5],[4,-17],[0,-12],[-3,-13],[-3,-19],[19,8],[34,40],[64,38],[18,28],[8,6],[76,5],[105,63],[105,63],[52,-10],[17,8],[17,16],[34,52],[175,78],[175,78],[18,17],[23,33],[50,4],[34,36],[30,18],[30,35],[43,3],[64,48],[60,13],[80,91],[49,36]],[[0,1658],[0,2438],[3693,0],[-2,-6],[-6,-27],[-7,-18],[-9,-7],[-18,1],[-16,-10],[-30,-46],[-16,-14],[-59,-5],[-21,-15],[-23,-44],[-15,-11],[-8,-12],[-3,-15],[7,-15],[29,-30],[13,-22],[12,-35],[2,-16],[2,-18],[4,-15],[5,-6],[7,-4],[8,-9],[7,-12],[6,-15],[-13,-20],[-2,0],[-139,68],[-46,-8],[-29,-24],[-8,-16],[-10,-37],[-6,-13],[-41,-30],[-21,-25],[-12,-8],[-12,0],[-11,13],[-1,23],[-14,10],[-16,0],[-59,-25],[-14,-18],[2,-7],[5,-22],[-22,-2],[-9,-8],[-11,-20],[-7,-18],[-6,-19],[0,-17],[8,-15],[-18,-12],[-38,38],[-17,-4],[-4,-10],[-5,-30],[-6,-11],[-10,-6],[-34,6],[-19,-13],[-35,-44],[-27,-17],[-11,-1],[-10,5],[-7,15],[-10,33],[-6,14],[-5,8],[-9,-2],[-26,-30],[-52,12],[-9,-4],[-8,-8],[-8,-14],[-11,-11],[-22,-3],[-11,-8],[-16,-36],[-8,-7],[-88,-35],[-18,-28],[-78,-53],[-20,17],[7,19],[-27,0],[2,4],[5,16],[-8,24],[-12,11],[-12,1],[-38,-41],[-10,-15],[2,-32],[-10,-4],[-19,17],[-5,1],[-2,-1],[-6,-15],[-8,-16],[-3,-11],[-1,-18],[-13,10],[-15,5],[-14,13],[-6,37],[3,14],[5,13],[4,15],[0,18],[-8,11],[-105,-26],[-42,15],[-19,49],[-9,-6],[-53,2],[-3,3],[-11,21],[-5,5],[-11,1],[-14,-5],[-6,-10],[-5,-13],[-8,-13],[-9,-5],[-28,16],[-110,-21],[-38,0],[-12,-10],[-9,-17],[-8,-22],[-1,-23],[11,-17],[-10,-28],[-24,-36],[-11,-26],[7,-18],[10,-6],[63,16],[10,-11],[3,-21],[-4,-19],[-12,-30],[-9,-16],[-45,-27],[-24,5],[-29,-13],[-5,-9],[-3,-10],[-2,-21],[-2,-9],[-18,-31],[-24,-13],[-24,3],[-20,21],[3,11],[-8,0],[-24,-11],[5,21],[104,112],[9,3],[9,6],[8,18],[-104,-10],[-104,-9],[-67,-58],[-15,-23],[7,-17],[8,-9],[78,-11],[10,-8],[7,-9],[1,-16],[-9,-11],[-100,-8],[-18,-10],[-35,-41],[-28,-14],[-19,-21],[-9,-4],[-128,9],[-3,-2],[-9,-11],[-2,-6],[-2,-9],[0,-11],[1,-8],[1,-2],[-9,-17],[-10,-6],[-21,2],[-8,-3],[-33,-31],[-75,3],[-66,-50],[-8,-20],[0,-22],[-1,-17],[-42,-15],[-13,-12],[-14,-20],[21,-26],[4,-14],[-52,-7],[-22,-26],[-34,-11],[-17,-14],[-88,-16],[-14,-14],[-13,-25],[-7,-37],[11,-7],[70,6],[12,-13],[5,-24],[-3,-21],[-8,-15],[-8,-6],[-33,5],[-178,-84],[-23,-30],[12,-30],[4,-16],[0,-23],[11,-12],[13,1],[11,-7],[10,-33],[0,-9],[2,-45],[3,-10],[14,-21],[5,-4],[-1,-4],[-3,-11],[-1,-5],[6,-15],[2,-5],[-67,10],[-31,28],[-14,5],[-5,8],[2,19],[-101,5],[-27,24],[-10,3],[-77,-62],[-28,-53],[-9,-32],[10,-14],[32,3],[16,-12],[7,-36],[-2,-23],[-4,-15],[-5,-9],[-33,-37],[-65,-132],[-30,-42],[-31,-16],[10,30],[-7,45],[-25,86],[-2,9],[-3,6],[-5,3],[-7,-1],[-18,-28],[-14,-13]],[[1014,2817],[-16,-17],[-94,-45],[-14,-20],[11,-9],[31,7],[25,18],[27,6],[25,20],[26,2],[24,15],[15,0],[14,6],[9,25],[-1,27],[-10,10],[-12,-2],[-22,-20],[-26,-11],[-12,-12]],[[0,1264],[0,192],[33,4],[21,16],[8,2],[8,-7],[9,-15],[0,-14],[-9,-12],[-19,-16],[-26,-37],[-9,-5],[33,0],[-10,-34],[3,-2],[16,21],[8,5],[30,-14],[10,6],[17,20],[18,9],[7,-6],[6,-14],[2,-14],[-5,-6],[-18,1],[-8,-4],[-18,-26],[-107,-50]],[[0,994],[0,127],[79,11],[12,-8],[-27,-46],[-3,-13],[4,-7],[8,0],[14,8],[8,-2],[7,-9],[7,-12],[5,-16],[8,-31],[6,-12],[9,-5],[29,5],[18,-7],[9,1],[21,24],[20,4],[19,-7],[10,-25],[5,0],[-157,-10],[-37,29],[-13,1],[0,24],[-11,1],[-50,-25]],[[0,668],[0,37],[2,0],[7,-7],[5,-13],[-3,-10],[-6,-7],[-5,0]],[[598,0],[-92,0],[-11,15],[-14,34],[-9,11],[-7,6],[-97,22],[24,18],[54,-27],[22,29],[-8,43],[-12,32],[-25,56],[28,13],[16,-2],[10,-17],[23,-85],[38,-95],[4,-7],[6,-6],[22,-8],[28,-32]],[[268,974],[-157,-10],[-37,29],[-13,1],[0,24],[-11,1],[-50,-25]],[[0,705],[2,0],[7,-7],[5,-13],[-3,-10],[-6,-7],[-5,0]],[[506,0],[-11,15],[-14,34],[-9,11],[-7,6],[-97,22],[24,18],[54,-27],[22,29],[-8,43],[-12,32],[-25,56],[28,13],[16,-2],[10,-17],[23,-85],[38,-95],[4,-7],[6,-6],[22,-8],[28,-32]],[[715,0],[0,14],[-6,25],[-12,13],[-24,7],[23,43],[4,17],[-1,22],[-4,10],[-5,8],[-2,14],[8,17],[19,-11],[20,-24],[12,-26],[-1,-21],[3,-9],[6,0],[5,9],[1,10],[0,32],[1,9],[15,16],[36,-12],[14,25],[-53,0],[-27,17],[-19,43],[5,24],[11,21],[9,8],[4,-19],[1,-30],[4,-4],[13,20],[8,-2],[15,-27],[9,-11],[12,-6],[11,-1],[11,5],[11,13],[-8,11],[-7,6],[-8,9],[-7,22],[55,0],[-10,14],[-35,17],[70,0],[-4,10],[-4,7],[-5,2],[-4,0],[5,14],[11,9],[6,8],[-12,19],[7,20],[-6,10],[-14,4],[-7,6],[1,39],[-9,30],[-22,40],[19,36],[6,15],[-60,73],[-18,35],[0,4],[1,13],[-1,3],[-2,3],[-55,27],[-35,41],[2,7],[2,16],[1,6],[97,-56],[97,-57],[6,-7],[1,-7],[1,-19],[1,-3],[44,-31],[102,-19],[-2,10],[1,19],[-5,11],[-7,7],[-5,7],[-2,20],[6,20],[14,25],[-6,21],[2,15],[12,24],[5,17],[9,39],[6,14],[-10,22],[-40,27],[7,13],[10,11],[11,2],[8,-11],[8,-19],[10,-7],[21,2],[-8,22],[-16,34],[-40,58],[-9,24],[12,13],[13,-13],[25,-38],[33,-31],[21,-35],[21,-15],[30,-50],[31,-35],[40,-23],[16,9],[6,10],[8,23],[6,10],[16,7],[8,9],[0,16],[-1,12],[1,29],[-1,13],[-5,20],[-7,8],[-16,12],[-2,5],[-2,6],[0,7],[-2,7],[-3,6],[-47,2],[-7,12],[-9,27],[-21,48],[-12,19],[19,-19],[26,-16],[23,-42],[11,-8],[34,5],[10,-4],[21,-20],[11,-4],[125,35],[19,25],[16,39],[-8,17],[-9,12],[-10,8],[-9,2],[-7,5],[-9,13],[-8,16],[-5,16],[11,13],[36,-13],[86,16],[12,14],[25,55],[10,15],[-24,65],[-112,8],[-111,8],[-20,15],[-10,23],[67,-21],[44,41],[11,-20],[-3,-4],[-7,-17],[11,0],[55,28],[10,11],[9,21],[-13,20],[2,2],[6,9],[-1,4],[-3,11],[-1,4],[22,41],[-4,12],[1,10],[5,5],[23,6],[9,-6],[6,-18],[-6,-14],[-6,-20],[-3,-24],[0,-22],[8,-18],[13,-9],[35,0],[8,8],[8,16],[7,28],[6,32],[-3,8],[-7,4],[-10,21],[12,10],[6,8],[5,37],[7,9],[50,26],[25,26],[26,13],[59,96],[8,24],[1,30],[-7,39],[38,10],[-5,-18],[1,-10],[4,-9],[2,-13],[1,-14],[-1,-14],[-1,-15],[-1,-16],[9,-33],[13,-17],[15,-2],[13,10],[6,11],[3,13],[2,15],[4,13],[7,13],[10,5],[18,1],[-3,17],[-2,7],[-3,6],[5,7],[10,7],[5,7],[-7,16],[-3,3],[16,31],[3,17],[-7,22],[14,7],[28,-34],[13,7],[4,28],[50,67],[7,20],[6,11],[7,2],[9,-6],[9,-1],[21,12],[25,-26],[18,6],[127,110],[41,5],[108,100],[8,2],[43,-13],[18,12],[30,0],[50,48],[15,5],[14,11],[33,70],[3,15],[-2,16],[-7,7],[-15,6],[23,12],[12,0],[10,-22],[-5,-23],[5,-9],[8,-1],[6,-5],[4,-17],[0,-12],[-3,-13],[-3,-19],[19,8],[34,40],[64,38],[18,28],[8,6],[76,5],[105,63],[105,63],[52,-10],[17,8],[17,16],[34,52],[175,78],[175,78],[18,17],[23,33],[50,4],[34,36],[30,18],[30,35],[43,3],[64,48],[60,13],[80,91],[49,36]],[[3693,4096],[-2,-6],[-6,-27],[-7,-18],[-9,-7],[-18,1],[-16,-10],[-30,-46],[-16,-14],[-59,-5],[-21,-15],[-23,-44],[-15,-11],[-8,-12],[-3,-15],[7,-15],[29,-30],[13,-22],[12,-35],[2,-16],[2,-18],[4,-15],[5,-6],[7,-4],[8,-9],[7,-12],[6,-15],[-13,-20],[-2,0],[-139,68],[-46,-8],[-29,-24],[-8,-16],[-10,-37],[-6,-13],[-41,-30],[-21,-25],[-12,-8],[-12,0],[-11,13],[-1,23],[-14,10],[-16,0],[-59,-25],[-14,-18],[2,-7],[5,-22],[-22,-2],[-9,-8],[-11,-20],[-7,-18],[-6,-19],[0,-17],[8,-15],[-18,-12],[-38,38],[-17,-4],[-4,-10],[-5,-30],[-6,-11],[-10,-6],[-34,6],[-19,-13],[-35,-44],[-27,-17],[-11,-1],[-10,5],[-7,15],[-10,33],[-6,14],[-5,8],[-9,-2],[-26,-30],[-52,12],[-9,-4],[-8,-8],[-8,-14],[-11,-11],[-22,-3],[-11,-8],[-16,-36],[-8,-7],[-88,-35],[-18,-28],[-78,-53],[-20,17],[7,19],[-27,0],[2,4],[5,16],[-8,24],[-12,11],[-12,1],[-38,-41],[-10,-15],[2,-32],[-10,-4],[-19,17],[-5,1],[-2,-1],[-6,-15],[-8,-16],[-3,-11],[-1,-18],[-13,10],[-15,5],[-14,13],[-6,37],[3,14],[5,13],[4,15],[0,18],[-8,11],[-105,-26],[-42,15],[-19,49],[-9,-6],[-53,2],[-3,3],[-11,21],[-5,5],[-11,1],[-14,-5],[-6,-10],[-5,-13],[-8,-13],[-9,-5],[-28,16],[-110,-21],[-38,0],[-12,-10],[-9,-17],[-8,-22],[-1,-23],[11,-17],[-10,-28],[-24,-36],[-11,-26],[7,-18],[10,-6],[63,16],[10,-11],[3,-21],[-4,-19],[-12,-30],[-9,-16],[-45,-27],[-24,5],[-29,-13],[-5,-9],[-3,-10],[-2,-21],[-2,-9],[-18,-31],[-24,-13],[-24,3],[-20,21],[3,11],[-8,0],[-24,-11],[5,21],[104,112],[9,3],[9,6],[8,18],[-104,-10],[-104,-9],[-67,-58],[-15,-23],[7,-17],[8,-9],[78,-11],[10,-8],[7,-9],[1,-16],[-9,-11],[-100,-8],[-18,-10],[-35,-41],[-28,-14],[-19,-21],[-9,-4],[-128,9],[-3,-2],[-9,-11],[-2,-6],[-2,-9],[0,-11],[1,-8],[1,-2],[-9,-17],[-10,-6],[-21,2],[-8,-3],[-33,-31],[-75,3],[-66,-50],[-8,-20],[0,-22],[-1,-17],[-42,-15],[-13,-12],[-14,-20],[21,-26],[4,-14],[-52,-7],[-22,-26],[-34,-11],[-17,-14],[-88,-16],[-14,-14],[-13,-25],[-7,-37],[11,-7],[70,6],[12,-13],[5,-24],[-3,-21],[-8,-15],[-8,-6],[-33,5],[-178,-84],[-23,-30],[12,-30],[4,-16],[0,-23],[11,-12],[13,1],[11,-7],[10,-33],[0,-9],[2,-45],[3,-10],[14,-21],[5,-4],[-1,-4],[-3,-11],[-1,-5],[6,-15],[2,-5],[-67,10],[-31,28],[-14,5],[-5,8],[2,19],[-101,5],[-27,24],[-10,3],[-77,-62],[-28,-53],[-9,-32],[10,-14],[32,3],[16,-12],[7,-36],[-2,-23],[-4,-15],[-5,-9],[-33,-37],[-65,-132],[-30,-42],[-31,-16],[10,30],[-7,45],[-25,86],[-2,9],[-3,6],[-5,3],[-7,-1],[-18,-28],[-14,-13]],[[0,1456],[33,4],[21,16],[8,2],[8,-7],[9,-15],[0,-14],[-9,-12],[-19,-16],[-26,-37],[-9,-5],[33,0],[-10,-34],[3,-2],[16,21],[8,5],[30,-14],[10,6],[17,20],[18,9],[7,-6],[6,-14],[2,-14],[-5,-6],[-18,1],[-8,-4],[-18,-26],[-107,-50]],[[0,1121],[79,11],[12,-8],[-27,-46],[-3,-13],[4,-7],[8,0],[14,8],[8,-2],[7,-9],[7,-12],[5,-16],[8,-31],[6,-12],[9,-5],[29,5],[18,-7],[9,1],[21,24],[20,4],[19,-7],[10,-25],[5,0]],[[1014,2817],[12,12],[26,11],[22,20],[12,2],[10,-10],[1,-27],[-9,-25],[-14,-6],[-15,0],[-24,-15],[-26,-2],[-25,-20],[-27,-6],[-25,-18],[-31,-7],[-11,9],[14,20],[94,45],[16,17]],[[1014,2817],[12,12],[26,11],[22,20],[12,2],[10,-10],[1,-27],[-9,-25],[-14,-6],[-15,0],[-24,-15],[-26,-2],[-25,-20],[-27,-6],[-25,-18],[-31,-7],[-11,9],[14,20],[94,45],[16,17]],[[3693,4096],[403,0],[0,-942],[-49,-36],[-80,-91],[-60,-13],[-64,-48],[-43,-3],[-30,-35],[-30,-18],[-34,-36],[-50,-4],[-23,-33],[-18,-17],[-175,-78],[-175,-78],[-34,-52],[-17,-16],[-17,-8],[-52,10],[-3,-2],[-102,-61],[-105,-63],[-76,-5],[-8,-6],[-18,-28],[-64,-38],[-34,-40],[-19,-8],[3,19],[3,13],[0,12],[-4,17],[-6,5],[-8,1],[-5,9],[5,23],[-10,22],[-12,0],[-23,-12],[15,-6],[7,-7],[2,-16],[-3,-15],[-33,-70],[-14,-11],[-15,-5],[-50,-48],[-30,0],[-18,-12],[-43,13],[-8,-2],[-108,-100],[-41,-5],[-127,-110],[-18,-6],[-25,26],[-21,-12],[-9,1],[-9,6],[-7,-2],[-6,-11],[-7,-20],[-50,-67],[-4,-28],[-13,-7],[-28,34],[-14,-7],[7,-22],[-3,-17],[-16,-31],[3,-3],[7,-16],[-5,-7],[-10,-7],[-5,-7],[3,-6],[2,-7],[3,-17],[-18,-1],[-10,-5],[-7,-13],[-4,-13],[-2,-15],[-3,-13],[-6,-11],[-13,-10],[-15,2],[-13,17],[-9,33],[1,16],[1,15],[1,14],[-1,14],[-2,13],[-4,9],[-1,10],[5,18],[-38,-10],[7,-39],[-1,-30],[-8,-24],[-59,-96],[-26,-13],[-25,-26],[-50,-26],[-7,-9],[-5,-37],[-6,-8],[-12,-10],[10,-21],[7,-4],[3,-8],[-6,-32],[-7,-28],[-8,-16],[-8,-8],[-35,0],[-13,9],[-8,18],[0,22],[3,24],[6,20],[6,14],[-6,18],[-9,6],[-23,-6],[-5,-5],[-1,-10],[4,-12],[-22,-41],[1,-4],[3,-11],[1,-4],[-6,-9],[-2,-2],[13,-20],[-9,-21],[-10,-11],[-55,-28],[-11,0],[7,17],[3,4],[-11,20],[-44,-41],[-67,21],[10,-23],[20,-15],[111,-8],[112,-8],[24,-65],[-10,-15],[-25,-55],[-12,-14],[-86,-16],[-36,13],[-11,-13],[5,-16],[8,-16],[9,-13],[7,-5],[9,-2],[10,-8],[9,-12],[8,-17],[-16,-39],[-19,-25],[-125,-35],[-11,4],[-21,20],[-10,4],[-34,-5],[-11,8],[-23,42],[-26,16],[-19,19],[12,-19],[21,-48],[9,-27],[7,-12],[47,-2],[3,-6],[2,-7],[0,-7],[2,-6],[2,-5],[16,-12],[7,-8],[5,-20],[1,-13],[-1,-29],[1,-12],[0,-16],[-8,-9],[-16,-7],[-6,-10],[-8,-23],[-6,-10],[-16,-9],[-40,23],[-31,35],[-30,50],[-21,15],[-21,35],[-33,31],[-25,38],[-13,13],[-12,-13],[9,-24],[40,-58],[16,-34],[8,-22],[-21,-2],[-10,7],[-8,19],[-8,11],[-11,-2],[-10,-11],[-7,-13],[40,-27],[10,-22],[-6,-14],[-9,-39],[-5,-17],[-12,-24],[-2,-15],[6,-21],[-14,-25],[-6,-20],[2,-20],[5,-7],[7,-7],[5,-11],[-1,-19],[2,-10],[-102,19],[-44,31],[-1,3],[-1,19],[-1,7],[-6,7],[-97,57],[-97,56],[-1,-6],[-2,-16],[-2,-7],[35,-41],[55,-27],[2,-3],[1,-3],[-1,-13],[0,-4],[18,-35],[60,-73],[-6,-15],[-19,-36],[22,-40],[9,-30],[-1,-39],[7,-6],[14,-4],[6,-10],[-7,-20],[12,-19],[-6,-8],[-11,-9],[-5,-14],[4,0],[5,-2],[4,-7],[4,-10],[-70,0],[35,-17],[10,-14],[-55,0],[7,-22],[8,-9],[7,-6],[8,-11],[-11,-13],[-11,-5],[-11,1],[-12,6],[-9,11],[-15,27],[-8,2],[-13,-20],[-4,4],[-1,30],[-4,19],[-9,-8],[-11,-21],[-5,-24],[19,-43],[27,-17],[53,0],[-14,-25],[-36,12],[-15,-16],[-1,-9],[0,-32],[-1,-10],[-5,-9],[-6,0],[-3,9],[1,21],[-12,26],[-20,24],[-19,11],[-8,-17],[2,-14],[5,-8],[4,-10],[1,-22],[-4,-17],[-23,-43],[24,-7],[12,-13],[6,-25],[0,-14],[-117,0],[-28,32],[-22,8],[-6,6],[-4,7],[-38,95],[-23,85],[-10,17],[-16,2],[-28,-13],[25,-56],[12,-32],[8,-43],[-22,-29],[-54,27],[-24,-18],[97,-22],[7,-6],[9,-11],[14,-34],[11,-15],[-506,0],[0,668],[5,0],[6,7],[3,10],[-5,13],[-7,7],[-2,0],[0,289],[50,25],[11,-1],[0,-24],[13,-1],[37,-29],[157,10],[-5,0],[-10,25],[-19,7],[-20,-4],[-21,-24],[-9,-1],[-18,7],[-29,-5],[-9,5],[-6,12],[-8,31],[-5,16],[-7,12],[-7,9],[-8,2],[-14,-8],[-8,0],[-4,7],[3,13],[27,46],[-12,8],[-79,-11],[0,143],[107,50],[18,26],[8,4],[18,-1],[5,6],[-2,14],[-6,14],[-7,6],[-18,-9],[-17,-20],[-10,-6],[-30,14],[-8,-5],[-16,-21],[-3,2],[10,34],[-33,0],[9,5],[26,37],[19,16],[9,12],[0,14],[-9,15],[-8,7],[-8,-2],[-21,-16],[-33,-4],[0,202],[14,13],[18,28],[7,1],[5,-3],[3,-6],[2,-9],[25,-86],[7,-45],[-10,-30],[31,16],[30,42],[65,132],[33,37],[5,9],[4,15],[2,23],[-7,36],[-16,12],[-32,-3],[-10,14],[9,32],[28,53],[77,62],[10,-3],[27,-24],[101,-5],[-2,-19],[5,-8],[14,-5],[31,-28],[67,-10],[-2,5],[-6,15],[1,5],[3,11],[1,4],[-5,4],[-14,21],[-3,10],[-2,45],[0,9],[-10,33],[-11,7],[-13,-1],[-11,12],[0,23],[-4,16],[-12,30],[23,30],[178,84],[33,-5],[8,6],[8,15],[3,21],[-5,24],[-12,13],[-70,-6],[-11,7],[7,37],[13,25],[14,14],[88,16],[17,14],[34,11],[22,26],[52,7],[-4,14],[-21,26],[14,20],[13,12],[42,15],[1,17],[0,22],[8,20],[66,50],[75,-3],[33,31],[8,3],[21,-2],[10,6],[9,17],[-1,2],[-1,8],[0,11],[2,9],[2,6],[9,11],[3,2],[128,-9],[9,4],[19,21],[28,14],[35,41],[18,10],[100,8],[9,11],[-1,16],[-7,9],[-10,8],[-78,11],[-8,9],[-7,17],[15,23],[67,58],[104,9],[104,10],[-8,-18],[-9,-6],[-9,-3],[-104,-112],[-5,-21],[24,11],[8,0],[-3,-11],[20,-21],[24,-3],[24,13],[18,31],[2,9],[2,21],[3,10],[5,9],[29,13],[24,-5],[45,27],[9,16],[12,30],[4,19],[-3,21],[-10,11],[-63,-16],[-10,6],[-7,18],[11,26],[23,35],[1,1],[10,28],[-11,17],[1,23],[8,22],[9,17],[12,10],[38,0],[110,21],[28,-16],[9,5],[8,13],[5,13],[6,10],[14,5],[11,-1],[5,-5],[11,-21],[3,-3],[53,-2],[9,6],[19,-49],[42,-15],[105,26],[8,-11],[0,-18],[-4,-15],[-5,-13],[-3,-14],[6,-34],[0,-3],[14,-13],[15,-5],[13,-10],[1,18],[3,11],[1,2],[7,14],[6,15],[2,1],[5,-1],[19,-17],[10,4],[-2,32],[10,15],[38,41],[12,-1],[12,-11],[8,-24],[-5,-16],[-2,-4],[27,0],[-7,-19],[20,-17],[78,53],[18,28],[88,35],[8,7],[16,36],[11,8],[22,3],[11,11],[8,14],[8,8],[9,4],[52,-12],[26,30],[9,2],[5,-8],[6,-14],[10,-33],[7,-15],[10,-5],[11,1],[27,17],[35,44],[19,13],[34,-6],[10,6],[6,11],[5,30],[4,10],[17,4],[38,-38],[18,12],[-8,15],[0,17],[6,19],[7,18],[11,20],[9,8],[22,2],[-5,22],[-2,7],[14,18],[20,9],[39,16],[16,0],[14,-10],[1,-23],[11,-13],[12,0],[12,8],[21,25],[41,30],[6,13],[10,37],[8,16],[29,24],[46,8],[139,-68],[2,0],[13,20],[-6,15],[-7,12],[-8,9],[-7,4],[-5,6],[-4,15],[-2,18],[-2,16],[-12,35],[-13,22],[-29,30],[-7,15],[3,15],[8,12],[15,11],[23,44],[21,15],[59,5],[16,14],[30,46],[16,10],[18,-1],[9,7],[7,18],[6,27],[2,6]],[[3286,4096],[810,0],[0,-817],[-41,17],[-182,160],[-271,-119],[-96,-76],[-137,-7],[-69,-113],[-96,-61],[-290,-92],[-127,240],[-90,75],[-42,-8],[-222,237],[27,-3],[152,94],[52,65],[103,65],[192,19],[155,74],[73,65],[99,185]]]}