{"objects":{"water":{"type":"GeometryCollection","geometries":[{"type":"MultiPolygon","properties":{"source":"naturalearthdata.com","kind":"ocean","area":989871000000000,"sort_rank":200,"min_zoom":0,"id":1},"arcs":[[[0]]]}]},"buildings":{"type":"GeometryCollection","geometries":[]},"places":{"type":"GeometryCollection","geometries":[]},"transit":{"type":"GeometryCollection","geometries":[]},"pois":{"type":"GeometryCollection","geometries":[]},"boundaries":{"type":"GeometryCollection","geometries":[]},"roads":{"type":"GeometryCollection","geometries":[]},"earth":{"type":"GeometryCollection","geometries":[]},"landuse":{"type":"GeometryCollection","geometries":[{"type":"MultiPolygon","properties":{"kind":"nature_reserve","protect_class":"6","area":1544505940061,"sort_rank":23,"operator":"Parks Australia","source":"openstreetmap.org","min_zoom":4.0,"tier":2,"id":-8426743},"arcs":[[[1]]]},{"type":"MultiPolygon","properties":{"kind":"nature_reserve","protect_class":"4","area":2458853875607,"sort_rank":23,"operator":"Parks Australia","source":"openstreetmap.org","min_zoom":4.0,"tier":2,"id":-8448061},"arcs":[[[2]]]},{"type":"MultiPolygon","properties":{"kind":"nature_reserve","protect_class":"2","area":762121086789,"sort_rank":23,"operator":"Parks Australia","source":"openstreetmap.org","min_zoom":4.0,"tier":2,"id":-8601871},"arcs":[[[3]]]}]}},"type":"Topology","transform":{"translate":[101.25,-21.9430455334],"scale":[0.002746582,0.0026280868]},"arcs":[[[4096,0],[-4096,0],[0,4096],[4096,0],[0,-4096]],[[4096,473],[0,-304],[-212,0],[-364,304],[576,0]],[[4096,473],[0,-473],[-869,0],[10,34],[5,40],[16,39],[16,56],[7,0],[123,304],[692,0]],[[3274,169],[130,304],[116,0],[363,-304],[-609,0]]]}