{"objects":{"water":{"type":"GeometryCollection","geometries":[{"type":"MultiPolygon","properties":{"source":"naturalearthdata.com","kind":"ocean","area":989871000000000,"sort_rank":200,"min_zoom":0,"id":1},"arcs":[[[0]]]}]},"buildings":{"type":"GeometryCollection","geometries":[]},"places":{"type":"GeometryCollection","geometries":[]},"transit":{"type":"GeometryCollection","geometries":[]},"pois":{"type":"GeometryCollection","geometries":[]},"boundaries":{"type":"GeometryCollection","geometries":[]},"roads":{"type":"GeometryCollection","geometries":[]},"earth":{"type":"GeometryCollection","geometries":[]},"landuse":{"type":"GeometryCollection","geometries":[{"type":"MultiPolygon","properties":{"kind":"nature_reserve","protect_class":"6","area":1544505940061,"sort_rank":23,"operator":"Parks Australia","source":"openstreetmap.org","min_zoom":4.0,"tier":2,"id":-8426743},"arcs":[[[1]],[[2]]]},{"type":"MultiPolygon","properties":{"kind":"nature_reserve","protect_class":"4","area":2458853875607,"sort_rank":23,"operator":"Parks Australia","source":"openstreetmap.org","min_zoom":4.0,"tier":2,"id":-8448061},"arcs":[[[3]],[[4]],[[5]]]},{"type":"MultiPolygon","properties":{"kind":"nature_reserve","protect_class":"2","area":762121086789,"sort_rank":23,"operator":"Parks Australia","source":"openstreetmap.org","min_zoom":4.0,"tier":2,"id":-8601871},"arcs":[[[6]]]}]}},"type":"Topology","transform":{"translate":[101.25,-31.952162238],"scale":[0.002746582,0.002443632]},"arcs":[[[4096,0],[-4096,0],[0,4096],[4096,0],[0,-4096]],[[4096,1576],[0,-286],[-970,0],[-12,219],[24,218],[-145,339],[-12,50],[-13,33],[-8,56],[-35,149],[14,0],[-32,231],[27,285],[76,261],[321,0],[0,-777],[255,-778],[510,0]],[[4096,3131],[0,-491],[0,491]],[[3227,4096],[869,0],[0,-296],[-905,0],[22,240],[14,56]],[[3404,3254],[0,280],[292,0],[0,-280],[-292,0]],[[2907,2585],[27,285],[76,261],[321,0],[0,-777],[-406,0],[-18,231]],[[4096,1415],[0,-125],[-55,0],[0,51],[55,74]]]}