{"objects":{"water":{"type":"GeometryCollection","geometries":[{"type":"MultiPolygon","properties":{"source":"naturalearthdata.com","kind":"ocean","area":989871000000000,"sort_rank":200,"min_zoom":0,"id":1},"arcs":[[[0]]]}]},"buildings":{"type":"GeometryCollection","geometries":[]},"places":{"type":"GeometryCollection","geometries":[]},"transit":{"type":"GeometryCollection","geometries":[]},"pois":{"type":"GeometryCollection","geometries":[]},"boundaries":{"type":"GeometryCollection","geometries":[]},"roads":{"type":"GeometryCollection","geometries":[]},"earth":{"type":"GeometryCollection","geometries":[]},"landuse":{"type":"GeometryCollection","geometries":[{"type":"MultiPolygon","properties":{"kind":"nature_reserve","protect_class":"6","area":1544505940061,"sort_rank":23,"operator":"Parks Australia","source":"openstreetmap.org","min_zoom":4.0,"tier":2,"id":-8426743},"arcs":[[[1]]]},{"type":"MultiPolygon","properties":{"kind":"nature_reserve","protect_class":"4","area":2458853875607,"sort_rank":23,"operator":"Parks Australia","source":"openstreetmap.org","min_zoom":4.0,"tier":2,"id":-8448061},"arcs":[[[2]]]},{"type":"MultiPolygon","properties":{"kind":"nature_reserve","protect_class":"2","area":762121086789,"sort_rank":23,"operator":"Parks Australia","source":"openstreetmap.org","min_zoom":4.0,"tier":2,"id":-8601871},"arcs":[[[3]]]}]}},"type":"Topology","transform":{"translate":[101.25,-40.9798980696],"scale":[0.002746582,0.0022040371]},"arcs":[[[4096,0],[-4096,0],[0,4096],[4096,0],[0,-4096]],[[4096,3394],[0,-1557],[-133,121],[-144,175],[-136,239],[-92,262],[-43,241],[-14,340],[10,179],[552,0]],[[4096,2622],[0,-788],[-154,146],[-137,174],[0,468],[291,0]],[[3534,3215],[10,179],[261,0],[0,-1240],[-131,237],[-86,256],[-41,235],[-13,333]]]}