{"objects":{"water":{"type":"GeometryCollection","geometries":[{"type":"MultiPolygon","properties":{"source":"naturalearthdata.com","kind":"ocean","area":989871000000000,"sort_rank":200,"min_zoom":0,"id":1},"arcs":[[[0]]]},{"type":"MultiLineString","properties":{"source":"naturalearthdata.com","kind":"ocean","sort_rank":205,"boundary":true,"min_zoom":0,"id":1981},"arcs":[[1],[2]]}]},"buildings":{"type":"GeometryCollection","geometries":[]},"places":{"type":"GeometryCollection","geometries":[]},"transit":{"type":"GeometryCollection","geometries":[]},"pois":{"type":"GeometryCollection","geometries":[]},"boundaries":{"type":"GeometryCollection","geometries":[]},"roads":{"type":"GeometryCollection","geometries":[]},"earth":{"type":"GeometryCollection","geometries":[{"type":"MultiPolygon","properties":{"sort_rank":10,"source":"naturalearthdata.com","min_zoom":0.5,"kind":"earth","area":294431309478},"arcs":[[[3]],[[4]]]}]},"landuse":{"type":"GeometryCollection","geometries":[{"type":"MultiPolygon","properties":{"kind":"nature_reserve","protect_class":"4","area":153430333792,"sort_rank":23,"source":"openstreetmap.org","min_zoom":4.0,"tier":2,"id":-7008430},"arcs":[[[5]]]}]}},"type":"Topology","transform":{"translate":[101.25,79.1713346408],"scale":[0.002746582,0.0004692088]},"arcs":[[[0,104],[0,3992],[4096,0],[0,-4096],[-3232,0],[-9,3],[-4,-3],[-302,0],[4,16],[23,51],[10,37],[-3,1],[-9,14],[38,103],[14,13],[34,0],[18,18],[9,20],[6,22],[-5,33],[-71,34],[-6,14],[-6,56],[-7,16],[-51,16],[-53,60],[-39,2],[-36,29],[-36,2],[-23,-24],[-15,-28],[-6,-20],[-2,-11],[0,-14],[0,-12],[0,-9],[-4,-13],[-3,-3],[-3,-6],[-3,-22],[3,-25],[2,-61],[2,-30],[3,-21],[3,-12],[28,-58],[4,-11],[-6,-27],[-72,42],[-26,-9],[-6,9],[-1,14],[3,34],[-1,18],[-4,21],[-5,11],[-10,14],[-8,28],[-17,78],[-9,16],[-63,-15],[-26,-27],[-11,-23],[2,-23],[-3,-12],[-2,-12],[-1,-15],[-1,-20],[3,1],[3,-3],[6,-11],[-8,-47],[0,-20],[6,-22],[-22,-30],[-46,10],[-22,-13],[-22,-40]],[[864,0],[-9,3],[-4,-3]],[[549,0],[4,16],[23,51],[10,37],[-3,1],[-9,14],[38,103],[14,13],[34,0],[18,18],[9,20],[6,22],[-5,33],[-71,34],[-6,14],[-6,56],[-7,16],[-51,16],[-53,60],[-39,2],[-36,29],[-36,2],[-23,-24],[-15,-28],[-6,-20],[-2,-11],[0,-14],[0,-12],[0,-9],[-4,-13],[-3,-3],[-3,-6],[-3,-22],[3,-25],[2,-61],[2,-30],[3,-21],[3,-12],[28,-58],[4,-11],[-6,-27],[-72,42],[-26,-9],[-6,9],[-1,14],[3,34],[-1,18],[-4,21],[-5,11],[-10,14],[-8,28],[-17,78],[-9,16],[-63,-15],[-26,-27],[-11,-23],[2,-23],[-3,-12],[-2,-12],[-1,-15],[-1,-20],[3,1],[3,-3],[6,-11],[-8,-47],[0,-20],[6,-22],[-22,-30],[-46,10],[-22,-13],[-22,-40]],[[549,0],[-549,0],[0,104],[22,40],[22,13],[46,-10],[22,30],[-6,22],[0,20],[8,47],[-6,11],[-3,3],[-3,-1],[1,20],[1,15],[2,12],[3,12],[-2,23],[11,23],[26,27],[63,15],[9,-16],[17,-78],[8,-28],[10,-14],[5,-11],[4,-21],[1,-18],[-3,-34],[1,-14],[6,-9],[26,9],[72,-42],[6,27],[-4,11],[-28,58],[-3,12],[-3,21],[-2,30],[-2,61],[-3,25],[3,22],[3,6],[3,3],[4,13],[0,9],[0,12],[0,14],[2,11],[6,20],[15,28],[23,24],[36,-2],[36,-29],[39,-2],[53,-60],[51,-16],[7,-16],[6,-56],[6,-14],[71,-34],[5,-33],[-6,-22],[-9,-20],[-18,-18],[-34,0],[-14,-13],[-38,-103],[9,-14],[3,-1],[-10,-37],[-23,-51],[-4,-16]],[[864,0],[-13,0],[4,3],[9,-3]],[[965,0],[-687,0],[-8,52],[69,160],[164,30],[89,204],[55,-92],[-16,-27],[37,-4],[-13,-42],[53,13],[255,-290],[2,-4]]]}