{"objects":{"water":{"type":"GeometryCollection","geometries":[{"type":"MultiPolygon","properties":{"name:pt":null,"collision_rank":400,"name:nl":"Tajmyrmeer","name:id":null,"name:hi":null,"name:tr":null,"name:ar":null,"min_zoom":4.0,"name:it":"lago Tajmyr","name:vi":null,"name:ru":"\u0422\u0430\u0439\u043c\u044b\u0440","name:sv":null,"name:pl":"Tajmyr","name:hu":null,"id":540,"name:ja":"\u30bf\u30a4\u30df\u30eb\u6e56","name:el":null,"kind":"lake","name:en":"Lake Taymyr","name":"Lake Taymyr","area":65535000000,"sort_rank":204,"name:bn":null,"name:de":"Taimyrsee","name:ko":null,"name:fr":"lac Ta\u00efmyr","source":"naturalearthdata.com","wikidata_id":"Q845868","name:zh":"\u6cf0\u6885\u723e\u6e56","name:es":"Lago Taimir"},"arcs":[[[0]],[[1]]]},{"type":"MultiPolygon","properties":{"source":"naturalearthdata.com","kind":"ocean","area":989871000000000,"sort_rank":200,"min_zoom":0,"id":1},"arcs":[[[2]],[[3]],[[4]],[[5]],[[6]]]},{"type":"MultiLineString","properties":{"source":"naturalearthdata.com","min_zoom":4.0,"area":65535000000,"sort_rank":367,"boundary":true,"id":540,"kind":"lake"},"arcs":[[7],[8]]},{"type":"MultiLineString","properties":{"source":"naturalearthdata.com","kind":"ocean","sort_rank":205,"boundary":true,"min_zoom":0,"id":506},"arcs":[[9],[10],[11],[12],[13]]},{"type":"LineString","properties":{"source":"naturalearthdata.com","kind":"ocean","sort_rank":205,"boundary":true,"min_zoom":0,"id":1942},"arcs":[14]},{"type":"MultiLineString","properties":{"source":"naturalearthdata.com","kind":"ocean","sort_rank":205,"boundary":true,"min_zoom":0,"id":1959},"arcs":[[15],[16],[17]]}]},"buildings":{"type":"GeometryCollection","geometries":[]},"places":{"type":"GeometryCollection","geometries":[]},"transit":{"type":"GeometryCollection","geometries":[]},"pois":{"type":"GeometryCollection","geometries":[]},"boundaries":{"type":"GeometryCollection","geometries":[]},"roads":{"type":"GeometryCollection","geometries":[]},"earth":{"type":"GeometryCollection","geometries":[{"type":"MultiPolygon","properties":{"sort_rank":10,"source":"naturalearthdata.com","kind":"earth","min_zoom":2.0,"area":127836867867},"arcs":[[[18]]]},{"type":"MultiPolygon","properties":{"sort_rank":10,"source":"naturalearthdata.com","min_zoom":3.0,"kind":"earth","area":66069933958},"arcs":[[[19]]]},{"type":"MultiPolygon","properties":{"sort_rank":10,"source":"naturalearthdata.com","min_zoom":0,"kind":"earth","area":21804330306050},"arcs":[[[20]],[[21]]]}]},"landuse":{"type":"GeometryCollection","geometries":[{"type":"MultiPolygon","properties":{"kind":"nature_reserve","protect_class":"1","area":473449578101,"sort_rank":23,"source":"openstreetmap.org","min_zoom":4.0,"tier":2,"id":-7008278},"arcs":[[[22]],[[23]],[[24]]]}]}},"type":"Topology","transform":{"translate":[101.25,74.0195433115],"scale":[0.002746582,0.0006887874]},"arcs":[[[0,906],[75,-29],[79,11],[30,-14],[148,23],[149,22],[39,-28],[74,2],[36,26],[18,-5],[-1,-22],[-1,-7],[8,2],[14,21],[73,60],[51,8],[24,26],[76,36],[28,63],[17,18],[17,9],[71,5],[34,-18],[17,11],[59,70],[12,26],[8,31],[-73,19],[-15,-10],[-28,-37],[-14,-12],[-8,2],[-4,11],[-3,11],[-4,6],[-7,2],[-61,52],[-10,26],[15,24],[-1,9],[-2,21],[0,6],[6,19],[7,10],[9,2],[17,-7],[9,8],[17,24],[10,7],[18,4],[9,11],[-7,18],[4,18],[8,18],[5,16],[-6,11],[2,15],[3,16],[-1,18],[22,31],[109,-40],[14,-20],[28,-75],[4,-16],[1,-13],[-1,-13],[0,-15],[2,-19],[4,-11],[11,-21],[4,-12],[9,-43],[5,-11],[9,-11],[33,-10],[27,-26],[160,-83],[82,9],[62,13],[19,-22],[-110,-55],[-109,-55],[-159,40],[-115,-70],[-115,-69],[-9,1],[-17,10],[-24,33],[-8,5],[-8,-9],[12,-36],[2,-14],[-4,-10],[23,-30],[-25,-58],[-29,-1],[-59,40],[-60,-20],[-27,-59],[-7,-8],[-7,-3],[-110,23],[-128,-81],[-33,-3],[9,-16],[24,-62],[-119,69],[-97,-8],[-97,-8],[-10,-24],[-4,-38],[1,-21],[5,-16],[30,-83],[11,-11],[5,-9],[6,-19],[14,-81],[-6,-17],[-6,-14],[15,-9],[-5,-19],[23,2],[12,-10],[5,-28],[1,-21],[-1,-9],[-5,-4],[-4,3],[-11,17],[-11,10],[-9,1],[-10,-6],[-10,-16],[-9,-20],[-4,-7],[-5,2],[-2,9],[0,9],[2,10],[3,8],[-12,21],[-15,4],[-30,-6],[-34,17],[-96,133],[-34,16],[-18,19],[-11,34],[4,43],[12,36],[13,28],[5,17],[-14,28],[-20,4],[-19,-6],[0,200]],[[0,196],[1,-1],[4,-7],[3,-13],[5,-24],[66,-151],[-79,0],[0,196]],[[4096,143],[0,-143],[-337,0],[3,9],[-5,25],[-12,12],[-137,-20],[-12,-10],[-10,-16],[-759,0],[60,55],[110,29],[43,61],[72,61],[34,52],[8,21],[6,23],[17,88],[1,12],[-4,12],[-9,4],[-78,-30],[-31,4],[-30,35],[10,2],[20,17],[19,-11],[31,13],[3,-6],[2,-8],[1,-6],[4,4],[5,8],[4,4],[31,7],[12,10],[5,21],[13,32],[77,-2],[37,39],[18,28],[10,47],[-4,6],[-8,20],[-2,4],[-26,10],[18,26],[21,-1],[41,-25],[21,4],[68,50],[25,34],[53,14],[29,30],[5,14],[-7,10],[-17,12],[11,15],[25,0],[11,5],[105,121],[22,9],[102,-50],[10,8],[16,34],[19,13],[22,28],[9,17],[-8,7],[-7,2],[2,10],[3,8],[7,12],[3,19],[10,8],[21,6],[7,12],[14,55],[-2,43],[20,31],[107,63],[22,0],[0,-578],[-32,14],[-110,26],[-37,-19],[-13,-87],[3,-18],[8,-26],[-1,-11],[-6,-13],[-4,-16],[0,-17],[5,-19],[-13,-36],[-17,-22],[-19,-7],[-16,6],[-38,32],[-20,4],[-50,-29],[-16,-22],[-3,-45],[9,-31],[36,-47],[130,-62],[37,-44],[29,-52],[15,-18],[115,-23],[8,-7]],[[4096,2662],[0,-106],[-3,11],[-4,27],[-3,12],[-5,12],[-5,9],[-6,6],[-14,5],[-13,14],[-6,3],[10,12],[49,-5]],[[4096,3530],[0,-70],[-77,71],[-12,4],[-9,-6],[-19,-28],[-42,-42],[-17,-30],[-7,-4],[-12,-1],[-38,-39],[-11,-14],[15,29],[119,160],[-15,27],[-120,154],[-59,36],[-64,-15],[-16,28],[8,14],[9,10],[10,6],[8,0],[-4,14],[-10,7],[-6,9],[6,9],[13,4],[6,6],[-126,35],[-11,-9],[-13,-21],[-9,-8],[-5,15],[-5,23],[-8,15],[4,17],[7,13],[7,8],[7,3],[-17,22],[-26,9],[-27,-5],[-18,-17],[4,-9],[5,-6],[4,-4],[5,-1],[-14,-14],[-31,6],[-43,-11],[-14,4],[-13,15],[-4,28],[-19,8],[-76,-13],[-108,-93],[-10,1],[-27,19],[-29,2],[-9,13],[-7,5],[-30,-10],[-43,17],[-2,5],[-2,8],[-3,7],[-4,3],[-63,0],[-3,1],[-4,5],[-2,8],[-1,10],[-2,6],[-24,-3],[-49,-40],[-55,14],[-132,-35],[-68,16],[-77,-32],[6,17],[6,12],[-34,21],[-42,-10],[-39,11],[-21,-4],[-11,-27],[9,-10],[-1,-19],[-13,-40],[24,-17],[8,-16],[-2,-38],[-4,-13],[-28,-85],[-5,-11],[-14,-18],[-92,-44],[-117,43],[-85,-40],[-45,3],[-13,-8],[-1,-25],[-10,-18],[-10,-7],[-10,5],[-20,31],[-12,7],[-93,8],[-12,8],[-10,16],[4,20],[-8,29],[1,30],[-5,0],[11,43],[20,7],[21,-13],[16,-17],[-5,-23],[2,-15],[6,-8],[6,-3],[7,2],[5,5],[5,10],[8,26],[3,4],[8,2],[2,2],[0,6],[-1,6],[1,6],[11,15],[5,11],[4,14],[19,45],[3,20],[-3,15],[-24,49],[22,9],[7,-3],[13,-13],[31,-2],[11,11],[8,28],[15,12],[10,11],[5,12],[0,36],[2,15],[6,14],[9,6],[21,-14],[10,-2],[9,8],[26,41],[-7,8],[1905,0],[0,-307],[-1,1],[-30,9],[-10,26],[-7,6],[-9,2],[-5,-3],[-3,-12],[-2,-28],[-3,-11],[-13,-10],[-46,31],[-65,-10],[3,-11],[3,-7],[4,-3],[7,1],[3,-10],[-12,1],[-6,-3],[-5,-8],[32,-21],[7,-14],[6,-21],[6,-14],[7,-7],[51,-5],[19,-17],[17,-40],[11,-35],[13,-25],[14,-15],[14,-6]],[[4096,3757],[0,-16],[-5,9],[5,7]],[[0,3559],[0,66],[46,-3],[63,-32],[-2,-1],[-8,-8],[15,-19],[69,-4],[61,-34],[15,-16],[52,-25],[17,0],[8,-5],[9,-9],[19,-37],[-142,25],[-16,10],[-7,19],[-7,26],[-14,17],[-116,21],[-38,28],[-6,-3],[-13,-15],[-5,-1]],[[0,906],[75,-29],[79,11],[30,-14],[148,23],[149,22],[39,-28],[74,2],[36,26],[18,-5],[-1,-22],[-1,-7],[8,2],[14,21],[73,60],[51,8],[24,26],[76,36],[28,63],[17,18],[17,9],[71,5],[34,-18],[17,11],[59,70],[12,26],[8,31],[-73,19],[-15,-10],[-28,-37],[-14,-12],[-8,2],[-4,11],[-3,11],[-4,6],[-7,2],[-61,52],[-10,26],[15,24],[-1,9],[-2,21],[0,6],[6,19],[7,10],[9,2],[17,-7],[9,8],[17,24],[10,7],[18,4],[9,11],[-7,18],[4,18],[8,18],[5,16],[-6,11],[2,15],[3,16],[-1,18],[22,31],[109,-40],[14,-20],[28,-75],[4,-16],[1,-13],[-1,-13],[0,-15],[2,-19],[4,-11],[11,-21],[4,-12],[9,-43],[5,-11],[9,-11],[33,-10],[27,-26],[160,-83],[82,9],[62,13],[19,-22],[-110,-55],[-109,-55],[-159,40],[-115,-70],[-115,-69],[-9,1],[-17,10],[-24,33],[-8,5],[-8,-9],[12,-36],[2,-14],[-4,-10],[23,-30],[-25,-58],[-29,-1],[-59,40],[-60,-20],[-27,-59],[-7,-8],[-7,-3],[-110,23],[-128,-81],[-33,-3],[9,-16],[24,-62],[-119,69],[-97,-8],[-97,-8],[-10,-24],[-4,-38],[1,-21],[5,-16],[30,-83],[11,-11],[5,-9],[6,-19],[14,-81],[-6,-17],[-6,-14],[15,-9],[-5,-19],[23,2],[12,-10],[5,-28],[1,-21],[-1,-9],[-5,-4],[-4,3],[-11,17],[-11,10],[-9,1],[-10,-6],[-10,-16],[-9,-20],[-4,-7],[-5,2],[-2,9],[0,9],[2,10],[3,8],[-12,21],[-15,4],[-30,-6],[-34,17],[-96,133],[-34,16],[-18,19],[-11,34],[4,43],[12,36],[13,28],[5,17],[-14,28],[-20,4],[-19,-6]],[[0,196],[1,-1],[4,-7],[3,-13],[5,-24],[66,-151]],[[3759,0],[3,9],[-5,25],[-12,12],[-137,-20],[-12,-10],[-10,-16]],[[2827,0],[60,55],[110,29],[43,61],[72,61],[34,52],[8,21],[6,23],[17,88],[1,12],[-4,12],[-9,4],[-78,-30],[-31,4],[-30,35],[10,2],[20,17],[19,-11],[31,13],[3,-6],[2,-8],[1,-6],[4,4],[5,8],[4,4],[31,7],[12,10],[5,21],[13,32],[77,-2],[37,39],[18,28],[10,47],[-4,6],[-8,20],[-2,4],[-26,10],[18,26],[21,-1],[41,-25],[21,4],[68,50],[25,34],[53,14],[29,30],[5,14],[-7,10],[-17,12],[11,15],[25,0],[11,5],[105,121],[22,9],[102,-50],[10,8],[16,34],[19,13],[22,28],[9,17],[-8,7],[-7,2],[2,10],[3,8],[7,12],[3,19],[10,8],[21,6],[7,12],[14,55],[-2,43],[20,31],[107,63],[22,0]],[[4096,2556],[-3,11],[-4,27],[-3,12],[-5,12],[-5,9],[-6,6],[-14,5],[-13,14],[-6,3],[10,12],[49,-5]],[[4096,3460],[-77,71],[-12,4],[-9,-6],[-19,-28],[-42,-42],[-17,-30],[-7,-4],[-12,-1],[-38,-39],[-11,-14],[15,29],[119,160],[-15,27],[-120,154],[-59,36],[-64,-15],[-16,28],[8,14],[9,10],[10,6],[8,0],[-4,14],[-10,7],[-6,9],[6,9],[13,4],[6,6],[-126,35],[-11,-9],[-13,-21],[-9,-8],[-5,15],[-5,23],[-8,15],[4,17],[7,13],[7,8],[7,3],[-17,22],[-26,9],[-27,-5],[-18,-17],[4,-9],[5,-6],[4,-4],[5,-1],[-14,-14],[-31,6],[-43,-11],[-14,4],[-13,15],[-4,28],[-19,8],[-76,-13],[-108,-93],[-10,1],[-27,19],[-29,2],[-9,13],[-7,5],[-30,-10],[-43,17],[-2,5],[-2,8],[-3,7],[-4,3],[-63,0],[-3,1],[-4,5],[-2,8],[-1,10],[-2,6],[-24,-3],[-49,-40],[-55,14],[-132,-35],[-68,16],[-77,-32],[6,17],[6,12],[-34,21],[-42,-10],[-39,11],[-21,-4],[-11,-27],[9,-10],[-1,-19],[-13,-40],[24,-17],[8,-16],[-2,-38],[-4,-13],[-28,-85],[-5,-11],[-14,-18],[-92,-44],[-117,43],[-85,-40],[-45,3],[-13,-8],[-1,-25],[-10,-18],[-10,-7],[-10,5],[-20,31],[-12,7],[-93,8],[-12,8],[-10,16],[4,20],[-8,29],[1,30],[-5,0],[11,43],[20,7],[21,-13],[16,-17],[-5,-23],[2,-15],[6,-8],[6,-3],[7,2],[5,5],[5,10],[8,26],[3,4],[8,2],[2,2],[0,6],[-1,6],[1,6],[11,15],[5,11],[4,14],[19,45],[3,20],[-3,15],[-24,49],[22,9],[7,-3],[13,-13],[31,-2],[11,11],[8,28],[15,12],[10,11],[5,12],[0,36],[2,15],[6,14],[9,6],[21,-14],[10,-2],[9,8],[26,41],[-7,8]],[[0,3625],[46,-3],[63,-32],[-2,-1],[-8,-8],[15,-19],[69,-4],[61,-34],[15,-16],[52,-25],[17,0],[8,-5],[9,-9],[19,-37],[-142,25],[-16,10],[-7,19],[-7,26],[-14,17],[-116,21],[-38,28],[-6,-3],[-13,-15],[-5,-1]],[[4096,732],[-32,14],[-110,26],[-37,-19],[-13,-87],[3,-18],[8,-26],[-1,-11],[-6,-13],[-4,-16],[0,-17],[5,-19],[-13,-36],[-17,-22],[-19,-7],[-16,6],[-38,32],[-20,4],[-50,-29],[-16,-22],[-3,-45],[9,-31],[36,-47],[130,-62],[37,-44],[29,-52],[15,-18],[115,-23],[8,-7]],[[3899,3750],[32,-21],[7,-14],[6,-21],[6,-14],[7,-7],[51,-5],[19,-17],[17,-40],[11,-35],[13,-25],[14,-15],[14,-6]],[[4096,3741],[-5,9],[5,7]],[[4096,3789],[-1,1],[-30,9],[-10,26],[-7,6],[-9,2],[-5,-3],[-3,-12],[-2,-28],[-3,-11],[-13,-10],[-46,31],[-65,-10],[3,-11],[3,-7],[4,-3],[7,1],[3,-10],[-12,1],[-6,-3],[-5,-8]],[[4096,732],[0,-589],[-8,7],[-115,23],[-15,18],[-29,52],[-37,44],[-130,62],[-36,47],[-9,31],[3,45],[16,22],[50,29],[20,-4],[38,-32],[16,-6],[19,7],[17,22],[13,36],[-5,19],[0,17],[4,16],[6,13],[1,11],[-8,26],[-3,18],[13,87],[37,19],[110,-26],[32,-14]],[[4096,3741],[0,-211],[-14,6],[-14,15],[-13,25],[-11,35],[-17,40],[-19,17],[-51,5],[-7,7],[-6,14],[-6,21],[-7,14],[-32,21],[5,8],[6,3],[12,-1],[-3,10],[-7,-1],[-4,3],[-3,7],[-3,11],[65,10],[46,-31],[13,10],[3,11],[2,28],[3,12],[5,3],[9,-2],[7,-6],[10,-26],[30,-9],[1,-1],[0,-32],[-5,-7],[5,-9]],[[4096,2556],[0,-1246],[-22,0],[-107,-63],[-20,-31],[2,-43],[-14,-55],[-7,-12],[-21,-6],[-10,-8],[-3,-19],[-7,-12],[-3,-8],[-2,-10],[7,-2],[8,-7],[-9,-17],[-22,-28],[-19,-13],[-16,-34],[-10,-8],[-102,50],[-22,-9],[-105,-121],[-11,-5],[-25,0],[-11,-15],[17,-12],[7,-10],[-5,-14],[-29,-30],[-53,-14],[-25,-34],[-68,-50],[-21,-4],[-41,25],[-21,1],[-18,-26],[26,-10],[2,-4],[8,-20],[4,-6],[-10,-47],[-18,-28],[-37,-39],[-77,2],[-13,-32],[-5,-21],[-12,-10],[-31,-7],[-4,-4],[-5,-8],[-4,-4],[-1,6],[-2,8],[-3,6],[-31,-13],[-19,11],[-20,-17],[-10,-2],[30,-35],[31,-4],[78,30],[9,-4],[4,-12],[-1,-12],[-17,-88],[-6,-23],[-8,-21],[-34,-52],[-72,-61],[-43,-61],[-110,-29],[-60,-55],[-2827,0],[0,3559],[5,1],[13,15],[6,3],[38,-28],[116,-21],[14,-17],[7,-26],[7,-19],[16,-10],[142,-25],[-19,37],[-9,9],[-8,5],[-17,0],[-52,25],[-15,16],[-61,34],[-69,4],[-15,19],[8,8],[2,1],[-63,32],[-46,3],[0,471],[2191,0],[7,-8],[-26,-41],[-9,-8],[-10,2],[-21,14],[-9,-6],[-6,-14],[-2,-15],[0,-36],[-5,-12],[-10,-11],[-15,-12],[-8,-28],[-11,-11],[-31,2],[-13,13],[-7,3],[-22,-9],[24,-49],[3,-15],[-3,-20],[-19,-45],[-4,-14],[-5,-11],[-11,-15],[-1,-6],[1,-6],[0,-6],[-2,-2],[-8,-2],[-3,-4],[-8,-26],[-5,-10],[-5,-5],[-7,-2],[-6,3],[-6,8],[-2,15],[5,23],[-16,17],[-21,13],[-20,-7],[-11,-43],[5,0],[-1,-30],[8,-29],[-4,-20],[10,-16],[12,-8],[93,-8],[12,-7],[20,-31],[10,-5],[10,7],[10,18],[1,25],[13,8],[45,-3],[85,40],[117,-43],[92,44],[14,18],[5,11],[28,85],[4,13],[2,38],[-8,16],[-24,17],[13,40],[1,19],[-9,10],[11,27],[21,4],[39,-11],[42,10],[34,-21],[-6,-12],[-6,-17],[77,32],[68,-16],[132,35],[55,-14],[49,40],[24,3],[2,-6],[1,-10],[2,-8],[4,-5],[3,-1],[63,0],[4,-3],[3,-7],[2,-8],[2,-5],[43,-17],[30,10],[7,-5],[9,-13],[29,-2],[27,-19],[10,-1],[108,93],[76,13],[19,-8],[4,-28],[13,-15],[14,-4],[43,11],[31,-6],[14,14],[-5,1],[-4,4],[-5,6],[-4,9],[18,17],[27,5],[26,-9],[17,-22],[-7,-3],[-7,-8],[-7,-13],[-4,-17],[8,-15],[5,-23],[5,-15],[9,8],[13,21],[11,9],[126,-35],[-6,-6],[-13,-4],[-6,-9],[6,-9],[10,-7],[4,-14],[-8,0],[-10,-6],[-9,-10],[-8,-14],[16,-28],[64,15],[59,-36],[120,-154],[15,-27],[-119,-160],[-15,-29],[11,14],[38,39],[12,1],[7,4],[17,30],[42,42],[19,28],[9,6],[12,-4],[77,-71],[0,-798],[-49,5],[-10,-12],[6,-3],[13,-14],[14,-5],[6,-6],[5,-9],[5,-12],[3,-12],[4,-27],[3,-11]],[[3759,0],[-173,0],[10,16],[12,10],[137,20],[12,-12],[5,-25],[-3,-9]],[[4096,1962],[0,-278],[-119,-1],[-23,134],[-64,17],[11,52],[91,84],[104,-8]],[[4096,2884],[0,-436],[-81,14],[-178,327],[38,28],[83,-24],[56,12],[14,51],[68,28]],[[13,0],[-13,0],[0,18],[13,-18]]]}