{"objects":{"water":{"type":"GeometryCollection","geometries":[{"type":"Polygon","properties":{"name:pt":null,"collision_rank":400,"name:nl":"Tajmyrmeer","name:id":null,"name:hi":null,"name:tr":null,"name:ar":null,"min_zoom":4.0,"name:it":"lago Tajmyr","name:vi":null,"name:ru":"\u0422\u0430\u0439\u043c\u044b\u0440","name:sv":null,"name:pl":"Tajmyr","name:hu":null,"id":540,"name:ja":"\u30bf\u30a4\u30df\u30eb\u6e56","name:el":null,"kind":"lake","name:en":"Lake Taymyr","name":"Lake Taymyr","area":65535000000,"sort_rank":204,"name:bn":null,"name:de":"Taimyrsee","name:ko":null,"name:fr":"lac Ta\u00efmyr","source":"naturalearthdata.com","wikidata_id":"Q845868","name:zh":"\u6cf0\u6885\u723e\u6e56","name:es":"Lago Taimir"},"arcs":[[21]]},{"type":"MultiPolygon","properties":{"source":"naturalearthdata.com","kind":"ocean","area":989871000000000,"sort_rank":200,"min_zoom":0,"id":1},"arcs":[[[22]],[[23]]]},{"type":"MultiLineString","properties":{"source":"naturalearthdata.com","min_zoom":4.0,"area":65535000000,"sort_rank":367,"boundary":true,"id":540,"kind":"lake"},"arcs":[[24],[25]]},{"type":"MultiLineString","properties":{"source":"naturalearthdata.com","kind":"ocean","sort_rank":205,"boundary":true,"min_zoom":0,"id":506},"arcs":[[26],[27]]}]},"buildings":{"type":"GeometryCollection","geometries":[]},"places":{"type":"GeometryCollection","geometries":[{"type":"Point","properties":{"name:pt":"Khatanga","collision_rank":365,"name:nl":"Chatanga","name:id":null,"name":"Khatanga","name:hi":null,"name:tr":null,"name:sv":null,"name:ar":"\u0631\u064a\u0641 \u062e\u0627\u062a\u0627\u0646\u063a\u0627","min_zoom":5.0,"name:it":"Chatanga","name:vi":null,"name:ru":"\u0425\u0430\u0442\u0430\u043d\u0433\u0430","name:pl":"Chatanga","name:hu":null,"id":6395,"name:ja":"\u30cf\u30bf\u30f3\u30ac","name:el":null,"kind":"locality","name:en":"Khatanga","population_rank":4,"source":"naturalearthdata.com","name:bn":null,"name:de":"Chatanga","name:ko":null,"name:fr":"Khatanga","wikidata_id":"Q918830","population":3205,"name:zh":null,"name:es":"Khatanga"},"coordinates":[442,1717]}]},"transit":{"type":"GeometryCollection","geometries":[]},"pois":{"type":"GeometryCollection","geometries":[]},"boundaries":{"type":"GeometryCollection","geometries":[{"type":"LineString","properties":{"sort_rank":256,"kind_detail":"4","kind":"region","min_zoom":2.0,"source":"naturalearthdata.com"},"arcs":[0]},{"type":"LineString","properties":{"sort_rank":256,"kind_detail":"4","kind":"region","min_zoom":2.0,"source":"naturalearthdata.com"},"arcs":[1]},{"type":"LineString","properties":{"sort_rank":256,"kind_detail":"4","kind":"region","min_zoom":2.0,"source":"naturalearthdata.com"},"arcs":[2]},{"type":"MultiLineString","properties":{"sort_rank":256,"kind_detail":"4","kind":"region","min_zoom":2.0,"source":"naturalearthdata.com"},"arcs":[[3],[4],[5],[6],[7],[8],[9],[10],[11],[12],[13],[14],[15],[16],[17],[18],[19],[20]]}]},"roads":{"type":"GeometryCollection","geometries":[]},"earth":{"type":"GeometryCollection","geometries":[{"type":"MultiPolygon","properties":{"sort_rank":10,"source":"naturalearthdata.com","min_zoom":0,"kind":"earth","area":21804330306050},"arcs":[[[28]]]}]},"landuse":{"type":"GeometryCollection","geometries":[{"type":"MultiPolygon","properties":{"kind":"nature_reserve","protect_class":"1","area":473449578101,"sort_rank":23,"source":"openstreetmap.org","min_zoom":4.0,"tier":2,"id":-7008278},"arcs":[[[29]]]}]}},"type":"Topology","transform":{"translate":[101.25,70.612614238],"scale":[0.002746582,0.0008317698]},"arcs":[[[3657,3915],[2,-2]],[[3516,3702]],[[3505,3793],[18,24],[31,28],[98,59],[5,11]],[[3546,3550],[11,4],[19,17],[5,6],[3,6],[2,6],[1,6],[2,6],[6,15],[0,11],[-2,8],[-3,6],[-65,56],[-6,3],[-3,2]],[[3497,3553],[49,-3]],[[3524,2355],[-12,5],[-6,6],[1,5],[1,6],[-3,13],[1,6],[8,9],[3,7],[0,8],[-4,5],[-5,3],[-48,9],[-8,4],[-11,9],[-5,7],[-3,7],[-3,11],[-3,11],[-1,6],[0,6],[-1,5],[-1,6],[0,6],[-1,6],[-1,6],[0,6],[-7,34],[0,6],[-7,34],[-1,6],[1,6],[2,5],[4,5],[19,17],[4,7],[2,8],[-1,11],[-5,8],[-13,12],[-3,6],[-2,6],[0,7],[1,7],[-1,11],[-1,8],[0,6],[3,6],[5,3],[32,13],[37,39],[1,6],[-4,2],[-5,0],[-6,3],[-5,15],[-5,14],[-5,11],[-2,7],[0,5],[0,3],[2,3],[8,8],[37,17],[4,4],[4,7],[1,14],[-2,8],[-3,7],[-15,16],[-4,8],[-3,6],[-1,6],[0,6],[-1,9],[-2,9],[-4,18],[-9,23],[-1,8],[0,8],[0,7],[-1,8],[-4,6],[-5,5],[-121,10],[-7,6],[-3,6],[0,6],[1,6],[4,6],[59,53],[4,6],[4,7],[1,8],[-1,12],[-3,7],[-10,15],[-8,22],[-11,11],[-37,10],[-80,59],[-10,14],[0,5],[4,2],[129,4],[6,3],[10,8],[18,24],[14,27],[10,26],[10,20],[4,6],[20,14],[4,21],[12,37],[3,6],[10,5]],[[3702,2046],[-30,7],[-4,6],[-4,7],[-4,3],[-79,43],[-7,7],[-3,7],[-1,5],[0,6],[0,6],[0,6],[1,6],[3,5],[18,19],[15,10],[4,5],[2,5],[4,12],[2,6],[33,26],[3,5],[1,6],[1,6],[1,6],[-1,7],[-2,9],[-12,17],[-6,11],[-11,13],[-73,35],[-7,1]],[[3546,2359],[-11,-4],[-11,0]],[[3847,1826],[-12,8],[-7,7],[-4,6],[-2,6],[-2,5],[-1,6],[-2,11],[-2,6],[-1,6],[-1,5],[0,13],[-1,6],[-2,5],[-29,3],[-6,5],[-1,6],[6,20],[3,12],[2,12],[1,7],[0,6],[-1,5],[-1,6],[-24,42],[-8,8],[-7,4]],[[3745,2052],[-43,-6]],[[4096,787],[-3,2],[-2,5],[-1,5],[-3,5],[-4,5],[-16,12],[-4,5],[-11,21],[-14,21],[-122,85],[-2,3],[-1,7],[0,865]],[[3913,1828],[-66,-2]],[[4079,543],[9,6],[8,10]],[[4060,543],[19,0]],[[3993,465],[12,5],[5,5],[5,6],[22,43],[10,13],[6,4],[7,2]],[[3942,539],[10,-1],[6,-3],[4,-4],[3,-5],[3,-5],[2,-6],[4,-11],[2,-5],[2,-12],[2,-5],[2,-6],[3,-4],[6,-6],[2,-1]],[[3477,226],[22,1],[15,8],[30,31],[32,17],[96,9],[6,4],[4,6],[3,6],[3,13],[5,13],[9,16],[22,29],[16,13],[157,52],[10,8],[7,10],[1,4],[1,3],[2,10],[0,6],[4,25],[2,7],[2,7],[5,8],[5,5],[6,2]],[[3450,242],[9,0],[6,-3],[3,-4],[3,-5],[6,-4]],[[3416,225],[9,1],[8,6],[8,8],[9,2]],[[3403,229],[13,-4]],[[3226,0],[-3,11],[0,6],[0,6],[32,40],[19,9],[6,5],[4,6],[2,7],[3,7],[5,8],[5,3],[43,7],[16,9],[4,6],[2,6],[-1,6],[0,6],[-1,6],[0,17],[-2,12],[0,6],[2,7],[3,9],[6,11],[6,6],[5,4],[21,3]],[[29,3900],[-13,7],[-16,-2],[0,191],[79,0],[7,-14],[12,-14],[16,-5],[-6,-16],[-20,-28],[-2,-11],[3,-15],[6,-29],[3,-13],[7,-13],[8,-12],[8,-15],[1,-22],[-8,-15],[-14,-7],[-37,2],[-34,31]],[[3759,4096],[337,0],[0,-356],[-6,1],[-41,-23],[-81,3],[-126,44],[-134,82],[-51,68],[-35,131],[9,18],[11,9],[12,2],[23,-19],[12,2],[23,21],[27,-1],[15,5],[5,13]],[[2827,4096],[759,0],[-1,-2],[-8,-23],[-3,-23],[2,-10],[5,-9],[6,-17],[-17,-27],[-17,-17],[-18,-5],[-20,8],[-33,41],[-9,7],[-28,2],[-48,41],[-102,33],[-101,-5],[-19,-15],[-18,-22],[-12,-28],[-6,-26],[-5,-30],[-6,-26],[-8,-18],[-36,-29],[-59,-23],[-8,-15],[-3,-31],[1,-25],[4,-13],[5,-11],[21,-56],[22,-36],[23,-20],[18,8],[-2,9],[-3,6],[-4,2],[-3,0],[17,27],[177,1],[137,98],[11,-4],[10,-9],[57,-11],[15,-2],[-4,-4],[-5,-9],[-4,-11],[-2,-14],[3,-10],[12,-13],[2,-13],[-9,-22],[-122,-45],[-34,1],[-17,-12],[-10,-30],[10,-9],[-62,-24],[-31,1],[-16,-9],[-13,-25],[13,1],[7,-5],[5,-12],[-9,-24],[-10,-12],[-34,-9],[-57,-45],[-51,-23],[-50,-1],[-24,7],[-22,17],[-32,41],[-21,21],[-11,3],[-9,8],[-11,16],[-10,7],[-8,-14],[3,-13],[2,-4],[-2,-18],[6,-7],[15,0],[18,-7],[18,-17],[19,-30],[8,-3],[8,-6],[3,-14],[-2,-17],[-6,-13],[-8,-2],[-7,7],[-10,20],[-44,40],[-7,-1],[-4,-10],[2,-20],[6,-11],[7,-7],[5,-11],[0,-21],[-12,-18],[-55,-16],[-53,-28],[-87,-13],[-53,-35],[-53,8],[-56,-20],[-15,-26],[15,-6],[46,2],[11,-22],[-8,-30],[-21,-13],[-24,-1],[-47,28],[-11,2],[-46,-18],[-48,-58],[-40,-17],[-84,5],[-60,-17],[-106,28],[-50,-45],[-24,5],[-21,-9],[-152,64],[-9,-6],[-7,-13],[-6,-16],[-6,-15],[-8,-6],[-9,-1],[-7,-3],[-5,-10],[-5,-18],[-2,-15],[-3,-17],[1,-16],[4,-10],[-1,-18],[1,-23],[3,-21],[6,-25],[1,-18],[3,-10],[11,-12],[26,-14],[63,-34],[44,-38],[51,-9],[37,-12],[40,6],[29,-8],[19,-24],[-35,-15],[-67,-22],[-60,7],[-15,28],[-21,14],[-55,6],[-44,24],[-21,3],[-34,20],[-7,36],[-29,14],[-13,-7],[-10,-25],[-6,-28],[-3,-8],[-7,-9],[-38,-12],[-14,-10],[-13,-16],[-27,-50],[-6,-3],[-14,-4],[-14,-10],[-24,-30],[-13,-10],[-133,9],[-16,-12],[-2,24],[81,18],[23,38],[62,47],[9,12],[29,25],[8,11],[10,30],[27,49],[30,31],[5,15],[-3,22],[4,25],[0,25],[1,24],[7,24],[50,49],[6,32],[8,25],[2,13],[-1,13],[-2,24],[0,13],[6,21],[62,60],[59,-11],[38,15],[9,-3],[28,-20],[17,0],[50,41],[10,16],[7,25],[15,65],[2,11],[1,7],[4,5],[7,8],[9,19],[72,72],[13,28],[-5,10],[-7,9],[-6,5],[-7,0],[11,40],[6,13],[9,5],[54,0],[5,2],[9,12],[6,2],[104,-12],[32,-16],[10,6],[69,64],[26,8],[21,-17],[-3,-7],[-3,-7],[-2,-9],[-2,-10],[120,143],[23,17],[12,5],[-5,14],[-8,30],[-7,13],[23,-16],[9,0],[9,6],[5,11],[10,37],[5,15],[7,10],[21,24],[30,51],[21,25],[29,11],[7,11],[12,29],[15,21],[7,5]],[[29,3900],[-13,7],[-16,-2]],[[79,4096],[7,-14],[12,-14],[16,-5],[-6,-16],[-20,-28],[-2,-11],[3,-15],[6,-29],[3,-13],[7,-13],[8,-12],[8,-15],[1,-22],[-8,-15],[-14,-7],[-37,2],[-34,31]],[[4096,3740],[-6,1],[-41,-23],[-81,3],[-126,44],[-134,82],[-51,68],[-35,131],[9,18],[11,9],[12,2],[23,-19],[12,2],[23,21],[27,-1],[15,5],[5,13]],[[3586,4096],[-1,-2],[-8,-23],[-3,-23],[2,-10],[5,-9],[6,-17],[-17,-27],[-17,-17],[-18,-5],[-20,8],[-33,41],[-9,7],[-28,2],[-48,41],[-102,33],[-101,-5],[-19,-15],[-18,-22],[-12,-28],[-6,-26],[-5,-30],[-6,-26],[-8,-18],[-36,-29],[-59,-23],[-8,-15],[-3,-31],[1,-25],[4,-13],[5,-11],[21,-56],[22,-36],[23,-20],[18,8],[-2,9],[-3,6],[-4,2],[-3,0],[17,27],[177,1],[137,98],[11,-4],[10,-9],[57,-11],[15,-2],[-4,-4],[-5,-9],[-4,-11],[-2,-14],[3,-10],[12,-13],[2,-13],[-9,-22],[-122,-45],[-34,1],[-17,-12],[-10,-30],[10,-9],[-62,-24],[-31,1],[-16,-9],[-13,-25],[13,1],[7,-5],[5,-12],[-9,-24],[-10,-12],[-34,-9],[-57,-45],[-51,-23],[-50,-1],[-24,7],[-22,17],[-32,41],[-21,21],[-11,3],[-9,8],[-11,16],[-10,7],[-8,-14],[3,-13],[2,-4],[-2,-18],[6,-7],[15,0],[18,-7],[18,-17],[19,-30],[8,-3],[8,-6],[3,-14],[-2,-17],[-6,-13],[-8,-2],[-7,7],[-10,20],[-44,40],[-7,-1],[-4,-10],[2,-20],[6,-11],[7,-7],[5,-11],[0,-21],[-12,-18],[-55,-16],[-53,-28],[-87,-13],[-53,-35],[-53,8],[-56,-20],[-15,-26],[15,-6],[46,2],[11,-22],[-8,-30],[-21,-13],[-24,-1],[-47,28],[-11,2],[-46,-18],[-48,-58],[-40,-17],[-84,5],[-60,-17],[-106,28],[-50,-45],[-24,5],[-21,-9],[-152,64],[-9,-6],[-7,-13],[-6,-16],[-6,-15],[-8,-6],[-9,-1],[-7,-3],[-5,-10],[-5,-18],[-2,-15],[-3,-17],[1,-16],[4,-10],[-1,-18],[1,-23],[3,-21],[6,-25],[1,-18],[3,-10],[11,-12],[26,-14],[63,-34],[44,-38],[51,-9],[37,-12],[40,6],[29,-8],[19,-24],[-35,-15],[-67,-22],[-60,7],[-15,28],[-21,14],[-55,6],[-44,24],[-21,3],[-34,20],[-7,36],[-29,14],[-13,-7],[-10,-25],[-6,-28],[-3,-8],[-7,-9],[-38,-12],[-14,-10],[-13,-16],[-27,-50],[-6,-3],[-14,-4],[-14,-10],[-24,-30],[-13,-10],[-133,9],[-16,-12],[-2,24],[81,18],[23,38],[62,47],[9,12],[29,25],[8,11],[10,30],[27,49],[30,31],[5,15],[-3,22],[4,25],[0,25],[1,24],[7,24],[50,49],[6,32],[8,25],[2,13],[-1,13],[-2,24],[0,13],[6,21],[62,60],[59,-11],[38,15],[9,-3],[28,-20],[17,0],[50,41],[10,16],[7,25],[15,65],[2,11],[1,7],[4,5],[7,8],[9,19],[72,72],[13,28],[-5,10],[-7,9],[-6,5],[-7,0],[11,40],[6,13],[9,5],[54,0],[5,2],[9,12],[6,2],[104,-12],[32,-16],[10,6],[69,64],[26,8],[21,-17],[-3,-7],[-3,-7],[-2,-9],[-2,-10],[120,143],[23,17],[12,5],[-5,14],[-8,30],[-7,13],[23,-16],[9,0],[9,6],[5,11],[10,37],[5,15],[7,10],[21,24],[30,51],[21,25],[29,11],[7,11],[12,29],[15,21],[7,5]],[[4096,3740],[0,-3740],[-4096,0],[0,4096],[2827,0],[-7,-5],[-15,-21],[-12,-29],[-7,-11],[-29,-11],[-21,-25],[-30,-51],[-21,-24],[-7,-10],[-5,-15],[-10,-37],[-5,-11],[-9,-6],[-9,0],[-23,16],[7,-13],[8,-30],[5,-14],[-12,-5],[-23,-17],[-120,-143],[2,10],[2,9],[3,7],[3,7],[-21,17],[-26,-8],[-69,-64],[-10,-6],[-32,16],[-104,12],[-6,-2],[-9,-12],[-5,-2],[-54,0],[-9,-5],[-6,-13],[-11,-40],[7,0],[6,-5],[7,-9],[5,-10],[-13,-28],[-72,-72],[-9,-19],[-7,-8],[-4,-5],[-1,-7],[-2,-11],[-15,-65],[-7,-25],[-10,-16],[-50,-41],[-17,0],[-28,20],[-9,3],[-38,-15],[-59,11],[-7,-6],[-55,-54],[-6,-21],[0,-13],[2,-24],[1,-13],[-2,-13],[-8,-25],[-6,-32],[-50,-49],[-7,-24],[-1,-24],[0,-25],[-1,-10],[-3,-15],[3,-22],[-5,-15],[-30,-31],[-27,-49],[-10,-30],[-8,-11],[-29,-25],[-9,-12],[-62,-47],[-23,-38],[-81,-18],[2,-24],[16,12],[133,-9],[13,10],[24,30],[14,10],[14,4],[6,3],[27,50],[13,16],[14,10],[38,12],[7,9],[3,8],[6,28],[10,25],[13,7],[29,-14],[7,-36],[28,-16],[6,-4],[21,-3],[44,-24],[55,-6],[21,-14],[15,-28],[60,-7],[67,22],[35,15],[-19,24],[-29,8],[-40,-6],[-37,12],[-51,9],[-44,38],[-63,34],[-26,14],[-11,12],[-3,10],[-1,11],[0,7],[-6,25],[-3,21],[0,8],[-1,15],[1,18],[-4,10],[-1,16],[3,17],[2,15],[5,18],[4,8],[1,2],[7,3],[9,1],[8,6],[6,15],[6,16],[7,13],[9,6],[152,-64],[21,9],[24,-5],[50,45],[106,-28],[60,17],[84,-5],[40,17],[48,58],[46,18],[11,-2],[47,-28],[24,1],[21,13],[8,30],[-11,22],[-46,-2],[-15,6],[15,26],[56,20],[53,-8],[53,35],[87,13],[53,28],[55,16],[12,18],[0,21],[-5,11],[-7,7],[-6,11],[-2,20],[4,10],[7,1],[44,-40],[10,-20],[7,-7],[8,2],[6,13],[2,17],[-3,14],[-8,6],[-8,3],[-19,30],[-18,17],[-18,7],[-15,0],[-6,7],[2,18],[-2,4],[-3,13],[8,14],[10,-7],[11,-16],[9,-8],[11,-3],[21,-21],[32,-41],[22,-17],[24,-7],[50,1],[51,23],[57,45],[34,9],[10,12],[9,24],[-5,12],[-7,5],[-13,-1],[13,25],[16,9],[31,-1],[62,24],[-10,9],[10,30],[17,12],[34,-1],[122,45],[9,22],[-2,13],[-12,13],[-3,10],[2,14],[4,11],[5,9],[4,4],[-15,2],[-57,11],[-10,9],[-11,4],[-137,-98],[-177,-1],[-17,-27],[3,0],[4,-2],[3,-6],[2,-9],[-18,-8],[-23,20],[-22,36],[-21,56],[-5,11],[-4,13],[-1,25],[3,31],[8,15],[59,23],[36,29],[8,18],[6,26],[5,30],[6,26],[12,28],[18,22],[19,15],[101,5],[102,-33],[48,-41],[28,-2],[9,-7],[33,-41],[20,-8],[18,5],[17,17],[17,27],[-6,17],[-5,9],[-2,10],[3,23],[8,23],[1,2],[173,0],[-5,-13],[-15,-5],[-27,1],[-23,-21],[-12,-2],[-23,19],[-12,-2],[-11,-9],[-9,-18],[35,-131],[51,-68],[134,-82],[126,-44],[81,-3],[41,23],[6,-1]],[[0,4093],[0,3],[13,0],[5,-6],[-18,3]]]}