{"objects":{"water":{"type":"GeometryCollection","geometries":[]},"buildings":{"type":"GeometryCollection","geometries":[]},"places":{"type":"GeometryCollection","geometries":[]},"transit":{"type":"GeometryCollection","geometries":[]},"pois":{"type":"GeometryCollection","geometries":[]},"boundaries":{"type":"GeometryCollection","geometries":[{"type":"MultiLineString","properties":{"sort_rank":256,"kind_detail":"4","kind":"region","min_zoom":2.0,"source":"naturalearthdata.com"},"arcs":[[0],[1],[2],[3],[4],[5],[6]]},{"type":"MultiLineString","properties":{"sort_rank":256,"kind_detail":"4","kind":"region","min_zoom":2.0,"source":"naturalearthdata.com"},"arcs":[[7],[8],[9],[10],[11],[12],[13],[14],[15],[16],[17],[18],[19],[20],[21],[22],[23]]}]},"roads":{"type":"GeometryCollection","geometries":[]},"earth":{"type":"GeometryCollection","geometries":[{"type":"MultiPolygon","properties":{"sort_rank":10,"source":"naturalearthdata.com","min_zoom":0,"kind":"earth","area":21804330306050},"arcs":[[[24]]]}]},"landuse":{"type":"GeometryCollection","geometries":[]}},"type":"Topology","transform":{"translate":[101.25,66.5132604431],"scale":[0.002746582,0.0010008188]},"arcs":[[[1968,730],[4,1],[4,4],[3,5],[19,46],[19,35],[3,7],[2,6],[0,6],[0,5],[0,12],[0,20],[0,10],[4,53],[2,37],[0,12],[0,6],[0,5],[0,5],[0,5],[1,10],[2,84],[1,13],[0,10],[0,15],[1,17],[15,166],[0,7],[0,5],[0,10],[1,11],[0,5],[0,5],[0,5],[1,5],[0,10],[0,5],[0,5],[0,5],[0,10],[0,85],[0,6],[0,5],[1,10],[0,5],[1,5],[0,5],[3,61],[1,33],[-7,171],[0,26],[0,18],[0,8],[0,10],[6,68],[-1,411],[-1,5],[-1,5],[-267,526],[-5,13],[0,12],[2,6],[4,5],[43,27],[4,4],[3,5],[2,5],[1,6],[1,14],[2,6],[3,6],[24,38]],[[1913,771],[9,0],[20,-11],[4,-4],[15,-21],[3,-3],[4,-2]],[[1625,424],[-10,2],[-9,9],[-12,14],[-24,37],[-7,15],[-1,9],[129,20],[27,20],[6,9],[3,5],[2,5],[1,3],[7,25],[2,11],[2,16],[3,19],[2,6],[3,4],[33,16],[28,1],[4,2],[31,24],[25,44],[7,9],[32,21],[4,1]],[[1742,274],[-4,1],[-5,3],[-5,6],[-2,5],[1,5],[1,5],[2,4],[21,33],[3,5],[2,8],[0,10],[-2,16],[-4,7],[-5,5],[-32,3],[-16,6],[-14,13],[-12,15],[-6,7],[-6,2]],[[1659,433],[-16,-7],[-18,-2]],[[1838,0],[2,5],[2,7],[0,10],[-2,14],[-2,9],[-5,10],[-13,13],[-2,11],[1,10],[-1,9],[-4,34],[-1,12],[1,9],[2,5],[4,12],[2,6],[0,8],[-3,5],[-30,19],[-4,5],[-2,6],[-2,8],[-1,12],[2,6],[2,6],[7,7],[4,5],[3,6],[0,12],[-1,6],[-4,5],[-5,2],[-5,0]],[[1783,294],[-36,-18],[-5,-2]],[[3232,4037],[2,2],[1,4],[-1,5],[-4,14],[0,5],[-1,5],[0,9],[0,5],[-1,5],[-2,5]],[[3212,4039],[20,-2]],[[3273,3902],[5,4],[4,5],[2,5],[1,6],[1,5],[-1,4],[-3,5],[-10,7],[-44,19],[-2,4],[0,5],[0,5],[2,10],[1,5],[0,5],[0,5],[-1,5],[-1,5],[-2,4],[-13,13],[-3,4],[0,5],[3,2]],[[3238,3904],[35,-2]],[[3209,3895],[29,9]],[[3186,3901],[23,-6]],[[3143,3886],[41,14],[2,1]],[[3127,3889],[16,-3]],[[2869,3252],[32,4],[7,4],[8,9],[7,11],[9,17],[9,13],[12,12],[2,6],[2,5],[1,5],[4,11],[10,22],[1,5],[-2,5],[-7,8],[-3,4],[-1,5],[0,5],[1,5],[1,5],[4,11],[8,17],[4,16],[3,6],[3,6],[5,5],[7,7],[4,4],[2,5],[4,17],[1,5],[0,5],[0,5],[-1,4],[-4,1],[-20,1],[-11,5],[-4,3],[-15,17],[-2,4],[-2,5],[-2,4],[0,5],[-1,5],[1,5],[3,11],[0,5],[-1,5],[-8,18],[-10,17],[-8,18],[-2,5],[0,5],[0,5],[0,5],[3,15],[1,6],[3,6],[5,6],[5,3],[15,3],[65,34],[7,10],[3,6],[10,27],[2,6],[1,5],[-1,9],[-2,5],[-3,4],[-10,13],[-1,5],[3,6],[5,8],[10,10],[6,3],[7,2],[20,1],[46,20],[7,1]],[[2563,3341],[67,-3],[45,-17]],[[2419,3162],[11,3],[30,24],[3,3],[1,4],[0,4],[-1,5],[0,5],[-1,5],[0,5],[1,5],[0,5],[2,5],[1,6],[5,11],[6,12],[35,45],[37,27],[14,5]],[[2775,3324],[4,-2],[2,-4],[13,-36],[3,-5],[3,-4],[38,-16],[31,-5]],[[2675,3321],[100,3]],[[2389,3169],[30,-7]],[[1949,3001],[86,2],[8,6],[32,13],[64,50],[240,96],[10,1]],[[1895,3056],[11,-2],[10,-7],[11,-12],[2,-4],[2,-5],[3,-9],[2,-5],[3,-4],[5,-5],[5,-2]],[[1869,3023],[16,25],[10,8]],[[0,0],[0,4096],[4096,0],[0,-4096],[-2289,0],[-1807,0]]]}