{"objects":{"water":{"type":"GeometryCollection","geometries":[{"type":"Polygon","properties":{"name:pt":null,"collision_rank":400,"name:nl":"Viljoej-stuwmeer","name:id":null,"reservoir":true,"name:hi":null,"name:tr":null,"name:ar":null,"min_zoom":5.0,"name:it":"Bacino del Viljuj","name:vi":null,"name:ru":"\u0412\u0438\u043b\u044e\u0439\u0441\u043a\u043e\u0435 \u0432\u043e\u0434\u043e\u0445\u0440\u0430\u043d\u0438\u043b\u0438\u0449\u0435","name:sv":null,"name:pl":"Wilujski Zbiornik Wodny","name:hu":null,"id":1199,"name:ja":null,"name:el":null,"kind":"lake","name:en":"Vilyuy Dam","name":"Vilyuy Reservoir","area":20925700000,"sort_rank":204,"name:bn":null,"name:de":"Wiljui-Stausee","name:ko":null,"name:fr":null,"source":"naturalearthdata.com","wikidata_id":"Q2065167","name:zh":null,"name:es":"Embalse de Viliui"},"arcs":[[76]]},{"type":"Point","properties":{"label_placement":true,"name:pt":null,"collision_rank":400,"name:id":null,"reservoir":true,"name:tr":null,"name:ar":null,"min_zoom":5.0,"name:it":"Bacino del Viljuj","name:ru":"\u0412\u0438\u043b\u044e\u0439\u0441\u043a\u043e\u0435 \u0432\u043e\u0434\u043e\u0445\u0440\u0430\u043d\u0438\u043b\u0438\u0449\u0435","name:vi":null,"name:pl":"Wilujski Zbiornik Wodny","id":1199,"area":20925700000,"sort_rank":204,"name:de":"Wiljui-Stausee","name:ko":null,"name:fr":null,"name:zh":null,"name:nl":"Viljoej-stuwmeer","name:ja":null,"name:hi":null,"name:bn":null,"name:sv":null,"name:hu":null,"name:el":null,"kind":"lake","name:en":"Vilyuy Dam","name":"Vilyuy Reservoir","source":"naturalearthdata.com","wikidata_id":"Q2065167","name:es":"Embalse de Viliui"},"coordinates":[3654,927]},{"type":"MultiLineString","properties":{"kind":"lake","reservoir":true,"area":20925700000,"sort_rank":367,"source":"naturalearthdata.com","min_zoom":5.0,"boundary":true,"id":1199},"arcs":[[77],[78]]}]},"buildings":{"type":"GeometryCollection","geometries":[]},"places":{"type":"GeometryCollection","geometries":[]},"transit":{"type":"GeometryCollection","geometries":[]},"pois":{"type":"GeometryCollection","geometries":[]},"boundaries":{"type":"GeometryCollection","geometries":[{"type":"MultiLineString","properties":{"sort_rank":256,"kind_detail":"4","kind":"region","min_zoom":2.0,"source":"naturalearthdata.com"},"arcs":[[0],[1],[2],[3],[4],[5],[6],[7],[8],[9],[10],[11],[12],[13],[14],[15],[16],[17],[18],[19],[20],[21],[22],[23]]},{"type":"MultiLineString","properties":{"sort_rank":256,"kind_detail":"4","kind":"region","min_zoom":2.0,"source":"naturalearthdata.com"},"arcs":[[24],[25],[26],[27],[28],[29],[30],[31],[32],[33],[34],[35],[36],[37],[38],[39],[40],[41],[42],[43],[44],[45],[46],[47],[48],[49]]},{"type":"MultiLineString","properties":{"sort_rank":256,"kind_detail":"4","kind":"region","min_zoom":2.0,"source":"naturalearthdata.com"},"arcs":[[50],[51],[52],[53],[54],[55],[56],[57],[58],[59],[60],[61],[62],[63],[64],[65],[66],[67],[68],[69],[70],[71],[72],[73],[74],[75]]}]},"roads":{"type":"GeometryCollection","geometries":[{"type":"LineString","properties":{"source":"naturalearthdata.com","kind":"major_road","sort_rank":379,"kind_detail":"secondary","min_zoom":5.1,"id":11336},"arcs":[79]}]},"earth":{"type":"GeometryCollection","geometries":[{"type":"MultiPolygon","properties":{"sort_rank":10,"source":"naturalearthdata.com","min_zoom":0,"kind":"earth","area":46840771247929},"arcs":[[[80]]]}]},"landuse":{"type":"GeometryCollection","geometries":[]}},"type":"Topology","transform":{"translate":[101.25,61.6063963714],"scale":[0.002746582,0.0011979649]},"arcs":[[[2588,2248],[4,0],[3,-2],[3,-3],[3,-2],[17,-1],[4,-1],[3,-3],[3,-3],[11,-21],[4,-6],[7,-7],[2,-4],[0,-7],[-2,-5],[-3,-4],[-3,-3],[-7,-5],[-2,-3],[-1,-3],[3,-4],[13,-7],[3,-3],[1,-5],[0,-6],[-2,-5],[-1,-6],[-13,-26],[-1,-5],[1,-3],[15,-10],[2,-4],[2,-5],[6,-23],[6,-13],[4,-7],[4,-4],[36,-26],[2,-4],[2,-4],[5,-6],[2,-5],[1,-5],[0,-9],[-1,-6],[-2,-6],[-13,-27],[-1,-5],[1,-4],[4,-5],[18,-18],[3,-3],[2,-4],[1,-4],[0,-6],[-2,-5],[-5,-7],[-5,-9],[-2,-5],[-1,-5],[-3,-10],[-3,-4],[-2,-4],[-3,-3],[-3,-3],[-15,-7],[-4,0]],[[2565,2205],[4,2],[3,3],[3,3],[2,4],[2,5],[2,5],[1,5],[0,9],[0,4],[2,2],[4,1]],[[2509,2216],[3,-1],[11,-6],[5,-2],[37,-2]],[[2467,2185],[2,7],[1,3],[3,3],[19,7],[17,11]],[[2612,1830],[-3,1],[-14,10],[-2,4],[-1,5],[-2,1]],[[2590,1851],[-3,0],[-21,-11],[-3,-3],[-2,-4],[-2,-5],[0,-5],[0,-4],[0,-9],[0,-5],[0,-4],[-1,-5],[0,-24],[0,-4],[-1,-23],[0,-10],[-1,-5],[-2,-5],[-2,-5],[-2,-4],[-11,-13],[-12,-11],[-4,-2],[-4,-1],[-9,0],[-4,-1],[-3,-3],[-3,-3],[-2,-4],[0,-6],[1,-9],[4,-16],[3,-7],[6,-6],[4,-1]],[[2689,1820],[-3,2],[-2,3],[-2,6],[-4,4],[-4,1]],[[2674,1836],[-43,-13]],[[2631,1823],[-3,1],[-3,2],[-5,5],[-2,1]],[[2618,1832],[-6,-2]],[[2657,1663],[9,0],[4,-2],[3,-3],[9,-12],[4,-2],[5,-1]],[[2516,1633],[141,30]],[[2711,1647],[3,-1],[4,-2],[9,-9],[7,-5],[18,-6],[14,-11],[4,-1],[4,-1]],[[2691,1643],[20,4]],[[2833,1625],[4,-1],[4,-2],[8,-11],[3,-9],[5,-7],[5,-4],[4,-1],[3,-2],[2,-4],[1,-11],[0,-5],[1,-5],[1,-5],[2,-5],[3,-4],[6,-6],[15,-11],[3,-4],[0,-7],[1,-6],[2,-8],[5,-9],[2,-3],[1,-4],[1,-5],[1,-5],[1,-10],[2,-8],[4,-9],[4,-3],[4,0]],[[2820,1621],[3,1],[6,2],[4,1]],[[2803,1624],[17,-3]],[[2774,1611],[4,1],[21,11],[4,1]],[[2946,1464],[4,-1],[4,-4],[5,-12],[2,-8],[0,-7],[-1,-5],[-1,-5],[0,-5],[2,-15],[0,-8],[-1,-12],[0,-4],[3,-2],[9,-2],[4,-3],[3,-3],[2,-3],[2,-8],[2,-4],[1,-4],[0,-4],[-1,-5],[-3,-3],[-6,-6],[-3,-3],[-2,-4],[-1,-4],[0,-5],[1,-7],[2,-6],[5,-6],[4,-2],[3,-3],[2,-3],[-2,-5],[-2,-4],[-1,-5],[2,-5],[1,-6],[0,-7],[-2,-5],[-2,-5],[-1,-4],[1,-4],[2,-3],[3,-1],[3,-4],[1,-6],[1,-11],[-1,-6],[-4,-10],[0,-3],[2,-2],[5,-4],[2,-4],[0,-8],[-3,-5],[-4,-7],[0,-1],[4,-3],[3,-3],[-1,-8],[-2,-13],[-1,-5],[0,-5],[0,-5],[0,-4],[1,-5],[1,-6],[3,-7],[3,-5],[3,-3],[12,-12],[25,-14],[3,-2],[3,-5],[3,-6],[3,-12],[4,-11],[2,-5],[0,-6],[-1,-8],[-1,-6],[-3,-3],[-3,-3],[-19,-7],[-6,-4],[-6,-6],[-3,-3],[-7,-1],[-2,-3],[-3,-8],[-7,-10],[-2,-5],[-2,-4],[0,-5],[-1,-5],[0,-4],[0,-24],[0,-4],[-1,-5],[0,-5],[-1,-5],[-2,-5],[-2,-4],[-3,-3],[-3,-3],[-15,-3],[-3,-4],[-2,-6],[1,-21],[1,-21],[-2,-6],[-3,-4],[-41,-3],[-3,-2],[0,-5],[6,-11],[1,-6],[0,-6],[0,-6],[0,-5],[1,-5],[7,-9],[2,-6],[2,-8],[2,-6],[4,-5],[3,-4],[4,-2],[23,-6],[7,-4],[3,-3],[5,-7],[13,-26],[4,-3]],[[2931,1451],[3,2],[12,11]],[[3024,689],[33,-13],[35,-4]],[[2999,672],[4,0],[10,13],[4,2],[3,2],[4,0]],[[3123,679],[18,-1],[9,-4],[4,-3],[2,-3],[1,-4],[-2,-6],[-8,-30],[0,-4],[3,-3],[17,-8],[2,-4],[2,-5],[1,-10],[1,-7],[3,-7],[7,-8],[2,-3],[0,-3],[-1,-6],[-2,-4],[-2,-4],[-16,-19],[-2,-5],[1,-5],[3,-7],[5,-9],[13,-20],[1,-2],[1,-3],[1,-5],[-1,-6],[0,-4],[0,-2],[-3,-5],[-4,-6],[-26,-27],[-2,-4],[-2,-5],[-2,-4],[0,-2],[-2,-7],[-1,-3],[-4,-17],[-3,-8],[-3,-4],[-1,-7],[-10,-24],[-3,-7],[-6,-1],[-4,-3],[-9,-12],[-4,-3],[-5,-5],[-34,-58],[-2,-4],[-4,-5],[-7,-4],[-4,-8],[-2,-12],[-1,-17],[0,-28],[2,-20],[7,-32],[1,-11],[0,-10],[-1,-9],[3,-4],[6,-7],[11,-15],[4,-3],[8,-4],[2,-3],[0,-7],[-1,-6],[0,-5],[1,-4],[4,-4],[5,-3],[6,-7],[12,-21]],[[3092,672],[31,7]],[[2549,1992],[4,3],[8,14],[10,11],[2,6],[1,5],[-1,4],[-1,4],[-4,11],[-1,4],[0,5],[-1,4],[0,4],[-1,4],[-7,20],[-5,11],[-1,4],[-1,4],[0,4],[-1,9],[-1,4],[-2,8],[-3,12],[-1,5],[-4,16],[-1,4],[-2,3],[-4,7],[-5,7],[-11,8],[-4,1],[-5,1]],[[2507,2199],[-4,-1],[-36,-13]],[[2379,2004],[4,0],[3,-2],[3,-2],[1,-1],[1,-1],[3,-5],[3,-4],[3,-3],[5,-1]],[[2294,1879],[4,1],[5,3],[5,7],[3,6],[7,24],[1,6],[1,5],[-1,4],[-1,9],[0,5],[1,6],[2,9],[3,5],[2,5],[9,10],[6,5],[20,5],[14,9],[4,1]],[[2531,1999],[3,-1],[12,-6],[3,0]],[[2500,1984],[4,1],[3,2],[12,11],[1,0],[11,1]],[[2439,1998],[4,0],[17,-9],[4,-1]],[[2405,1985],[4,1],[3,1],[7,5],[7,4],[13,2]],[[2008,1994],[4,-1],[3,-3],[3,-3],[4,-7],[2,-3],[4,-1]],[[1970,1411],[4,1],[4,2],[1,4],[1,5],[2,17],[3,10],[2,6],[3,5],[5,9],[1,3],[-3,3],[-26,22],[-6,6],[-8,13],[-2,4],[-9,23],[-2,3],[-2,4],[-20,15],[-2,5],[-1,6],[1,9],[1,6],[2,6],[2,5],[2,3],[4,1],[19,3],[2,9],[2,10],[2,5],[21,35],[6,12],[2,8],[0,5],[-1,4],[-4,7],[-13,16],[-2,4],[-2,3],[-1,5],[0,5],[1,7],[1,5],[2,5],[8,12],[4,7],[8,28],[3,6],[24,39],[7,13],[2,6],[0,5],[-1,4],[-4,7],[-29,39],[-4,7],[-2,8],[-1,4],[0,5],[1,5],[3,16],[4,14],[3,7],[3,4],[8,3],[9,0]],[[2481,1990],[19,-6]],[[2464,1988],[17,2]],[[2038,1979],[4,-1],[4,-2],[9,-9],[17,-8],[13,-11],[5,-7],[2,-3],[2,-5],[4,-6],[9,-9],[6,-10],[3,-3],[3,-1]],[[2028,1976],[10,3]],[[2167,1962],[32,-6],[4,-2],[3,-3],[1,-4],[1,-4],[2,-13],[1,-4],[1,-4],[10,-17],[1,-4],[1,-4],[1,-4],[1,-4],[3,-3],[15,-5]],[[2119,1904],[4,0],[14,9],[4,3],[4,7],[8,23],[4,8],[3,5],[3,2],[2,1],[2,0]],[[2266,1891],[5,-1],[4,-2],[10,-7],[5,-2],[4,0]],[[2244,1881],[4,1],[14,8],[4,1]],[[1900,1436],[4,-2],[3,-2],[2,-4],[1,-4],[1,-4],[3,-2],[56,-7]],[[1917,641],[6,2],[4,3],[32,47],[27,32],[2,6],[1,5],[-2,7],[-2,4],[-3,7],[-4,7],[-8,9],[0,7],[3,9],[10,20],[5,8],[6,5],[23,7],[2,2],[1,3],[-75,41],[-5,4],[-2,3],[-5,7],[-2,3],[-4,1],[-14,2],[-3,5],[0,9],[6,22],[5,19],[-1,5],[0,4],[-2,4],[-1,4],[-3,3],[-3,3],[-8,5],[-2,3],[-2,3],[-2,8],[-4,36],[-1,4],[-1,3],[-3,3],[-27,12],[-7,5],[-8,9],[-3,3],[-32,11],[-2,2],[-2,4],[0,4],[0,5],[2,11],[1,5],[-1,4],[-1,4],[-2,3],[-12,7],[-4,3],[-1,6],[2,4],[5,10],[0,4],[-1,4],[-2,3],[-5,6],[-2,4],[-3,8],[-8,28],[-1,4],[0,5],[1,6],[4,2],[57,2],[7,3],[17,12],[12,14],[4,6],[1,4],[-1,4],[-3,7],[-2,5],[1,8],[3,14],[7,18],[2,9],[-1,6],[-16,9],[-4,2],[-2,4],[0,4],[1,15],[0,16],[2,8],[2,4],[6,7],[17,28],[6,5],[5,1]],[[1896,654],[4,-2],[4,-1],[9,-9],[4,-1]],[[1877,527],[-4,1],[-19,10],[-3,3],[-3,4],[1,5],[3,6],[14,16],[4,7],[4,12],[3,2],[19,0],[5,2],[2,4],[1,4],[-1,4],[-3,3],[-10,8],[-2,3],[-2,3],[-2,4],[-1,5],[0,4],[0,7],[2,4],[3,3],[4,2],[4,1]],[[1656,11],[4,2],[3,4],[2,4],[7,19],[3,5],[3,6],[6,7],[5,4],[5,2],[14,2],[2,3],[0,3],[-1,9],[-1,9],[0,23],[-1,4],[-1,4],[-3,8],[-3,7],[-9,18],[-1,4],[-1,4],[-1,4],[0,5],[1,5],[1,5],[1,4],[3,6],[49,53],[2,4],[1,4],[3,12],[3,8],[3,4],[4,2],[22,11],[4,4],[3,4],[13,25],[5,7],[3,2],[67,23],[2,4],[-1,3],[-5,11],[-1,4],[0,5],[4,7],[2,6],[0,5],[-2,3],[-6,6],[-2,3],[-1,4],[1,6],[3,7],[7,13],[3,7],[2,7],[0,4],[0,5],[3,6],[4,8],[2,5],[0,4],[-3,8],[0,4],[0,5],[4,17],[0,4],[-1,4],[-3,1]],[[1888,530],[-11,-3]],[[1627,36],[4,-1],[7,-4],[3,-3],[2,-3],[3,-8],[3,-3],[3,-2],[4,-1]],[[1585,0],[3,4],[21,21],[10,7],[8,4]],[[1815,3792],[-9,2],[-14,6],[-5,5],[-5,6],[-7,10],[-2,7],[-1,5],[1,9],[1,9],[2,9],[1,8],[2,6],[1,5],[0,8],[-3,9],[-4,15],[0,6],[0,9],[0,5],[-2,4],[-3,5],[-2,5],[0,4],[0,9],[0,8],[0,9],[0,4],[1,4],[2,5],[8,14],[2,4],[2,5],[13,15],[3,3],[17,4],[4,2],[22,18],[3,4],[2,4],[2,6],[-1,5],[-2,4],[-3,5],[-3,5],[-1,5],[1,4],[0,1]],[[2020,3142],[4,0],[4,2],[3,2],[3,3],[0,8],[1,4],[5,6],[3,4],[0,4],[1,4],[0,4],[1,4],[1,5],[1,4],[2,5],[24,34],[3,5],[2,6],[0,6],[-2,4],[-4,4],[-83,31],[-4,2],[-1,4],[0,4],[1,5],[1,4],[2,5],[1,5],[-1,6],[-2,5],[-3,3],[-22,7],[-3,2],[0,3],[5,5],[1,5],[-1,4],[-4,3],[-22,4],[-19,10],[-29,8],[-4,4],[-3,4],[-1,4],[-1,13],[0,4],[1,4],[2,5],[3,4],[9,11],[3,4],[1,7],[-1,7],[-3,14],[-1,7],[-1,6],[1,4],[5,9],[1,5],[-1,8],[-4,7],[-1,6],[1,5],[3,4],[3,3],[2,4],[2,5],[0,4],[0,4],[-2,8],[0,4],[1,13],[-3,21],[-1,6],[0,4],[0,4],[1,4],[4,14],[1,4],[-1,5],[-2,11],[0,5],[-1,8],[-1,12],[-7,24],[-9,22],[-2,5],[-2,6],[-2,5],[-10,14],[-5,11],[-3,7],[-1,5],[0,5],[-1,5],[-2,8],[-3,4],[-4,1]],[[1850,3796],[-35,-4]],[[1957,3161],[4,0],[38,-13]],[[1911,3004],[2,3],[-2,3],[-9,7],[-7,10],[-3,5],[-4,10],[-2,7],[-1,6],[-1,5],[0,4],[1,8],[1,5],[1,4],[2,5],[2,4],[3,4],[30,30],[3,4],[1,4],[1,4],[1,4],[0,4],[3,3],[14,4],[3,2],[3,6],[4,2]],[[2007,3148],[3,-1],[6,-4],[4,-1]],[[1999,3148],[8,0]],[[1884,3013],[5,-1],[18,-8],[4,0]],[[1800,2707],[5,1],[3,2],[2,4],[-1,4],[-2,5],[-4,7],[-4,4],[-19,11],[-4,4],[-2,4],[-2,9],[-3,12],[-1,4],[-3,8],[-41,49],[-4,8],[0,4],[1,4],[2,5],[3,5],[2,3],[11,11],[47,30],[3,4],[3,4],[1,5],[4,13],[1,4],[2,4],[4,2],[7,3],[17,2],[4,1],[3,3],[2,3],[3,9],[2,5],[11,19],[13,17],[7,6],[7,3],[4,1]],[[1739,2754],[4,-2],[4,-2],[2,-4],[8,-15],[7,-11],[4,-4],[32,-9]],[[1714,2674],[8,1],[7,3],[1,1],[2,3],[0,3],[-1,3],[-1,4],[-12,17],[-3,6],[-1,6],[-1,4],[-3,11],[0,4],[1,4],[4,3],[14,6],[10,1]],[[1697,2683],[4,-1],[9,-7],[4,-1]],[[1668,2536],[4,0],[4,2],[3,2],[3,4],[2,4],[1,5],[0,4],[-1,4],[-1,4],[-8,16],[-3,6],[-2,7],[-1,10],[-1,14],[0,14],[1,5],[4,16],[1,6],[2,4],[4,9],[6,7],[3,2],[4,2],[4,0]],[[1631,2556],[3,-1],[3,-2],[5,-7],[3,-3],[4,-2],[9,-4],[10,-1]],[[1669,2398],[-10,1],[-4,3],[-2,4],[2,10],[1,5],[2,5],[0,6],[0,4],[0,5],[-2,3],[-1,4],[-7,11],[-15,15],[-3,5],[-2,5],[0,5],[2,4],[6,13],[1,5],[0,4],[-1,4],[-11,18],[-2,6],[0,5],[1,4],[3,3],[4,1]],[[1791,2333],[-13,3],[-17,8],[-4,3],[-2,3],[-1,4],[1,5],[1,5],[2,4],[3,3],[4,2],[9,0],[3,3],[3,3],[1,5],[1,5],[-1,5],[-4,5],[-22,19],[-4,4],[-6,4],[-5,1]],[[1740,2427],[-5,0],[-5,-3],[-13,-14],[-4,-3],[-5,-1]],[[2008,2343],[-6,2],[-5,2],[-2,4],[-2,3],[-3,8],[-1,4],[-2,8],[-6,11],[-1,4],[-1,4],[-1,9],[-2,5],[-4,6],[-9,8],[-7,3],[-6,2]],[[1950,2426],[-5,0],[-4,-2],[-3,-3],[-1,-4],[-1,-5],[0,-4],[1,-4],[4,-12],[2,-4],[3,-8],[0,-4],[-1,-3],[-3,-3],[-3,-2],[-66,0],[-4,-2],[-7,-4],[-6,-5],[-5,-2],[-21,-1],[-4,-1],[-4,-3],[-2,-3],[-5,-7],[-5,-4],[-6,-2],[-13,-1]],[[1708,2406],[-18,1]],[[1690,2407],[-4,-1],[-11,-7],[-6,-1]],[[2218,2205],[-5,1],[-4,2],[-24,23],[-3,4],[-2,3],[0,4],[-1,5],[2,10],[0,6],[-2,5],[-5,6],[-4,2],[-41,6],[-5,2],[-3,4],[-2,3],[-1,4],[-4,5],[-5,4],[-25,13],[-9,9],[-3,3],[-8,8],[-9,5],[-6,1]],[[2049,2343],[-41,0]],[[2446,2140],[-19,7],[-22,3],[-4,2],[-3,3],[-6,11],[-5,6],[-44,26],[-3,3],[-3,4],[-1,4],[-1,4],[0,9],[0,4],[-3,5],[-6,5],[-12,8],[-13,3]],[[2301,2247],[-9,-1],[-7,-3],[-26,-20],[-32,-16],[-9,-2]],[[2467,2185],[-12,-38],[-9,-7]],[[3904,1028],[-2,7],[-7,2],[-6,-3],[-5,-3],[3,-5],[-3,-5],[-4,8],[-5,5],[-4,7],[-2,11],[-1,14],[-3,10],[-5,4],[-8,-3],[-5,-6],[-3,-7],[-4,-7],[-11,-6],[-4,-9],[-1,-11],[0,-10],[-11,-9],[-4,0],[-2,11],[0,11],[1,10],[1,8],[3,9],[-6,3],[-6,0],[-17,-6],[-3,-7],[-6,-20],[-4,8],[-5,4],[-5,1],[-6,-1],[3,4],[2,4],[3,10],[-6,2],[-4,-3],[-3,-6],[-5,-5],[-5,-1],[-17,6],[2,5],[3,12],[-34,-1],[-11,7],[4,9],[5,5],[11,4],[-4,5],[-2,7],[-1,7],[2,9],[5,5],[4,-1],[8,-9],[23,-12],[9,-9],[5,-1],[6,5],[-7,7],[-14,7],[-6,8],[2,1],[5,5],[-1,3],[-1,3],[-1,3],[-2,3],[11,10],[59,-28],[-3,4],[-12,11],[-11,28],[-2,17],[7,16],[10,11],[12,6],[10,8],[5,2],[5,-2],[6,-3],[5,-1],[5,3],[5,1],[14,-6],[5,5],[5,13],[2,9],[-7,11],[0,17],[4,19],[6,21],[-1,8],[-3,6],[-9,5],[-8,12],[-4,3],[-39,12],[-12,-7],[-6,-13],[-7,-31],[-7,-7],[1,-7],[2,-5],[3,-4],[4,-2],[-6,-19],[-8,-14],[-9,-9],[-11,-4],[-4,-2],[-9,-12],[-4,-3],[-31,0],[-28,12],[-15,2],[-11,-11],[-7,-9],[-32,-23],[-15,-16],[-5,-13],[-2,-19],[3,-24],[9,-9],[38,4],[5,-2],[2,-9],[-1,-7],[-2,-7],[-2,-9],[5,-20],[12,-10],[14,-5],[9,-8],[5,-6],[-3,-1],[-2,-2],[-2,-7],[5,1],[4,-3],[2,-6],[-1,-10],[1,-5],[1,-8],[0,-39],[-1,-4],[-1,-5],[-1,-5],[8,-31],[-1,-11],[-2,-5],[-3,-7],[-4,-11],[21,3],[10,-5],[2,-16],[-5,-6],[-8,0],[-12,6],[-7,-1],[-5,-3],[-5,-5],[-6,-8],[0,-11],[-5,-12],[-6,-11],[-4,-12],[3,-5],[9,-17],[-8,-8],[-5,-9],[1,-7],[10,-5],[22,6],[12,0],[6,-12],[-4,1],[-5,-1],[-4,-3],[-4,-3],[1,-1],[1,0],[1,-1],[2,-3],[-7,-7],[-4,3],[-4,6],[-3,3],[-35,6],[3,-11],[2,-6],[2,-5],[-3,0],[-3,2],[-3,4],[-3,5],[4,-13],[8,-9],[16,-12],[-5,-17],[-1,-9],[1,-9],[4,-6],[9,-4],[20,0],[16,10],[3,3],[4,7],[4,2],[2,-2],[4,-3],[4,-2],[3,4],[8,13],[11,8],[11,4],[9,1],[11,-3],[3,-6],[1,-11],[-3,-2],[-19,4],[1,-6],[2,-5],[3,-4],[3,-2],[-1,-4],[-4,-9],[-2,-4],[8,-4],[17,2],[8,-4],[6,-10],[-5,-5],[-9,-3],[-8,-5],[10,-17],[1,-8],[-5,-3],[-13,7],[-12,10],[-5,7],[-7,24],[-5,7],[-8,4],[-15,4],[-8,-1],[-6,-3],[-11,-8],[-8,-3],[-20,3],[-4,-3],[-4,-8],[-3,-9],[-1,-8],[-2,-3],[-2,-3],[-1,-4],[0,-8],[1,2],[11,-7],[-2,-6],[9,-3],[10,-2],[10,-4],[6,-14],[-12,0],[-6,-1],[-5,-4],[-4,-9],[4,-2],[13,4],[71,2],[6,-6],[7,-13],[4,-5],[4,-3],[2,-5],[-2,-10],[-4,-4],[-5,-3],[-3,-3],[2,-7],[-14,-10],[-8,-4],[-3,3],[-7,11],[-7,5],[-8,2],[-8,5],[5,12],[-3,7],[-6,3],[-7,1],[-4,-2],[-4,-4],[-4,-1],[-3,4],[-2,5],[-1,5],[-1,3],[-2,2],[-4,-3],[-1,-6],[-1,-5],[-2,-4],[-4,-1],[-3,3],[-2,3],[-3,1],[-5,-3],[-6,-6],[-5,-7],[-4,-7],[-3,-10],[-2,-10],[0,-11],[0,-12],[2,-15],[5,-4],[6,1],[5,-4],[10,-20],[4,-7],[7,-6],[23,-10],[0,-6],[-3,0],[-6,-1],[-3,1],[1,-7],[2,-5],[3,-3],[4,-3],[-24,6],[-11,-2],[-9,-12],[-8,-14],[-9,-8],[-10,-3],[-40,1],[-93,31],[-37,1],[-11,5],[-8,11],[-8,9],[-12,-1],[-21,-11],[-10,3],[-9,39],[-11,-1],[-21,-20],[-6,3],[-5,12],[-8,3],[-5,-3],[-5,-6],[-5,-3],[-6,6],[6,12],[6,11],[-9,10],[-12,1],[-24,-5],[-33,11],[-11,-6],[-7,-11],[-6,-13],[-7,-11],[-15,-6],[-9,-8],[-5,-2],[-2,-3],[-7,-16],[-4,-4],[-1,-3],[-5,-15],[-2,-5],[-6,-4],[-41,-7],[-4,-3],[-9,-12],[-4,-3],[-5,-5],[-34,-58],[-2,-6],[-5,-22],[2,0],[-3,-15],[3,-8],[3,-7],[2,-10],[-1,-8],[-7,-18],[-2,-8],[0,-15],[0,-9],[-1,-2],[-9,3],[-4,3],[-5,6],[-3,7],[0,7],[-3,4],[-4,1],[-4,1],[-4,-1],[11,20],[3,11],[-4,9],[12,12],[-3,6],[-1,5],[0,5],[2,7],[-6,5],[-3,1],[-3,-1],[12,39],[4,7],[2,1],[11,11],[12,5],[3,6],[-3,5],[-2,1],[-2,-3],[-3,-3],[1,8],[-1,5],[-2,4],[1,5],[3,7],[2,6],[1,-1],[-2,12],[-4,7],[-5,5],[-5,8],[-3,18],[11,-2],[13,-16],[3,-20],[10,8],[14,6],[36,3],[6,2],[5,7],[3,8],[4,17],[2,6],[8,7],[24,16],[10,17],[33,23],[12,4],[101,-12],[14,-8],[26,-4],[6,-3],[5,-5],[4,-12],[4,-5],[5,1],[8,5],[7,0],[2,-9],[-2,-3],[-13,-6],[11,-8],[28,11],[12,-12],[11,-6],[21,31],[12,-4],[-6,-11],[-3,-12],[3,-8],[8,1],[-2,6],[5,5],[4,-4],[8,-15],[6,-2],[5,4],[1,6],[-4,6],[4,4],[3,0],[8,-4],[-3,-5],[-5,-9],[-2,-8],[8,-3],[21,0],[7,-6],[7,-10],[7,-5],[9,-1],[8,2],[22,20],[8,3],[17,0],[7,3],[6,8],[-13,28],[-16,23],[-18,17],[-18,6],[0,6],[3,7],[-3,5],[-31,16],[-5,6],[0,11],[2,7],[6,-3],[4,-5],[57,-14],[12,4],[10,6],[5,5],[2,6],[0,10],[-3,7],[-4,4],[-4,5],[-6,14],[-3,12],[-1,14],[4,20],[3,9],[7,12],[3,8],[2,12],[-2,5],[-3,2],[-4,7],[-4,4],[-12,7],[-2,6],[-4,22],[-1,10],[1,8],[1,9],[1,9],[-1,8],[-5,5],[-7,1],[-14,-1],[-24,7],[-23,-3],[-32,-13],[-2,-8],[2,-20],[-3,-10],[-8,4],[-8,10],[-6,10],[12,8],[6,6],[5,9],[-33,0],[6,9],[2,3],[-5,6],[-7,3],[-27,4],[-4,5],[3,10],[11,5],[37,-5],[11,-8],[11,-12],[12,2],[24,12],[19,3],[7,-3],[9,-10],[6,0],[5,10],[-5,6],[5,6],[-7,9],[-3,2],[2,2],[0,1],[1,4],[-3,2],[-2,2],[-3,7],[16,12],[8,8],[6,14],[-21,1],[-6,-4],[-18,-20],[-6,1],[-12,9],[-7,2],[-6,-2],[-16,-10],[2,12],[-5,2],[-17,-2],[0,5],[5,4],[8,16],[5,3],[5,2],[-3,6],[-10,10],[7,6],[28,-1],[-8,-18],[0,-14],[6,-10],[12,-4],[11,2],[24,13],[21,5],[10,7],[8,12],[3,16],[-4,10],[-23,17],[-8,10],[9,20],[1,9],[-2,2],[-1,3],[-1,2],[-1,3],[25,24],[0,6],[-44,-17],[-16,-1],[0,6],[23,10],[12,8],[9,13],[6,19],[1,17],[-6,12],[-12,1],[-20,-12],[-7,-2],[-21,2],[-10,5],[-7,11],[-10,25],[-6,7],[-4,1],[-23,-2],[-8,2],[-10,11],[-13,2],[-5,5],[-1,2],[-5,5],[-1,1],[-4,1],[-2,2],[-1,4],[-5,13],[-1,9],[-3,8],[-5,3],[-18,-20],[-5,-4],[-7,-1],[-7,1],[-12,8],[-2,-6],[0,-10],[-2,-8],[-4,-3],[-4,-2],[-5,3],[-2,5],[-2,9],[-5,0],[-10,-6],[-18,-6],[-2,3],[-1,8],[-3,7],[-4,5],[10,9],[20,10],[9,12],[10,18],[1,5],[0,29],[0,3],[1,9],[1,6],[3,4],[5,4],[8,1],[23,-1],[12,4],[-2,9],[-9,9],[-12,1],[-35,-17],[-8,-9],[-13,-23],[-2,-3],[-3,0],[-3,2],[-1,7],[2,6],[3,2],[3,2],[2,4],[1,8],[-2,3],[-49,8],[-10,8],[-6,2],[-6,-3],[-4,-5],[-3,-6],[-3,-4],[-6,-2],[-3,3],[-9,11],[-6,3],[-14,3],[-7,5],[9,6],[4,11],[-3,12],[-9,5],[-22,4],[-10,-1],[-11,-8],[4,8],[9,8],[4,6],[-2,12],[6,2],[24,-12],[16,-3],[6,-4],[-1,-3],[-1,-3],[0,-3],[-1,-3],[90,-22],[-3,10],[-2,8],[-1,8],[1,13],[2,11],[2,7],[-2,7],[-7,11],[23,27],[2,12],[-1,9],[-3,6],[-4,2],[-4,0],[-5,4],[-2,10],[-1,10],[-3,4],[-7,5],[-6,13],[-10,25],[-8,4],[-9,-10],[-9,-15],[-8,-10],[-7,35],[-5,13],[-5,10],[-10,8],[-10,2],[-12,-3],[-11,-7],[-38,-44],[-22,-10],[-17,19],[3,15],[-6,5],[-28,-2],[-11,5],[-10,15],[-12,6],[-4,0],[-2,-6],[-1,-9],[-5,-7],[-5,-4],[-4,-1],[-4,12],[8,13],[19,18],[7,0],[19,-20],[9,-5],[9,3],[7,6],[6,3],[8,-6],[11,-21],[6,-6],[10,-3],[5,5],[5,11],[5,14],[0,11],[3,6],[2,7],[-1,6],[-4,4],[0,5],[13,1],[6,2],[5,6],[3,9],[3,10],[3,8],[5,5],[-2,6],[-2,4],[-3,4],[-3,2],[12,7],[3,5],[2,8],[2,17],[2,6],[6,10],[5,5],[2,-4],[-2,-18],[3,-7],[13,2],[5,-5],[1,-10],[-5,-5],[-18,-8],[-4,-3],[-2,-7],[0,-13],[-2,-4],[-6,-12],[-2,-9],[8,-10],[8,-5],[22,-3],[5,-2],[5,-4],[1,-8],[3,-1],[17,4],[17,-7],[24,-31],[17,-8],[-3,16],[4,6],[14,2],[0,2],[1,6],[1,5],[3,3],[3,-1],[4,-2],[3,-3],[2,-5],[-2,-5],[2,-2],[1,-2],[2,-2],[2,0],[0,-6],[-1,-10],[11,-7],[-5,-6],[6,-12],[7,-5],[17,-1],[0,-5],[-5,-3],[-1,-6],[4,-5],[5,-4],[-9,-14],[-26,-32],[-3,-10],[-1,-3],[-4,-9],[13,-5],[-10,-7],[-12,0],[-11,-4],[-7,-18],[8,1],[17,9],[7,-4],[-8,-11],[-27,-18],[7,-5],[3,0],[-4,-29],[12,1],[32,21],[21,-1],[12,-4],[5,-9],[5,-14],[10,-6],[9,4],[1,13],[-7,7],[-21,16],[-2,11],[6,5],[23,-8],[9,6],[3,9],[1,6],[2,4],[4,2],[1,-4],[6,-14],[2,-3],[-1,-7],[-5,-8],[-2,-7],[1,-9],[3,-14],[1,-9],[4,7],[1,8],[-1,8],[2,6],[3,2],[12,0],[5,-2],[1,-3],[1,-4],[0,-3],[2,-2],[2,0],[16,-12],[10,-5],[0,-5],[-6,1],[-5,-4],[-1,-7],[5,-8],[-25,-1],[-8,-4],[17,-24],[8,-15],[-4,-7],[-12,6],[-19,26],[-13,2],[-10,-7],[-18,-18],[-19,-7],[-12,-9],[-9,-12],[-1,-16],[6,1],[34,28],[3,-3],[6,-17],[3,-6],[6,-2],[4,7],[2,10],[1,5],[8,9],[1,-7],[-3,-15],[-7,-13],[-5,-15],[6,-12],[12,-7],[41,-2],[9,-6],[-5,-13],[4,-9],[14,-12],[11,-20],[7,-3],[6,11],[-7,7],[-6,8],[-10,22],[-3,11],[2,10],[8,19],[5,7],[39,36],[10,5],[10,1],[-8,11],[-17,17],[-8,12],[-8,24],[-6,10],[-8,6],[5,9],[-3,7],[-6,6],[-4,6],[5,5],[2,8],[-1,7],[-6,3],[4,8],[3,8],[3,7],[5,0],[-2,12],[2,5],[5,2],[5,-1],[-5,9],[-7,4],[-15,4],[8,12],[13,4],[13,9],[6,29],[0,10],[2,20],[0,7],[-3,10],[-5,11],[-1,9],[7,5],[1,-16],[5,-6],[6,-3],[3,-7],[1,-16],[4,-8],[7,-3],[8,1],[-9,-9],[-8,-13],[-7,-17],[-4,-18],[13,-10],[5,-1],[-5,-5],[-1,-6],[1,-6],[5,-6],[-9,-6],[-4,-7],[-2,-10],[3,-1],[4,-4],[3,-1],[-13,-17],[5,-18],[-6,-33],[6,-12],[10,2],[19,21],[9,-6],[-15,-10],[-6,-7],[-7,-11],[6,-9],[12,-5],[12,-12],[6,3],[12,11],[11,5],[16,2],[14,-5],[13,-32],[15,0],[27,13],[2,4],[3,10],[1,12],[0,8],[-4,8],[-18,15],[26,0],[4,4],[2,9],[-1,10],[-4,6],[4,9],[10,4],[3,9],[-21,2],[-6,4],[-7,15],[-4,1],[-4,-1],[-4,1],[-4,7],[7,5],[-1,8],[-3,11],[-3,13],[3,-1],[20,-24],[8,-7],[8,-1],[15,3],[4,7],[3,15],[5,9],[9,-9],[-3,-23],[10,-15],[66,-37],[10,-17],[-6,-14],[-2,-11],[0,-23],[5,-3],[21,-2],[7,-9],[-6,-5],[-3,-1],[-4,0],[6,-17],[-7,-14],[-13,-11],[-14,-18],[-15,-12],[-12,-6],[-12,-13],[-8,-1],[0,-5],[10,-7],[8,-27],[10,-6],[13,3],[7,0],[6,-6],[2,-7],[1,-7],[-1,-7],[-3,-5],[9,-20],[16,-12],[17,-3],[13,7],[1,29],[40,9],[0,27],[-7,11],[-7,6],[-3,7],[4,16],[-1,13],[-9,12],[-13,8],[-8,4],[11,14],[36,32],[-4,6],[-2,8],[-1,10],[3,10],[-4,1],[-3,2],[-3,5],[0,7],[0,8],[-26,51],[-7,30],[3,22],[9,21],[8,25],[-8,6],[-27,0],[-8,4],[-15,16],[-9,2],[-7,-3],[-13,-11],[-8,-3],[-19,3],[-18,8],[0,6],[9,4],[26,-4],[8,2],[7,4],[12,11],[5,-1],[10,-10],[4,0],[9,1],[5,-1],[5,-7],[5,-7],[6,-4],[8,6],[-4,12],[12,18],[-8,8],[-4,7],[0,7],[3,5],[17,-11],[52,0],[0,-5],[-4,-2],[-7,-8],[-4,-1],[-5,2],[-4,5],[-5,3],[-29,-18],[-5,-10],[8,-12],[9,-7],[7,-9],[-2,-15],[-7,-12],[-7,-10],[-6,-12],[-2,-19],[4,-20],[7,-9],[8,-4],[8,-11],[0,-6],[-3,-9],[-1,-8],[8,-7],[3,-10],[7,-33],[2,-5],[2,-5],[6,-5],[7,-1],[14,1],[1,-4],[-3,-28],[3,-8],[4,5],[8,17],[9,8],[10,-2],[9,-7],[8,-13],[8,-6],[13,-7],[8,-7],[0,-27],[-1,-2],[-11,1],[-20,10],[-11,-1],[-5,-5],[-3,-12],[-3,-52],[0,-29],[3,-14],[8,-10],[10,-6],[8,-1],[-5,-5],[-17,-7],[0,-6],[5,-5],[-16,-24],[-1,-11],[-19,-25],[-24,-17],[-23,-4],[-19,18],[1,0],[0,5],[-1,7],[0,5],[-2,2],[-5,4],[-2,2],[-3,8],[-2,7],[-2,6],[-4,5],[-15,-5],[-9,0],[-4,7]],[[3904,1028],[-2,7],[-7,2],[-6,-3],[-5,-3],[3,-5],[-3,-5],[-4,8],[-5,5],[-4,7],[-2,11],[-1,14],[-3,10],[-5,4],[-8,-3],[-5,-6],[-3,-7],[-4,-7],[-11,-6],[-4,-9],[-1,-11],[0,-10],[-11,-9],[-4,0],[-2,11],[0,11],[1,10],[1,8],[3,9],[-6,3],[-6,0],[-17,-6],[-3,-7],[-6,-20],[-4,8],[-5,4],[-5,1],[-6,-1],[3,4],[2,4],[3,10],[-6,2],[-4,-3],[-3,-6],[-5,-5],[-5,-1],[-17,6],[2,5],[3,12],[-34,-1],[-11,7],[4,9],[5,5],[11,4],[-4,5],[-2,7],[-1,7],[2,9],[5,5],[4,-1],[8,-9],[23,-12],[9,-9],[5,-1],[6,5],[-7,7],[-14,7],[-6,8],[2,1],[5,5],[-1,3],[-1,3],[-1,3],[-2,3],[11,10],[59,-28],[-3,4],[-12,11],[-11,28],[-2,17],[7,16],[10,11],[12,6],[10,8],[5,2],[5,-2],[6,-3],[5,-1],[5,3],[5,1],[14,-6],[5,5],[5,13],[2,9],[-7,11],[0,17],[4,19],[6,21],[-1,8],[-3,6],[-9,5],[-8,12],[-4,3],[-39,12],[-12,-7],[-6,-13],[-7,-31],[-7,-7],[1,-7],[2,-5],[3,-4],[4,-2],[-6,-19],[-8,-14],[-9,-9],[-11,-4],[-4,-2],[-9,-12],[-4,-3],[-31,0],[-28,12],[-15,2],[-11,-11],[-7,-9],[-32,-23],[-15,-16],[-5,-13],[-2,-19],[3,-24],[9,-9],[38,4],[5,-2],[2,-9],[-1,-7],[-2,-7],[-2,-9],[5,-20],[12,-10],[14,-5],[9,-8],[5,-6],[-3,-1],[-2,-2],[-2,-7],[5,1],[4,-3],[2,-6],[-1,-10],[1,-5],[1,-8],[0,-39],[-1,-4],[-1,-5],[-1,-5],[8,-31],[-1,-11],[-2,-5],[-3,-7],[-4,-11],[21,3],[10,-5],[2,-16],[-5,-6],[-8,0],[-12,6],[-7,-1],[-5,-3],[-5,-5],[-6,-8],[0,-11],[-5,-12],[-6,-11],[-4,-12],[3,-5],[9,-17],[-8,-8],[-5,-9],[1,-7],[10,-5],[22,6],[12,0],[6,-12],[-4,1],[-5,-1],[-4,-3],[-4,-3],[1,-1],[1,0],[1,-1],[2,-3],[-7,-7],[-4,3],[-4,6],[-3,3],[-35,6],[3,-11],[2,-6],[2,-5],[-3,0],[-3,2],[-3,4],[-3,5],[4,-13],[8,-9],[16,-12],[-5,-17],[-1,-9],[1,-9],[4,-6],[9,-4],[20,0],[16,10],[3,3],[4,7],[4,2],[2,-2],[4,-3],[4,-2],[3,4],[8,13],[11,8],[11,4],[9,1],[11,-3],[3,-6],[1,-11],[-3,-2],[-19,4],[1,-6],[2,-5],[3,-4],[3,-2],[-1,-4],[-4,-9],[-2,-4],[8,-4],[17,2],[8,-4],[6,-10],[-5,-5],[-9,-3],[-8,-5],[10,-17],[1,-8],[-5,-3],[-13,7],[-12,10],[-5,7],[-7,24],[-5,7],[-8,4],[-15,4],[-8,-1],[-6,-3],[-11,-8],[-8,-3],[-20,3],[-4,-3],[-4,-8],[-3,-9],[-1,-8],[-2,-3],[-2,-3],[-1,-4],[0,-8],[1,2],[11,-7],[-2,-6],[9,-3],[10,-2],[10,-4],[6,-14],[-12,0],[-6,-1],[-5,-4],[-4,-9],[4,-2],[13,4],[71,2],[6,-6],[7,-13],[4,-5],[4,-3],[2,-5],[-2,-10],[-4,-4],[-5,-3],[-3,-3],[2,-7],[-14,-10],[-8,-4],[-3,3],[-7,11],[-7,5],[-8,2],[-8,5],[5,12],[-3,7],[-6,3],[-7,1],[-4,-2],[-4,-4],[-4,-1],[-3,4],[-2,5],[-1,5],[-1,3],[-2,2],[-4,-3],[-1,-6],[-1,-5],[-2,-4],[-4,-1],[-3,3],[-2,3],[-3,1],[-5,-3],[-6,-6],[-5,-7],[-4,-7],[-3,-10],[-2,-10],[0,-11],[0,-12],[2,-15],[5,-4],[6,1],[5,-4],[10,-20],[4,-7],[7,-6],[23,-10],[0,-6],[-3,0],[-6,-1],[-3,1],[1,-7],[2,-5],[3,-3],[4,-3],[-24,6],[-11,-2],[-9,-12],[-8,-14],[-9,-8],[-10,-3],[-40,1],[-93,31],[-37,1],[-11,5],[-8,11],[-8,9],[-12,-1],[-21,-11],[-10,3],[-9,39],[-11,-1],[-21,-20],[-6,3],[-5,12],[-8,3],[-5,-3],[-5,-6],[-5,-3],[-6,6],[6,12],[6,11],[-9,10],[-12,1],[-24,-5],[-33,11],[-11,-6],[-7,-11],[-6,-13],[-7,-11],[-15,-6],[-9,-8],[-5,-2],[-2,-3],[-7,-16],[-4,-4],[-1,-3],[-5,-15],[-2,-5],[-6,-4],[-41,-7],[-4,-3],[-9,-12],[-4,-3],[-5,-5],[-34,-58],[-2,-6],[-5,-22],[2,0],[-3,-15],[3,-8],[3,-7],[2,-10],[-1,-8],[-7,-18],[-2,-8],[0,-15],[0,-9],[-1,-2],[-9,3],[-4,3],[-5,6],[-3,7],[0,7],[-3,4],[-4,1],[-4,1],[-4,-1],[11,20],[3,11],[-4,9],[12,12],[-3,6],[-1,5],[0,5],[2,7],[-6,5],[-3,1],[-3,-1],[12,39],[4,7],[2,1],[11,11],[12,5],[3,6],[-3,5],[-2,1],[-2,-3],[-3,-3],[1,8],[-1,5],[-2,4],[1,5],[3,7],[2,6],[1,-1],[-2,12],[-4,7],[-5,5],[-5,8],[-3,18],[11,-2],[13,-16],[3,-20],[10,8],[14,6],[36,3],[6,2],[5,7],[3,8],[4,17],[2,6],[8,7],[24,16],[10,17],[33,23],[12,4],[101,-12],[14,-8],[26,-4],[6,-3],[5,-5],[4,-12],[4,-5],[5,1],[8,5],[7,0],[2,-9],[-2,-3],[-13,-6],[11,-8],[28,11],[12,-12],[11,-6],[21,31],[12,-4],[-6,-11],[-3,-12],[3,-8],[8,1],[-2,6],[5,5],[4,-4],[8,-15],[6,-2],[5,4],[1,6],[-4,6],[4,4],[3,0],[8,-4],[-3,-5],[-5,-9],[-2,-8],[8,-3],[21,0],[7,-6],[7,-10],[7,-5],[9,-1],[8,2],[22,20],[8,3],[17,0],[7,3],[6,8],[-13,28],[-16,23],[-18,17],[-18,6],[0,6],[3,7],[-3,5],[-31,16],[-5,6],[0,11],[2,7],[6,-3],[4,-5],[57,-14],[12,4],[10,6],[5,5],[2,6],[0,10],[-3,7],[-4,4],[-4,5],[-6,14],[-3,12],[-1,14],[4,20],[3,9],[7,12],[3,8],[2,12],[-2,5],[-3,2],[-4,7],[-4,4],[-12,7],[-2,6],[-4,22],[-1,10],[1,8],[1,9],[1,9],[-1,8],[-5,5],[-7,1],[-14,-1],[-24,7],[-23,-3],[-32,-13],[-2,-8],[2,-20],[-3,-10],[-8,4],[-8,10],[-6,10],[12,8],[6,6],[5,9],[-33,0],[6,9],[2,3],[-5,6],[-7,3],[-27,4],[-4,5],[3,10],[11,5],[37,-5],[11,-8],[11,-12],[12,2],[24,12],[19,3],[7,-3],[9,-10],[6,0],[5,10],[-5,6],[5,6],[-7,9],[-3,2],[2,2],[0,1],[1,4],[-3,2],[-2,2],[-3,7],[16,12],[8,8],[6,14],[-21,1],[-6,-4],[-18,-20],[-6,1],[-12,9],[-7,2],[-6,-2],[-16,-10],[2,12],[-5,2],[-17,-2],[0,5],[5,4],[8,16],[5,3],[5,2],[-3,6],[-10,10],[7,6],[28,-1],[-8,-18],[0,-14],[6,-10],[12,-4],[11,2],[24,13],[21,5],[10,7],[8,12],[3,16],[-4,10],[-23,17],[-8,10],[9,20],[1,9],[-2,2],[-1,3],[-1,2],[-1,3],[25,24],[0,6],[-44,-17],[-16,-1],[0,6],[23,10],[12,8],[9,13],[6,19],[1,17],[-6,12],[-12,1],[-20,-12],[-7,-2],[-21,2],[-10,5],[-7,11],[-10,25],[-6,7],[-4,1],[-23,-2],[-8,2],[-10,11],[-13,2],[-5,5],[-1,2],[-5,5],[-1,1],[-4,1],[-2,2],[-1,4],[-5,13],[-1,9],[-3,8],[-5,3],[-18,-20],[-5,-4],[-7,-1],[-7,1],[-12,8],[-2,-6],[0,-10],[-2,-8],[-4,-3],[-4,-2],[-5,3],[-2,5],[-2,9],[-5,0],[-10,-6],[-18,-6],[-2,3],[-1,8],[-3,7],[-4,5],[10,9],[20,10],[9,12],[10,18],[1,5],[0,29],[0,3],[1,9],[1,6],[3,4],[5,4],[8,1],[23,-1],[12,4],[-2,9],[-9,9],[-12,1],[-35,-17],[-8,-9],[-13,-23],[-2,-3],[-3,0],[-3,2],[-1,7],[2,6],[3,2],[3,2],[2,4],[1,8],[-2,3],[-49,8],[-10,8],[-6,2],[-6,-3],[-4,-5],[-3,-6],[-3,-4],[-6,-2],[-3,3],[-9,11],[-6,3],[-14,3],[-7,5],[9,6],[4,11],[-3,12],[-9,5],[-22,4],[-10,-1],[-11,-8],[4,8],[9,8],[4,6],[-2,12],[6,2],[24,-12],[16,-3],[6,-4],[-1,-3],[-1,-3],[0,-3],[-1,-3],[90,-22],[-3,10],[-2,8],[-1,8],[1,13],[2,11],[2,7],[-2,7],[-7,11],[23,27],[2,12],[-1,9],[-3,6],[-4,2],[-4,0],[-5,4],[-2,10],[-1,10],[-3,4],[-7,5],[-6,13],[-10,25],[-8,4],[-9,-10],[-9,-15],[-8,-10],[-7,35],[-5,13],[-5,10],[-10,8],[-10,2],[-12,-3],[-11,-7],[-38,-44],[-22,-10],[-17,19],[3,15],[-6,5],[-28,-2],[-11,5],[-10,15],[-12,6],[-4,0],[-2,-6],[-1,-9],[-5,-7],[-5,-4],[-4,-1],[-4,12],[8,13],[19,18],[7,0],[19,-20],[9,-5],[9,3],[7,6],[6,3],[8,-6],[11,-21],[6,-6],[10,-3],[5,5],[5,11],[5,14],[0,11],[3,6],[2,7],[-1,6],[-4,4],[0,5],[13,1],[6,2],[5,6],[3,9],[3,10],[3,8],[5,5],[-2,6],[-2,4],[-3,4],[-3,2],[12,7],[3,5],[2,8],[2,17],[2,6],[6,10],[5,5],[2,-4],[-2,-18],[3,-7],[13,2],[5,-5],[1,-10],[-5,-5],[-18,-8],[-4,-3],[-2,-7],[0,-13],[-2,-4],[-6,-12],[-2,-9],[8,-10],[8,-5],[22,-3],[5,-2],[5,-4],[1,-8],[3,-1],[17,4],[17,-7],[24,-31],[17,-8],[-3,16],[4,6],[14,2],[0,2],[1,6],[1,5],[3,3],[3,-1],[4,-2],[3,-3],[2,-5],[-2,-5],[2,-2],[1,-2],[2,-2],[2,0],[0,-6],[-1,-10],[11,-7],[-5,-6],[6,-12],[7,-5],[17,-1],[0,-5],[-5,-3],[-1,-6],[4,-5],[5,-4],[-9,-14],[-26,-32],[-3,-10],[-1,-3],[-4,-9],[13,-5],[-10,-7],[-12,0],[-11,-4],[-7,-18],[8,1],[17,9],[7,-4],[-8,-11],[-27,-18],[7,-5],[3,0],[-4,-29],[12,1],[32,21],[21,-1],[12,-4],[5,-9],[5,-14],[10,-6],[9,4],[1,13],[-7,7],[-21,16],[-2,11],[6,5],[23,-8],[9,6],[3,9],[1,6],[2,4],[4,2],[1,-4],[6,-14],[2,-3],[-1,-7],[-5,-8],[-2,-7],[1,-9],[3,-14],[1,-9],[4,7],[1,8],[-1,8],[2,6],[3,2],[12,0],[5,-2],[1,-3],[1,-4],[0,-3],[2,-2],[2,0],[16,-12],[10,-5],[0,-5],[-6,1],[-5,-4],[-1,-7],[5,-8],[-25,-1],[-8,-4],[17,-24],[8,-15],[-4,-7],[-12,6],[-19,26],[-13,2],[-10,-7],[-18,-18],[-19,-7],[-12,-9],[-9,-12],[-1,-16],[6,1],[34,28],[3,-3],[6,-17],[3,-6],[6,-2],[4,7],[2,10],[1,5],[8,9],[1,-7],[-3,-15],[-7,-13],[-5,-15],[6,-12],[12,-7],[41,-2],[9,-6],[-5,-13],[4,-9],[14,-12],[11,-20],[7,-3],[6,11],[-7,7],[-6,8],[-10,22],[-3,11],[2,10],[8,19],[5,7],[39,36],[10,5],[10,1],[-8,11],[-17,17],[-8,12],[-8,24],[-6,10],[-8,6],[5,9],[-3,7],[-6,6],[-4,6],[5,5],[2,8],[-1,7],[-6,3],[4,8],[3,8],[3,7],[5,0],[-2,12],[2,5],[5,2],[5,-1],[-5,9],[-7,4],[-15,4],[8,12],[13,4],[13,9],[6,29],[0,10],[2,20],[0,7],[-3,10],[-5,11],[-1,9],[7,5],[1,-16],[5,-6],[6,-3],[3,-7],[1,-16],[4,-8],[7,-3],[8,1],[-9,-9],[-8,-13],[-7,-17],[-4,-18],[13,-10],[5,-1],[-5,-5],[-1,-6],[1,-6],[5,-6],[-9,-6],[-4,-7],[-2,-10],[3,-1],[4,-4],[3,-1],[-13,-17],[5,-18],[-6,-33],[6,-12],[10,2],[19,21],[9,-6],[-15,-10],[-6,-7],[-7,-11],[6,-9],[12,-5],[12,-12],[6,3],[12,11],[11,5],[16,2],[14,-5],[13,-32],[15,0],[27,13],[2,4],[3,10],[1,12],[0,8],[-4,8],[-18,15],[26,0],[4,4],[2,9],[-1,10],[-4,6],[4,9],[10,4],[3,9],[-21,2],[-6,4],[-7,15],[-4,1],[-4,-1],[-4,1],[-4,7],[7,5],[-1,8],[-3,11],[-3,13],[3,-1],[20,-24],[8,-7],[8,-1],[15,3],[4,7],[3,15],[5,9],[9,-9],[-3,-23],[10,-15],[66,-37],[10,-17],[-6,-14],[-2,-11],[0,-23],[5,-3],[21,-2],[7,-9],[-6,-5],[-3,-1],[-4,0],[6,-17],[-7,-14],[-13,-11],[-14,-18],[-15,-12],[-12,-6],[-12,-13],[-8,-1],[0,-5],[10,-7],[8,-27],[10,-6],[13,3],[7,0],[6,-6],[2,-7],[1,-7],[-1,-7],[-3,-5],[9,-20],[16,-12],[17,-3],[13,7],[1,29],[40,9],[0,27],[-7,11],[-7,6],[-3,7],[4,16],[-1,13],[-9,12],[-13,8],[-8,4],[11,14],[36,32],[-4,6],[-2,8],[-1,10],[3,10],[-4,1],[-3,2],[-3,5],[0,7],[0,8],[-26,51],[-7,30],[3,22],[9,21],[8,25],[-8,6],[-27,0],[-8,4],[-15,16],[-9,2],[-7,-3],[-13,-11],[-8,-3],[-19,3],[-18,8],[0,6],[9,4],[26,-4],[8,2],[7,4],[12,11],[5,-1],[10,-10],[4,0],[9,1],[5,-1],[5,-7],[5,-7],[6,-4],[8,6],[-4,12],[12,18],[-8,8],[-4,7],[0,7],[3,5],[17,-11],[52,0],[0,-5],[-4,-2],[-7,-8],[-4,-1],[-5,2],[-4,5],[-5,3],[-29,-18],[-5,-10],[8,-12],[9,-7],[7,-9],[-2,-15],[-7,-12],[-7,-10],[-6,-12],[-2,-19],[4,-20],[7,-9],[8,-4],[8,-11],[0,-6],[-3,-9],[-1,-8],[8,-7],[3,-10],[7,-33],[2,-5],[2,-5],[6,-5],[7,-1],[14,1],[1,-4],[-3,-28],[3,-8],[4,5],[8,17],[9,8],[10,-2],[9,-7],[8,-13],[8,-6],[13,-7],[8,-7]],[[4096,1182],[-1,-2],[-11,1],[-20,10],[-11,-1],[-5,-5],[-3,-12],[-3,-52],[0,-29],[3,-14],[8,-10],[10,-6],[8,-1],[-5,-5],[-17,-7],[0,-6],[5,-5],[-16,-24],[-1,-11],[-19,-25],[-24,-17],[-23,-4],[-19,18],[1,0],[0,5],[-1,7],[0,5],[-2,2],[-5,4],[-2,2],[-3,8],[-2,7],[-2,6],[-4,5],[-15,-5],[-9,0],[-4,7]],[[4087,1173],[6,-11],[3,-2]],[[4096,4096],[0,-4096],[-4096,0],[0,4096],[1807,0],[2289,0]]]}