{"objects":{"water":{"type":"GeometryCollection","geometries":[{"type":"MultiPolygon","properties":{"source":"naturalearthdata.com","kind":"ocean","area":990044000000000,"sort_rank":200,"min_zoom":0,"id":1},"arcs":[[[0]]]},{"type":"MultiLineString","properties":{"source":"naturalearthdata.com","kind":"ocean","sort_rank":205,"boundary":true,"min_zoom":0,"id":1199},"arcs":[[1],[2]]},{"type":"MultiLineString","properties":{"source":"naturalearthdata.com","kind":"ocean","sort_rank":205,"boundary":true,"min_zoom":0,"id":1344},"arcs":[[3],[4]]},{"type":"MultiLineString","properties":{"source":"naturalearthdata.com","kind":"ocean","sort_rank":205,"boundary":true,"min_zoom":0,"id":1351},"arcs":[[5],[6]]},{"type":"Point","properties":{"label_placement":true,"collision_rank":398,"name:sk":"Lincolnovo more","name:lt":"Linkolno j\u016bra","name:no":"Lincolnsj\u00f8en","name:sv":"Lincolnhavet","name:ar":"\u0628\u062d\u0631 \u0644\u0646\u0643\u0648\u0644\u0646","name:cs":"Lincolnovo mo\u0159e","kind":"sea","min_zoom":3.0,"name:it":"Mare di Lincoln","name:uk":"\u041c\u043e\u0440\u0435 \u041b\u0456\u043d\u043a\u043e\u043b\u044c\u043d\u0430","name:ru":"\u041c\u043e\u0440\u0435 \u041b\u0438\u043d\u043a\u043e\u043b\u044c\u043d\u0430","name:be":"\u041c\u043e\u0440\u0430 \u041b\u0456\u043d\u043a\u0430\u043b\u044c\u043d\u0430","name:pl":"Morze Lincolna","name:hu":"Lincoln-tenger","name:hr":"Linkolnovo more","id":305640308,"name:fa":"\u062f\u0631\u06cc\u0627\u06cc \u0644\u06cc\u0646\u06a9\u0644\u0646","name:eo":"Linkolna Maro","name:en":"Lincoln Sea","name":"Lincoln Sea","sort_rank":200,"name:fi":"Lincolninmeri","name:de":"Lincolnsee","source":"openstreetmap.org","name:fr":"Mer de Lincoln","wikidata_id":"Q243125","name:es":"Mar de Lincoln"},"coordinates":[1729,558]}]},"buildings":{"type":"GeometryCollection","geometries":[]},"places":{"type":"GeometryCollection","geometries":[]},"transit":{"type":"GeometryCollection","geometries":[]},"pois":{"type":"GeometryCollection","geometries":[]},"boundaries":{"type":"GeometryCollection","geometries":[]},"roads":{"type":"GeometryCollection","geometries":[]},"earth":{"type":"GeometryCollection","geometries":[{"type":"MultiPolygon","properties":{"sort_rank":10,"source":"naturalearthdata.com","min_zoom":0,"kind":"earth","area":119982075948881},"arcs":[[[7]],[[8]],[[9]],[[10]],[[11]]]}]},"landuse":{"type":"GeometryCollection","geometries":[{"type":"MultiPolygon","properties":{"kind":"national_park","protect_class":"2","area":20348673556490,"sort_rank":18,"source":"openstreetmap.org","min_zoom":3.0,"tier":1,"id":-8515283},"arcs":[[[12]]]}]}},"type":"Topology","transform":{"translate":[-67.5,82.6762849783],"scale":[0.0054931641,0.0005797958]},"arcs":[[[4096,361],[0,-176],[-12,2],[-53,-24],[-36,-41],[0,-38],[48,-84],[-177,0],[-25,27],[-42,-27],[-3071,0],[-17,31],[-9,32],[4,28],[11,34],[16,39],[-5,37],[-25,34],[-63,29],[-27,-11],[-55,-78],[-13,1],[-23,69],[-26,100],[-24,42],[-14,3],[-23,-23],[-9,-33],[-16,-89],[-9,-32],[-19,5],[-27,42],[-32,27],[-72,-61],[-89,-113],[-47,-40],[-24,-4],[-60,-69],[-31,0],[0,139],[121,105],[43,75],[32,77],[0,36],[-31,30],[-148,17],[-17,8],[0,3609],[4096,0],[0,-3379],[-22,-23],[-53,-105],[-90,75],[-48,4],[-56,-193],[62,-160],[48,-7],[104,18],[50,35],[5,0]],[[728,0],[-17,31],[-9,32],[4,28],[11,34],[16,39],[-5,37],[-25,34],[-63,29],[-27,-11],[-55,-78],[-13,1],[-23,69],[-26,100],[-24,42],[-14,3],[-23,-23],[-9,-33],[-16,-89],[-9,-32],[-19,5],[-27,42],[-32,27],[-72,-61],[-89,-113],[-47,-40],[-24,-4],[-60,-69]],[[0,139],[121,105],[43,75],[32,77],[0,36],[-31,30],[-148,17],[-17,8]],[[3841,27],[-42,-27]],[[3866,0],[-25,27]],[[4043,0],[-48,84],[0,38],[36,41],[53,24],[12,-2]],[[4096,361],[-5,0],[-50,-35],[-104,-18],[-48,7],[-62,160],[56,193],[48,-4],[90,-75],[53,105],[22,23]],[[3866,0],[-67,0],[42,27],[25,-27]],[[0,139],[0,348],[17,-8],[148,-17],[31,-30],[0,-36],[-32,-77],[-43,-75],[-121,-105]],[[728,0],[-697,0],[60,69],[24,4],[47,40],[89,113],[72,61],[32,-27],[27,-42],[19,-5],[9,32],[16,89],[9,33],[23,23],[14,-3],[24,-42],[26,-100],[23,-69],[13,-1],[55,78],[27,11],[63,-29],[25,-34],[5,-37],[-16,-39],[-11,-34],[-4,-28],[9,-32],[17,-31]],[[4096,185],[0,-185],[-53,0],[-48,84],[0,38],[36,41],[53,24],[12,-2]],[[4096,717],[0,-356],[-5,0],[-50,-35],[-104,-18],[-48,7],[-62,160],[56,193],[48,-4],[90,-75],[53,105],[22,23]],[[4096,1238],[0,-1238],[-1691,0],[474,422],[337,160],[477,410],[267,179],[136,67]]]}