{"objects":{"water":{"type":"GeometryCollection","geometries":[{"type":"MultiPolygon","properties":{"source":"naturalearthdata.com","kind":"ocean","area":990044000000000,"sort_rank":200,"min_zoom":0,"id":1},"arcs":[[[0]],[[1]],[[2]]]},{"type":"MultiLineString","properties":{"source":"naturalearthdata.com","kind":"ocean","sort_rank":205,"boundary":true,"min_zoom":0,"id":1199},"arcs":[[3],[4],[5]]},{"type":"MultiLineString","properties":{"source":"naturalearthdata.com","kind":"ocean","sort_rank":205,"boundary":true,"min_zoom":0,"id":1344},"arcs":[[6],[7]]},{"type":"MultiLineString","properties":{"source":"naturalearthdata.com","kind":"ocean","sort_rank":205,"boundary":true,"min_zoom":0,"id":1351},"arcs":[[8],[9]]}]},"buildings":{"type":"GeometryCollection","geometries":[]},"places":{"type":"GeometryCollection","geometries":[]},"transit":{"type":"GeometryCollection","geometries":[]},"pois":{"type":"GeometryCollection","geometries":[]},"boundaries":{"type":"GeometryCollection","geometries":[]},"roads":{"type":"GeometryCollection","geometries":[]},"earth":{"type":"GeometryCollection","geometries":[{"type":"MultiPolygon","properties":{"sort_rank":10,"source":"naturalearthdata.com","min_zoom":0,"kind":"earth","area":119982075948881},"arcs":[[[10]],[[11]],[[12]],[[13]],[[14]]]}]},"landuse":{"type":"GeometryCollection","geometries":[{"type":"MultiPolygon","properties":{"kind":"national_park","protect_class":"2","area":20348673556490,"sort_rank":18,"source":"openstreetmap.org","min_zoom":3.0,"tier":1,"id":-8515283},"arcs":[[[15]]]}]}},"type":"Topology","transform":{"translate":[-67.5,79.1713346408],"scale":[0.0054931641,0.0008557008]},"arcs":[[[4096,3390],[0,-319],[-53,35],[-241,313],[-135,90],[-274,270],[-214,79],[-142,2],[-31,-17],[9,-90],[41,-170],[58,-136],[127,-174],[28,-63],[-19,-24],[-40,-5],[-90,18],[-97,-16],[-83,153],[-74,61],[-186,285],[-44,0],[-17,-83],[2,-154],[32,-94],[-8,-84],[-13,-112],[-19,-83],[-24,-54],[-28,-76],[-23,-42],[-6,28],[-1,72],[3,378],[-17,119],[-33,85],[-24,50],[-53,55],[-49,28],[-33,1],[-112,-60],[-26,-20],[-11,-43],[-121,-29],[-69,7],[-205,-69],[-182,-88],[-99,-101],[-1,-28],[82,-72],[45,-73],[62,-122],[68,-107],[125,-152],[56,-84],[37,-77],[8,-37],[-22,3],[-23,20],[-41,55],[-76,129],[-52,61],[-53,35],[-64,79],[-96,158],[-59,69],[-66,22],[-47,35],[-36,5],[-60,-20],[-75,-75],[-31,-54],[-35,-73],[-6,-61],[11,-74],[8,-116],[6,-159],[-11,-134],[-28,-109],[-22,-64],[-15,-19],[-21,-2],[-41,26],[-35,41],[-45,25],[-68,23],[-42,5],[-17,-13],[-39,-75],[-5,-70],[26,-169],[12,-57],[-5,-5],[-70,150],[-25,35],[-26,16],[-31,-1],[-114,-66],[-32,-40],[-67,-151],[-54,-82],[-52,-95],[-29,-30],[-29,-12],[-32,-28],[-43,-48],[-43,-64],[-70,-136],[-10,-33],[-26,-122],[-2,-68],[11,-65],[15,-51],[18,-36],[21,-19],[73,5],[28,-9],[56,-50],[32,-6],[46,27],[29,35],[32,10],[43,-4],[45,25],[35,38],[19,6],[21,-9],[22,-26],[5,-15],[-53,-32],[-30,-36],[-29,-47],[-9,-37],[-12,-102],[-15,-169],[-23,-173],[-31,-177],[-24,-114],[-26,-74],[-48,-120],[-2,-3],[-303,0],[0,2029],[141,156],[75,123],[151,162],[119,180],[9,63],[-84,20],[-90,-18],[-321,-186],[0,101],[107,74],[9,16],[11,33],[7,42],[25,62],[113,16],[55,18],[38,27],[17,55],[32,33],[119,-11],[25,10],[56,60],[97,60],[200,189],[58,42],[38,79],[64,86],[62,112],[13,71],[-18,69],[-16,49],[-16,30],[-40,25],[-141,36],[-141,-81],[0,19],[29,77],[1,38],[-55,103],[-21,27],[3071,0],[-28,-12],[-89,-11],[-14,-67],[8,-77],[101,-216],[108,-83],[122,-124],[77,-123],[12,7]],[[4096,4033],[0,-147],[-75,95],[-155,115],[177,0],[53,-63]],[[0,4081],[0,15],[31,0],[-12,-10],[-19,-5]],[[0,2630],[107,74],[9,16],[11,33],[7,42],[25,62],[113,16],[55,18],[38,27],[17,55],[32,33],[119,-11],[25,10],[56,60],[97,60],[200,189],[58,42],[38,79],[64,86],[62,112],[13,71],[-18,69],[-16,49],[-16,30],[-40,25],[-141,36],[-141,-81],[0,19],[29,77],[1,38],[-55,103],[-21,27]],[[31,4096],[-12,-10],[-19,-5]],[[0,2029],[141,156],[75,123],[151,162],[119,180],[9,63],[-84,20],[-90,-18],[-321,-186]],[[3799,4096],[-28,-12],[-89,-11],[-14,-67],[8,-77],[101,-216],[108,-83],[122,-124],[77,-123],[12,7]],[[4096,3886],[-75,95],[-155,115]],[[303,0],[2,3],[48,120],[26,74],[24,114],[31,177],[23,173],[15,169],[12,102],[9,37],[29,47],[30,36],[53,32],[-5,15],[-22,26],[-21,9],[-19,-6],[-35,-38],[-45,-25],[-43,4],[-32,-10],[-29,-35],[-46,-27],[-32,6],[-56,50],[-28,9],[-73,-5],[-21,19],[-18,36],[-15,51],[-11,65],[2,68],[26,122],[10,33],[70,136],[43,64],[43,48],[32,28],[29,12],[29,30],[52,95],[54,82],[67,151],[32,40],[114,66],[31,1],[26,-16],[25,-35],[70,-150],[5,5],[-12,57],[-26,169],[5,70],[39,75],[17,13],[42,-5],[68,-23],[45,-25],[35,-41],[41,-26],[21,2],[15,19],[22,64],[28,109],[11,134],[-6,159],[-8,116],[-11,74],[6,61],[35,73],[31,54],[75,75],[60,20],[36,-5],[47,-35],[66,-22],[59,-69],[96,-158],[64,-79],[53,-35],[52,-61],[76,-129],[41,-55],[23,-20],[22,-3],[-8,37],[-37,77],[-56,84],[-125,152],[-68,107],[-62,122],[-45,73],[-82,72],[1,28],[99,101],[182,88],[205,69],[69,-7],[121,29],[11,43],[26,20],[112,60],[33,-1],[49,-28],[53,-55],[24,-50],[33,-85],[17,-119],[-3,-378],[1,-72],[6,-28],[23,42],[28,76],[24,54],[19,83],[13,112],[8,84],[-32,94],[-2,154],[17,83],[44,0],[186,-285],[74,-61],[83,-153],[97,16],[90,-18],[40,5],[19,24],[-28,63],[-127,174],[-58,136],[-41,170],[-9,90],[31,17],[142,-2],[214,-79],[274,-270],[135,-90],[241,-313],[53,-35]],[[4096,4033],[-53,63]],[[4096,3886],[0,-496],[-12,-7],[-77,123],[-122,124],[-108,83],[-101,216],[-8,77],[14,67],[89,11],[28,12],[67,0],[155,-115],[75,-95]],[[31,4096],[697,0],[21,-27],[55,-103],[-1,-38],[-29,-77],[0,-19],[141,81],[141,-36],[40,-25],[16,-30],[16,-49],[18,-69],[-13,-71],[-62,-112],[-64,-86],[-38,-79],[-58,-42],[-200,-189],[-97,-60],[-56,-60],[-25,-10],[-119,11],[-32,-33],[-17,-55],[-38,-27],[-55,-18],[-113,-16],[-25,-62],[-7,-42],[-11,-33],[-9,-16],[-107,-74],[0,1451],[19,5],[12,10]],[[0,2029],[0,500],[321,186],[90,18],[84,-20],[-9,-63],[-119,-180],[-151,-162],[-75,-123],[-141,-156]],[[4096,3071],[0,-3071],[-3793,0],[2,3],[48,120],[26,74],[24,114],[31,177],[23,173],[15,169],[12,102],[9,37],[29,47],[30,36],[53,32],[-5,15],[-22,26],[-21,9],[-19,-6],[-35,-38],[-45,-25],[-43,4],[-32,-10],[-29,-35],[-46,-27],[-32,6],[-56,50],[-28,9],[-73,-5],[-21,19],[-18,36],[-15,51],[-11,65],[2,68],[26,122],[10,33],[70,136],[43,64],[43,48],[32,28],[29,12],[29,30],[52,95],[54,82],[67,151],[32,40],[114,66],[31,1],[26,-16],[25,-35],[70,-150],[5,5],[-12,57],[-26,169],[5,70],[39,75],[17,13],[42,-5],[68,-23],[45,-25],[35,-41],[41,-26],[21,2],[15,19],[22,64],[28,109],[11,134],[-6,159],[-8,116],[-11,74],[6,61],[35,73],[31,54],[75,75],[60,20],[36,-5],[47,-35],[66,-22],[59,-69],[96,-158],[64,-79],[53,-35],[52,-61],[76,-129],[41,-55],[23,-20],[22,-3],[-8,37],[-37,77],[-56,84],[-125,152],[-68,107],[-62,122],[-45,73],[-82,72],[1,28],[99,101],[182,88],[205,69],[69,-7],[121,29],[11,43],[26,20],[112,60],[33,-1],[49,-28],[53,-55],[24,-50],[33,-85],[17,-119],[-3,-378],[1,-72],[6,-28],[23,42],[28,76],[24,54],[19,83],[13,112],[8,84],[-32,94],[-2,154],[17,83],[44,0],[186,-285],[74,-61],[83,-153],[97,16],[90,-18],[40,5],[19,24],[-28,63],[-127,174],[-58,136],[-41,170],[-9,90],[31,17],[142,-2],[214,-79],[274,-270],[135,-90],[241,-313],[53,-35]],[[4043,4096],[53,0],[0,-63],[-53,63]],[[2405,4096],[1691,0],[0,-4096],[-234,0],[-1926,1010],[-1239,1659],[275,482],[469,511],[215,61],[446,185],[303,188]]]}