{"objects":{"water":{"type":"GeometryCollection","geometries":[{"type":"MultiPolygon","properties":{"source":"naturalearthdata.com","kind":"ocean","area":990044000000000,"sort_rank":200,"min_zoom":0,"id":1},"arcs":[[[0]],[[1]]]},{"type":"MultiLineString","properties":{"source":"naturalearthdata.com","kind":"ocean","sort_rank":205,"boundary":true,"min_zoom":0,"id":121},"arcs":[[2],[3]]},{"type":"MultiLineString","properties":{"source":"naturalearthdata.com","kind":"ocean","sort_rank":205,"boundary":true,"min_zoom":0,"id":122},"arcs":[[4],[5]]},{"type":"LineString","properties":{"source":"naturalearthdata.com","kind":"ocean","sort_rank":205,"boundary":true,"min_zoom":0,"id":1386},"arcs":[6]}]},"buildings":{"type":"GeometryCollection","geometries":[]},"places":{"type":"GeometryCollection","geometries":[]},"transit":{"type":"GeometryCollection","geometries":[]},"pois":{"type":"GeometryCollection","geometries":[]},"boundaries":{"type":"GeometryCollection","geometries":[]},"roads":{"type":"GeometryCollection","geometries":[]},"earth":{"type":"GeometryCollection","geometries":[{"type":"Polygon","properties":{"sort_rank":10,"source":"naturalearthdata.com","kind":"earth","min_zoom":1.5,"id":121},"arcs":[[7]]},{"type":"MultiPolygon","properties":{"sort_rank":10,"source":"naturalearthdata.com","min_zoom":0,"kind":"earth","area":130720926000100},"arcs":[[[8]],[[9]]]}]},"landuse":{"type":"GeometryCollection","geometries":[]}},"type":"Topology","transform":{"translate":[-67.5,-79.1713346408],"scale":[0.0054931641,0.0012577616]},"arcs":[[[0,2435],[206,76],[73,49],[118,108],[50,22],[48,40],[133,126],[125,102],[19,42],[-8,36],[-31,13],[-37,7],[-54,-1],[-56,29],[77,69],[56,27],[58,14],[11,31],[-30,64],[-43,3],[-64,21],[32,41],[34,37],[37,22],[29,-24],[13,47],[-7,68],[-2,64],[19,5],[34,-11],[32,-37],[26,-126],[35,-44],[43,20],[38,51],[14,68],[-8,51],[-43,129],[-17,36],[-2,51],[27,-9],[17,-19],[65,-30],[49,2],[65,26],[32,84],[24,52],[-14,53],[-62,-52],[-38,-18],[-93,31],[23,49],[26,27],[63,-11],[34,69],[-22,52],[-29,16],[-94,3],[6,10],[3059,0],[0,-3137],[-97,67],[-84,43],[-48,17],[-103,16],[-38,-4],[-78,-23],[-42,-17],[-253,-164],[-11,-37],[-39,-103],[-106,-190],[-37,-75],[-14,-39],[-14,-72],[-15,-67],[8,-30],[17,-12],[-10,-39],[-15,-32],[-23,-22],[-2,-24],[2,-33],[-3,-66],[-9,-53],[-3082,0],[0,384],[3,5],[58,89],[22,44],[47,74],[11,30],[-21,27],[-36,27],[-80,-37],[-4,-3],[0,1795]],[[4096,285],[-17,-1],[-24,3],[-23,15],[10,41],[15,42],[27,20],[12,3],[0,-123]],[[141,626],[-21,27],[-36,27],[-80,-37],[-4,-3]],[[0,384],[3,5],[58,89],[22,44],[47,74],[11,30]],[[4096,959],[-97,67],[-84,43],[-48,17],[-103,16],[-38,-4],[-78,-23],[-42,-17],[-253,-164],[-11,-37],[-39,-103],[-106,-190],[-37,-75],[-14,-39],[-14,-72],[-15,-67],[8,-30],[17,-12],[-10,-39],[-15,-32],[-23,-22],[-2,-24],[2,-33],[-3,-66],[-9,-53]],[[4096,285],[-17,-1],[-24,3],[-23,15],[10,41],[15,42],[27,20],[12,3]],[[1037,4096],[-6,-10],[94,-3],[29,-16],[22,-52],[-34,-69],[-63,11],[-26,-27],[-23,-49],[93,-31],[38,18],[62,52],[14,-53],[-24,-52],[-32,-84],[-65,-26],[-49,-2],[-65,30],[-17,19],[-27,9],[2,-51],[17,-36],[43,-129],[8,-51],[-14,-68],[-38,-51],[-43,-20],[-35,44],[-26,126],[-32,37],[-34,11],[-19,-5],[2,-64],[7,-68],[-13,-47],[-29,24],[-37,-22],[-34,-37],[-32,-41],[64,-21],[43,-3],[30,-64],[-11,-31],[-58,-14],[-56,-27],[-77,-69],[56,-29],[54,1],[37,-7],[31,-13],[8,-36],[-19,-42],[-125,-102],[-133,-126],[-48,-40],[-50,-22],[-118,-108],[-73,-49],[-206,-76]],[[0,640],[4,3],[80,37],[36,-27],[21,-27],[-11,-30],[-47,-74],[-22,-44],[-58,-89],[-3,-5],[0,256]],[[4096,285],[0,-285],[-1014,0],[9,53],[3,66],[-2,33],[2,24],[23,22],[15,32],[10,39],[-17,12],[-8,30],[15,67],[14,72],[14,39],[37,75],[106,190],[39,103],[11,37],[253,164],[42,17],[78,23],[38,4],[103,-16],[48,-17],[84,-43],[97,-67],[0,-551],[-12,-3],[-27,-20],[-15,-42],[-10,-41],[23,-15],[24,-3],[17,1]],[[0,2435],[0,1661],[1037,0],[-6,-10],[94,-3],[29,-16],[22,-52],[-34,-69],[-63,11],[-26,-27],[-23,-49],[93,-31],[38,18],[62,52],[14,-53],[-24,-52],[-32,-84],[-65,-26],[-49,-2],[-65,30],[-17,19],[-27,9],[2,-51],[17,-36],[43,-129],[8,-51],[-14,-68],[-38,-51],[-43,-20],[-35,44],[-26,126],[-32,37],[-34,11],[-19,-5],[2,-64],[7,-68],[-13,-47],[-29,24],[-37,-22],[-34,-37],[-32,-41],[64,-21],[43,-3],[30,-64],[-11,-31],[-58,-14],[-56,-27],[-77,-69],[56,-29],[54,1],[37,-7],[31,-13],[8,-36],[-19,-42],[-125,-102],[-133,-126],[-48,-40],[-50,-22],[-118,-108],[-73,-49],[-206,-76]]]}