{"objects":{"water":{"type":"GeometryCollection","geometries":[{"type":"Polygon","properties":{"source":"naturalearthdata.com","kind":"ocean","area":990044000000000,"sort_rank":200,"min_zoom":0,"id":1},"arcs":[[0],[1]]},{"type":"MultiLineString","properties":{"source":"naturalearthdata.com","kind":"ocean","sort_rank":205,"boundary":true,"min_zoom":0,"id":53},"arcs":[[2],[3]]},{"type":"LineString","properties":{"source":"naturalearthdata.com","kind":"ocean","sort_rank":205,"boundary":true,"min_zoom":0,"id":122},"arcs":[4]},{"type":"LineString","properties":{"source":"naturalearthdata.com","kind":"ocean","sort_rank":205,"boundary":true,"min_zoom":0,"id":123},"arcs":[5]},{"type":"LineString","properties":{"source":"naturalearthdata.com","kind":"ocean","sort_rank":205,"boundary":true,"min_zoom":0,"id":264},"arcs":[6]},{"type":"MultiLineString","properties":{"source":"naturalearthdata.com","kind":"ocean","sort_rank":205,"boundary":true,"min_zoom":0,"id":1386},"arcs":[[7],[8]]}]},"buildings":{"type":"GeometryCollection","geometries":[]},"places":{"type":"GeometryCollection","geometries":[]},"transit":{"type":"GeometryCollection","geometries":[]},"pois":{"type":"GeometryCollection","geometries":[]},"boundaries":{"type":"GeometryCollection","geometries":[]},"roads":{"type":"GeometryCollection","geometries":[]},"earth":{"type":"GeometryCollection","geometries":[{"type":"MultiPolygon","properties":{"sort_rank":10,"source":"naturalearthdata.com","kind":"earth","min_zoom":2.0,"area":437295020042},"arcs":[[[9]],[[10]]]},{"type":"MultiPolygon","properties":{"sort_rank":10,"source":"naturalearthdata.com","min_zoom":1.0,"kind":"earth","area":1204687205844},"arcs":[[[11]]]},{"type":"MultiPolygon","properties":{"sort_rank":10,"source":"naturalearthdata.com","min_zoom":0,"kind":"earth","area":130720926000100},"arcs":[[[12]],[[13]],[[14]]]}]},"landuse":{"type":"GeometryCollection","geometries":[]}},"type":"Topology","transform":{"translate":[-67.5,-82.6762849783],"scale":[0.0054931641,0.0008557008]},"arcs":[[[4096,285],[-8,-7],[-136,-66],[-70,-20],[-62,67],[12,134],[46,81],[28,131],[-14,139],[-25,108],[-56,-37],[-83,-28],[-62,-1],[-96,92],[-86,38],[-304,-88],[-113,-9],[-101,-46],[-95,-55],[-125,-85],[-70,-22],[-98,10],[-40,-29],[-33,-10],[-45,-26],[-112,-135],[-126,-174],[-92,-16],[-50,-107],[-44,-74],[-39,-50],[-1093,0],[-18,65],[-19,109],[34,28],[83,43],[233,223],[52,89],[-29,13],[-31,2],[-190,-98],[-135,9],[-150,-51],[-55,3],[-114,-82],[-95,4],[-46,61],[-46,45],[-27,-17],[-26,18],[-36,112],[23,161],[-11,61],[-19,26],[-33,21],[16,46],[23,14],[221,17],[103,21],[-9,87],[-113,-9],[-83,20],[-40,12],[-25,54],[109,38],[59,52],[41,-23],[44,14],[84,-19],[39,10],[111,-19],[74,6],[68,50],[-34,69],[-25,23],[-180,4],[-231,37],[-150,72],[-351,293],[0,1801],[77,-109],[15,-37],[6,-93],[10,-42],[90,-75],[8,-95],[9,-24],[9,-8],[17,5],[34,27],[16,16],[72,101],[-6,137],[-7,77],[-53,39],[-27,133],[-47,14],[-93,5],[-17,30],[-18,16],[-84,9],[-11,10],[0,62],[12,-2],[31,56],[-7,69],[11,77],[13,19],[19,50],[-74,54],[-5,1],[0,59],[3082,0],[-1,-1],[-13,-71],[-16,-58],[49,-36],[8,-9],[8,-20],[8,-51],[7,-56],[-8,-58],[-11,-38],[-48,-134],[-95,-226],[-96,-199],[-106,-176],[-8,17],[-3,57],[-19,13],[-19,-38],[-44,-67],[-45,-22],[-22,17],[-31,54],[-9,6],[-16,-93],[-35,-111],[-68,-238],[-15,-34],[-40,-62],[-4,-63],[4,-160],[20,-101],[7,-20],[7,-7],[799,100],[13,36],[13,48],[40,53],[41,28],[762,388],[0,-2479]],[[1457,2993],[-53,17],[0,116],[6,74],[9,73],[-31,115],[-128,42],[-82,-79],[-16,-62],[-41,-29],[-1,-75],[18,-32],[-10,-20],[-69,-28],[-6,-58],[4,-76],[18,-84],[20,-44],[53,-15],[-22,-59],[-58,-44],[-109,-28],[-52,-6],[-630,-13],[-25,27],[-9,18],[-10,103],[-14,27],[-15,15],[-19,-3],[-19,-16],[-17,-26],[-16,-39],[7,-29],[25,-45],[75,-99],[178,-193],[170,-165],[9,17],[17,77],[11,21],[64,39],[104,25],[14,-38],[15,-125],[8,-36],[49,-80],[118,-64],[262,-69],[58,78],[26,47],[36,78],[18,48],[10,89],[0,115],[7,250],[9,34],[13,70],[15,56],[19,12],[19,1],[-16,53],[-16,42]],[[130,3586],[-17,30],[-18,16],[-84,9],[-11,10]],[[0,3515],[77,-109],[15,-37],[6,-93],[10,-42],[90,-75],[8,-95],[9,-24],[9,-8],[17,5],[34,27],[16,16],[72,101],[-6,137],[-7,77],[-53,39],[-27,133],[-47,14],[-93,5]],[[3082,4096],[-1,-1],[-13,-71],[-16,-58],[49,-36],[8,-9],[8,-20],[8,-51],[7,-56],[-8,-58],[-11,-38],[-48,-134],[-95,-226],[-96,-199],[-106,-176],[-8,17],[-3,57],[-19,13],[-19,-38],[-44,-67],[-45,-22],[-22,17],[-31,54],[-9,6],[-16,-93],[-35,-111],[-68,-238],[-15,-34],[-40,-62],[-4,-63],[4,-160],[20,-101],[7,-20],[7,-7],[799,100],[13,36],[13,48],[40,53],[41,28],[762,388]],[[1457,2993],[-53,17],[0,116],[6,74],[9,73],[-31,115],[-128,42],[-82,-79],[-16,-62],[-41,-29],[-1,-75],[18,-32],[-10,-20],[-69,-28],[-6,-58],[4,-76],[18,-84],[20,-44],[53,-15],[-22,-59],[-58,-44],[-109,-28],[-52,-6],[-630,-13],[-25,27],[-9,18],[-10,103],[-14,27],[-15,15],[-19,-3],[-19,-16],[-17,-26],[-16,-39],[7,-29],[25,-45],[75,-99],[178,-193],[170,-165],[9,17],[17,77],[11,21],[64,39],[104,25],[14,-38],[15,-125],[8,-36],[49,-80],[118,-64],[262,-69],[58,78],[26,47],[36,78],[18,48],[10,89],[0,115],[7,250],[9,34],[13,70],[15,56],[19,12],[19,1],[-16,53],[-16,42]],[[0,3713],[12,-2],[31,56],[-7,69],[11,77],[13,19],[19,50],[-74,54],[-5,1]],[[0,1714],[351,-293],[150,-72],[231,-37],[180,-4],[25,-23],[34,-69],[-68,-50],[-74,-6],[-111,19],[-39,-10],[-84,19],[-44,-14],[-41,23],[-59,-52],[-109,-38],[25,-54],[40,-12],[83,-20],[113,9],[9,-87],[-103,-21],[-221,-17],[-23,-14],[-16,-46],[33,-21],[19,-26],[11,-61],[-23,-161],[36,-112],[26,-18],[27,17],[46,-45],[46,-61],[95,-4],[114,82],[55,-3],[150,51],[135,-9],[190,98],[31,-2],[29,-13],[-52,-89],[-233,-223],[-83,-43],[-34,-28],[19,-109],[18,-65]],[[1997,0],[39,50],[44,74],[50,107],[92,16],[126,174],[112,135],[45,26],[33,10],[40,29],[98,-10],[70,22],[125,85],[95,55],[101,46],[113,9],[304,88],[86,-38],[96,-92],[62,1],[83,28],[56,37],[25,-108],[14,-139],[-28,-131],[-46,-81],[-12,-134],[62,-67],[70,20],[136,66],[8,7]],[[0,3515],[0,136],[11,-10],[84,-9],[18,-16],[17,-30],[93,-5],[47,-14],[27,-133],[53,-39],[7,-77],[6,-137],[-72,-101],[-16,-16],[-34,-27],[-17,-5],[-9,8],[-9,24],[-8,95],[-90,75],[-10,42],[-6,93],[-15,37],[-77,109]],[[0,3713],[0,324],[5,-1],[74,-54],[-19,-50],[-13,-19],[-11,-77],[7,-69],[-31,-56],[-12,2]],[[1414,2725],[-7,-250],[0,-115],[-10,-89],[-18,-48],[-36,-78],[-26,-47],[-58,-78],[-262,69],[-118,64],[-49,80],[-8,36],[-15,125],[-14,38],[-104,-25],[-64,-39],[-11,-21],[-17,-77],[-9,-17],[-170,165],[-178,193],[-75,99],[-25,45],[-7,29],[16,39],[17,26],[19,16],[19,3],[15,-15],[14,-27],[10,-103],[9,-18],[25,-27],[630,13],[52,6],[109,28],[58,44],[22,59],[-53,15],[-20,44],[-18,84],[-4,76],[6,58],[69,28],[10,20],[-18,32],[1,75],[41,29],[16,62],[82,79],[128,-42],[31,-115],[-9,-73],[-6,-74],[0,-116],[53,-17],[16,-42],[16,-53],[-19,-1],[-19,-12],[-15,-56],[-13,-70],[-9,-34]],[[3082,4096],[1014,0],[0,-1332],[-762,-388],[-41,-28],[-40,-53],[-13,-48],[-13,-36],[-799,-100],[-7,7],[-7,20],[-20,101],[-4,160],[4,63],[40,62],[15,34],[68,238],[35,111],[16,93],[9,-6],[31,-54],[22,-17],[45,22],[44,67],[19,38],[19,-13],[3,-57],[8,-17],[106,176],[96,199],[95,226],[48,134],[11,38],[8,58],[-7,56],[-8,51],[-8,20],[-8,9],[-49,36],[16,58],[13,71],[1,1]],[[4096,285],[0,-285],[-2099,0],[39,50],[44,74],[50,107],[92,16],[126,174],[112,135],[45,26],[33,10],[40,29],[98,-10],[70,22],[125,85],[95,55],[101,46],[113,9],[304,88],[86,-38],[96,-92],[62,1],[83,28],[56,37],[25,-108],[14,-139],[-28,-131],[-46,-81],[-12,-134],[62,-67],[70,20],[136,66],[8,7]],[[904,0],[-904,0],[0,1714],[351,-293],[150,-72],[231,-37],[180,-4],[25,-23],[34,-69],[-68,-50],[-74,-6],[-111,19],[-39,-10],[-84,19],[-44,-14],[-41,23],[-59,-52],[-109,-38],[25,-54],[40,-12],[83,-20],[113,9],[9,-87],[-103,-21],[-221,-17],[-23,-14],[-16,-46],[33,-21],[19,-26],[11,-61],[-23,-161],[36,-112],[26,-18],[27,17],[46,-45],[46,-61],[95,-4],[114,82],[55,-3],[150,51],[135,-9],[190,98],[31,-2],[29,-13],[-52,-89],[-233,-223],[-83,-43],[-34,-28],[19,-109],[18,-65]]]}