{"objects":{"water":{"type":"GeometryCollection","geometries":[{"type":"Polygon","properties":{"source":"naturalearthdata.com","kind":"ocean","area":990044000000000,"sort_rank":200,"min_zoom":0,"id":1},"arcs":[[0]]},{"type":"LineString","properties":{"source":"naturalearthdata.com","kind":"ocean","sort_rank":205,"boundary":true,"min_zoom":0,"id":1386},"arcs":[1]}]},"buildings":{"type":"GeometryCollection","geometries":[]},"places":{"type":"GeometryCollection","geometries":[]},"transit":{"type":"GeometryCollection","geometries":[]},"pois":{"type":"GeometryCollection","geometries":[]},"boundaries":{"type":"GeometryCollection","geometries":[]},"roads":{"type":"GeometryCollection","geometries":[]},"earth":{"type":"GeometryCollection","geometries":[{"type":"MultiPolygon","properties":{"sort_rank":10,"source":"naturalearthdata.com","min_zoom":0,"kind":"earth","area":130720926000100},"arcs":[[[2]]]}]},"landuse":{"type":"GeometryCollection","geometries":[]}},"type":"Topology","transform":{"translate":[-67.5,-85.0511287798],"scale":[0.0054931641,0.0005797958]},"arcs":[[[1997,4096],[-150,-283],[-37,-86],[-44,-118],[-89,-280],[-224,-582],[-61,28],[-99,3],[-107,22],[-80,55],[-30,94],[11,107],[17,81],[24,83],[19,149],[-3,183],[-18,91],[-72,-123],[-38,58],[-38,266],[-62,180],[-12,72],[1093,0]],[[904,4096],[12,-72],[62,-180],[38,-266],[38,-58],[72,123],[18,-91],[3,-183],[-19,-149],[-24,-83],[-17,-81],[-11,-107],[30,-94],[80,-55],[107,-22],[99,-3],[61,-28],[224,582],[89,280],[44,118],[37,86],[150,283]],[[1997,4096],[2099,0],[0,-4096],[-4096,0],[0,4096],[904,0],[12,-72],[62,-180],[38,-266],[38,-58],[72,123],[18,-91],[3,-183],[-19,-149],[-24,-83],[-17,-81],[-11,-107],[30,-94],[80,-55],[107,-22],[99,-3],[61,-28],[224,582],[89,280],[44,118],[37,86],[150,283]]]}