{"objects":{"water":{"type":"GeometryCollection","geometries":[{"type":"MultiPolygon","properties":{"source":"naturalearthdata.com","kind":"ocean","area":990044000000000,"sort_rank":200,"min_zoom":0,"id":1},"arcs":[[[0],[1],[2],[3],[4],[5],[6]],[[7]],[[8]]]},{"type":"LineString","properties":{"source":"naturalearthdata.com","kind":"ocean","sort_rank":205,"boundary":true,"min_zoom":0,"id":132},"arcs":[9]},{"type":"LineString","properties":{"source":"naturalearthdata.com","kind":"ocean","sort_rank":205,"boundary":true,"min_zoom":0,"id":998},"arcs":[10]},{"type":"LineString","properties":{"source":"naturalearthdata.com","kind":"ocean","sort_rank":205,"boundary":true,"min_zoom":0,"id":1000},"arcs":[11]},{"type":"LineString","properties":{"source":"naturalearthdata.com","kind":"ocean","sort_rank":205,"boundary":true,"min_zoom":0,"id":1001},"arcs":[12]},{"type":"LineString","properties":{"source":"naturalearthdata.com","kind":"ocean","sort_rank":205,"boundary":true,"min_zoom":0,"id":1002},"arcs":[13]},{"type":"MultiLineString","properties":{"source":"naturalearthdata.com","kind":"ocean","sort_rank":205,"boundary":true,"min_zoom":0,"id":1198},"arcs":[[14],[15],[16],[17]]},{"type":"LineString","properties":{"source":"naturalearthdata.com","kind":"ocean","sort_rank":205,"boundary":true,"min_zoom":0,"id":1260},"arcs":[18]},{"type":"MultiLineString","properties":{"source":"naturalearthdata.com","kind":"ocean","sort_rank":205,"boundary":true,"min_zoom":0,"id":1351},"arcs":[[19],[20],[21]]}]},"buildings":{"type":"GeometryCollection","geometries":[]},"places":{"type":"GeometryCollection","geometries":[]},"transit":{"type":"GeometryCollection","geometries":[]},"pois":{"type":"GeometryCollection","geometries":[]},"boundaries":{"type":"GeometryCollection","geometries":[]},"roads":{"type":"GeometryCollection","geometries":[]},"earth":{"type":"GeometryCollection","geometries":[{"type":"MultiPolygon","properties":{"sort_rank":10,"source":"naturalearthdata.com","kind":"earth","min_zoom":2.0,"area":465164376090},"arcs":[[[22]]]},{"type":"MultiPolygon","properties":{"sort_rank":10,"source":"naturalearthdata.com","min_zoom":3.0,"kind":"earth","area":261709008765},"arcs":[[[23]],[[24]],[[25]],[[26]]]},{"type":"MultiPolygon","properties":{"sort_rank":10,"source":"naturalearthdata.com","min_zoom":0,"kind":"earth","area":119982075948881},"arcs":[[[27]],[[28]],[[29]],[[30]],[[31]]]}]},"landuse":{"type":"GeometryCollection","geometries":[{"type":"MultiPolygon","properties":{"kind":"national_park","protect_class":"2","area":20348673556490,"sort_rank":18,"source":"openstreetmap.org","min_zoom":3.0,"tier":1,"id":-8515283},"arcs":[[[32]]]}]}},"type":"Topology","transform":{"translate":[-67.5,66.5132604431],"scale":[0.0054931641,0.0018325886]},"arcs":[[[0,1961],[0,2135],[2077,0],[4,-7],[10,-23],[3,-10],[0,-9],[12,-19],[11,-34],[6,-40],[-11,-4],[-13,4],[-11,-49],[-10,-23],[-4,-20],[1,-18],[20,-11],[21,-18],[16,-24],[6,-18],[3,-24],[15,8],[38,34],[21,-35],[8,-38],[-2,-35],[-11,-33],[-17,-22],[-25,-12],[-19,-15],[1,-32],[4,-25],[6,-9],[16,-4],[16,-11],[16,-4],[15,-13],[16,3],[12,12],[11,30],[38,-26],[17,-27],[6,-25],[-4,-22],[1,-22],[5,-22],[-2,-28],[-9,-32],[-25,-38],[-22,-20],[-14,-19],[-61,2],[-26,-28],[6,-9],[26,-9],[24,-36],[-15,-23],[-39,4],[-8,-10],[-4,-43],[14,-23],[47,11],[77,106],[11,-8],[0,-13],[-6,-16],[-18,-32],[-63,-86],[-25,-83],[-17,-103],[-15,-17],[-7,-25],[0,-36],[13,-40],[27,-44],[20,-25],[51,-10],[44,-18],[23,-4],[68,9],[26,18],[14,1],[24,22],[10,36],[-8,37],[-12,35],[10,-1],[13,-7],[21,20],[3,21],[8,22],[27,26],[17,24],[2,24],[-9,45],[-21,41],[-13,16],[-17,29],[-6,27],[-4,31],[-6,24],[-8,19],[5,12],[45,12],[-4,-6],[-19,-14],[-6,-18],[22,-73],[9,-20],[12,-14],[28,-53],[9,-35],[3,-35],[-1,-28],[5,-17],[34,10],[1,-18],[-20,-35],[-10,-13],[-31,-25],[2,-19],[5,-15],[28,-21],[21,-2],[46,36],[34,33],[13,5],[84,-23],[21,4],[31,18],[24,7],[2,-6],[-36,-40],[-143,-53],[-26,-24],[-8,-24],[-12,-24],[-15,-9],[-6,-22],[20,-72],[20,-6],[23,2],[43,15],[22,-6],[33,-23],[32,-14],[49,4],[75,-6],[36,-41],[29,-23],[-2,-8],[-18,-8],[-25,3],[-47,20],[-23,3],[-22,-5],[4,-10],[47,-40],[18,-9],[25,-27],[-5,-46],[-7,-14],[-3,-30],[3,-54],[27,-33],[44,-41],[37,-8],[12,-12],[-3,-11],[-35,-17],[-14,-1],[-84,37],[-21,4],[-47,35],[-113,100],[-41,24],[-31,11],[-53,10],[-52,-4],[-25,3],[-33,16],[-30,8],[-56,5],[-32,-17],[-17,-20],[-17,-29],[5,-23],[29,-47],[38,-56],[22,-25],[45,-18],[75,-20],[60,-28],[47,-37],[36,-33],[43,-52],[14,-10],[120,-30],[18,-9],[14,1],[42,34],[15,3],[25,-10],[31,-20],[35,7],[31,13],[21,-7],[6,-6],[-9,-12],[-22,-15],[-7,-16],[28,-61],[-1,-16],[-20,-14],[-47,-24],[-16,-34],[-1,-35],[-12,-68],[-3,-34],[-30,-75],[-3,-36],[41,-1],[33,15],[24,7],[14,-23],[29,-11],[1,-8],[-18,-18],[-72,-11],[-54,6],[-6,-21],[-7,-83],[-17,-108],[19,0],[21,9],[41,33],[1,-14],[-26,-59],[-23,-35],[-12,-11],[-62,-28],[-27,-7],[-28,7],[-95,84],[-55,4],[-53,-26],[-27,-27],[-31,-108],[-23,-34],[-8,-29],[17,-3],[21,5],[72,4],[6,-17],[9,-9],[58,-23],[33,1],[71,17],[32,11],[28,51],[0,10],[4,5],[29,12],[15,2],[8,-19],[-7,-32],[-23,-46],[-11,-13],[-4,-11],[-3,-30],[-4,-14],[-12,-22],[-14,-12],[-33,1],[-51,10],[-69,39],[-82,32],[-28,7],[-20,-5],[-11,-50],[-26,-80],[-41,-73],[-7,-38],[0,-28],[-4,-26],[-17,-65],[24,-7],[33,21],[80,100],[15,9],[41,11],[23,13],[37,10],[44,-31],[29,-8],[32,-15],[63,9],[18,18],[64,11],[15,-13],[-26,-21],[-25,-6],[0,-22],[96,-73],[5,-17],[-17,-11],[-86,70],[-49,17],[-39,-12],[-45,10],[-86,48],[-24,5],[-28,-6],[-55,-34],[-46,-56],[-35,-33],[-24,-15],[-46,-43],[-1,-50],[-14,-104],[36,-82],[23,-22],[21,-12],[13,4],[26,-6],[59,-7],[63,1],[23,-6],[8,-9],[-8,-12],[-11,-5],[-20,1],[-79,-14],[-14,-40],[-20,-17],[-36,-40],[-3,-15],[-7,-20],[-17,-39],[-1478,0],[-73,61],[-6,10],[20,17],[20,2],[32,-22],[36,-44],[14,5],[26,23],[2,22],[-10,22],[-29,49],[-57,83],[-26,48],[-28,15],[-47,-77],[-41,13],[-19,14],[-11,-13],[-11,1],[-24,9],[-33,-14],[-59,-33],[-31,-23],[-12,1],[72,94],[9,16],[4,24],[8,26],[6,32],[22,33],[-50,55],[-38,12],[-12,11],[-16,-18],[-27,-16],[-2,-28],[-41,1],[-23,-5],[-31,-1],[-3,25],[-39,8],[-20,19],[21,2],[21,-7],[30,6],[54,-3],[-13,81],[41,38],[-30,49],[-25,-17],[-44,63],[-24,40],[-20,15],[-35,-30],[-35,1],[-9,20],[8,37],[13,26],[17,14],[5,14],[-16,23],[-10,6],[-16,-9],[-43,-48],[-20,-33],[-5,-25],[5,-59],[5,-24],[-3,-3],[-25,49],[-2,19],[11,74],[-4,18],[-11,8],[-24,2],[-10,-16],[-19,-19],[-20,19],[5,40],[1,22],[-8,-1],[-44,-60],[-21,-58],[-9,-11],[-10,1],[-15,9],[0,5],[21,24],[25,75],[2,44],[9,86],[-58,-16],[-18,-22],[5,-55],[-11,-41],[-4,-3],[-3,50],[-5,5],[-31,-36],[-4,1],[3,18],[13,44],[1,20],[-13,26],[-24,34],[7,26],[42,28],[9,11],[-5,7],[-20,8],[-47,-6],[-17,2],[-21,12],[-25,6],[-8,8],[0,358],[3,-1],[28,10],[22,-8],[74,-10],[17,9],[5,12],[1,37],[-2,15],[-5,14],[-10,14],[-52,46],[-33,21],[-23,7],[-25,1],[0,145],[30,-11],[14,1],[7,5],[5,14],[4,23],[-5,34],[-22,75],[-8,19],[-25,40]],[[2233,3444],[-35,-20],[-16,-4],[-11,0],[-17,7],[-59,-6],[-16,-16],[-25,-19],[14,-27],[18,-7],[19,7],[12,-4],[8,-5],[2,-9],[6,-10],[18,-4],[9,-17],[12,-8],[8,2],[46,63],[21,22],[25,37],[-2,16],[-32,11],[-5,-9]],[[2465,2518],[3,-13],[8,-10],[49,-28],[17,4],[9,8],[6,15],[3,17],[1,21],[-2,18],[-13,35],[-13,25],[-21,-7],[-29,-42],[-16,-28],[-2,-15]],[[2800,2378],[57,-10],[24,1],[12,8],[-4,12],[-32,27],[-30,19],[-25,-4],[-7,-35],[0,-12],[5,-6]],[[2390,2076],[-61,-34],[-15,-21],[-5,-15],[-3,-15],[0,-16],[4,-26],[7,-18],[22,-22],[60,-38],[-7,-10],[-55,23],[-23,-9],[-10,-26],[-14,-103],[10,-26],[11,-19],[13,-11],[43,-18],[66,-7],[26,-6],[13,-11],[17,4],[8,-19],[11,-8],[12,-14],[-42,-16],[-29,1],[-20,-6],[-5,-13],[12,-21],[12,-15],[27,-19],[20,-21],[7,-2],[32,-2],[105,47],[42,12],[120,68],[23,33],[16,30],[-2,17],[-13,15],[-5,12],[4,10],[2,10],[-1,11],[-5,21],[-7,14],[-64,31],[-60,44],[-68,107],[-35,36],[-15,8],[-115,41],[-66,12]],[[2967,1643],[6,-4],[28,19],[8,17],[-1,19],[2,25],[10,51],[28,22],[11,17],[3,11],[-47,33],[-28,8],[-21,-5],[-26,-33],[6,-27],[-4,-40],[4,-31],[15,-67],[6,-15]],[[843,300],[12,-19],[22,15],[36,43],[16,24],[-4,5],[-9,1],[-29,-7],[-7,-16],[-17,-19],[-12,-22],[-8,-5]],[[134,0],[-99,0],[-2,4],[2,27],[21,-20],[21,-4],[20,12],[-1,18],[-8,22],[6,3],[22,-17],[14,-22],[4,-23]],[[2813,0],[-39,0],[80,101],[32,30],[45,55],[22,20],[10,-5],[-6,-22],[-47,-60],[-29,-26],[-27,-18],[-13,-15],[-7,-19],[-21,-41]],[[2801,1624],[23,33],[16,30],[-2,17],[-13,15],[-5,12],[4,10],[2,10],[-1,11],[-5,21],[-7,14],[-64,31],[-60,44],[-68,107],[-35,36],[-15,8],[-115,41],[-66,12],[-61,-34],[-15,-21],[-5,-15],[-3,-15],[0,-16],[4,-26],[7,-18],[22,-22],[60,-38],[-7,-10],[-55,23],[-23,-9],[-10,-26],[-14,-103],[10,-26],[11,-19],[13,-11],[43,-18],[66,-7],[26,-6],[13,-11],[17,4],[8,-19],[11,-8],[12,-14],[-42,-16],[-29,1],[-20,-6],[-5,-13],[12,-21],[12,-15],[27,-19],[20,-21],[7,-2],[32,-2],[105,47],[42,12],[120,68]],[[2940,1823],[6,-27],[-4,-40],[4,-31],[15,-67],[6,-15],[6,-4],[28,19],[8,17],[-1,19],[2,25],[10,51],[28,22],[11,17],[3,11],[-47,33],[-28,8],[-21,-5],[-26,-33]],[[2525,2467],[17,4],[9,8],[6,15],[3,17],[1,21],[-2,18],[-13,35],[-13,25],[-21,-7],[-29,-42],[-16,-28],[-2,-15],[3,-13],[8,-10],[49,-28]],[[2180,3304],[46,63],[21,22],[25,37],[-2,16],[-32,11],[-5,-9],[-35,-20],[-16,-4],[-11,0],[-17,7],[-59,-6],[-16,-16],[-25,-19],[14,-27],[18,-7],[19,7],[12,-4],[8,-5],[2,-9],[6,-10],[18,-4],[9,-17],[12,-8],[8,2]],[[2827,2435],[-25,-4],[-7,-35],[0,-12],[5,-6],[57,-10],[24,1],[12,8],[-4,12],[-32,27],[-30,19]],[[134,0],[-4,23],[-14,22],[-22,17],[-6,-3],[8,-22],[1,-18],[-20,-12],[-21,4],[-21,20],[-2,-27],[2,-4]],[[0,1961],[25,-40],[8,-19],[22,-75],[5,-34],[-4,-23],[-5,-14],[-7,-5],[-14,-1],[-30,11]],[[0,1616],[25,-1],[23,-7],[33,-21],[52,-46],[10,-14],[5,-14],[2,-15],[-1,-37],[-5,-12],[-17,-9],[-74,10],[-22,8],[-28,-10],[-3,1]],[[0,1091],[8,-8],[25,-6],[21,-12],[17,-2],[47,6],[20,-8],[5,-7],[-9,-11],[-42,-28],[-7,-26],[24,-34],[13,-26],[-1,-20],[-13,-44],[-3,-18],[4,-1],[31,36],[5,-5],[3,-50],[4,3],[11,41],[-5,55],[18,22],[58,16],[-9,-86],[-2,-44],[-25,-75],[-21,-24],[0,-5],[15,-9],[10,-1],[9,11],[21,58],[44,60],[8,1],[-1,-22],[-5,-40],[20,-19],[19,19],[10,16],[24,-2],[11,-8],[4,-18],[-11,-74],[2,-19],[25,-49],[3,3],[-5,24],[-5,59],[5,25],[20,33],[43,48],[16,9],[10,-6],[16,-23],[-5,-14],[-17,-14],[-13,-26],[-8,-37],[9,-20],[35,-1],[35,30],[20,-15],[24,-40],[44,-63],[25,17],[30,-49],[-41,-38],[13,-81],[-54,3],[-30,-6],[-21,7],[-21,-2],[20,-19],[39,-8],[3,-25],[31,1],[23,5],[41,-1],[2,28],[27,16],[16,18],[12,-11],[38,-12],[50,-55],[-22,-33],[-6,-32],[-8,-26],[-4,-24],[-9,-16],[-72,-94],[12,-1],[31,23],[59,33],[33,14],[24,-9],[11,-1],[11,13],[19,-14],[41,-13],[47,77],[28,-15],[26,-48],[57,-83],[29,-49],[10,-22],[-2,-22],[-26,-23],[-14,-5],[-36,44],[-32,22],[-20,-2],[-20,-17],[6,-10],[73,-61]],[[887,362],[-7,-16],[-17,-19],[-12,-22],[-8,-5],[12,-19],[22,15],[36,43],[16,24],[-4,5],[-9,1],[-29,-7]],[[2965,1040],[-15,-2],[-29,-12],[-4,-5],[0,-10],[-28,-51],[-32,-11],[-71,-17],[-33,-1],[-58,23],[-9,9],[-6,17],[-72,-4],[-21,-5],[-17,3],[8,29],[23,34],[31,108],[27,27],[53,26],[55,-4],[95,-84],[28,-7],[27,7],[62,28],[12,11],[23,35],[26,59],[-1,14],[-41,-33],[-21,-9],[-19,0],[17,108],[7,83],[6,21],[54,-6],[72,11],[18,18],[-1,8],[-29,11],[-14,23],[-24,-7],[-33,-15],[-41,1],[3,36],[30,75],[3,34],[12,68],[1,35],[16,34],[47,24],[20,14],[1,16],[-28,61],[7,16],[22,15],[9,12],[-6,6],[-21,7],[-31,-13],[-35,-7],[-31,20],[-25,10],[-15,-3],[-42,-34],[-14,-1],[-18,9],[-120,30],[-14,10],[-43,52],[-36,33],[-47,37],[-60,28],[-75,20],[-45,18],[-22,25],[-38,56],[-29,47],[-5,23],[17,29],[17,20],[32,17],[56,-5],[30,-8],[33,-16],[25,-3],[52,4],[53,-10],[31,-11],[41,-24],[113,-100],[47,-35],[21,-4],[84,-37],[14,1],[35,17],[3,11],[-12,12],[-37,8],[-44,41],[-27,33],[-3,54],[3,30],[7,14],[5,46],[-25,27],[-18,9],[-47,40],[-4,10],[22,5],[23,-3],[47,-20],[25,-3],[18,8],[2,8],[-29,23],[-36,41],[-75,6],[-49,-4],[-32,14],[-33,23],[-22,6],[-43,-15],[-23,-2],[-20,6],[-20,72],[6,22],[15,9],[12,24],[8,24],[26,24],[143,53],[36,40],[-2,6],[-24,-7],[-31,-18],[-21,-4],[-84,23],[-13,-5],[-34,-33],[-46,-36],[-21,2],[-28,21],[-5,15],[-2,19],[31,25],[10,13],[20,35],[-1,18],[-34,-10],[-5,17],[1,28],[-3,35],[-9,35],[-28,53],[-12,14],[-9,20],[-22,73],[6,18],[19,14],[4,6],[-45,-12],[-5,-12],[8,-19],[6,-24],[4,-31],[6,-27],[17,-29],[13,-16],[21,-41],[9,-45],[-2,-24],[-17,-24],[-27,-26],[-8,-22],[-3,-21],[-21,-20],[-13,7],[-10,1],[12,-35],[8,-37],[-10,-36],[-24,-22],[-14,-1],[-26,-18],[-68,-9],[-23,4],[-44,18],[-51,10],[-20,25],[-27,44],[-13,40],[0,36],[7,25],[15,17],[17,103],[25,83],[63,86],[18,32],[6,16],[0,13],[-11,8],[-77,-106],[-47,-11],[-14,23],[4,43],[8,10],[39,-4],[15,23],[-24,36],[-26,9],[-6,9],[26,28],[61,-2],[14,19],[22,20],[25,38],[9,32],[2,28],[-5,22],[-1,22],[4,22],[-6,25],[-17,27],[-38,26],[-11,-30],[-12,-12],[-16,-3],[-15,13],[-16,4],[-16,11],[-16,4],[-6,9],[-4,25],[-1,32],[19,15],[25,12],[17,22],[11,33],[2,35],[-8,38],[-21,35],[-38,-34],[-15,-8],[-3,24],[-6,18],[-16,24],[-21,18],[-20,11],[-1,18],[4,20],[10,23],[11,49],[13,-4],[11,4],[-6,40],[-11,34],[-12,19],[0,9],[-3,10],[-10,23],[-4,7]],[[2813,0],[21,41],[7,19],[13,15],[27,18],[29,26],[47,60],[6,22],[-10,5],[-22,-20],[-45,-55],[-32,-30],[-80,-101]],[[2536,0],[17,39],[7,20],[3,15],[36,40],[20,17],[14,40],[79,14],[20,-1],[11,5],[8,12],[-8,9],[-23,6],[-63,-1],[-59,7],[-26,6],[-13,-4],[-21,12],[-23,22],[-36,82],[14,104],[1,50],[46,43],[24,15],[35,33],[46,56],[55,34],[28,6],[24,-5],[86,-48],[45,-10],[39,12],[49,-17],[86,-70],[17,11],[-5,17],[-96,73],[0,22],[25,6],[26,21],[-15,13],[-64,-11],[-18,-18],[-63,-9],[-32,15],[-29,8],[-44,31],[-37,-10],[-23,-13],[-41,-11],[-15,-9],[-80,-100],[-33,-21],[-24,7],[17,65],[4,26],[0,28],[7,38],[41,73],[26,80],[11,50],[20,5],[28,-7],[82,-32],[69,-39],[51,-10],[33,-1],[14,12],[12,22],[4,14],[3,30],[4,11],[11,13],[23,46],[7,32],[-8,19]],[[3001,1658],[-28,-19],[-6,4],[-6,15],[-15,67],[-4,31],[4,40],[-6,27],[26,33],[21,5],[28,-8],[47,-33],[-3,-11],[-11,-17],[-28,-22],[-10,-51],[-2,-25],[1,-19],[-8,-17]],[[877,296],[-22,-15],[-12,19],[8,5],[12,22],[17,19],[7,16],[29,7],[9,-1],[4,-5],[-16,-24],[-36,-43]],[[2881,2369],[-24,-1],[-57,10],[-5,6],[0,12],[7,35],[25,4],[30,-19],[32,-27],[4,-12],[-12,-8]],[[2542,2471],[-17,-4],[-49,28],[-8,10],[-3,13],[2,15],[16,28],[29,42],[21,7],[13,-25],[13,-35],[2,-18],[-1,-21],[-3,-17],[-6,-15],[-9,-8]],[[2272,3426],[-25,-37],[-21,-22],[-46,-63],[-8,-2],[-12,8],[-9,17],[-18,4],[-6,10],[-2,9],[-8,5],[-12,4],[-19,-7],[-18,7],[-14,27],[25,19],[16,16],[59,6],[17,-7],[11,0],[16,4],[35,20],[5,9],[32,-11],[2,-16]],[[0,1761],[0,200],[25,-40],[8,-19],[22,-75],[5,-34],[-4,-23],[-5,-14],[-7,-5],[-14,-1],[-30,11]],[[0,1449],[0,167],[25,-1],[23,-7],[33,-21],[52,-46],[10,-14],[5,-14],[2,-15],[-1,-37],[-5,-12],[-17,-9],[-74,10],[-22,8],[-28,-10],[-3,1]],[[35,0],[-35,0],[0,1091],[8,-8],[25,-6],[21,-12],[17,-2],[47,6],[20,-8],[5,-7],[-9,-11],[-42,-28],[-7,-26],[24,-34],[13,-26],[-1,-20],[-13,-44],[-3,-18],[4,-1],[31,36],[5,-5],[3,-50],[4,3],[11,41],[-5,55],[18,22],[58,16],[-9,-86],[-2,-44],[-25,-75],[-21,-24],[0,-5],[15,-9],[10,-1],[9,11],[21,58],[44,60],[8,1],[-1,-22],[-5,-40],[20,-19],[19,19],[10,16],[24,-2],[11,-8],[4,-18],[-11,-74],[2,-19],[25,-49],[3,3],[-5,24],[-5,59],[5,25],[20,33],[43,48],[16,9],[10,-6],[16,-23],[-5,-14],[-17,-14],[-13,-26],[-8,-37],[9,-20],[35,-1],[35,30],[20,-15],[24,-40],[44,-63],[25,17],[30,-49],[-41,-38],[13,-81],[-54,3],[-30,-6],[-21,7],[-21,-2],[20,-19],[39,-8],[3,-25],[31,1],[23,5],[41,-1],[2,28],[27,16],[16,18],[12,-11],[38,-12],[50,-55],[-22,-33],[-6,-32],[-8,-26],[-4,-24],[-9,-16],[-72,-94],[12,-1],[31,23],[59,33],[33,14],[24,-9],[11,-1],[11,13],[19,-14],[41,-13],[47,77],[28,-15],[26,-48],[57,-83],[29,-49],[10,-22],[-2,-22],[-26,-23],[-14,-5],[-36,44],[-32,22],[-20,-2],[-20,-17],[6,-10],[73,-61],[-924,0],[-4,23],[-14,22],[-22,17],[-6,-3],[8,-22],[1,-18],[-20,-12],[-21,4],[-21,20],[-2,-27],[2,-4]],[[2689,1872],[60,-44],[64,-31],[7,-14],[5,-21],[1,-11],[-2,-10],[-4,-10],[5,-12],[13,-15],[2,-17],[-16,-30],[-23,-33],[-120,-68],[-42,-12],[-105,-47],[-32,2],[-7,2],[-20,21],[-27,19],[-12,15],[-12,21],[5,13],[20,6],[29,-1],[42,16],[-12,14],[-11,8],[-8,19],[-17,-4],[-13,11],[-26,6],[-66,7],[-43,18],[-13,11],[-11,19],[-10,26],[14,103],[10,26],[23,9],[55,-23],[7,10],[-60,38],[-22,22],[-7,18],[-4,26],[0,16],[3,15],[5,15],[15,21],[61,34],[66,-12],[115,-41],[15,-8],[35,-36],[68,-107]],[[2077,4096],[2019,0],[0,-4096],[-1283,0],[21,41],[7,19],[13,15],[27,18],[29,26],[47,60],[6,22],[-10,5],[-22,-20],[-45,-55],[-32,-30],[-80,-101],[-238,0],[17,39],[7,20],[3,15],[36,40],[20,17],[14,40],[79,14],[20,-1],[11,5],[8,12],[-8,9],[-23,6],[-63,-1],[-59,7],[-26,6],[-13,-4],[-21,12],[-23,22],[-36,82],[14,104],[1,50],[46,43],[24,15],[35,33],[46,56],[55,34],[28,6],[24,-5],[86,-48],[45,-10],[39,12],[49,-17],[86,-70],[17,11],[-5,17],[-96,73],[0,22],[25,6],[26,21],[-15,13],[-64,-11],[-18,-18],[-63,-9],[-32,15],[-29,8],[-44,31],[-37,-10],[-23,-13],[-41,-11],[-15,-9],[-80,-100],[-33,-21],[-24,7],[17,65],[4,26],[0,28],[7,38],[41,73],[26,80],[11,50],[20,5],[28,-7],[82,-32],[69,-39],[51,-10],[33,-1],[14,12],[12,22],[4,14],[3,30],[4,11],[11,13],[23,46],[7,32],[-8,19],[-15,-2],[-29,-12],[-4,-5],[0,-10],[-28,-51],[-32,-11],[-71,-17],[-33,-1],[-58,23],[-9,9],[-6,17],[-72,-4],[-21,-5],[-17,3],[8,29],[23,34],[31,108],[27,27],[53,26],[55,-4],[95,-84],[28,-7],[27,7],[62,28],[12,11],[23,35],[26,59],[-1,14],[-41,-33],[-21,-9],[-19,0],[17,108],[7,83],[6,21],[54,-6],[72,11],[18,18],[-1,8],[-29,11],[-14,23],[-24,-7],[-33,-15],[-41,1],[3,36],[30,75],[3,34],[12,68],[1,35],[16,34],[47,24],[20,14],[1,16],[-28,61],[7,16],[22,15],[9,12],[-6,6],[-21,7],[-31,-13],[-35,-7],[-31,20],[-25,10],[-15,-3],[-42,-34],[-14,-1],[-18,9],[-120,30],[-14,10],[-43,52],[-36,33],[-47,37],[-60,28],[-75,20],[-45,18],[-22,25],[-38,56],[-29,47],[-5,23],[17,29],[17,20],[32,17],[56,-5],[30,-8],[33,-16],[25,-3],[52,4],[53,-10],[31,-11],[41,-24],[113,-100],[47,-35],[21,-4],[84,-37],[14,1],[35,17],[3,11],[-12,12],[-37,8],[-44,41],[-27,33],[-3,54],[3,30],[7,14],[5,46],[-25,27],[-18,9],[-47,40],[-4,10],[22,5],[23,-3],[47,-20],[25,-3],[18,8],[2,8],[-29,23],[-36,41],[-75,6],[-49,-4],[-32,14],[-33,23],[-22,6],[-43,-15],[-23,-2],[-20,6],[-20,72],[6,22],[15,9],[12,24],[8,24],[26,24],[143,53],[36,40],[-2,6],[-24,-7],[-31,-18],[-21,-4],[-84,23],[-13,-5],[-34,-33],[-46,-36],[-21,2],[-28,21],[-5,15],[-2,19],[31,25],[10,13],[20,35],[-1,18],[-34,-10],[-5,17],[1,28],[-3,35],[-9,35],[-28,53],[-12,14],[-9,20],[-22,73],[6,18],[19,14],[4,6],[-45,-12],[-5,-12],[8,-19],[6,-24],[4,-31],[6,-27],[17,-29],[13,-16],[21,-41],[9,-45],[-2,-24],[-17,-24],[-27,-26],[-8,-22],[-3,-21],[-21,-20],[-13,7],[-10,1],[12,-35],[8,-37],[-10,-36],[-24,-22],[-14,-1],[-26,-18],[-68,-9],[-23,4],[-44,18],[-51,10],[-20,25],[-27,44],[-13,40],[0,36],[7,25],[15,17],[17,103],[25,83],[63,86],[18,32],[6,16],[0,13],[-11,8],[-77,-106],[-47,-11],[-14,23],[4,43],[8,10],[39,-4],[15,23],[-24,36],[-26,9],[-6,9],[26,28],[61,-2],[14,19],[22,20],[25,38],[9,32],[2,28],[-5,22],[-1,22],[4,22],[-6,25],[-17,27],[-38,26],[-11,-30],[-12,-12],[-16,-3],[-15,13],[-16,4],[-16,11],[-16,4],[-6,9],[-4,25],[-1,32],[19,15],[25,12],[17,22],[11,33],[2,35],[-8,38],[-21,35],[-38,-34],[-15,-8],[-3,24],[-6,18],[-16,24],[-21,18],[-20,11],[-1,18],[4,20],[10,23],[11,49],[13,-4],[11,4],[-6,40],[-11,34],[-12,19],[0,9],[-3,10],[-10,23],[-4,7]],[[0,746],[0,153],[18,-10],[27,89],[44,11],[45,-47],[-14,-44],[41,-10],[-19,-90],[49,-19],[8,62],[-23,14],[40,24],[22,-59],[47,9],[-11,-49],[97,26],[-30,-110],[48,-103],[1,0],[-39,99],[27,75],[60,2],[-29,-91],[0,-1],[30,35],[14,-16],[-32,-35],[-7,-44],[70,76],[-32,-69],[97,-158],[53,-3],[44,-51],[26,-80],[-22,-112],[-234,-220],[-55,0],[48,72],[-84,33],[-76,-62],[-46,26],[-50,215],[-44,-5],[-52,67],[-31,3],[-26,55],[0,298],[111,-31],[7,60],[-36,75],[39,71],[-11,38],[-38,-6],[-54,-63],[15,-107],[-33,7]]]}