{"objects":{"water":{"type":"GeometryCollection","geometries":[{"type":"MultiPolygon","properties":{"source":"naturalearthdata.com","kind":"ocean","area":990044000000000,"sort_rank":200,"min_zoom":0,"id":1},"arcs":[[[0],[1],[2],[3],[4],[5],[6],[7]],[[8]],[[9]],[[10]],[[11]],[[12]],[[13]],[[14]],[[15]]]},{"type":"LineString","properties":{"source":"naturalearthdata.com","kind":"ocean","sort_rank":205,"boundary":true,"min_zoom":0,"id":206},"arcs":[16]},{"type":"LineString","properties":{"source":"naturalearthdata.com","kind":"ocean","sort_rank":205,"boundary":true,"min_zoom":0,"id":207},"arcs":[17]},{"type":"LineString","properties":{"source":"naturalearthdata.com","kind":"ocean","sort_rank":205,"boundary":true,"min_zoom":0,"id":208},"arcs":[18]},{"type":"LineString","properties":{"source":"naturalearthdata.com","kind":"ocean","sort_rank":205,"boundary":true,"min_zoom":0,"id":209},"arcs":[19]},{"type":"LineString","properties":{"source":"naturalearthdata.com","kind":"ocean","sort_rank":205,"boundary":true,"min_zoom":0,"id":210},"arcs":[20]},{"type":"LineString","properties":{"source":"naturalearthdata.com","kind":"ocean","sort_rank":205,"boundary":true,"min_zoom":0,"id":211},"arcs":[21]},{"type":"LineString","properties":{"source":"naturalearthdata.com","kind":"ocean","sort_rank":205,"boundary":true,"min_zoom":0,"id":212},"arcs":[22]},{"type":"LineString","properties":{"source":"naturalearthdata.com","kind":"ocean","sort_rank":205,"boundary":true,"min_zoom":0,"id":222},"arcs":[23]},{"type":"MultiLineString","properties":{"source":"naturalearthdata.com","kind":"ocean","sort_rank":205,"boundary":true,"min_zoom":0,"id":1386},"arcs":[[24],[25],[26],[27],[28],[29],[30],[31],[32]]}]},"buildings":{"type":"GeometryCollection","geometries":[]},"places":{"type":"GeometryCollection","geometries":[]},"transit":{"type":"GeometryCollection","geometries":[]},"pois":{"type":"GeometryCollection","geometries":[]},"boundaries":{"type":"GeometryCollection","geometries":[]},"roads":{"type":"GeometryCollection","geometries":[]},"earth":{"type":"GeometryCollection","geometries":[{"type":"MultiPolygon","properties":{"sort_rank":10,"source":"naturalearthdata.com","min_zoom":0,"kind":"earth","area":608027485394504},"arcs":[[[33]]]},{"type":"MultiPolygon","properties":{"sort_rank":10,"source":"naturalearthdata.com","kind":"earth","min_zoom":2.0,"area":1753086625268},"arcs":[[[34]]]},{"type":"MultiPolygon","properties":{"sort_rank":10,"source":"naturalearthdata.com","min_zoom":3.0,"kind":"earth","area":833312034851},"arcs":[[[35]],[[36]],[[37]],[[38]],[[39]],[[40]]]}]},"landuse":{"type":"GeometryCollection","geometries":[]}},"type":"Topology","transform":{"translate":[90.0,-85.0511287798],"scale":[0.0109863281,0.0022629234]},"arcs":[[[6606,8192],[1586,0],[0,-125],[0,-311],[0,-310],[0,-311],[0,-311],[0,-310],[0,-311],[0,-311],[0,-311],[0,-310],[0,-311],[0,-311],[0,-310],[0,-311],[0,-311],[0,-311],[0,-310],[0,-311],[0,-311],[0,-310],[0,-311],[0,-311],[0,-311],[0,-310],[0,-311],[0,-301],[-35,37],[-19,27],[-42,11],[-41,21],[-13,4],[-13,-2],[-57,24],[-152,45],[-28,3],[-26,12],[-12,28],[-16,17],[-108,12],[-15,22],[-24,1],[-48,38],[-38,-1],[-49,14],[-34,28],[-23,11],[-6,36],[-17,11],[-20,6],[-44,-19],[-45,35],[-157,16],[-25,21],[-16,19],[1,18],[14,-5],[13,0],[25,6],[7,8],[8,25],[7,12],[11,28],[-30,34],[-17,6],[-24,-25],[-20,-8],[-18,22],[-10,6],[-6,14],[3,33],[-14,34],[-14,16],[-20,4],[-27,15],[-42,41],[-91,108],[-21,14],[-68,-19],[-67,-29],[-8,-25],[-15,-7],[-34,24],[-124,-4],[-10,36],[114,41],[115,57],[-8,29],[-54,67],[-14,21],[-3,24],[-22,16],[-14,29],[-39,50],[-24,18],[-13,1],[-62,97],[-40,22],[1,31],[6,12],[16,19],[1,38],[-1,91],[-10,3],[-30,24],[-2,26],[22,4],[20,11],[10,11],[-1,24],[-20,17],[-7,23],[7,34],[4,25],[-9,11],[-135,-7],[-44,8],[-1,33],[18,24],[129,91],[18,15],[16,19],[0,36],[-15,22],[-25,-5],[-20,14],[-2,31],[36,24],[7,19],[-2,25],[-22,2],[-10,20],[9,11],[13,3],[39,56],[3,30],[-10,25],[-8,45],[36,67],[29,31],[32,-16],[18,-19],[11,-1],[8,14],[0,27],[-12,27],[-29,102],[1,46],[14,16],[9,-4],[19,-66],[61,-90],[23,24],[55,38],[37,18],[36,39],[30,11],[135,15],[16,-26],[21,-29],[30,6],[18,-2],[8,35],[-7,39],[-23,-2],[-27,11],[-27,20],[-50,65],[-12,67],[-1,40],[-9,9],[-13,-38],[-21,-43],[-38,-40],[-30,36],[-29,5],[11,34],[30,46],[5,39],[-6,31],[-17,3],[-18,11],[1,35],[-26,33],[-13,52],[-1,85],[-14,53],[-19,63],[-14,42],[-22,3],[-16,8],[-20,22],[3,39],[11,18],[14,36],[-2,39],[-6,39],[14,47],[-9,105],[-21,8],[-6,23],[20,47],[8,43],[7,47],[-6,23],[-16,16],[-20,31],[-11,29],[-4,68],[-26,28],[-62,8],[-17,-4],[-12,27],[70,51],[21,-7],[17,-12],[12,12],[17,-1],[11,31],[7,152],[13,38],[19,36],[19,24],[9,77],[12,20],[14,-16],[17,-65],[18,-1],[21,19],[22,-4],[25,-16],[15,-4],[14,7],[27,-14],[10,16],[-1,35],[-12,23],[-21,72],[-24,104],[12,11],[7,34],[-9,39],[-12,124],[6,71],[17,10],[11,-4],[11,-83],[0,-93],[9,-43],[19,15],[16,-10],[17,20],[17,39],[-12,46],[-10,17],[13,7],[14,19],[25,3],[51,-8],[28,46],[21,-3],[16,23],[-8,26],[-36,27],[-35,22],[-34,101],[-1,27],[39,-33],[25,-61],[63,11],[32,-3],[16,28],[33,-11],[27,-48],[46,66],[16,77],[12,36],[-2,29],[-51,48],[-41,30],[-18,36],[-17,39],[13,2],[13,-3],[32,-37],[34,-8],[30,-21],[25,-29],[15,16],[7,39],[-3,46],[-12,-11],[-15,-3],[7,127],[17,74],[17,0],[24,-9],[17,44],[-7,55],[-16,62],[-16,82],[-14,-11],[-2,-55],[-8,-27],[-17,22],[-29,30],[-79,105],[-37,34],[-20,6],[-18,40],[-8,35],[-8,39],[-14,32],[-6,19],[-31,17],[-55,48],[-45,14],[-26,-6],[-58,33],[-45,6],[-29,21],[-36,-56],[-40,-3],[-20,10],[-29,53],[-32,87],[-42,-13],[-17,-47],[1,-82],[23,-152],[-1,-23],[-8,-8],[-25,58],[-27,-4],[-18,40],[-35,225],[-19,60],[-16,45],[-40,46],[-8,60],[0,47],[-18,45],[-13,48],[-36,24],[-68,66],[-19,9],[-25,40],[-21,12],[-14,-10],[-27,-46],[-39,58],[-51,-3],[-44,47],[-44,23],[-33,58],[-16,23],[-11,30],[-26,62],[-34,95],[-16,31],[-11,11],[-11,-11],[1,-64],[-3,-65],[-5,-39],[-19,-16],[-15,-23],[-23,-18],[-25,40],[-24,17],[-25,1],[-64,14],[-11,-31],[-14,-23],[-14,23],[-2,63],[-4,105],[-12,12],[-25,-20],[-30,-15],[-25,7],[-31,1],[-42,-6],[-35,0],[-38,-15],[-81,40],[-20,-4],[-23,7],[-27,42],[7,37],[2,31],[-4,35],[-2,34],[-51,94],[-27,56],[-38,15],[-39,-16],[-23,-42],[-43,-32],[-20,-47],[-19,16],[-3,31],[19,66],[10,73],[23,87],[10,62],[-7,47],[-18,8],[-21,-31],[-19,-1],[-4,67],[-12,27],[-26,0],[-25,-31],[-26,-23],[-18,-6],[-33,29],[-15,33],[-17,29],[-42,6],[-21,-17],[-35,36],[-91,16],[-26,34],[-34,28],[-79,15],[-9,-11],[-12,9],[-7,14],[2224,0],[1,-3],[4,-2],[2,5]],[[6653,8109],[7,-52],[6,-22],[4,-6],[2,27],[0,10],[-3,14],[-3,26],[-7,9],[-6,-6]],[[6799,7729],[5,-3],[8,12],[2,16],[5,25],[-1,13],[-5,24],[-2,17],[-13,29],[-1,-13],[2,-52],[-5,-41],[5,-27]],[[7251,5141],[-17,-54],[4,-10],[17,-28],[13,9],[1,16],[9,24],[-7,25],[-9,59],[-4,2],[-6,-11],[-2,-15],[1,-17]],[[6714,4529],[8,-13],[11,0],[8,35],[4,9],[10,55],[-19,-9],[-24,-37],[0,-10],[2,-30]],[[6614,4136],[11,-2],[17,57],[-5,4],[-7,-4],[-11,-13],[-12,-32],[7,-10]],[[6977,3216],[7,-34],[27,42],[23,23],[10,24],[48,2],[37,-17],[18,1],[21,12],[33,41],[22,16],[-7,31],[-75,30],[-90,-3],[-35,32],[0,6],[2,16],[-10,37],[-25,11],[-19,-12],[-9,-27],[5,-17],[13,-20],[2,-19],[-16,-29],[-7,-22],[-15,-14],[2,-10],[27,-68],[11,-32]],[[7047,3113],[-5,-17],[-21,-38],[-25,-29],[-9,-1],[-18,23],[-41,25],[-9,-5],[0,-13],[3,-36],[7,-27],[15,-14],[31,9],[28,28],[40,-12],[13,14],[11,33],[0,14],[-4,39],[-9,13],[-7,-6]],[[3338,8192],[276,0],[-19,-106],[-24,-127],[-23,-26],[-15,8],[-17,-11],[-18,-6],[-42,41],[-39,-11],[-16,27],[-45,102],[-18,109]],[[2289,8192],[923,0],[0,-1],[-18,-55],[-24,-24],[-21,-6],[-21,25],[-15,22],[-21,-3],[-28,-30],[-40,-30],[-54,-27],[-41,-24],[-13,-19],[-38,-68],[-12,-15],[-46,-20],[-53,-44],[-115,-60],[-19,23],[32,53],[61,54],[39,41],[-8,8],[-9,0],[-38,-11],[-41,-35],[-33,-33],[-22,-12],[-18,5],[-18,20],[-17,14],[-17,-1],[-19,-19],[-40,9],[-15,-3],[-19,26],[-19,4],[-19,-27],[-27,-15],[-30,-26],[-45,-16],[-20,-31],[-22,-22],[-25,-14],[-30,-7],[-27,-16],[-10,32],[7,69],[24,18],[28,28],[64,36],[16,30],[17,83],[-29,93],[-15,21]],[[1582,8192],[295,0],[0,-5],[-17,-43],[-56,-94],[-32,-33],[-51,21],[-48,42],[-20,56],[-15,-14],[-19,3],[-11,37],[-9,13],[-17,17]],[[775,8192],[136,0],[-17,-16],[-41,-44],[-47,-10],[-12,52],[-11,8],[-8,10]],[[651,8192],[85,0],[-33,-42],[-30,13],[-22,29]],[[451,8192],[188,0],[-21,-16],[-33,-22],[-40,-10],[-41,-4],[-26,26],[-15,20],[-12,6]],[[191,8192],[243,0],[-16,-13],[-25,-46],[-21,-19],[-11,0],[-22,21],[-33,25],[-26,6],[-31,-23],[-13,4],[-10,5],[-16,20],[-19,20]],[[0,8067],[0,125],[184,0],[-22,-11],[-21,-15],[-48,-14],[-43,-58],[-23,-15],[-27,-12]],[[6712,4569],[0,-10],[2,-30],[8,-13],[11,0],[8,35],[4,9],[10,55],[-19,-9],[-24,-37]],[[6798,7862],[-1,-13],[2,-52],[-5,-41],[5,-27],[5,-3],[8,12],[2,16],[5,25],[-1,13],[-5,24],[-2,17],[-13,29]],[[7063,3106],[-9,13],[-7,-6],[-5,-17],[-21,-38],[-25,-29],[-9,-1],[-18,23],[-41,25],[-9,-5],[0,-13],[3,-36],[7,-27],[15,-14],[31,9],[28,28],[40,-12],[13,14],[11,33],[0,14],[-4,39]],[[6669,8080],[-3,26],[-7,9],[-6,-6],[7,-52],[6,-22],[4,-6],[2,27],[0,10],[-3,14]],[[7141,3387],[-90,-3],[-35,32],[0,6],[2,16],[-10,37],[-25,11],[-19,-12],[-9,-27],[5,-17],[13,-20],[2,-19],[-16,-29],[-7,-22],[-15,-14],[2,-10],[27,-68],[11,-32],[7,-34],[27,42],[23,23],[10,24],[48,2],[37,-17],[18,1],[21,12],[33,41],[22,16],[-7,31],[-75,30]],[[7271,5123],[-9,59],[-4,2],[-6,-11],[-2,-15],[1,-17],[-17,-54],[4,-10],[17,-28],[13,9],[1,16],[9,24],[-7,25]],[[6619,4178],[-12,-32],[7,-10],[11,-2],[17,57],[-5,4],[-7,-4],[-11,-13]],[[6599,8192],[1,-3],[4,-2],[2,5]],[[0,8067],[27,12],[23,15],[43,58],[48,14],[21,15],[22,11]],[[191,8192],[19,-20],[16,-20],[10,-5],[13,-4],[31,23],[26,-6],[33,-25],[22,-21],[11,0],[21,19],[25,46],[16,13]],[[451,8192],[12,-6],[15,-20],[26,-26],[41,4],[40,10],[33,22],[21,16]],[[651,8192],[22,-29],[30,-13],[33,42]],[[775,8192],[8,-10],[11,-8],[12,-52],[47,10],[41,44],[17,16]],[[1582,8192],[17,-17],[9,-13],[11,-37],[19,-3],[15,14],[20,-56],[48,-42],[51,-21],[32,33],[56,94],[17,43],[0,5]],[[2289,8192],[15,-21],[29,-93],[-17,-83],[-16,-30],[-64,-36],[-28,-28],[-24,-18],[-7,-69],[10,-32],[27,16],[30,7],[25,14],[22,22],[20,31],[45,16],[30,26],[27,15],[19,27],[19,-4],[19,-26],[15,3],[40,-9],[19,19],[17,1],[17,-14],[18,-20],[18,-5],[22,12],[33,33],[41,35],[38,11],[9,0],[8,-8],[-39,-41],[-61,-54],[-32,-53],[19,-23],[115,60],[53,44],[46,20],[12,15],[38,68],[13,19],[41,24],[54,27],[40,30],[28,30],[21,3],[15,-22],[21,-25],[21,6],[24,24],[18,55],[0,1]],[[3338,8192],[18,-109],[45,-102],[16,-27],[39,11],[42,-41],[18,6],[17,11],[15,-8],[23,26],[24,127],[19,106]],[[4375,8192],[7,-14],[12,-9],[9,11],[79,-15],[34,-28],[26,-34],[91,-16],[35,-36],[21,17],[42,-6],[17,-29],[15,-33],[33,-29],[18,6],[26,23],[25,31],[26,0],[12,-27],[4,-67],[19,1],[21,31],[18,-8],[7,-47],[-10,-62],[-23,-87],[-10,-73],[-19,-66],[3,-31],[19,-16],[20,47],[43,32],[23,42],[39,16],[38,-15],[27,-56],[51,-94],[2,-34],[4,-35],[-2,-31],[-7,-37],[27,-42],[23,-7],[20,4],[81,-40],[38,15],[35,0],[42,6],[31,-1],[25,-7],[30,15],[25,20],[12,-12],[4,-105],[2,-63],[14,-23],[14,23],[11,31],[64,-14],[25,-1],[24,-17],[25,-40],[23,18],[15,23],[19,16],[5,39],[3,65],[-1,64],[11,11],[11,-11],[16,-31],[34,-95],[26,-62],[11,-30],[16,-23],[33,-58],[44,-23],[44,-47],[51,3],[39,-58],[27,46],[14,10],[21,-12],[25,-40],[19,-9],[68,-66],[36,-24],[13,-48],[18,-45],[0,-47],[8,-60],[40,-46],[16,-45],[19,-60],[35,-225],[18,-40],[27,4],[25,-58],[8,8],[1,23],[-23,152],[-1,82],[17,47],[42,13],[32,-87],[29,-53],[20,-10],[40,3],[36,56],[29,-21],[45,-6],[58,-33],[26,6],[45,-14],[55,-48],[31,-17],[6,-19],[14,-32],[8,-39],[8,-35],[18,-40],[20,-6],[37,-34],[79,-105],[29,-30],[17,-22],[8,27],[2,55],[14,11],[16,-82],[16,-62],[7,-55],[-17,-44],[-24,9],[-17,0],[-17,-74],[-7,-127],[15,3],[12,11],[3,-46],[-7,-39],[-15,-16],[-25,29],[-30,21],[-34,8],[-32,37],[-13,3],[-13,-2],[17,-39],[18,-36],[41,-30],[51,-48],[2,-29],[-12,-36],[-16,-77],[-46,-66],[-27,48],[-33,11],[-16,-28],[-32,3],[-63,-11],[-25,61],[-39,33],[1,-27],[34,-101],[35,-22],[36,-27],[8,-26],[-16,-23],[-21,3],[-28,-46],[-51,8],[-25,-3],[-14,-19],[-13,-7],[10,-17],[12,-46],[-17,-39],[-17,-20],[-16,10],[-19,-15],[-9,43],[0,93],[-11,83],[-11,4],[-17,-10],[-6,-71],[12,-124],[9,-39],[-7,-34],[-12,-11],[24,-104],[21,-72],[12,-23],[1,-35],[-10,-16],[-27,14],[-14,-7],[-15,4],[-25,16],[-22,4],[-21,-19],[-18,1],[-17,65],[-14,16],[-12,-20],[-9,-77],[-19,-24],[-19,-36],[-13,-38],[-7,-152],[-11,-31],[-17,1],[-12,-12],[-17,12],[-21,7],[-70,-51],[12,-27],[17,4],[62,-8],[26,-28],[4,-68],[11,-29],[20,-31],[16,-16],[6,-23],[-7,-47],[-8,-43],[-20,-47],[6,-23],[21,-8],[9,-105],[-14,-47],[6,-39],[2,-39],[-14,-36],[-11,-18],[-3,-39],[20,-22],[16,-8],[22,-3],[14,-42],[19,-63],[14,-53],[1,-85],[13,-52],[26,-33],[-1,-35],[18,-11],[17,-3],[6,-31],[-5,-39],[-30,-46],[-11,-34],[29,-5],[30,-36],[38,40],[21,43],[13,38],[9,-9],[1,-40],[12,-67],[50,-65],[27,-20],[27,-11],[23,2],[7,-39],[-8,-35],[-18,2],[-30,-6],[-21,29],[-16,26],[-135,-15],[-30,-11],[-36,-39],[-37,-18],[-55,-38],[-23,-24],[-61,90],[-19,66],[-9,4],[-14,-16],[-1,-46],[29,-102],[12,-27],[0,-27],[-8,-14],[-11,1],[-18,19],[-32,16],[-29,-31],[-36,-67],[8,-45],[10,-25],[-3,-30],[-39,-56],[-13,-3],[-9,-11],[10,-20],[22,-2],[2,-25],[-7,-19],[-36,-24],[2,-31],[20,-14],[25,5],[15,-22],[0,-36],[-16,-19],[-18,-15],[-129,-91],[-18,-24],[1,-33],[44,-8],[135,7],[9,-11],[-4,-25],[-7,-34],[7,-23],[20,-17],[1,-24],[-10,-11],[-20,-11],[-22,-4],[2,-26],[30,-24],[10,-3],[1,-91],[-1,-38],[-16,-19],[-6,-12],[-1,-31],[40,-22],[62,-97],[13,-1],[24,-18],[39,-50],[14,-29],[22,-16],[3,-24],[14,-21],[54,-67],[8,-29],[-115,-57],[-114,-41],[10,-36],[124,4],[34,-24],[15,7],[8,25],[67,29],[68,19],[21,-14],[91,-108],[42,-41],[27,-15],[20,-4],[14,-16],[14,-34],[-3,-33],[6,-14],[10,-6],[18,-22],[20,8],[24,25],[17,-6],[30,-34],[-11,-28],[-7,-12],[-8,-25],[-7,-8],[-25,-6],[-13,0],[-14,5],[-1,-18],[16,-19],[25,-21],[157,-16],[45,-35],[44,19],[20,-6],[17,-11],[6,-36],[23,-11],[34,-28],[49,-14],[38,1],[48,-38],[24,-1],[15,-22],[108,-12],[16,-17],[12,-28],[26,-12],[28,-3],[152,-45],[57,-24],[13,2],[13,-4],[41,-21],[42,-11],[19,-27],[35,-37]],[[3614,8192],[761,0],[7,-14],[12,-9],[9,11],[79,-15],[34,-28],[26,-34],[91,-16],[35,-36],[21,17],[42,-6],[17,-29],[15,-33],[33,-29],[18,6],[26,23],[25,31],[26,0],[12,-27],[4,-67],[19,1],[21,31],[18,-8],[7,-47],[-10,-62],[-23,-87],[-10,-73],[-19,-66],[3,-31],[19,-16],[20,47],[43,32],[23,42],[39,16],[38,-15],[27,-56],[51,-94],[2,-34],[4,-35],[-2,-31],[-7,-37],[27,-42],[23,-7],[20,4],[81,-40],[38,15],[35,0],[42,6],[31,-1],[25,-7],[30,15],[25,20],[12,-12],[4,-105],[2,-63],[14,-23],[14,23],[11,31],[64,-14],[25,-1],[24,-17],[25,-40],[23,18],[15,23],[19,16],[5,39],[3,65],[-1,64],[11,11],[11,-11],[16,-31],[34,-95],[26,-62],[11,-30],[16,-23],[33,-58],[44,-23],[44,-47],[51,3],[39,-58],[27,46],[14,10],[21,-12],[25,-40],[19,-9],[68,-66],[36,-24],[13,-48],[18,-45],[0,-47],[8,-60],[40,-46],[16,-45],[19,-60],[35,-225],[18,-40],[27,4],[25,-58],[8,8],[1,23],[-23,152],[-1,82],[17,47],[42,13],[32,-87],[29,-53],[20,-10],[40,3],[36,56],[29,-21],[45,-6],[58,-33],[26,6],[45,-14],[55,-48],[31,-17],[6,-19],[14,-32],[8,-39],[8,-35],[18,-40],[20,-6],[37,-34],[79,-105],[29,-30],[17,-22],[8,27],[2,55],[14,11],[16,-82],[16,-62],[7,-55],[-17,-44],[-24,9],[-17,0],[-17,-74],[-7,-127],[15,3],[12,11],[3,-46],[-7,-39],[-15,-16],[-25,29],[-30,21],[-34,8],[-32,37],[-13,3],[-13,-2],[17,-39],[18,-36],[41,-30],[51,-48],[2,-29],[-12,-36],[-16,-77],[-46,-66],[-27,48],[-33,11],[-16,-28],[-32,3],[-63,-11],[-25,61],[-39,33],[1,-27],[34,-101],[35,-22],[36,-27],[8,-26],[-16,-23],[-21,3],[-28,-46],[-51,8],[-25,-3],[-14,-19],[-13,-7],[10,-17],[12,-46],[-17,-39],[-17,-20],[-16,10],[-19,-15],[-9,43],[0,93],[-11,83],[-11,4],[-17,-10],[-6,-71],[12,-124],[9,-39],[-7,-34],[-12,-11],[24,-104],[21,-72],[12,-23],[1,-35],[-10,-16],[-27,14],[-14,-7],[-15,4],[-25,16],[-22,4],[-21,-19],[-18,1],[-17,65],[-14,16],[-12,-20],[-9,-77],[-19,-24],[-19,-36],[-13,-38],[-7,-152],[-11,-31],[-17,1],[-12,-12],[-17,12],[-21,7],[-70,-51],[12,-27],[17,4],[62,-8],[26,-28],[4,-68],[11,-29],[20,-31],[16,-16],[6,-23],[-7,-47],[-8,-43],[-20,-47],[6,-23],[21,-8],[9,-105],[-14,-47],[6,-39],[2,-39],[-14,-36],[-11,-18],[-3,-39],[20,-22],[16,-8],[22,-3],[14,-42],[19,-63],[14,-53],[1,-85],[13,-52],[26,-33],[-1,-35],[18,-11],[17,-3],[6,-31],[-5,-39],[-30,-46],[-11,-34],[29,-5],[30,-36],[38,40],[21,43],[13,38],[9,-9],[1,-40],[12,-67],[50,-65],[27,-20],[27,-11],[23,2],[7,-39],[-8,-35],[-18,2],[-30,-6],[-21,29],[-16,26],[-135,-15],[-30,-11],[-36,-39],[-37,-18],[-55,-38],[-23,-24],[-61,90],[-19,66],[-9,4],[-14,-16],[-1,-46],[29,-102],[12,-27],[0,-27],[-8,-14],[-11,1],[-18,19],[-32,16],[-29,-31],[-36,-67],[8,-45],[10,-25],[-3,-30],[-39,-56],[-13,-3],[-9,-11],[10,-20],[22,-2],[2,-25],[-7,-19],[-36,-24],[2,-31],[20,-14],[25,5],[15,-22],[0,-36],[-16,-19],[-18,-15],[-129,-91],[-18,-24],[1,-33],[44,-8],[135,7],[9,-11],[-4,-25],[-7,-34],[7,-23],[20,-17],[1,-24],[-10,-11],[-20,-11],[-22,-4],[2,-26],[30,-24],[10,-3],[1,-91],[-1,-38],[-16,-19],[-6,-12],[-1,-31],[40,-22],[62,-97],[13,-1],[24,-18],[39,-50],[14,-29],[22,-16],[3,-24],[14,-21],[54,-67],[8,-29],[-115,-57],[-114,-41],[10,-36],[124,4],[34,-24],[15,7],[8,25],[67,29],[68,19],[21,-14],[91,-108],[42,-41],[27,-15],[20,-4],[14,-16],[14,-34],[-3,-33],[6,-14],[10,-6],[18,-22],[20,8],[24,25],[17,-6],[30,-34],[-11,-28],[-7,-12],[-8,-25],[-7,-8],[-25,-6],[-13,0],[-14,5],[-1,-18],[16,-19],[25,-21],[157,-16],[45,-35],[44,19],[20,-6],[17,-11],[6,-36],[23,-11],[34,-28],[49,-14],[38,1],[48,-38],[24,-1],[15,-22],[108,-12],[16,-17],[12,-28],[26,-12],[28,-3],[152,-45],[57,-24],[13,2],[13,-4],[41,-21],[42,-11],[19,-27],[35,-37],[0,-309],[-8192,0],[0,8067],[27,12],[23,15],[43,58],[48,14],[21,15],[22,11],[7,0],[19,-20],[16,-20],[10,-5],[13,-4],[31,23],[26,-6],[33,-25],[22,-21],[11,0],[21,19],[25,46],[16,13],[17,0],[12,-6],[15,-20],[26,-26],[41,4],[40,10],[33,22],[21,16],[12,0],[22,-29],[30,-13],[33,42],[39,0],[8,-10],[11,-8],[12,-52],[47,10],[41,44],[17,16],[671,0],[17,-17],[9,-13],[11,-37],[19,-3],[15,14],[20,-56],[48,-42],[51,-21],[32,33],[56,94],[17,43],[0,5],[412,0],[15,-21],[29,-93],[-17,-83],[-16,-30],[-64,-36],[-28,-28],[-24,-18],[-7,-69],[10,-32],[27,16],[30,7],[25,14],[22,22],[20,31],[45,16],[30,26],[27,15],[19,27],[19,-4],[19,-26],[15,3],[40,-9],[19,19],[17,1],[17,-14],[18,-20],[18,-5],[22,12],[33,33],[41,35],[38,11],[9,0],[8,-8],[-39,-41],[-61,-54],[-32,-53],[19,-23],[115,60],[53,44],[46,20],[12,15],[38,68],[13,19],[41,24],[54,27],[40,30],[28,30],[21,3],[15,-22],[21,-25],[21,6],[24,24],[18,55],[0,1],[126,0],[18,-109],[45,-102],[16,-27],[39,11],[42,-41],[18,6],[17,11],[15,-8],[23,26],[24,127],[19,106]],[[7016,3416],[35,-32],[90,3],[75,-30],[7,-31],[-22,-16],[-33,-41],[-21,-12],[-18,-1],[-37,17],[-48,-2],[-10,-24],[-23,-23],[-27,-42],[-7,34],[-11,32],[-27,68],[-2,10],[15,14],[7,22],[16,29],[-2,19],[-13,20],[-5,17],[9,27],[19,12],[25,-11],[10,-37],[-2,-16],[0,-6]],[[7067,3053],[-11,-33],[-13,-14],[-40,12],[-28,-28],[-31,-9],[-15,14],[-7,27],[-3,36],[0,13],[9,5],[41,-25],[18,-23],[9,1],[25,29],[21,38],[5,17],[7,6],[9,-13],[4,-39],[0,-14]],[[6733,4516],[-11,0],[-8,13],[-2,30],[0,10],[24,37],[19,9],[-10,-55],[-4,-9],[-8,-35]],[[7268,5058],[-13,-9],[-17,28],[-4,10],[17,54],[-1,17],[2,15],[6,11],[4,-2],[9,-59],[7,-25],[-9,-24],[-1,-16]],[[6812,7738],[-8,-12],[-5,3],[-5,27],[5,41],[-2,52],[1,13],[13,-29],[2,-17],[5,-24],[1,-13],[-5,-25],[-2,-16]],[[6672,8056],[-2,-27],[-4,6],[-6,22],[-7,52],[6,6],[7,-9],[3,-26],[3,-14],[0,-10]],[[6599,8192],[7,0],[-2,-5],[-4,2],[-1,3]]]}