{"objects":{"water":{"type":"GeometryCollection","geometries":[{"type":"MultiPolygon","properties":{"source":"naturalearthdata.com","kind":"ocean","area":990044000000000,"sort_rank":200,"min_zoom":0,"id":1},"arcs":[[[0],[1],[2],[3]],[[4]]]},{"type":"LineString","properties":{"source":"naturalearthdata.com","kind":"ocean","sort_rank":205,"boundary":true,"min_zoom":0,"id":36},"arcs":[5]},{"type":"LineString","properties":{"source":"naturalearthdata.com","kind":"ocean","sort_rank":205,"boundary":true,"min_zoom":0,"id":127},"arcs":[6]},{"type":"MultiLineString","properties":{"source":"naturalearthdata.com","kind":"ocean","sort_rank":205,"boundary":true,"min_zoom":0,"id":128},"arcs":[[7],[8],[9],[10]]},{"type":"LineString","properties":{"source":"naturalearthdata.com","kind":"ocean","sort_rank":205,"boundary":true,"min_zoom":0,"id":648},"arcs":[11]},{"type":"LineString","properties":{"source":"naturalearthdata.com","kind":"ocean","sort_rank":205,"boundary":true,"min_zoom":0,"id":655},"arcs":[12]}]},"buildings":{"type":"GeometryCollection","geometries":[]},"places":{"type":"GeometryCollection","geometries":[]},"transit":{"type":"GeometryCollection","geometries":[]},"pois":{"type":"GeometryCollection","geometries":[]},"boundaries":{"type":"GeometryCollection","geometries":[]},"roads":{"type":"GeometryCollection","geometries":[]},"earth":{"type":"GeometryCollection","geometries":[{"type":"MultiPolygon","properties":{"sort_rank":10,"source":"naturalearthdata.com","min_zoom":0,"kind":"earth","area":608027485394504},"arcs":[[[13]],[[14]],[[15]],[[16]]]},{"type":"MultiPolygon","properties":{"sort_rank":10,"source":"naturalearthdata.com","min_zoom":1.0,"kind":"earth","area":2911806007992},"arcs":[[[17]]]},{"type":"MultiPolygon","properties":{"sort_rank":10,"source":"naturalearthdata.com","min_zoom":3.0,"kind":"earth","area":833312034851},"arcs":[[[18]]]}]},"landuse":{"type":"GeometryCollection","geometries":[]}},"type":"Topology","transform":{"translate":[0.0,79.1713346408],"scale":[0.0109863281,0.0014354966]},"arcs":[[[4096,1000],[0,-1000],[-2318,0],[-4,3],[-8,-3],[-35,0],[-3,5],[-9,39],[-10,18],[-9,1],[4,14],[8,15],[1,23],[1,34],[-1,29],[-3,24],[-3,19],[-16,58],[-16,23],[-6,4],[-6,-7],[-37,-114],[-18,-36],[4,32],[2,35],[-4,36],[4,25],[12,46],[8,48],[-11,67],[-13,40],[-10,19],[-33,39],[-23,13],[-3,-11],[-4,-20],[-4,-7],[-5,1],[-24,80],[-12,22],[-13,-2],[-14,-30],[-3,-37],[3,-48],[-13,-35],[-10,-70],[-2,-17],[0,-19],[2,-67],[3,-47],[14,-123],[15,-119],[-37,0],[-2,2],[-10,42],[-19,120],[-18,97],[-18,90],[-20,64],[-22,22],[-19,-51],[-18,-74],[-13,-23],[-2,-33],[-1,-40],[2,-36],[2,-32],[-2,-28],[-7,-3],[-11,25],[-11,38],[-10,19],[-15,10],[-5,7],[-4,65],[-11,9],[-60,-13],[44,81],[67,21],[12,26],[1,6],[1,22],[-2,17],[-20,30],[-53,-20],[-32,-39],[-14,-2],[-29,30],[-6,-13],[3,-33],[3,-26],[-7,5],[-9,12],[-37,58],[-32,-14],[-9,-11],[-6,-44],[-3,-3],[-9,30],[-17,26],[-6,1],[-5,-7],[-6,-21],[1,-17],[6,-30],[5,-35],[-7,-41],[-1,-18],[1,-25],[9,-40],[5,-33],[3,-45],[5,-32],[12,-50],[5,-43],[-1016,0],[0,4096],[4096,0],[0,-3081],[-9,-12],[9,-3]],[[1670,619],[46,-16],[-11,-28],[-12,-21],[-31,-26],[2,-29],[4,-19],[9,-25],[27,-44],[20,-17],[42,-7],[22,1],[23,11],[21,24],[30,-3],[30,-18],[-9,-29],[-11,-11],[-7,-41],[-28,0],[-15,6],[-18,-5],[-7,-11],[-6,-19],[20,-40],[21,-30],[25,-19],[33,-15],[4,-22],[5,-8],[95,-12],[87,22],[-15,-58],[8,-45],[11,-24],[78,-17],[17,-8],[17,15],[11,33],[11,27],[34,44],[8,1],[28,-19],[8,4],[37,40],[8,26],[16,85],[9,38],[20,43],[78,130],[11,29],[-5,107],[-12,46],[-14,24],[-39,11],[-54,-1],[-8,9],[-8,15],[-18,17],[-51,30],[-11,17],[-4,0],[-12,-11],[-6,7],[-13,42],[-9,3],[-2,-21],[-4,-19],[-8,-5],[-18,6],[-16,-41],[-8,-27],[-30,-19],[-22,6],[10,91],[2,44],[6,31],[-6,14],[-22,19],[-10,-3],[-9,-25],[-11,-14],[-12,2],[-8,-10],[-3,-25],[2,-40],[0,-82],[-6,-70],[-8,-28],[-9,7],[-27,51],[-10,4],[-8,14],[-4,41],[-10,17],[-50,-2],[-9,7],[-18,34],[-20,51],[-11,21],[-23,20],[-23,29],[-11,4],[-11,-11],[7,-41],[8,-35],[3,-18],[-1,-22],[-4,-47],[-17,15],[-22,51],[-6,9],[-7,-3],[-2,-20],[3,-27],[15,-55],[16,-15],[-17,-33],[-19,16],[-16,25],[-17,13],[-62,-16],[-16,-19],[19,-35],[20,-23]],[[1706,787],[-20,33],[-21,7],[-8,-19],[-4,-30],[33,-30],[20,39]],[[2874,634],[87,26],[93,55],[7,14],[-22,17],[-26,-9],[-8,-8],[-139,-77],[8,-18]],[[1086,0],[-34,0],[5,24],[-3,54],[9,5],[27,2],[10,-18],[-6,-38],[-8,-29]],[[4096,1015],[-9,-12],[9,-3]],[[2445,689],[-39,11],[-54,-1],[-8,9],[-8,15],[-18,17],[-51,30],[-11,17],[-4,0],[-12,-11],[-6,7],[-13,42],[-9,3],[-2,-21],[-4,-19],[-8,-5],[-18,6],[-16,-41],[-8,-27],[-30,-19],[-22,6],[10,91],[2,44],[6,31],[-6,14],[-22,19],[-10,-3],[-9,-25],[-11,-14],[-12,2],[-8,-10],[-3,-25],[2,-40],[0,-82],[-6,-70],[-8,-28],[-9,7],[-27,51],[-10,4],[-8,14],[-4,41],[-10,17],[-50,-2],[-9,7],[-18,34],[-20,51],[-11,21],[-23,20],[-23,29],[-11,4],[-11,-11],[7,-41],[8,-35],[3,-18],[-1,-22],[-4,-47],[-17,15],[-22,51],[-6,9],[-7,-3],[-2,-20],[3,-27],[15,-55],[16,-15],[-17,-33],[-19,16],[-16,25],[-17,13],[-62,-16],[-16,-19],[19,-35],[20,-23],[46,-16],[-11,-28],[-12,-21],[-31,-26],[2,-29],[4,-19],[9,-25],[27,-44],[20,-17],[42,-7],[22,1],[23,11],[21,24],[30,-3],[30,-18],[-9,-29],[-11,-11],[-7,-41],[-28,0],[-15,6],[-18,-5],[-7,-11],[-6,-19],[20,-40],[21,-30],[25,-19],[33,-15],[4,-22],[5,-8],[95,-12],[87,22],[-15,-58],[8,-45],[11,-24],[78,-17],[17,-8],[17,15],[11,33],[11,27],[34,44],[8,1],[28,-19],[8,4],[37,40],[8,26],[16,85],[9,38],[20,43],[78,130],[11,29],[-5,107],[-12,46],[-14,24]],[[1778,0],[-4,3],[-8,-3]],[[1731,0],[-3,5],[-9,39],[-10,18],[-9,1],[4,14],[8,15],[1,23],[1,34],[-1,29],[-3,24],[-3,19],[-16,58],[-16,23],[-6,4],[-6,-7],[-37,-114],[-18,-36],[4,32],[2,35],[-4,36],[4,25],[12,46],[8,48],[-11,67],[-13,40],[-10,19],[-33,39],[-23,13],[-3,-11],[-4,-20],[-4,-7],[-5,1],[-24,80],[-12,22],[-13,-2],[-14,-30],[-3,-37],[3,-48],[-13,-35],[-10,-70],[-2,-17],[0,-19],[2,-67],[3,-47],[14,-123],[15,-119]],[[1437,0],[-2,2],[-10,42],[-19,120],[-18,97],[-18,90],[-20,64],[-22,22],[-19,-51],[-18,-74],[-13,-23],[-2,-33],[-1,-40],[2,-36],[2,-32],[-2,-28],[-7,-3],[-11,25],[-11,38],[-10,19],[-15,10],[-5,7],[-4,65],[-11,9],[-60,-13],[44,81],[67,21],[12,26],[1,6],[1,22],[-2,17],[-20,30],[-53,-20],[-32,-39],[-14,-2],[-29,30],[-6,-13],[3,-33],[3,-26],[-7,5],[-9,12],[-37,58],[-32,-14],[-9,-11],[-6,-44],[-3,-3],[-9,30],[-17,26],[-6,1],[-5,-7],[-6,-21],[1,-17],[6,-30],[5,-35],[-7,-41],[-1,-18],[1,-25],[9,-40],[5,-33],[3,-45],[5,-32],[12,-50],[5,-43]],[[1052,0],[5,24],[-3,54],[9,5],[27,2],[10,-18],[-6,-38],[-8,-29]],[[2866,652],[8,-18],[87,26],[93,55],[7,14],[-22,17],[-26,-9],[-8,-8],[-139,-77]],[[1686,748],[20,39],[-20,33],[-21,7],[-8,-19],[-4,-30],[33,-30]],[[1902,751],[9,-7],[50,2],[10,-17],[4,-41],[8,-14],[10,-4],[27,-51],[9,-7],[8,28],[6,70],[0,82],[-2,40],[3,25],[8,10],[12,-2],[11,14],[9,25],[10,3],[22,-19],[6,-14],[-6,-31],[-2,-44],[-10,-91],[22,-6],[30,19],[8,27],[16,41],[18,-6],[8,5],[4,19],[2,21],[9,-3],[13,-42],[6,-7],[12,11],[4,0],[11,-17],[51,-30],[18,-17],[8,-15],[8,-9],[54,1],[39,-11],[14,-24],[12,-46],[5,-107],[-11,-29],[-78,-130],[-20,-43],[-9,-38],[-16,-85],[-8,-26],[-37,-40],[-8,-4],[-28,19],[-8,-1],[-34,-44],[-11,-27],[-11,-33],[-17,-15],[-17,8],[-78,17],[-11,24],[-8,45],[15,58],[-87,-22],[-95,12],[-5,8],[-4,22],[-33,15],[-25,19],[-21,30],[-20,40],[6,19],[7,11],[18,5],[15,-6],[28,0],[7,41],[11,11],[9,29],[-30,18],[-30,3],[-21,-24],[-23,-11],[-22,-1],[-42,7],[-20,17],[-27,44],[-9,25],[-4,19],[-2,29],[31,26],[12,21],[11,28],[-46,16],[-20,23],[-19,35],[16,19],[62,16],[17,-13],[16,-25],[19,-16],[17,33],[-16,15],[-15,55],[-3,27],[2,20],[7,3],[6,-9],[22,-51],[17,-15],[4,47],[1,22],[-3,18],[-8,35],[-7,41],[11,11],[11,-4],[23,-29],[23,-20],[11,-21],[20,-51],[18,-34]],[[1052,0],[-36,0],[-5,43],[-12,50],[-5,32],[-3,45],[-5,33],[-9,40],[-1,25],[1,18],[7,41],[-5,35],[-6,30],[-1,17],[6,21],[5,7],[6,-1],[17,-26],[9,-30],[3,3],[6,44],[9,11],[32,14],[37,-58],[9,-12],[7,-5],[-3,26],[-3,33],[6,13],[29,-30],[14,2],[32,39],[53,20],[20,-30],[2,-17],[-1,-22],[-1,-6],[-12,-26],[-67,-21],[-44,-81],[60,13],[11,-9],[4,-65],[5,-7],[15,-10],[10,-19],[11,-38],[11,-25],[7,3],[2,28],[-2,32],[-2,36],[1,40],[2,33],[13,23],[18,74],[19,51],[22,-22],[20,-64],[18,-90],[18,-97],[19,-120],[10,-42],[2,-2],[-351,0],[8,29],[6,38],[-10,18],[-27,-2],[-9,-5],[3,-54],[-5,-24]],[[1731,0],[-257,0],[-15,119],[-14,123],[-3,47],[-2,67],[0,19],[2,17],[10,70],[13,35],[-3,48],[3,37],[14,30],[13,2],[12,-22],[24,-80],[5,-1],[4,7],[4,20],[3,11],[23,-13],[33,-39],[10,-19],[13,-40],[11,-67],[-8,-48],[-12,-46],[-4,-25],[4,-36],[-2,-35],[-4,-32],[18,36],[37,114],[6,7],[6,-4],[16,-23],[16,-58],[3,-19],[3,-24],[1,-29],[-1,-34],[-1,-23],[-8,-15],[-4,-14],[9,-1],[10,-18],[9,-39],[3,-5]],[[1778,0],[-12,0],[8,3],[4,-3]],[[4096,1015],[0,-15],[-9,3],[9,12]],[[2961,660],[-87,-26],[-8,18],[139,77],[8,8],[26,9],[22,-17],[-7,-14],[-93,-55]]]}