{"objects":{"water":{"type":"GeometryCollection","geometries":[{"type":"Polygon","properties":{"source":"naturalearthdata.com","kind":"ocean","area":989871000000000,"sort_rank":200,"min_zoom":0,"id":1},"arcs":[[0],[1]]},{"type":"LineString","properties":{"source":"naturalearthdata.com","kind":"ocean","sort_rank":205,"boundary":true,"min_zoom":0,"id":8},"arcs":[2]},{"type":"LineString","properties":{"source":"naturalearthdata.com","kind":"ocean","sort_rank":205,"boundary":true,"min_zoom":0,"id":523},"arcs":[3]}]},"buildings":{"type":"GeometryCollection","geometries":[]},"places":{"type":"GeometryCollection","geometries":[]},"transit":{"type":"GeometryCollection","geometries":[]},"pois":{"type":"GeometryCollection","geometries":[]},"boundaries":{"type":"GeometryCollection","geometries":[]},"roads":{"type":"GeometryCollection","geometries":[]},"earth":{"type":"GeometryCollection","geometries":[{"type":"MultiPolygon","properties":{"sort_rank":10,"source":"naturalearthdata.com","min_zoom":3.0,"kind":"earth","area":3761628747},"arcs":[[[4]]]}]},"landuse":{"type":"GeometryCollection","geometries":[{"type":"MultiPolygon","properties":{"source":"openstreetmap.org","kind":"nature_reserve","area":238905139052,"tier":2,"min_zoom":4.0,"id":-5506554,"sort_rank":23},"arcs":[[[5]]]}]}},"type":"Topology","transform":{"translate":[-112.5,-31.952162238],"scale":[0.002746582,0.002443632]},"arcs":[[[4096,0],[-4096,0],[0,4096],[4096,0],[0,-4096]],[[1190,1989],[-4,0],[-3,-1],[-4,-1],[-3,-1],[-3,1],[-8,4],[-4,1],[-20,9],[-5,1],[-6,-4],[-6,-6],[-4,-6],[-8,-29],[-2,-4],[-1,-3],[1,-3],[4,-3],[4,1],[4,3],[3,4],[5,2],[3,1],[3,0],[4,1],[4,2],[2,3],[4,3],[3,1],[3,1],[8,0],[4,1],[7,4],[11,3],[6,4],[2,5],[-4,6]],[[1190,1989],[-4,0],[-3,-1],[-4,-1],[-3,-1],[-3,1],[-8,4],[-4,1],[-20,9],[-5,1],[-6,-4],[-6,-6],[-4,-6],[-8,-29],[-2,-4],[-1,-3],[1,-3],[4,-3],[4,1],[4,3],[3,4],[5,2],[3,1],[3,0],[4,1],[4,2],[2,3],[4,3],[3,1],[3,1],[8,0],[4,1],[7,4],[11,3],[6,4],[2,5],[-4,6]],[[2563,2246],[-1,1],[0,2],[-1,0],[-2,-1],[4,-2]],[[1190,1989],[4,-6],[-2,-5],[-6,-4],[-11,-3],[-7,-4],[-4,-1],[-8,0],[-3,-1],[-3,-1],[-4,-3],[-2,-3],[-4,-2],[-4,-1],[-3,0],[-3,-1],[-5,-2],[-3,-4],[-4,-3],[-4,-1],[-4,3],[-1,3],[1,3],[2,4],[8,29],[4,6],[6,6],[6,4],[5,-1],[20,-9],[4,-1],[8,-4],[3,-1],[3,1],[4,1],[3,1],[4,0]],[[2348,2904],[1391,-116],[162,-623],[-309,-758],[-1154,-370],[154,998],[-244,869]]]}