{"objects":{"water":{"type":"GeometryCollection","geometries":[{"type":"Polygon","properties":{"source":"naturalearthdata.com","kind":"ocean","area":989871000000000,"sort_rank":200,"min_zoom":0,"id":1},"arcs":[[0]]},{"type":"MultiLineString","properties":{"source":"naturalearthdata.com","kind":"ocean","sort_rank":205,"boundary":true,"min_zoom":0,"id":2},"arcs":[[1],[2]]}]},"buildings":{"type":"GeometryCollection","geometries":[]},"places":{"type":"GeometryCollection","geometries":[]},"transit":{"type":"GeometryCollection","geometries":[]},"pois":{"type":"GeometryCollection","geometries":[]},"boundaries":{"type":"GeometryCollection","geometries":[]},"roads":{"type":"GeometryCollection","geometries":[]},"earth":{"type":"GeometryCollection","geometries":[{"type":"MultiPolygon","properties":{"sort_rank":10,"source":"naturalearthdata.com","min_zoom":0,"kind":"earth","area":53730332668114},"arcs":[[[3]],[[4]]]}]},"landuse":{"type":"GeometryCollection","geometries":[]}},"type":"Topology","transform":{"translate":[-112.5,-76.8408164144],"scale":[0.002746582,0.0006887874]},"arcs":[[[3982,4096],[2,-5],[3,-42],[5,-31],[8,-23],[10,-20],[17,-20],[5,-18],[-3,-37],[11,-8],[8,-23],[6,-33],[4,-39],[-2,-29],[-8,-18],[-9,-15],[-7,-17],[22,-2],[22,12],[4,-3],[0,-14],[-2,-18],[-3,-14],[-13,-29],[-17,-25],[-8,-17],[-6,-27],[-2,-33],[4,-23],[7,-13],[10,-5],[-7,-25],[-8,-19],[-16,-30],[24,-38],[53,-22],[0,-1231],[-104,25],[-44,62],[3,15],[4,33],[2,14],[3,11],[12,26],[8,31],[5,28],[1,32],[-4,41],[-13,40],[-20,27],[-39,25],[-9,-2],[-27,-31],[-79,-35],[-35,10],[-61,-11],[-36,31],[-57,-29],[-128,32],[-127,32],[-94,-50],[-94,-49],[-43,-1],[-62,48],[-85,-6],[-79,-52],[-30,1],[-46,27],[-7,10],[-7,14],[-5,16],[-1,4],[-8,7],[-69,-2],[-14,-7],[-11,-17],[-4,-32],[1,-10],[1,-5],[1,-6],[-2,-9],[-6,-14],[-8,-7],[-95,-28],[-94,-28],[-5,-10],[-10,-26],[-5,-10],[-134,-47],[-133,-47],[-3,-7],[-9,-49],[-16,-26],[-24,-8],[-23,12],[-22,53],[-36,5],[-33,29],[-76,2],[-5,-7],[-8,-23],[-5,-10],[-11,-9],[-35,2],[-10,7],[-17,26],[-9,8],[-174,-15],[-59,58],[-13,25],[-14,14],[-140,38],[-139,38],[-139,37],[-139,38],[-11,8],[-11,1],[-9,-14],[-36,-83],[-8,-15],[-10,-10],[-12,-2],[-35,17],[-65,-28],[-60,18],[-9,8],[-20,32],[-10,9],[-125,-6],[-124,-7],[-22,-11],[-31,-42],[-11,-3],[-21,9],[-22,24],[-14,25],[-7,7],[-29,-6],[-21,4],[36,35],[10,23],[-10,6],[-30,-3],[9,38],[18,31],[53,50],[30,58],[16,20],[87,44],[10,12],[20,37],[31,36],[46,106],[9,28],[8,13],[11,2],[19,-5],[44,14],[65,58],[11,20],[6,23],[2,43],[-2,26],[-7,18],[-9,16],[-11,22],[2,16],[27,64],[9,7],[20,-5],[9,14],[9,33],[4,42],[-3,37],[-7,28],[-2,10],[1,5],[3,17],[1,5],[-4,14],[-22,53],[-12,7],[-46,-19],[-7,3],[-14,16],[-7,12],[-6,14],[17,21],[55,33],[-73,147],[-39,39],[-41,5],[-8,-18],[-12,-74],[-7,-24],[-8,-6],[-12,-3],[-11,5],[-6,15],[-7,27],[-9,18],[-21,18],[-22,9],[-4,7],[-7,20],[-4,8],[-38,26],[-29,36],[-42,10],[-11,8],[-9,4],[-19,-7],[-51,20],[-20,-4],[-61,-69],[-17,-3],[-9,-6],[-7,-19],[3,-3],[5,-9],[3,-3],[-10,-44],[6,-47],[38,-110],[15,-28],[16,-19],[80,-47],[44,-5],[12,-24],[-35,-15],[-24,-22],[-121,15],[-16,-19],[-14,-26],[-6,-19],[-3,-24],[1,-28],[3,-24],[1,-22],[-2,-23],[41,-56],[19,-40],[15,-54],[16,-22],[43,20],[13,-25],[-10,-11],[-6,-21],[-1,-28],[7,-29],[-97,-6],[-98,-5],[-7,-6],[-16,-20],[-18,-7],[-9,-8],[-6,-24],[-5,-13],[-93,19],[0,1205],[3982,0]],[[3982,4096],[2,-5],[3,-42],[5,-31],[8,-23],[10,-20],[17,-20],[5,-18],[-3,-37],[11,-8],[8,-23],[6,-33],[4,-39],[-2,-29],[-8,-18],[-9,-15],[-7,-17],[22,-2],[22,12],[4,-3],[0,-14],[-2,-18],[-3,-14],[-13,-29],[-17,-25],[-8,-17],[-6,-27],[-2,-33],[4,-23],[7,-13],[10,-5],[-7,-25],[-8,-19],[-16,-30],[24,-38],[53,-22]],[[4096,2142],[-104,25],[-44,62],[3,15],[4,33],[2,14],[3,11],[12,26],[8,31],[5,28],[1,32],[-4,41],[-13,40],[-20,27],[-39,25],[-9,-2],[-27,-31],[-79,-35],[-35,10],[-61,-11],[-36,31],[-57,-29],[-128,32],[-127,32],[-94,-50],[-94,-49],[-43,-1],[-62,48],[-85,-6],[-79,-52],[-30,1],[-46,27],[-7,10],[-7,14],[-5,16],[-1,4],[-8,7],[-69,-2],[-14,-7],[-11,-17],[-4,-32],[1,-10],[1,-5],[1,-6],[-2,-9],[-6,-14],[-8,-7],[-95,-28],[-94,-28],[-5,-10],[-10,-26],[-5,-10],[-134,-47],[-133,-47],[-3,-7],[-9,-49],[-16,-26],[-24,-8],[-23,12],[-22,53],[-36,5],[-33,29],[-76,2],[-5,-7],[-8,-23],[-5,-10],[-11,-9],[-35,2],[-10,7],[-17,26],[-9,8],[-174,-15],[-59,58],[-13,25],[-14,14],[-140,38],[-139,38],[-139,37],[-139,38],[-11,8],[-11,1],[-9,-14],[-36,-83],[-8,-15],[-10,-10],[-12,-2],[-35,17],[-65,-28],[-60,18],[-9,8],[-20,32],[-10,9],[-125,-6],[-124,-7],[-22,-11],[-31,-42],[-11,-3],[-21,9],[-22,24],[-14,25],[-7,7],[-29,-6],[-21,4],[36,35],[10,23],[-10,6],[-30,-3],[9,38],[18,31],[53,50],[30,58],[16,20],[87,44],[10,12],[20,37],[31,36],[46,106],[9,28],[8,13],[11,2],[19,-5],[44,14],[65,58],[11,20],[6,23],[2,43],[-2,26],[-7,18],[-9,16],[-11,22],[2,16],[27,64],[9,7],[20,-5],[9,14],[9,33],[4,42],[-3,37],[-7,28],[-2,10],[1,5],[3,17],[1,5],[-4,14],[-22,53],[-12,7],[-46,-19],[-7,3],[-14,16],[-7,12],[-6,14],[17,21],[55,33],[-73,147],[-39,39],[-41,5],[-8,-18],[-12,-74],[-7,-24],[-8,-6],[-12,-3],[-11,5],[-6,15],[-7,27],[-9,18],[-21,18],[-22,9],[-4,7],[-7,20],[-4,8],[-38,26],[-29,36],[-42,10],[-11,8],[-9,4],[-19,-7],[-51,20],[-20,-4],[-61,-69],[-17,-3],[-9,-6],[-7,-19],[3,-3],[5,-9],[3,-3],[-10,-44],[6,-47],[38,-110],[15,-28],[16,-19],[80,-47],[44,-5],[12,-24],[-35,-15],[-24,-22],[-121,15],[-16,-19],[-14,-26],[-6,-19],[-3,-24],[1,-28],[3,-24],[1,-22],[-2,-23],[41,-56],[19,-40],[15,-54],[16,-22],[43,20],[13,-25],[-10,-11],[-6,-21],[-1,-28],[7,-29],[-97,-6],[-98,-5],[-7,-6],[-16,-20],[-18,-7],[-9,-8],[-6,-24],[-5,-13],[-93,19]],[[4096,2142],[0,-2142],[-4096,0],[0,2891],[93,-19],[5,13],[6,24],[9,8],[18,7],[16,20],[7,6],[98,5],[97,6],[-7,29],[1,28],[6,21],[10,11],[-13,25],[-43,-20],[-16,22],[-15,54],[-19,40],[-41,56],[2,23],[-1,22],[-3,24],[-1,28],[3,24],[6,19],[14,26],[16,19],[121,-15],[24,22],[35,15],[-12,24],[-44,5],[-80,47],[-16,19],[-15,28],[-38,110],[-6,47],[10,44],[-3,3],[-5,9],[-3,3],[7,19],[9,6],[17,3],[61,69],[20,4],[51,-20],[19,7],[9,-4],[11,-8],[42,-10],[29,-36],[38,-26],[4,-8],[7,-20],[4,-7],[22,-9],[21,-18],[9,-18],[7,-27],[6,-15],[11,-5],[12,3],[8,6],[7,24],[12,74],[8,18],[41,-5],[39,-39],[73,-147],[-55,-33],[-17,-21],[6,-14],[7,-12],[14,-16],[7,-3],[46,19],[12,-7],[22,-53],[4,-14],[-1,-5],[-3,-17],[-1,-5],[2,-10],[7,-28],[3,-37],[-4,-42],[-9,-33],[-9,-14],[-20,5],[-9,-7],[-27,-64],[-2,-16],[11,-22],[9,-16],[7,-18],[2,-26],[-2,-43],[-6,-23],[-11,-20],[-65,-58],[-44,-14],[-19,5],[-11,-2],[-8,-13],[-9,-28],[-46,-106],[-31,-36],[-20,-37],[-10,-12],[-87,-44],[-16,-20],[-30,-58],[-53,-50],[-18,-31],[-9,-38],[30,3],[10,-6],[-10,-23],[-36,-35],[21,-4],[29,6],[7,-7],[14,-25],[22,-24],[21,-9],[11,3],[31,42],[22,11],[124,7],[125,6],[10,-9],[20,-32],[9,-8],[60,-18],[65,28],[35,-17],[12,2],[10,10],[8,15],[36,83],[9,14],[11,-1],[11,-8],[139,-38],[139,-37],[139,-38],[140,-38],[14,-14],[13,-25],[59,-58],[174,15],[9,-8],[17,-26],[10,-7],[35,-2],[11,9],[5,10],[8,23],[5,7],[76,-2],[13,-11],[20,-18],[36,-5],[22,-53],[23,-12],[24,8],[16,26],[9,49],[3,7],[133,47],[134,47],[5,10],[10,26],[5,10],[94,28],[95,28],[8,7],[6,14],[2,9],[-1,6],[-1,5],[-1,10],[4,32],[11,17],[14,7],[69,2],[8,-7],[1,-4],[5,-16],[7,-14],[7,-10],[46,-27],[30,-1],[79,52],[85,6],[62,-48],[43,1],[94,49],[94,50],[127,-32],[128,-32],[57,29],[36,-31],[61,11],[35,-10],[79,35],[27,31],[9,2],[39,-25],[20,-27],[13,-40],[4,-41],[-1,-32],[-5,-28],[-8,-31],[-12,-26],[-3,-11],[-2,-14],[-4,-33],[-3,-15],[44,-62],[104,-25]],[[3982,4096],[114,0],[0,-723],[-53,22],[-24,38],[16,30],[8,19],[7,25],[-10,5],[-7,13],[-4,23],[2,33],[6,27],[8,17],[17,25],[13,29],[3,14],[2,18],[0,14],[-4,3],[-22,-12],[-22,2],[7,17],[9,15],[8,18],[2,29],[-4,39],[-6,33],[-8,23],[-11,8],[3,37],[-5,18],[-17,20],[-10,20],[-8,23],[-5,31],[-3,42],[-2,5]]]}