{"objects":{"water":{"type":"GeometryCollection","geometries":[{"type":"MultiPolygon","properties":{"source":"naturalearthdata.com","kind":"ocean","area":989871000000000,"sort_rank":200,"min_zoom":0,"id":1},"arcs":[[[4],[5],[6]],[[7]]]},{"type":"LineString","properties":{"source":"naturalearthdata.com","kind":"ocean","sort_rank":205,"boundary":true,"min_zoom":0,"id":994},"arcs":[8]},{"type":"LineString","properties":{"source":"naturalearthdata.com","kind":"ocean","sort_rank":205,"boundary":true,"min_zoom":0,"id":1000},"arcs":[9]},{"type":"MultiLineString","properties":{"source":"naturalearthdata.com","kind":"ocean","sort_rank":205,"boundary":true,"min_zoom":0,"id":1003},"arcs":[[10],[11]]},{"type":"MultiLineString","properties":{"source":"naturalearthdata.com","kind":"ocean","sort_rank":205,"boundary":true,"min_zoom":0,"id":1005},"arcs":[[12],[13]]},{"type":"LineString","properties":{"source":"naturalearthdata.com","kind":"ocean","sort_rank":205,"boundary":true,"min_zoom":0,"id":1006},"arcs":[14]},{"type":"MultiLineString","properties":{"source":"naturalearthdata.com","kind":"ocean","sort_rank":205,"boundary":true,"min_zoom":0,"id":1008},"arcs":[[15],[16]]},{"type":"MultiLineString","properties":{"source":"naturalearthdata.com","kind":"ocean","sort_rank":205,"boundary":true,"min_zoom":0,"id":1011},"arcs":[[17],[18],[19]]}]},"buildings":{"type":"GeometryCollection","geometries":[]},"places":{"type":"GeometryCollection","geometries":[]},"transit":{"type":"GeometryCollection","geometries":[]},"pois":{"type":"GeometryCollection","geometries":[]},"boundaries":{"type":"GeometryCollection","geometries":[{"type":"MultiLineString","properties":{"sort_rank":256,"kind_detail":"4","kind":"region","min_zoom":2.0,"source":"naturalearthdata.com"},"arcs":[[0],[1]]},{"type":"MultiLineString","properties":{"sort_rank":256,"kind_detail":"4","kind":"region","min_zoom":2.0,"source":"naturalearthdata.com"},"arcs":[[2],[3]]}]},"roads":{"type":"GeometryCollection","geometries":[]},"earth":{"type":"GeometryCollection","geometries":[{"type":"MultiPolygon","properties":{"sort_rank":10,"source":"naturalearthdata.com","min_zoom":1.5,"kind":"earth","area":383187630897},"arcs":[[[20]]]},{"type":"MultiPolygon","properties":{"sort_rank":10,"source":"naturalearthdata.com","kind":"earth","min_zoom":2.0,"area":208531522065},"arcs":[[[21]]]},{"type":"MultiPolygon","properties":{"sort_rank":10,"source":"naturalearthdata.com","min_zoom":0.5,"kind":"earth","area":885996023338},"arcs":[[[22]]]},{"type":"MultiPolygon","properties":{"sort_rank":10,"source":"naturalearthdata.com","min_zoom":1.0,"kind":"earth","area":239012445148},"arcs":[[[23]]]},{"type":"MultiPolygon","properties":{"sort_rank":10,"source":"naturalearthdata.com","min_zoom":3.0,"kind":"earth","area":85393833487},"arcs":[[[24]],[[25]]]},{"type":"MultiPolygon","properties":{"sort_rank":10,"source":"naturalearthdata.com","min_zoom":0,"kind":"earth","area":13131386715102},"arcs":[[[26]]]}]},"landuse":{"type":"GeometryCollection","geometries":[]}},"type":"Topology","transform":{"translate":[-112.5,76.8408164144],"scale":[0.002746582,0.0005689742]},"arcs":[[[909,2212],[0,404]],[[909,0],[0,1917]],[[909,2616],[0,211],[0,388],[0,30]],[[909,1917],[0,135],[0,160]],[[4096,1554],[0,-1554],[-2720,0],[-2,3],[-8,28],[-4,8],[-6,2],[-7,-6],[-5,-15],[-2,-20],[-1342,0],[0,955],[2,-7],[9,-17],[131,-79],[43,7],[39,41],[176,89],[44,49],[11,2],[21,-20],[114,-15],[19,22],[10,32],[4,4],[15,-1],[14,14],[50,4],[123,86],[26,48],[18,20],[6,21],[4,29],[-2,19],[-6,9],[-19,9],[-1,14],[5,16],[9,13],[17,14],[8,13],[5,21],[-4,2],[-3,4],[-4,8],[-4,10],[2,6],[2,13],[1,5],[-10,21],[-5,16],[-2,23],[1,4],[9,44],[-1,7],[-2,17],[6,10],[-3,21],[-7,21],[-8,9],[-78,6],[-23,-20],[-114,-13],[-12,33],[-9,33],[-37,31],[-9,56],[23,30],[112,24],[112,25],[37,41],[44,18],[79,32],[36,38],[4,10],[6,35],[21,62],[8,38],[-8,35],[-35,41],[-111,4],[-129,4],[-129,4],[-40,-52],[-14,-10],[-44,8],[-6,10],[-1,11],[0,10],[0,8],[-3,3],[-72,-26],[-26,14],[-42,-32],[-49,-9],[-41,-33],[-18,-27],[-8,-6],[-12,-4],[-11,4],[-5,15],[-4,24],[-9,2],[-46,-55],[-38,5],[-42,-29],[-20,3],[-17,10],[-83,-52],[0,638],[13,6],[105,45],[54,-45],[17,-3],[4,-8],[21,-17],[8,-12],[5,-36],[2,-11],[13,-30],[21,-27],[125,8],[5,3],[4,10],[2,17],[-2,15],[-6,5],[-2,10],[7,37],[49,-14],[14,26],[-7,6],[-7,14],[-8,19],[-6,20],[10,17],[26,3],[23,16],[47,-28],[29,-43],[21,-8],[9,-12],[0,-28],[8,-14],[93,-25],[92,-26],[116,76],[4,0],[16,0],[32,-47],[18,-13],[114,38],[31,-14],[6,2],[0,6],[0,8],[1,9],[24,56],[5,33],[-11,31],[3,10],[12,24],[-7,31],[6,24],[21,31],[-7,11],[1,10],[3,10],[3,11],[-3,18],[-6,3],[-7,-1],[-6,2],[-5,12],[0,11],[1,14],[-2,20],[-4,12],[-22,42],[-14,16],[-7,2],[-5,5],[-5,25],[-4,6],[-47,-5],[-14,18],[3,12],[-35,42],[-20,6],[-10,9],[-6,18],[1,33],[-12,18],[-26,4],[-16,16],[-10,9],[-39,12],[-36,51],[-47,28],[-11,17],[-11,22],[-105,-23],[-3,2],[-4,5],[-3,1],[-7,-14],[-12,-10],[-18,-24],[-49,-18],[-56,-50],[-12,13],[-40,-51],[-7,-15],[-7,-23],[-45,-7],[22,-36],[-16,-30],[-144,-102],[-40,21],[-40,-16],[-42,9],[-74,-30],[-50,-49],[-3,-1],[0,1160],[2504,0],[-2,-11],[1,-21],[7,-61],[2,-14],[-2,-12],[3,-8],[0,-11],[0,-14],[2,-14],[-5,-38],[5,-31],[11,-21],[58,-22],[164,72],[75,-27],[14,-14],[11,-35],[-31,-66],[-20,-58],[-5,-50],[-5,-4],[-4,-10],[-3,-12],[-3,-11],[-50,-80],[-8,-34],[10,-33],[18,-16],[44,3],[18,16],[35,61],[40,35],[9,21],[9,31],[16,74],[11,38],[14,19],[17,2],[26,-18],[4,14],[2,22],[4,20],[9,12],[61,-19],[8,-11],[2,-17],[1,-15],[2,-16],[6,-15],[62,-52],[9,-17],[0,-24],[-9,-16],[-107,-102],[-27,-63],[13,-21],[32,1],[8,-16],[-5,0],[16,-19],[21,0],[20,16],[15,27],[-1,8],[-2,12],[-2,5],[7,25],[10,-1],[18,-24],[11,2],[11,12],[11,5],[10,-19],[-24,-38],[-13,-29],[-8,-30],[23,11],[41,44],[10,2],[8,-9],[-5,-20],[-2,-5],[11,-13],[10,24],[10,33],[10,17],[27,-8],[15,-16],[9,-46],[12,-2],[3,-18],[-3,-18],[-8,-9],[-40,-2],[-13,-7],[-13,-18],[4,-19],[13,-42],[-156,-5],[-25,-24],[-23,-43],[12,-19],[104,5],[104,4],[14,-14],[-6,-14],[-7,-9],[6,0],[5,-4],[5,-8],[5,-13],[-10,-19],[-5,-2],[-3,10],[-18,-19],[-6,-12],[5,-16],[6,-9],[4,-8],[0,-13],[-5,-27],[-11,-31],[-16,-11],[-16,3],[-50,39],[-115,-6],[-110,55],[-110,55],[-64,-10],[-23,-36],[-34,-31],[-16,-27],[-7,-20],[-3,-14],[1,-17],[15,-86],[4,-13],[44,-74],[18,-62],[8,-13],[9,-6],[8,-1],[8,-6],[20,-42],[76,-85],[95,-28],[94,-28],[16,18],[-4,38],[12,3],[50,59],[31,20],[59,6],[20,17],[23,4],[16,20],[108,29],[107,28],[28,-29],[-47,-62],[-8,-29],[6,-43],[13,-24],[63,-52],[18,-3],[139,80],[121,-44],[121,-45],[75,-87],[10,-5],[5,3],[0,-601],[-144,80],[-19,26],[-10,2],[-29,-19],[-108,-6],[-108,-6],[-18,-13],[-17,-29],[-13,-51],[11,-29],[0,-18],[-6,-25],[6,-22],[11,-21],[12,-14],[8,-4],[-1,-19],[-3,-12],[-4,-6],[-4,1],[0,-12],[57,-24],[42,-42],[140,-28],[62,38],[23,52],[20,-3],[21,-15],[17,2],[21,15],[33,-9]],[[2951,618],[8,69],[1,5],[-4,33],[-6,35],[-8,7],[-10,1],[-11,17],[4,18],[5,8],[6,3],[5,7],[-5,12],[-19,12],[-6,8],[-14,32],[-59,67],[-9,20],[-7,42],[-16,8],[-76,-19],[-5,5],[1,14],[2,17],[0,18],[0,33],[11,19],[9,27],[-5,52],[-11,36],[-92,161],[-92,162],[-37,33],[-16,25],[-95,24],[-62,-51],[-6,-16],[2,-23],[14,-38],[54,-68],[10,-24],[11,-39],[7,-43],[-5,-36],[7,-13],[-2,-14],[-13,-21],[7,-11],[31,-17],[16,-17],[7,-4],[4,-7],[-2,-16],[-8,-24],[-5,-9],[-6,-5],[-5,-10],[-4,-24],[31,-23],[7,-21],[-10,-28],[17,-25],[5,-12],[-8,-11],[-2,-9],[-2,-16],[22,1],[11,-6],[7,-19],[3,2],[-3,-9],[-5,-17],[-3,-30],[0,-13],[3,-18],[10,-30],[17,-17],[30,-13],[0,-12],[-12,2],[-5,-3],[-5,-10],[28,-27],[14,-23],[13,-35],[-6,-12],[-8,-3],[-8,4],[-6,11],[0,-12],[13,-13],[29,6],[13,-17],[-2,-12],[-6,-36],[15,-24],[15,3],[30,21],[35,-6],[17,-12],[15,-25],[22,-48],[11,-19],[13,-10],[13,2],[39,46],[49,6],[23,19],[20,72]],[[3495,2520],[-45,-8],[-15,-15],[-66,-116],[-9,-28],[-5,-32],[6,-39],[13,-20],[53,-10],[15,9],[64,109],[26,19],[6,12],[2,14],[-1,10],[-1,12],[0,17],[-6,34],[-13,17],[-24,15]],[[3498,4096],[598,0],[0,-354],[-20,13],[-15,33],[-16,12],[-68,96],[-15,9],[-3,3],[-1,9],[-1,9],[-2,7],[-4,4],[-95,18],[-18,-8],[-59,-77],[-59,-13],[1,-19],[-6,-7],[-45,-11],[5,0],[-8,-11],[6,-15],[7,-41],[5,-16],[-1,-10],[0,-3],[0,-3],[1,-8],[-9,-33],[-33,-64],[-11,-32],[-5,-4],[-22,0],[2,13],[-3,3],[-4,7],[-3,11],[-2,14],[20,47],[-2,13],[1,2],[1,2],[0,8],[-6,8],[-28,3],[-14,-10],[-5,-7],[-4,-4],[-18,10],[10,39],[31,31],[6,56],[4,42],[7,32],[4,29],[-4,36],[-3,10],[-22,11],[-8,10],[-4,6],[-7,5],[-4,6],[-3,11],[-2,12],[-2,10],[-9,8],[-11,31],[-6,4],[-14,1],[-5,6]],[[1376,0],[-2,3],[-8,28],[-4,8],[-6,2],[-7,-6],[-5,-15],[-2,-20]],[[2951,618],[8,69],[1,5],[-4,33],[-6,35],[-8,7],[-10,1],[-11,17],[4,18],[5,8],[6,3],[5,7],[-5,12],[-19,12],[-6,8],[-14,32],[-59,67],[-9,20],[-7,42],[-16,8],[-76,-19],[-5,5],[1,14],[2,17],[0,18],[0,33],[11,19],[9,27],[-5,52],[-11,36],[-92,161],[-92,162],[-37,33],[-16,25],[-95,24],[-62,-51],[-6,-16],[2,-23],[14,-38],[54,-68],[10,-24],[11,-39],[7,-43],[-5,-36],[7,-13],[-2,-14],[-13,-21],[7,-11],[31,-17],[16,-17],[7,-4],[4,-7],[-2,-16],[-8,-24],[-5,-9],[-6,-5],[-5,-10],[-4,-24],[31,-23],[7,-21],[-10,-28],[17,-25],[5,-12],[-8,-11],[-2,-9],[-2,-16],[22,1],[11,-6],[7,-19],[3,2],[-3,-9],[-5,-17],[-3,-30],[0,-13],[3,-18],[10,-30],[17,-17],[30,-13],[0,-12],[-12,2],[-5,-3],[-5,-10],[28,-27],[14,-23],[13,-35],[-6,-12],[-8,-3],[-8,4],[-6,11],[0,-12],[13,-13],[29,6],[13,-17],[-2,-12],[-6,-36],[15,-24],[15,3],[30,21],[35,-6],[17,-12],[15,-25],[22,-48],[11,-19],[13,-10],[13,2],[39,46],[49,6],[23,19],[20,72]],[[3660,1580],[0,-12],[57,-24],[42,-42],[140,-28],[62,38],[23,52],[20,-3],[21,-15],[17,2],[21,15],[33,-9]],[[4096,1765],[-144,80],[-19,26],[-10,2],[-29,-19],[-108,-6],[-108,-6],[-18,-13],[-17,-29],[-13,-51],[11,-29],[0,-18],[-6,-25],[6,-22],[11,-21],[12,-14],[8,-4],[-1,-19],[-3,-12],[-4,-6],[-4,1]],[[1055,2167],[-35,41],[-111,4],[-129,4],[-129,4],[-40,-52],[-14,-10],[-44,8],[-6,10],[-1,11],[0,10],[0,8],[-3,3],[-72,-26],[-26,14],[-42,-32],[-49,-9],[-41,-33],[-18,-27],[-8,-6],[-12,-4],[-11,4],[-5,15],[-4,24],[-9,2],[-46,-55],[-38,5],[-42,-29],[-20,3],[-17,10],[-83,-52]],[[0,955],[2,-7],[9,-17],[131,-79],[43,7],[39,41],[176,89],[44,49],[11,2],[21,-20],[114,-15],[19,22],[10,32],[4,4],[15,-1],[14,14],[50,4],[123,86],[26,48],[18,20],[6,21],[4,29],[-2,19],[-6,9],[-19,9],[-1,14],[5,16],[9,13],[17,14],[8,13],[5,21],[-4,2],[-3,4],[-4,8],[-4,10],[2,6],[2,13],[1,5],[-10,21],[-5,16],[-2,23],[1,4],[9,44],[-1,7],[-2,17],[6,10],[-3,21],[-7,21],[-8,9],[-78,6],[-23,-20],[-114,-13],[-12,33],[-9,33],[-37,31],[-9,56],[23,30],[112,24],[112,25],[37,41],[44,18],[79,32],[36,38],[4,10],[6,35],[21,62],[8,38],[-8,35]],[[3495,2520],[-45,-8],[-15,-15],[-66,-116],[-9,-28],[-5,-32],[6,-39],[13,-20],[53,-10],[15,9],[64,109],[26,19],[6,12],[2,14],[-1,10],[-1,12],[0,17],[-6,34],[-13,17],[-24,15]],[[1180,2845],[-7,11],[1,10],[3,10],[3,11],[-3,18],[-6,3],[-7,-1],[-6,2],[-5,12],[0,11],[1,14],[-2,20],[-4,12],[-22,42],[-14,16],[-7,2],[-5,5],[-5,25],[-4,6],[-47,-5],[-14,18],[3,12],[-35,42],[-20,6],[-10,9],[-6,18],[1,33],[-12,18],[-26,4],[-16,16],[-10,9],[-39,12],[-36,51],[-47,28],[-11,17],[-11,22],[-105,-23],[-3,2],[-4,5],[-3,1],[-7,-14],[-12,-10],[-18,-24],[-49,-18],[-56,-50],[-12,13],[-40,-51],[-7,-15],[-7,-23],[-45,-7],[22,-36],[-16,-30],[-144,-102],[-40,21],[-40,-16],[-42,9],[-74,-30],[-50,-49],[-3,-1]],[[0,2650],[13,6],[105,45],[54,-45],[17,-3],[4,-8],[21,-17],[8,-12],[5,-36],[2,-11],[13,-30],[21,-27],[125,8],[5,3],[4,10],[2,17],[-2,15],[-6,5],[-2,10],[7,37],[49,-14],[14,26],[-7,6],[-7,14],[-8,19],[-6,20],[10,17],[26,3],[23,16],[47,-28],[29,-43],[21,-8],[9,-12],[0,-28],[8,-14],[93,-25],[92,-26],[116,76],[4,0],[16,0],[32,-47],[18,-13],[114,38],[31,-14],[6,2],[0,6],[0,8],[1,9],[24,56],[5,33],[-11,31],[3,10],[12,24],[-7,31],[6,24],[21,31]],[[2510,3977],[3,-8],[0,-11],[0,-14],[2,-14],[-5,-38],[5,-31],[11,-21],[58,-22],[164,72],[75,-27],[14,-14],[11,-35],[-31,-66],[-20,-58],[-5,-50],[-5,-4],[-4,-10],[-3,-12],[-3,-11],[-50,-80],[-8,-34],[10,-33],[18,-16],[44,3],[18,16],[35,61],[40,35],[9,21],[9,31],[16,74],[11,38],[14,19],[17,2],[26,-18],[4,14],[2,22],[4,20],[9,12],[61,-19],[8,-11],[2,-17],[1,-15],[2,-16],[6,-15],[62,-52],[9,-17],[0,-24],[-9,-16],[-107,-102],[-27,-63],[13,-21],[32,1],[8,-16],[-5,0],[16,-19],[21,0],[20,16],[15,27],[-1,8],[-2,12],[-2,5],[7,25],[10,-1],[18,-24],[11,2],[11,12],[11,5],[10,-19],[-24,-38],[-13,-29],[-8,-30],[23,11],[41,44],[10,2],[8,-9],[-5,-20],[-2,-5],[11,-13],[10,24],[10,33],[10,17],[27,-8],[15,-16],[9,-46],[12,-2],[3,-18],[-3,-18],[-8,-9],[-40,-2],[-13,-7],[-13,-18],[4,-19],[13,-42],[-156,-5],[-25,-24],[-23,-43],[12,-19],[104,5],[104,4],[14,-14],[-6,-14],[-7,-9],[6,0],[5,-4],[5,-8],[5,-13],[-10,-19],[-5,-2],[-3,10],[-18,-19],[-6,-12],[5,-16],[6,-9],[4,-8],[0,-13],[-5,-27],[-11,-31],[-16,-11],[-16,3],[-50,39],[-115,-6],[-110,55],[-110,55],[-64,-10],[-23,-36],[-34,-31],[-16,-27],[-7,-20],[-3,-14],[1,-17],[15,-86],[4,-13],[44,-74],[18,-62],[8,-13],[9,-6],[8,-1],[8,-6],[20,-42],[76,-85],[95,-28],[94,-28],[16,18],[-4,38],[12,3],[50,59],[31,20],[59,6],[20,17],[23,4],[16,20],[108,29],[107,28],[28,-29],[-47,-62],[-8,-29],[6,-43],[13,-24],[63,-52],[18,-3],[139,80],[121,-44],[121,-45],[75,-87],[10,-5],[5,3]],[[4096,3742],[-20,13],[-15,33],[-16,12],[-68,96],[-15,9],[-3,3],[-1,9],[-1,9],[-2,7],[-4,4],[-95,18],[-18,-8],[-59,-77],[-59,-13],[1,-19],[-6,-7],[-45,-11],[5,0],[-8,-11],[6,-15],[7,-41],[5,-16],[-1,-10],[0,-3],[0,-3],[1,-8],[-9,-33],[-33,-64],[-11,-32],[-5,-4],[-22,0],[2,13],[-3,3],[-4,7],[-3,11],[-2,14],[20,47],[-2,13],[1,2],[1,2],[0,8],[-6,8],[-28,3],[-14,-10],[-5,-7],[-4,-4],[-18,10],[10,39],[31,31],[6,56],[4,42],[7,32],[4,29],[-4,36],[-3,10],[-22,11],[-8,10],[-4,6],[-7,5],[-4,6],[-3,11],[-2,12],[-2,10],[-9,8],[-11,31],[-6,4],[-14,1],[-5,6]],[[2504,4096],[-2,-11],[1,-21],[7,-61],[2,-14],[-2,-12]],[[0,2650],[0,286],[3,1],[50,49],[74,30],[42,-9],[40,16],[40,-21],[144,102],[16,30],[-22,36],[45,7],[7,23],[7,15],[40,51],[12,-13],[56,50],[49,18],[18,24],[12,10],[7,14],[3,-1],[4,-5],[3,-2],[105,23],[11,-22],[11,-17],[47,-28],[36,-51],[39,-12],[10,-9],[16,-16],[26,-4],[12,-18],[-1,-33],[6,-18],[10,-9],[20,-6],[35,-42],[-3,-12],[14,-18],[47,5],[4,-6],[5,-25],[5,-5],[7,-2],[14,-16],[22,-42],[4,-12],[2,-20],[-1,-14],[0,-11],[5,-12],[6,-2],[7,1],[6,-3],[3,-18],[-3,-11],[-3,-10],[-1,-10],[7,-11],[-21,-31],[-6,-24],[7,-31],[-12,-24],[-3,-10],[11,-31],[-5,-33],[-24,-56],[-1,-9],[0,-8],[0,-6],[-6,-2],[-31,14],[-114,-38],[-18,13],[-32,47],[-16,0],[-4,0],[-116,-76],[-92,26],[-93,25],[-8,14],[0,28],[-9,12],[-21,8],[-29,43],[-47,28],[-23,-16],[-26,-3],[-10,-17],[6,-20],[8,-19],[7,-14],[7,-6],[-14,-26],[-49,14],[-7,-37],[2,-10],[6,-5],[2,-15],[-2,-17],[-4,-10],[-5,-3],[-125,-8],[-21,27],[-13,30],[-2,11],[-5,36],[-8,12],[-21,17],[-4,8],[-17,3],[-54,45],[-105,-45],[-13,-6]],[[2951,618],[-20,-72],[-23,-19],[-49,-6],[-39,-46],[-13,-2],[-13,10],[-11,19],[-22,48],[-15,25],[-17,12],[-35,6],[-30,-21],[-15,-3],[-15,24],[6,36],[2,12],[-13,17],[-29,-6],[-13,13],[0,12],[6,-11],[8,-4],[8,3],[6,12],[-13,35],[-14,23],[-28,27],[5,10],[5,3],[12,-2],[0,12],[-30,13],[-17,17],[-10,30],[-3,18],[0,13],[3,30],[5,17],[3,9],[-3,-2],[-7,19],[-11,6],[-22,-1],[2,16],[2,9],[8,11],[-5,12],[-17,25],[10,28],[-7,21],[-31,23],[4,24],[5,10],[6,5],[5,9],[8,24],[2,16],[-4,7],[-7,4],[-16,17],[-31,17],[-7,11],[13,21],[2,14],[-7,13],[5,36],[-7,43],[-11,39],[-10,24],[-54,68],[-14,38],[-2,23],[6,16],[62,51],[95,-24],[16,-25],[37,-33],[92,-162],[92,-161],[11,-36],[5,-52],[-9,-27],[-11,-19],[0,-33],[0,-18],[-2,-17],[-1,-14],[5,-5],[76,19],[16,-8],[7,-42],[9,-20],[59,-67],[14,-32],[6,-8],[19,-12],[5,-12],[-5,-7],[-6,-3],[-5,-8],[-4,-18],[11,-17],[10,-1],[8,-7],[6,-35],[4,-33],[-1,-5],[-8,-69]],[[4096,3742],[0,-1376],[-5,-3],[-10,5],[-75,87],[-121,45],[-121,44],[-139,-80],[-18,3],[-63,52],[-13,24],[-6,43],[8,29],[47,62],[-28,29],[-107,-28],[-108,-29],[-16,-20],[-23,-4],[-20,-17],[-59,-6],[-31,-20],[-50,-59],[-12,-3],[4,-38],[-16,-18],[-94,28],[-95,28],[-76,85],[-20,42],[-8,6],[-8,1],[-9,6],[-8,13],[-18,62],[-44,74],[-4,13],[-15,86],[-1,17],[3,14],[7,20],[16,27],[34,31],[23,36],[64,10],[110,-55],[110,-55],[115,6],[50,-39],[16,-3],[16,11],[11,31],[5,27],[0,13],[-4,8],[-6,9],[-5,16],[6,12],[18,19],[3,-10],[5,2],[10,19],[-5,13],[-5,8],[-5,4],[-6,0],[7,9],[6,14],[-14,14],[-104,-4],[-104,-5],[-12,19],[23,43],[25,24],[156,5],[-13,42],[-4,19],[13,18],[13,7],[40,2],[8,9],[3,18],[-3,18],[-12,2],[-9,46],[-15,16],[-27,8],[-10,-17],[-10,-33],[-10,-24],[-11,13],[2,5],[5,20],[-8,9],[-10,-2],[-41,-44],[-23,-11],[8,30],[13,29],[24,38],[-10,19],[-11,-5],[-11,-12],[-11,-2],[-18,24],[-10,1],[-7,-25],[2,-5],[2,-12],[1,-8],[-15,-27],[-20,-16],[-21,0],[-16,19],[5,0],[-8,16],[-32,-1],[-13,21],[27,63],[107,102],[9,16],[0,24],[-9,17],[-62,52],[-6,15],[-2,16],[-1,15],[-2,17],[-8,11],[-61,19],[-9,-12],[-4,-20],[-2,-22],[-4,-14],[-26,18],[-17,-2],[-14,-19],[-11,-38],[-16,-74],[-9,-31],[-9,-21],[-40,-35],[-35,-61],[-18,-16],[-44,-3],[-18,16],[-10,33],[8,34],[50,80],[3,11],[3,12],[4,10],[5,4],[5,50],[20,58],[31,66],[-11,35],[-14,14],[-75,27],[-164,-72],[-58,22],[-11,21],[-5,31],[5,38],[-2,14],[0,14],[0,11],[-3,8],[2,12],[-2,14],[-7,61],[-1,21],[2,11],[994,0],[5,-6],[14,-1],[6,-4],[11,-31],[9,-8],[2,-10],[2,-12],[3,-11],[4,-6],[7,-5],[4,-6],[8,-10],[22,-11],[3,-10],[4,-36],[-4,-29],[-7,-32],[-4,-42],[-6,-56],[-31,-31],[-10,-39],[18,-10],[4,4],[5,7],[14,10],[28,-3],[6,-8],[0,-8],[-1,-2],[-1,-2],[2,-13],[-20,-47],[2,-14],[3,-11],[4,-7],[3,-3],[-2,-13],[22,0],[5,4],[11,32],[33,64],[9,33],[-1,8],[0,3],[0,3],[1,10],[-5,16],[-7,41],[-6,15],[8,11],[-5,0],[45,11],[6,7],[-1,19],[59,13],[59,77],[18,8],[95,-18],[4,-4],[2,-7],[1,-9],[1,-9],[3,-3],[15,-9],[68,-96],[16,-12],[15,-33],[20,-13]],[[0,955],[0,1057],[83,52],[17,-10],[20,-3],[42,29],[38,-5],[46,55],[9,-2],[4,-24],[5,-15],[11,-4],[12,4],[8,6],[18,27],[41,33],[49,9],[42,32],[26,-14],[72,26],[3,-3],[0,-8],[0,-10],[1,-11],[6,-10],[44,-8],[14,10],[40,52],[129,-4],[129,-4],[111,-4],[35,-41],[8,-35],[-8,-38],[-21,-62],[-6,-35],[-4,-10],[-36,-38],[-79,-32],[-44,-18],[-37,-41],[-112,-25],[-112,-24],[-23,-30],[9,-56],[37,-31],[9,-33],[12,-33],[114,13],[23,20],[78,-6],[8,-9],[7,-21],[3,-21],[-6,-10],[2,-17],[1,-7],[-9,-44],[-1,-4],[2,-23],[5,-16],[10,-21],[-1,-5],[-2,-13],[-2,-6],[4,-10],[4,-8],[3,-4],[4,-2],[-5,-21],[-8,-13],[-17,-14],[-9,-13],[-5,-16],[1,-14],[19,-9],[6,-9],[2,-19],[-4,-29],[-6,-21],[-18,-20],[-26,-48],[-123,-86],[-50,-4],[-14,-14],[-15,1],[-4,-4],[-10,-32],[-19,-22],[-114,15],[-21,20],[-11,-2],[-44,-49],[-176,-89],[-39,-41],[-43,-7],[-131,79],[-9,17],[-2,7]],[[4096,1765],[0,-211],[-33,9],[-21,-15],[-17,-2],[-21,15],[-20,3],[-23,-52],[-62,-38],[-140,28],[-42,42],[-57,24],[0,12],[4,-1],[4,6],[3,12],[1,19],[-8,4],[-12,14],[-11,21],[-6,22],[6,25],[0,18],[-11,29],[13,51],[17,29],[18,13],[108,6],[108,6],[29,19],[10,-2],[19,-26],[144,-80]],[[3495,2520],[24,-15],[13,-17],[6,-34],[0,-17],[1,-12],[1,-10],[-2,-14],[-6,-12],[-26,-19],[-64,-109],[-15,-9],[-53,10],[-13,20],[-6,39],[5,32],[9,28],[66,116],[15,15],[45,8]],[[1376,0],[-34,0],[2,20],[5,15],[7,6],[6,-2],[4,-8],[8,-28],[2,-3]]]}