{"objects":{"water":{"type":"GeometryCollection","geometries":[{"type":"MultiPolygon","properties":{"source":"naturalearthdata.com","kind":"ocean","area":989871000000000,"sort_rank":200,"min_zoom":0,"id":1},"arcs":[[[7],[8],[9],[10],[11],[12]],[[13]],[[14]]]},{"type":"LineString","properties":{"source":"naturalearthdata.com","kind":"ocean","sort_rank":205,"boundary":true,"min_zoom":0,"id":977},"arcs":[15]},{"type":"LineString","properties":{"source":"naturalearthdata.com","kind":"ocean","sort_rank":205,"boundary":true,"min_zoom":0,"id":981},"arcs":[16]},{"type":"LineString","properties":{"source":"naturalearthdata.com","kind":"ocean","sort_rank":205,"boundary":true,"min_zoom":0,"id":983},"arcs":[17]},{"type":"LineString","properties":{"source":"naturalearthdata.com","kind":"ocean","sort_rank":205,"boundary":true,"min_zoom":0,"id":987},"arcs":[18]},{"type":"LineString","properties":{"source":"naturalearthdata.com","kind":"ocean","sort_rank":205,"boundary":true,"min_zoom":0,"id":990},"arcs":[19]},{"type":"MultiLineString","properties":{"source":"naturalearthdata.com","kind":"ocean","sort_rank":205,"boundary":true,"min_zoom":0,"id":991},"arcs":[[20],[21]]},{"type":"LineString","properties":{"source":"naturalearthdata.com","kind":"ocean","sort_rank":205,"boundary":true,"min_zoom":0,"id":992},"arcs":[22]},{"type":"MultiLineString","properties":{"source":"naturalearthdata.com","kind":"ocean","sort_rank":205,"boundary":true,"min_zoom":0,"id":994},"arcs":[[23],[24],[25],[26],[27]]}]},"buildings":{"type":"GeometryCollection","geometries":[]},"places":{"type":"GeometryCollection","geometries":[]},"transit":{"type":"GeometryCollection","geometries":[]},"pois":{"type":"GeometryCollection","geometries":[]},"boundaries":{"type":"GeometryCollection","geometries":[{"type":"MultiLineString","properties":{"sort_rank":256,"kind_detail":"4","kind":"region","min_zoom":2.0,"source":"naturalearthdata.com"},"arcs":[[0],[1]]},{"type":"MultiLineString","properties":{"sort_rank":256,"kind_detail":"4","kind":"region","min_zoom":2.0,"source":"naturalearthdata.com"},"arcs":[[2],[3]]},{"type":"LineString","properties":{"sort_rank":256,"kind_detail":"4","kind":"region","min_zoom":2.0,"source":"naturalearthdata.com"},"arcs":[4]},{"type":"LineString","properties":{"sort_rank":256,"kind_detail":"4","kind":"region","min_zoom":2.0,"source":"naturalearthdata.com"},"arcs":[5]},{"type":"LineString","properties":{"sort_rank":256,"kind_detail":"4","kind":"region","min_zoom":2.0,"source":"naturalearthdata.com"},"arcs":[6]}]},"roads":{"type":"GeometryCollection","geometries":[]},"earth":{"type":"GeometryCollection","geometries":[{"type":"MultiPolygon","properties":{"sort_rank":10,"source":"naturalearthdata.com","kind":"earth","min_zoom":2.0,"area":208531522065},"arcs":[[[28]],[[29]],[[30]],[[31]],[[32]]]},{"type":"MultiPolygon","properties":{"sort_rank":10,"source":"naturalearthdata.com","min_zoom":3.0,"kind":"earth","area":85393833487},"arcs":[[[33]]]},{"type":"MultiPolygon","properties":{"sort_rank":10,"source":"naturalearthdata.com","min_zoom":0,"kind":"earth","area":13131386715102},"arcs":[[[34]],[[35]],[[36]],[[37]]]}]},"landuse":{"type":"GeometryCollection","geometries":[{"type":"MultiPolygon","properties":{"source":"openstreetmap.org","kind":"park","area":253370693600,"tier":2,"min_zoom":4.0,"id":-7025660,"sort_rank":24},"arcs":[[[38]]]}]}},"type":"Topology","transform":{"translate":[-112.5,74.0195433115],"scale":[0.002746582,0.0006887874]},"arcs":[[[909,2214],[0,484]],[[909,0],[0,1209]],[[909,3581],[0,515]],[[909,2748],[0,456]],[[909,3204],[0,26],[0,320],[0,31]],[[909,2699],[0,48]],[[909,1209],[0,1],[0,98],[0,321],[0,320],[0,265]],[[4096,2279],[0,-2279],[-4096,0],[0,572],[23,0],[18,15],[29,9],[25,27],[106,38],[106,38],[30,45],[59,55],[33,-13],[6,4],[19,35],[9,9],[26,0],[30,31],[27,1],[8,9],[4,13],[3,13],[3,9],[33,7],[9,7],[22,40],[58,32],[10,29],[-17,28],[-9,21],[-4,20],[2,26],[7,5],[16,-12],[94,15],[11,16],[-9,0],[-26,19],[0,10],[9,9],[5,2],[5,-1],[-1,4],[-2,2],[-4,3],[25,17],[56,-35],[24,18],[2,-9],[-2,-10],[7,-6],[6,8],[12,28],[6,6],[2,3],[42,24],[109,-19],[18,13],[39,48],[13,5],[-5,8],[-2,1],[3,20],[8,20],[8,14],[103,61],[30,4],[-15,21],[35,0],[-3,9],[-2,7],[-4,3],[-3,0],[7,33],[3,7],[7,11],[36,25],[63,-24],[20,-24],[18,-37],[13,-50],[-107,19],[0,-9],[86,-36],[11,-28],[6,-6],[10,-4],[29,-25],[131,29],[31,-11],[10,11],[-7,9],[-14,4],[-6,7],[19,16],[7,15],[-7,24],[-9,9],[-3,8],[3,18],[5,11],[8,1],[8,-5],[6,-7],[-2,-5],[-2,-2],[-4,-3],[31,11],[29,30],[11,27],[-4,18],[-7,15],[3,18],[-6,9],[-2,2],[6,9],[10,-2],[10,-12],[8,-23],[4,-37],[-3,-16],[-10,-11],[-2,-14],[1,-9],[11,-25],[2,-24],[63,-57],[72,-14],[30,-20],[83,6],[79,89],[1,3],[1,5],[1,6],[2,6],[5,6],[137,39],[136,39],[4,5],[-2,19],[-7,13],[-15,8],[-5,7],[2,17],[5,18],[4,11],[14,14],[43,17],[3,11],[-2,20],[5,12],[13,12],[-32,34],[-4,11],[16,65],[4,10],[6,7],[20,42],[28,20],[7,20],[-2,15],[6,7],[9,7],[7,11],[3,19],[-1,14],[-4,10],[-6,12],[-9,25],[0,14],[17,18],[6,12],[13,31],[6,5],[-10,23],[-35,4],[-13,12],[8,11],[16,9],[9,1],[-5,13],[-2,4],[-3,2],[0,11],[36,33],[18,1],[8,5],[9,16],[4,23],[2,26],[5,25],[6,12],[13,10],[6,17],[2,15],[-1,9],[-1,9],[0,12],[-3,28],[-6,27],[-8,20],[-8,10],[15,19],[-13,53],[-2,28],[7,29],[-8,53],[-17,47],[-34,68],[-56,77],[-106,52],[-105,52],[-97,0],[-9,-5],[-9,-11],[-17,-40],[-6,-12],[-45,-48],[-12,-24],[-6,-35],[3,-30],[5,-26],[-1,-24],[-7,-40],[2,-30],[9,-18],[72,-16],[18,-20],[-51,-7],[-23,-15],[-24,-28],[8,-9],[-7,-20],[-3,-21],[-3,-24],[-4,-24],[2,0],[-1,-22],[4,-10],[5,-7],[2,-12],[-2,-21],[-6,2],[-7,14],[-5,15],[-6,23],[-6,35],[-2,36],[7,25],[-27,22],[-4,9],[4,16],[8,9],[10,4],[6,0],[-14,16],[-15,4],[-15,11],[-11,39],[2,8],[2,23],[1,9],[5,11],[13,17],[-11,15],[-27,-1],[-24,25],[-30,-4],[-25,8],[-129,-48],[-12,-11],[-6,-12],[-18,-51],[-17,-35],[-20,-29],[-21,-14],[-17,9],[3,10],[-8,16],[-3,3],[18,54],[11,22],[11,4],[0,6],[-1,4],[0,5],[-1,5],[17,37],[40,2],[18,21],[-5,7],[-11,5],[-4,8],[32,44],[10,6],[10,11],[3,24],[-3,24],[-15,14],[-4,8],[-6,18],[-5,8],[-46,39],[-11,3],[-55,0],[-45,-29],[-70,9],[-52,-20],[6,22],[12,23],[14,17],[10,7],[-7,12],[-14,2],[-6,7],[7,13],[9,13],[6,17],[-5,26],[12,35],[15,18],[79,34],[11,23],[-46,19],[-6,21],[7,20],[27,-12],[9,21],[-5,0],[0,10],[17,0],[0,10],[-52,70],[4,10],[4,6],[4,3],[5,1],[-5,9],[-12,-1],[-5,2],[-3,5],[-6,18],[-21,36],[-8,8],[-47,7],[-11,10],[-11,3],[-11,-7],[-10,-1],[-10,19],[11,29],[25,9],[12,13],[-9,16],[-22,3],[-8,16],[2,14],[7,15],[15,17],[-8,9],[-20,-8],[-10,8],[9,15],[21,12],[5,12],[-2,21],[-8,12],[-17,7],[-7,6],[-13,27],[-9,7],[-1,8],[-15,51],[20,14],[10,1],[19,-15],[7,4],[14,27],[26,32],[9,24],[-3,43],[-12,36],[-17,14],[-51,-1],[-7,7],[1,18],[7,23],[7,22],[-7,15],[-19,23],[2720,0],[0,-282],[-67,-7],[-35,-20],[-25,-37],[-25,-9],[-7,-11],[127,-40],[32,15],[0,-270],[-21,36],[-5,6],[-18,8],[-10,18],[-5,8],[-145,30],[-13,-5],[-35,-43],[-10,-7],[-13,-3],[-11,-8],[-8,-24],[8,-18],[20,-10],[9,-11],[-11,-20],[-28,0],[-13,-10],[18,-28],[-1,-10],[-12,-14],[-31,-17],[-9,-10],[28,4],[15,-5],[7,-20],[-3,-31],[-12,-11],[-15,-4],[-10,-14],[24,-26],[92,13],[15,-13],[8,-3],[146,50],[-58,-62],[-72,-38],[-5,-9],[-12,-31],[-7,-11],[-14,-14],[-7,-10],[-8,-17],[-6,-22],[-2,-27],[5,-33],[19,-55],[23,-35],[26,-19],[107,21],[26,25],[15,-1],[-4,-13],[-5,-10],[-5,-6],[-5,-2],[-5,-4],[-11,-31],[-10,-12],[-22,-11],[-30,-35],[-8,-15],[2,-16],[6,-10],[6,-14],[3,-18],[-2,-22],[15,-18],[34,7],[16,-15],[8,-22],[8,-27],[-1,-9],[-8,-31],[-3,-16],[40,-1],[0,-39],[-3,-6],[-6,-3],[-51,17],[-11,10],[-11,14],[3,10],[1,8],[0,9],[-2,12],[2,8],[1,5],[1,4],[2,3],[-14,0],[-31,20],[-22,26],[-26,14],[-16,18],[-5,2],[-6,7],[-8,31],[-5,11],[-5,4],[-157,-53],[-7,-6],[-12,-28],[-7,-6],[-3,-7],[-7,-27],[-4,-12],[3,-13],[7,-21],[7,-5],[76,23],[10,-18],[-48,-42],[-5,-18],[11,-12],[32,0],[10,-27],[-3,-1],[-7,-10],[9,-11],[10,2],[11,7],[10,2],[0,-10],[-24,-10],[-12,1],[-51,38],[-100,7],[-15,-5],[-8,-21],[5,1],[5,-3],[5,-6],[5,-10],[-8,-11],[-8,-3],[-17,3],[-6,-4],[-12,-13],[-6,-2],[7,-41],[-3,-3],[-4,-4],[-3,-6],[-3,-7],[7,-9],[14,-4],[4,-16],[-37,1],[-12,9],[-12,16],[-7,5],[-8,-5],[-10,-13],[-4,-11],[3,-11],[10,-15],[33,-20],[10,-17],[-14,-26],[-4,-16],[6,-7],[19,0],[8,-5],[7,-14],[0,-34],[12,-8],[85,61],[70,20],[53,-9],[112,43],[111,44],[16,-2],[13,-17],[-8,-9],[12,-15],[26,19],[14,-3]],[[3226,1713],[-8,6],[-2,2],[0,3],[0,13],[0,3],[-20,16],[-9,15],[1,70],[-25,72],[3,26],[-6,17],[-27,13],[-20,40],[-7,9],[-38,10],[-21,28],[-99,-4],[-29,-26],[-71,-100],[-9,-19],[-7,-27],[2,-14],[-4,-13],[-9,-9],[-7,-4],[0,-11],[7,-9],[8,-7],[8,-4],[7,1],[-5,-7],[-10,-7],[-5,-6],[-2,-5],[0,-6],[0,-14],[-2,-3],[-6,-6],[-3,-5],[-7,-44],[-6,-19],[-20,-15],[-14,-20],[-8,-25],[9,-24],[43,-38],[30,-42],[40,-29],[27,-7],[19,-14],[47,-3],[30,-21],[10,1],[24,27],[108,39],[38,38],[44,66],[14,28],[7,32],[-5,6],[-15,26]],[[3505,2536],[28,11],[-3,-11],[6,-9],[7,-3],[15,3],[-1,26],[8,0],[15,-17],[23,9],[36,39],[6,12],[5,20],[8,55],[4,15],[19,30],[108,36],[38,32],[1,6],[0,5],[0,5],[2,5],[-7,6],[-31,4],[-2,6],[7,14],[-52,30],[-70,-35],[-31,1],[-101,-46],[-101,-46],[-12,-12],[-11,-17],[-9,-24],[-1,-27],[9,-10],[13,-4],[9,-10],[-49,4],[-25,-11],[-20,-33],[22,0],[-8,-21],[-42,-38],[22,-22],[157,0],[11,13],[-3,9]],[[3615,2865],[78,29],[11,14],[3,31],[-3,31],[-9,15],[-34,21],[-106,-31],[-107,-31],[-30,4],[-10,-4],[-24,-34],[-10,-5],[-31,3],[-65,-58],[-83,-6],[-35,-44],[-57,-6],[4,-9],[9,-8],[4,-7],[6,-35],[9,-7],[32,7],[40,-21],[136,50],[136,50],[136,51]],[[3163,2924],[105,10],[105,10],[-3,0],[148,48],[56,53],[26,39],[-4,15],[-1,4],[35,0],[-5,12],[-15,28],[16,51],[0,17],[-31,39],[-6,19],[-4,34],[-27,31],[-131,-28],[-131,-27],[-13,-9],[-5,-2],[-10,3],[-24,-20],[-43,5],[-31,-10],[-23,2],[-20,-18],[-62,-21],[-10,-11],[-7,-4],[-27,9],[-40,-19],[-5,-8],[-6,-35],[-6,-8],[-21,-1],[-10,-7],[-8,-17],[-4,-19],[0,-10],[9,-21],[15,-53],[6,-11],[10,-8],[105,-32],[-3,11],[8,8],[70,-19],[-5,-8],[-21,-12],[48,-10]],[[2950,3556],[4,-39],[-6,-31],[-11,-22],[-11,-13],[9,-8],[18,3],[8,-5],[4,-5],[3,-7],[5,-17],[-4,-18],[-16,-19],[-7,-13],[11,-15],[156,2],[25,-14],[99,11],[99,11],[115,122],[4,11],[-4,39],[-18,21],[-54,9],[-5,4],[-4,7],[-1,7],[0,6],[-1,7],[2,-1],[0,6],[0,9],[-2,7],[-5,3],[-15,-13],[-30,-5],[-70,44],[-5,10],[1,19],[3,12],[9,19],[-30,3],[-14,10],[-33,57],[-10,10],[-11,-1],[-10,-18],[-11,-47],[-22,-1],[-29,-22],[-12,9],[44,78],[4,27],[-15,31],[-21,13],[-120,-11],[-109,-89],[-10,1],[2,-11],[4,-8],[8,-11],[-10,-39],[9,-11],[21,-11],[8,-18],[-2,-3],[-3,-4],[-2,-3],[-3,0],[4,-17],[3,-8],[3,-5],[-3,-11],[8,-10],[9,-3],[10,4],[7,14],[6,4],[9,-11],[9,-17],[6,-15]],[[0,3142],[0,954],[1342,0],[0,-3],[-2,-6],[-30,-27],[-12,2],[-26,16],[-65,-9],[3,0],[-8,-3],[-20,-27],[-18,-10],[-8,-8],[-9,-23],[2,-4],[2,-11],[1,-5],[-38,-29],[-20,-24],[-4,-36],[-10,-13],[-7,-21],[-3,-29],[2,-36],[-9,0],[-30,-20],[1,-9],[2,-22],[1,-9],[-47,11],[3,-18],[1,-6],[4,-7],[-7,-19],[-9,-15],[-9,-10],[-8,-6],[0,-10],[42,3],[11,-12],[-25,-40],[-13,-12],[-19,10],[-7,-4],[-14,-14],[-31,0],[-1,0],[-16,-14],[-23,-33],[-76,-36],[-15,3],[2,0],[-2,1],[-7,-1],[1,-16],[-1,-14],[-2,-12],[-3,-8],[4,-13],[6,-12],[2,-11],[-5,-12],[3,-14],[5,-7],[5,-5],[5,-6],[-6,-17],[-11,-22],[-3,-20],[86,-36],[52,-72],[28,-39],[6,-4],[6,1],[4,11],[-2,3],[-4,26],[-2,10],[13,11],[13,2],[50,-24],[4,-8],[-1,-12],[-4,-6],[-6,-2],[-4,0],[10,-15],[57,-8],[5,-7],[3,-9],[0,-9],[0,-7],[0,-5],[11,-17],[25,-14],[19,-24],[9,-6],[8,-9],[5,-19],[-6,-7],[-21,-14],[0,-9],[0,-4],[-3,-16],[11,-1],[21,-16],[11,-3],[-9,-22],[-37,3],[-14,-11],[4,-3],[13,-16],[-15,-24],[-39,-15],[-17,-14],[-25,-39],[-11,-13],[-106,-42],[-10,-11],[-19,-22],[19,-26],[19,-26],[21,-12],[20,27],[12,-11],[6,1],[16,22],[6,4],[10,-2],[10,-7],[6,-9],[-9,-14],[-8,-17],[6,-9],[15,0],[6,-11],[-6,-12],[-13,-12],[-3,-16],[104,-9],[-16,-10],[-6,0],[21,-22],[111,-42],[15,-16],[-1,-6],[-1,-16],[0,-7],[20,3],[7,-3],[4,-5],[9,-16],[36,-6],[11,-13],[-8,-11],[-9,-3],[-18,3],[-3,-1],[-1,-3],[-1,-4],[11,-18],[26,-62],[-3,-15],[-13,-18],[-6,-17],[3,-13],[3,-10],[5,-6],[4,-1],[0,-11],[-34,13],[-17,-2],[-14,-20],[8,-9],[22,-8],[9,-18],[9,-50],[2,-5],[-5,-19],[-10,-2],[-32,31],[-178,33],[-178,33],[-24,5],[-17,-11],[-15,10],[-22,-17],[-73,6],[-2,6],[0,10],[-1,8],[-2,5],[-30,20],[-124,-23],[-58,-38],[-71,-9],[-7,-4],[-8,-1],[-9,8],[-1,4],[-1,6],[0,5],[0,4],[-6,7],[-9,4],[5,17],[2,7],[3,5],[0,9],[-15,1],[-6,7],[-12,42],[-4,9],[-5,2],[10,39],[2,15],[-2,12],[-3,11],[-4,8],[-3,5],[4,24],[8,15],[6,15],[-4,25],[-6,10],[-16,-5],[-6,9],[-1,12],[1,11],[3,7],[3,5],[-10,33],[-50,37],[8,7],[30,-7],[6,6],[7,14],[4,13],[-5,7],[-149,-19],[-7,-5],[-15,-22],[-7,-5],[-32,21],[5,8],[10,5],[5,6],[-5,0],[-10,9],[-5,2],[-6,-4],[-5,-8],[-4,-10],[-5,-8],[-25,-19],[-14,-1],[-11,10],[7,11],[26,18],[-9,8],[-9,12],[42,40],[106,36],[20,24],[-8,29],[-8,15],[-31,9],[-96,85],[-90,31],[-19,25],[-5,14],[-2,14],[-4,14],[-19,34],[0,62],[7,14],[11,9],[9,13],[-2,0],[-12,15],[-13,4]],[[0,1422],[0,268],[18,0],[5,5],[2,15],[-3,11],[-4,5],[-4,2],[-2,2],[2,17],[7,16],[7,13],[7,5],[5,-4],[19,-26],[-4,-7],[-5,-4],[-10,0],[0,-10],[26,0],[9,-9],[-6,-16],[-19,-29],[-24,-13],[-9,-9],[-7,-13],[20,-31],[26,-10],[48,9],[57,32],[49,-19],[9,4],[43,61],[3,6],[3,5],[4,2],[7,-8],[13,-38],[7,-13],[43,0],[-5,9],[-18,11],[9,11],[10,-1],[19,-10],[11,2],[22,21],[21,11],[21,33],[9,18],[5,15],[9,41],[2,8],[52,10],[55,-31],[10,-13],[2,-15],[-7,-14],[-19,2],[-9,-9],[3,-10],[-6,-13],[-11,-9],[-6,-8],[15,-19],[-26,-36],[-12,-7],[-7,-14],[-4,-3],[-10,-1],[-26,-19],[0,-3],[0,-6],[0,-7],[-2,-4],[-9,-1],[-17,11],[-9,-10],[7,0],[8,-5],[7,-9],[5,-16],[-42,-36],[-14,-4],[-24,16],[-13,2],[-12,-18],[8,-18],[18,16],[9,-18],[-8,-10],[-19,-39],[-11,-9],[-31,-4],[-39,-27],[-48,17],[-56,16],[-76,-13],[-83,0]],[[3226,1713],[-8,6],[-2,2],[0,3],[0,13],[0,3],[-20,16],[-9,15],[1,70],[-25,72],[3,26],[-6,17],[-27,13],[-20,40],[-7,9],[-38,10],[-21,28],[-99,-4],[-29,-26],[-71,-100],[-9,-19],[-7,-27],[2,-14],[-4,-13],[-9,-9],[-7,-4],[0,-11],[7,-9],[8,-7],[8,-4],[7,1],[-5,-7],[-10,-7],[-5,-6],[-2,-5],[0,-6],[0,-14],[-2,-3],[-6,-6],[-3,-5],[-7,-44],[-6,-19],[-20,-15],[-14,-20],[-8,-25],[9,-24],[43,-38],[30,-42],[40,-29],[27,-7],[19,-14],[47,-3],[30,-21],[10,1],[24,27],[108,39],[38,38],[44,66],[14,28],[7,32],[-5,6],[-15,26]],[[3505,2536],[28,11],[-3,-11],[6,-9],[7,-3],[15,3],[-1,26],[8,0],[15,-17],[23,9],[36,39],[6,12],[5,20],[8,55],[4,15],[19,30],[108,36],[38,32],[1,6],[0,5],[0,5],[2,5],[-7,6],[-31,4],[-2,6],[7,14],[-52,30],[-70,-35],[-31,1],[-101,-46],[-101,-46],[-12,-12],[-11,-17],[-9,-24],[-1,-27],[9,-10],[13,-4],[9,-10],[-49,4],[-25,-11],[-20,-33],[22,0],[-8,-21],[-42,-38],[22,-22],[157,0],[11,13],[-3,9]],[[3615,2865],[78,29],[11,14],[3,31],[-3,31],[-9,15],[-34,21],[-106,-31],[-107,-31],[-30,4],[-10,-4],[-24,-34],[-10,-5],[-31,3],[-65,-58],[-83,-6],[-35,-44],[-57,-6],[4,-9],[9,-8],[4,-7],[6,-35],[9,-7],[32,7],[40,-21],[136,50],[136,50],[136,51]],[[3163,2924],[105,10],[105,10],[-3,0],[148,48],[56,53],[26,39],[-4,15],[-1,4],[35,0],[-5,12],[-15,28],[16,51],[0,17],[-31,39],[-6,19],[-4,34],[-27,31],[-131,-28],[-131,-27],[-13,-9],[-5,-2],[-10,3],[-24,-20],[-43,5],[-31,-10],[-23,2],[-20,-18],[-62,-21],[-10,-11],[-7,-4],[-27,9],[-40,-19],[-5,-8],[-6,-35],[-6,-8],[-21,-1],[-10,-7],[-8,-17],[-4,-19],[0,-10],[9,-21],[15,-53],[6,-11],[10,-8],[105,-32],[-3,11],[8,8],[70,-19],[-5,-8],[-21,-12],[48,-10]],[[2950,3556],[4,-39],[-6,-31],[-11,-22],[-11,-13],[9,-8],[18,3],[8,-5],[4,-5],[3,-7],[5,-17],[-4,-18],[-16,-19],[-7,-13],[11,-15],[156,2],[25,-14],[99,11],[99,11],[115,122],[4,11],[-4,39],[-18,21],[-54,9],[-5,4],[-4,7],[-1,7],[0,6],[-1,7],[2,-1],[0,6],[0,9],[-2,7],[-5,3],[-15,-13],[-30,-5],[-70,44],[-5,10],[1,19],[3,12],[9,19],[-30,3],[-14,10],[-33,57],[-10,10],[-11,-1],[-10,-18],[-11,-47],[-22,-1],[-29,-22],[-12,9],[44,78],[4,27],[-15,31],[-21,13],[-120,-11],[-109,-89],[-10,1],[2,-11],[4,-8],[8,-11],[-10,-39],[9,-11],[21,-11],[8,-18],[-2,-3],[-3,-4],[-2,-3],[-3,0],[4,-17],[3,-8],[3,-5],[-3,-11],[8,-10],[9,-3],[10,4],[7,14],[6,4],[9,-11],[9,-17],[6,-15]],[[4096,3435],[-21,36],[-5,6],[-18,8],[-10,18],[-5,8],[-145,30],[-13,-5],[-35,-43],[-10,-7],[-13,-3],[-11,-8],[-8,-24],[8,-18],[20,-10],[9,-11],[-11,-20],[-28,0],[-13,-10],[18,-28],[-1,-10],[-12,-14],[-31,-17],[-9,-10],[28,4],[15,-5],[7,-20],[-3,-31],[-12,-11],[-15,-4],[-10,-14],[24,-26],[92,13],[15,-13],[8,-3],[146,50],[-58,-62],[-72,-38],[-5,-9],[-12,-31],[-7,-11],[-14,-14],[-7,-10],[-8,-17],[-6,-22],[-2,-27],[5,-33],[19,-55],[23,-35],[26,-19],[107,21],[26,25],[15,-1],[-4,-13],[-5,-10],[-5,-6],[-5,-2],[-5,-4],[-11,-31],[-10,-12],[-22,-11],[-30,-35],[-8,-15],[2,-16],[6,-10],[6,-14],[3,-18],[-2,-22],[15,-18],[34,7],[16,-15],[8,-22],[8,-27],[-1,-9],[-8,-31],[-3,-16],[40,-1]],[[4096,2515],[-3,-6],[-6,-3],[-51,17],[-11,10],[-11,14],[3,10],[1,8],[0,9],[-2,12],[2,8],[1,5],[1,4],[2,3],[-14,0],[-31,20],[-22,26],[-26,14],[-16,18],[-5,2],[-6,7],[-8,31],[-5,11],[-5,4],[-157,-53],[-7,-6],[-12,-28],[-7,-6],[-3,-7],[-7,-27],[-4,-12],[3,-13],[7,-21],[7,-5],[76,23],[10,-18],[-48,-42],[-5,-18],[11,-12],[32,0],[10,-27],[-3,-1],[-7,-10],[9,-11],[10,2],[11,7],[10,2],[0,-10],[-24,-10],[-12,1],[-51,38],[-100,7],[-15,-5],[-8,-21],[5,1],[5,-3],[5,-6],[5,-10],[-8,-11],[-8,-3],[-17,3],[-6,-4],[-12,-13],[-6,-2],[7,-41],[-3,-3],[-4,-4],[-3,-6],[-3,-7],[7,-9],[14,-4],[4,-16],[-37,1],[-12,9],[-12,16],[-7,5],[-8,-5],[-10,-13],[-4,-11],[3,-11],[10,-15],[33,-20],[10,-17],[-14,-26],[-4,-16],[6,-7],[19,0],[8,-5],[7,-14],[0,-34],[12,-8],[85,61],[70,20],[53,-9],[112,43],[111,44],[16,-2],[13,-17],[-8,-9],[12,-15],[26,19],[14,-3]],[[4096,3814],[-67,-7],[-35,-20],[-25,-37],[-25,-9],[-7,-11],[127,-40],[32,15]],[[2587,2402],[-3,28],[-6,27],[-8,20],[-8,10],[15,19],[-13,53],[-2,28],[7,29],[-8,53],[-17,47],[-34,68],[-56,77],[-106,52],[-105,52],[-97,0],[-9,-5],[-9,-11],[-17,-40],[-6,-12],[-45,-48],[-12,-24],[-6,-35],[3,-30],[5,-26],[-1,-24],[-7,-40],[2,-30],[9,-18],[72,-16],[18,-20],[-51,-7],[-23,-15],[-24,-28],[8,-9],[-7,-20],[-3,-21],[-3,-24],[-4,-24],[2,0],[-1,-22],[4,-10],[5,-7],[2,-12],[-2,-21],[-6,2],[-7,14],[-5,15],[-6,23],[-6,35],[-2,36],[7,25],[-27,22],[-4,9],[4,16],[8,9],[10,4],[6,0],[-14,16],[-15,4],[-15,11],[-11,39],[2,8],[2,23],[1,9],[5,11],[13,17],[-11,15],[-27,-1],[-24,25],[-30,-4],[-25,8],[-129,-48],[-12,-11],[-6,-12],[-18,-51],[-17,-35],[-20,-29],[-21,-14],[-17,9],[3,10],[-8,16],[-3,3],[18,54],[11,22],[11,4],[0,6],[-1,4],[0,5],[-1,5],[17,37],[40,2],[18,21],[-5,7],[-11,5],[-4,8],[32,44],[10,6],[10,11],[3,24],[-3,24],[-15,14],[-4,8],[-6,18],[-5,8],[-46,39],[-11,3],[-55,0],[-45,-29],[-70,9],[-52,-20],[6,22],[12,23],[14,17],[10,7],[-7,12],[-14,2],[-6,7],[7,13],[9,13],[6,17],[-5,26],[12,35],[15,18],[79,34],[11,23],[-46,19],[-6,21],[7,20],[27,-12],[9,21],[-5,0],[0,10],[17,0],[0,10],[-52,70],[4,10],[4,6],[4,3],[5,1],[-5,9],[-12,-1],[-5,2],[-3,5],[-6,18],[-21,36],[-8,8],[-47,7],[-11,10],[-11,3],[-11,-7],[-10,-1],[-10,19],[11,29],[25,9],[12,13],[-9,16],[-22,3],[-8,16],[2,14],[7,15],[15,17],[-8,9],[-20,-8],[-10,8],[9,15],[21,12],[5,12],[-2,21],[-8,12],[-17,7],[-7,6],[-13,27],[-9,7],[-1,8],[-15,51],[20,14],[10,1],[19,-15],[7,4],[14,27],[26,32],[9,24],[-3,43],[-12,36],[-17,14],[-51,-1],[-7,7],[1,18],[7,23],[7,22],[-7,15],[-19,23]],[[1342,4096],[0,-3],[-2,-6],[-30,-27],[-12,2],[-26,16],[-65,-9],[3,0],[-8,-3],[-20,-27],[-18,-10],[-8,-8],[-9,-23],[2,-4],[2,-11],[1,-5],[-38,-29],[-20,-24],[-4,-36],[-10,-13],[-7,-21],[-3,-29],[2,-36],[-9,0],[-30,-20],[1,-9],[2,-22],[1,-9],[-47,11],[3,-18],[1,-6],[4,-7],[-7,-19],[-9,-15],[-9,-10],[-8,-6],[0,-10],[42,3],[11,-12],[-25,-40],[-13,-12],[-19,10],[-7,-4],[-14,-14],[-31,0],[-1,0],[-16,-14],[-23,-33],[-76,-36],[-15,3],[2,0],[-2,1],[-7,-1],[1,-16],[-1,-14],[-2,-12],[-3,-8],[4,-13],[6,-12],[2,-11],[-5,-12],[3,-14],[5,-7],[5,-5],[5,-6],[-6,-17],[-11,-22],[-3,-20],[86,-36],[52,-72],[28,-39],[6,-4],[6,1],[4,11],[-2,3],[-4,26],[-2,10],[13,11],[13,2],[50,-24],[4,-8],[-1,-12],[-4,-6],[-6,-2],[-4,0],[10,-15],[57,-8],[5,-7],[3,-9],[0,-9],[0,-7],[0,-5],[11,-17],[25,-14],[19,-24],[9,-6],[8,-9],[5,-19],[-6,-7],[-21,-14],[0,-9],[0,-4],[-3,-16],[11,-1],[21,-16],[11,-3],[-9,-22],[-37,3],[-14,-11],[4,-3],[13,-16],[-15,-24],[-39,-15],[-17,-14],[-25,-39],[-11,-13],[-106,-42],[-10,-11],[-19,-22],[19,-26],[19,-26],[21,-12],[20,27],[12,-11],[6,1],[16,22],[6,4],[10,-2],[10,-7],[6,-9],[-9,-14],[-8,-17],[6,-9],[15,0],[6,-11],[-6,-12],[-13,-12],[-3,-16],[104,-9],[-16,-10],[-6,0],[21,-22],[111,-42],[15,-16],[-1,-6],[-1,-16],[0,-7],[20,3],[7,-3],[4,-5],[9,-16],[36,-6],[11,-13],[-8,-11],[-9,-3],[-18,3],[-3,-1],[-1,-3],[-1,-4],[11,-18],[26,-62],[-3,-15],[-13,-18],[-6,-17],[3,-13],[3,-10],[5,-6],[4,-1],[0,-11],[-34,13],[-17,-2],[-14,-20],[8,-9],[22,-8],[9,-18],[9,-50],[2,-5],[-5,-19],[-10,-2],[-32,31],[-178,33],[-178,33],[-24,5],[-17,-11],[-15,10],[-22,-17],[-73,6],[-2,6],[0,10],[-1,8],[-2,5],[-30,20],[-124,-23],[-58,-38],[-71,-9],[-7,-4],[-8,-1],[-9,8],[-1,4],[-1,6],[0,5],[0,4],[-6,7],[-9,4],[5,17],[2,7],[3,5],[0,9],[-15,1],[-6,7],[-12,42],[-4,9],[-5,2],[10,39],[2,15],[-2,12],[-3,11],[-4,8],[-3,5],[4,24],[8,15],[6,15],[-4,25],[-6,10],[-16,-5],[-6,9],[-1,12],[1,11],[3,7],[3,5],[-10,33],[-50,37],[8,7],[30,-7],[6,6],[7,14],[4,13],[-5,7],[-149,-19],[-7,-5],[-15,-22],[-7,-5],[-32,21],[5,8],[10,5],[5,6],[-5,0],[-10,9],[-5,2],[-6,-4],[-5,-8],[-4,-10],[-5,-8],[-25,-19],[-14,-1],[-11,10],[7,11],[26,18],[-9,8],[-9,12],[42,40],[106,36],[20,24],[-8,29],[-8,15],[-31,9],[-96,85],[-90,31],[-19,25],[-5,14],[-2,14],[-4,14],[-19,34]],[[0,3087],[7,14],[11,9],[9,13],[-2,0],[-12,15],[-13,4]],[[0,1690],[18,0],[5,5],[2,15],[-3,11],[-4,5],[-4,2],[-2,2],[2,17],[7,16],[7,13],[7,5],[5,-4],[19,-26],[-4,-7],[-5,-4],[-10,0],[0,-10],[26,0],[9,-9],[-6,-16],[-19,-29],[-24,-13],[-9,-9],[-7,-13],[20,-31],[26,-10],[48,9],[57,32],[49,-19],[9,4],[43,61],[3,6],[3,5],[4,2],[7,-8],[13,-38],[7,-13],[43,0],[-5,9],[-18,11],[9,11],[10,-1],[19,-10],[11,2],[22,21],[21,11],[21,33],[9,18],[5,15],[9,41],[2,8],[52,10],[55,-31],[10,-13],[2,-15],[-7,-14],[-19,2],[-9,-9],[3,-10],[-6,-13],[-11,-9],[-6,-8],[15,-19],[-26,-36],[-12,-7],[-7,-14],[-4,-3],[-10,-1],[-26,-19],[0,-3],[0,-6],[0,-7],[-2,-4],[-9,-1],[-17,11],[-9,-10],[7,0],[8,-5],[7,-9],[5,-16],[-42,-36],[-14,-4],[-24,16],[-13,2],[-12,-18],[8,-18],[18,16],[9,-18],[-8,-10],[-19,-39],[-11,-9],[-31,-4],[-39,-27],[-48,17],[-56,16],[-76,-13],[-83,0]],[[0,572],[23,0],[18,15],[29,9],[25,27],[106,38],[106,38],[30,45],[59,55],[33,-13],[6,4],[19,35],[9,9],[26,0],[30,31],[27,1],[8,9],[4,13],[3,13],[3,9],[33,7],[9,7],[22,40],[58,32],[10,29],[-17,28],[-9,21],[-4,20],[2,26],[7,5],[16,-12],[94,15],[11,16],[-9,0],[-26,19],[0,10],[9,9],[5,2],[5,-1],[-1,4],[-2,2],[-4,3],[25,17],[56,-35],[24,18],[2,-9],[-2,-10],[7,-6],[6,8],[12,28],[6,6],[2,3],[42,24],[109,-19],[18,13],[39,48],[13,5],[-5,8],[-2,1],[3,20],[8,20],[8,14],[103,61],[30,4],[-15,21],[35,0],[-3,9],[-2,7],[-4,3],[-3,0],[7,33],[3,7],[7,11],[36,25],[63,-24],[20,-24],[18,-37],[13,-50],[-107,19],[0,-9],[86,-36],[11,-28],[6,-6],[10,-4],[29,-25],[131,29],[31,-11],[10,11],[-7,9],[-14,4],[-6,7],[19,16],[7,15],[-7,24],[-9,9],[-3,8],[3,18],[5,11],[8,1],[8,-5],[6,-7],[-2,-5],[-2,-2],[-4,-3],[31,11],[29,30],[11,27],[-4,18],[-7,15],[3,18],[-6,9],[-2,2],[6,9],[10,-2],[10,-12],[8,-23],[4,-37],[-3,-16],[-10,-11],[-2,-14],[1,-9],[11,-25],[2,-24],[63,-57],[72,-14],[30,-20],[83,6],[79,89],[1,3],[1,5],[1,6],[2,6],[5,6],[137,39],[136,39],[4,5],[-2,19],[-7,13],[-15,8],[-5,7],[2,17],[5,18],[4,11],[14,14],[43,17],[3,11],[-2,20],[5,12],[13,12],[-32,34],[-4,11],[16,65],[4,10],[6,7],[20,42],[28,20],[7,20],[-2,15],[6,7],[9,7],[7,11],[3,19],[-1,14],[-4,10],[-6,12],[-9,25],[0,14],[17,18],[6,12],[13,31],[6,5],[-10,23],[-35,4],[-13,12],[8,11],[16,9],[9,1],[-5,13],[-2,4],[-3,2],[0,11],[36,33],[18,1],[8,5],[9,16],[4,23],[2,26],[5,25],[6,12],[13,10],[6,17],[2,15],[-1,9],[-1,9],[0,12]],[[3226,1713],[15,-26],[5,-6],[-7,-32],[-14,-28],[-44,-66],[-38,-38],[-108,-39],[-24,-27],[-10,-1],[-30,21],[-47,3],[-19,14],[-27,7],[-40,29],[-30,42],[-43,38],[-9,24],[8,25],[14,20],[20,15],[6,19],[7,44],[3,5],[6,6],[2,3],[0,14],[0,6],[2,5],[5,6],[10,7],[5,7],[-7,-1],[-8,4],[-8,7],[-7,9],[0,11],[7,4],[9,9],[4,13],[-2,14],[7,27],[9,19],[71,100],[29,26],[99,4],[21,-28],[38,-10],[7,-9],[20,-40],[27,-13],[6,-17],[-3,-26],[25,-72],[-1,-70],[9,-15],[20,-16],[0,-3],[0,-13],[0,-3],[2,-2],[8,-6]],[[3505,2536],[3,-9],[-11,-13],[-157,0],[-22,22],[42,38],[8,21],[-22,0],[20,33],[25,11],[49,-4],[-9,10],[-13,4],[-9,10],[1,27],[9,24],[11,17],[12,12],[101,46],[101,46],[31,-1],[70,35],[52,-30],[-7,-14],[2,-6],[31,-4],[7,-6],[-2,-5],[0,-5],[0,-5],[-1,-6],[-38,-32],[-108,-36],[-19,-30],[-4,-15],[-8,-55],[-5,-20],[-6,-12],[-36,-39],[-23,-9],[-15,17],[-8,0],[1,-26],[-15,-3],[-7,3],[-6,9],[3,11],[-28,-11]],[[3615,2865],[-136,-51],[-136,-50],[-136,-50],[-40,21],[-32,-7],[-9,7],[-6,35],[-4,7],[-9,8],[-4,9],[57,6],[35,44],[83,6],[65,58],[31,-3],[10,5],[24,34],[10,4],[30,-4],[107,31],[106,31],[34,-21],[9,-15],[3,-31],[-3,-31],[-11,-14],[-78,-29]],[[3163,2924],[-48,10],[21,12],[5,8],[-70,19],[-8,-8],[3,-11],[-105,32],[-10,8],[-6,11],[-15,53],[-9,21],[0,10],[4,19],[8,17],[10,7],[21,1],[6,8],[6,35],[5,8],[40,19],[27,-9],[7,4],[10,11],[62,21],[20,18],[23,-2],[31,10],[43,-5],[24,20],[10,-3],[5,2],[13,9],[131,27],[131,28],[27,-31],[4,-34],[6,-19],[31,-39],[0,-17],[-16,-51],[15,-28],[5,-12],[-35,0],[1,-4],[4,-15],[-26,-39],[-56,-53],[-148,-48],[3,0],[-105,-10],[-105,-10]],[[2950,3556],[-6,15],[-9,17],[-9,11],[-6,-4],[-7,-14],[-10,-4],[-9,3],[-8,10],[3,11],[-3,5],[-3,8],[-4,17],[3,0],[2,3],[3,4],[2,3],[-8,18],[-21,11],[-9,11],[10,39],[-8,11],[-4,8],[-2,11],[10,-1],[109,89],[120,11],[21,-13],[15,-31],[-4,-27],[-44,-78],[12,-9],[29,22],[22,1],[11,47],[10,18],[11,1],[10,-10],[33,-57],[14,-10],[30,-3],[-9,-19],[-3,-12],[-1,-19],[5,-10],[70,-44],[30,5],[15,13],[5,-3],[2,-7],[0,-9],[0,-6],[-2,1],[1,-7],[0,-6],[1,-7],[4,-7],[5,-4],[54,-9],[18,-21],[4,-39],[-4,-11],[-115,-122],[-99,-11],[-99,-11],[-25,14],[-156,-2],[-11,15],[7,13],[16,19],[4,18],[-5,17],[-3,7],[-4,5],[-8,5],[-18,-3],[-9,8],[11,13],[11,22],[6,31],[-4,39]],[[4096,3814],[0,-109],[-32,-15],[-127,40],[7,11],[25,9],[25,37],[35,20],[67,7]],[[4096,2515],[0,-236],[-14,3],[-26,-19],[-12,15],[8,9],[-13,17],[-16,2],[-111,-44],[-112,-43],[-53,9],[-70,-20],[-85,-61],[-12,8],[0,34],[-7,14],[-8,5],[-19,0],[-6,7],[4,16],[14,26],[-10,17],[-33,20],[-10,15],[-3,11],[4,11],[10,13],[8,5],[7,-5],[12,-16],[12,-9],[37,-1],[-4,16],[-14,4],[-7,9],[3,7],[3,6],[4,4],[3,3],[-7,41],[6,2],[12,13],[6,4],[17,-3],[8,3],[8,11],[-5,10],[-5,6],[-5,3],[-5,-1],[8,21],[15,5],[100,-7],[51,-38],[12,-1],[24,10],[0,10],[-10,-2],[-11,-7],[-10,-2],[-9,11],[7,10],[3,1],[-10,27],[-32,0],[-11,12],[5,18],[48,42],[-10,18],[-76,-23],[-7,5],[-7,21],[-3,13],[4,12],[7,27],[3,7],[7,6],[12,28],[7,6],[157,53],[5,-4],[5,-11],[8,-31],[6,-7],[5,-2],[16,-18],[26,-14],[22,-26],[31,-20],[14,0],[-2,-3],[-1,-4],[-1,-5],[-2,-8],[2,-12],[0,-9],[-1,-8],[-3,-10],[11,-14],[11,-10],[51,-17],[6,3],[3,6]],[[4096,3435],[0,-881],[-40,1],[3,16],[8,31],[1,9],[-8,27],[-8,22],[-16,15],[-34,-7],[-15,18],[2,22],[-3,18],[-6,14],[-6,10],[-2,16],[8,15],[30,35],[22,11],[10,12],[11,31],[5,4],[5,2],[5,6],[5,10],[4,13],[-15,1],[-26,-25],[-107,-21],[-26,19],[-23,35],[-19,55],[-5,33],[2,27],[6,22],[8,17],[7,10],[14,14],[7,11],[12,31],[5,9],[72,38],[58,62],[-146,-50],[-8,3],[-15,13],[-92,-13],[-24,26],[10,14],[15,4],[12,11],[3,31],[-7,20],[-15,5],[-28,-4],[9,10],[31,17],[12,14],[1,10],[-18,28],[13,10],[28,0],[11,20],[-9,11],[-20,10],[-8,18],[8,24],[11,8],[13,3],[10,7],[35,43],[13,5],[145,-30],[5,-8],[10,-18],[18,-8],[5,-6],[21,-36]],[[1342,4096],[34,0],[19,-23],[7,-15],[-7,-22],[-7,-23],[-1,-18],[7,-7],[51,1],[17,-14],[12,-36],[3,-43],[-9,-24],[-26,-32],[-14,-27],[-7,-4],[-19,15],[-10,-1],[-20,-14],[15,-51],[1,-8],[9,-7],[13,-27],[7,-6],[17,-7],[8,-12],[2,-21],[-5,-12],[-21,-12],[-9,-15],[10,-8],[20,8],[8,-9],[-15,-17],[-7,-15],[-2,-14],[8,-16],[22,-3],[9,-16],[-12,-13],[-25,-9],[-11,-29],[10,-19],[10,1],[11,7],[11,-3],[11,-10],[47,-7],[8,-8],[21,-36],[6,-18],[3,-5],[5,-2],[12,1],[5,-9],[-5,-1],[-4,-3],[-4,-6],[-4,-10],[52,-70],[0,-10],[-17,0],[0,-10],[5,0],[-9,-21],[-27,12],[-7,-20],[6,-21],[46,-19],[-11,-23],[-79,-34],[-15,-18],[-12,-35],[5,-26],[-6,-17],[-9,-13],[-7,-13],[6,-7],[14,-2],[7,-12],[-10,-7],[-14,-17],[-12,-23],[-6,-22],[52,20],[70,-9],[45,29],[55,0],[11,-3],[46,-39],[5,-8],[6,-18],[4,-8],[15,-14],[3,-24],[-3,-24],[-10,-11],[-10,-6],[-32,-44],[4,-8],[11,-5],[5,-7],[-18,-21],[-40,-2],[-17,-37],[1,-5],[0,-5],[1,-4],[0,-6],[-11,-4],[-11,-22],[-18,-54],[3,-3],[8,-16],[-3,-10],[17,-9],[21,14],[20,29],[17,35],[18,51],[6,12],[12,11],[129,48],[25,-8],[30,4],[24,-25],[27,1],[11,-15],[-13,-17],[-5,-11],[-1,-9],[-2,-23],[-2,-8],[11,-39],[15,-11],[15,-4],[14,-16],[-6,0],[-10,-4],[-8,-9],[-4,-16],[4,-9],[27,-22],[-7,-25],[2,-36],[6,-35],[6,-23],[5,-15],[7,-14],[6,-2],[2,21],[-2,12],[-5,7],[-4,10],[1,22],[-2,0],[4,24],[3,24],[3,21],[7,20],[-8,9],[24,28],[23,15],[51,7],[-18,20],[-72,16],[-9,18],[-2,30],[7,40],[1,24],[-5,26],[-3,30],[6,35],[12,24],[45,48],[6,12],[17,40],[9,11],[9,5],[61,0],[36,0],[105,-52],[106,-52],[56,-77],[34,-68],[17,-47],[8,-53],[-7,-29],[2,-28],[13,-53],[-15,-19],[8,-10],[8,-20],[6,-27],[3,-28],[0,-12],[1,-9],[1,-9],[-2,-15],[-6,-17],[-13,-10],[-6,-12],[-5,-25],[-2,-26],[-4,-23],[-9,-16],[-8,-5],[-18,-1],[-36,-33],[0,-11],[3,-2],[2,-4],[5,-13],[-9,-1],[-16,-9],[-8,-11],[13,-12],[35,-4],[10,-23],[-6,-5],[-13,-31],[-6,-12],[-17,-18],[0,-14],[9,-25],[6,-12],[4,-10],[1,-14],[-3,-19],[-7,-11],[-9,-7],[-6,-7],[2,-15],[-7,-20],[-28,-20],[-20,-42],[-6,-7],[-4,-10],[-16,-65],[4,-11],[32,-34],[-13,-12],[-5,-12],[2,-20],[-3,-11],[-43,-17],[-14,-14],[-4,-11],[-5,-18],[-2,-17],[5,-7],[15,-8],[7,-13],[2,-19],[-4,-5],[-136,-39],[-20,-6],[-117,-33],[-5,-6],[-2,-6],[-1,-6],[-1,-5],[-1,-3],[-79,-89],[-83,-6],[-30,20],[-72,14],[-63,57],[-2,24],[-11,25],[-1,9],[2,14],[10,11],[3,16],[-4,37],[-8,23],[-10,12],[-10,2],[-6,-9],[2,-2],[6,-9],[-3,-18],[7,-15],[4,-18],[-11,-27],[-29,-30],[-31,-11],[4,3],[2,2],[2,5],[-6,7],[-8,5],[-8,-1],[-5,-11],[-3,-18],[3,-8],[9,-9],[7,-24],[-7,-15],[-19,-16],[6,-7],[14,-4],[7,-9],[-10,-11],[-31,11],[-131,-29],[-29,25],[-10,4],[-6,6],[-11,28],[-86,36],[0,9],[107,-19],[-13,50],[-18,37],[-20,24],[-63,24],[-36,-25],[-7,-11],[-3,-7],[-7,-33],[3,0],[4,-3],[2,-7],[3,-9],[-35,0],[15,-21],[-30,-4],[-103,-61],[-8,-14],[-8,-20],[-3,-20],[2,-1],[5,-8],[-13,-5],[-39,-48],[-18,-13],[-109,19],[-42,-24],[-2,-3],[-6,-6],[-12,-28],[-6,-8],[-7,6],[2,10],[-2,9],[-24,-18],[-56,35],[-25,-17],[4,-3],[2,-2],[1,-4],[-5,1],[-5,-2],[-9,-9],[0,-10],[26,-19],[9,0],[-11,-16],[-94,-15],[-16,12],[-7,-5],[-2,-26],[4,-20],[9,-21],[17,-28],[-10,-29],[-58,-32],[-22,-40],[-9,-7],[-33,-7],[-3,-9],[-3,-13],[-4,-13],[-8,-9],[-27,-1],[-30,-31],[-26,0],[-9,-9],[-19,-35],[-6,-4],[-33,13],[-59,-55],[-30,-45],[-106,-38],[-106,-38],[-25,-27],[-29,-9],[-18,-15],[-23,0],[0,850],[83,0],[76,13],[56,-16],[48,-17],[39,27],[31,4],[11,9],[19,39],[8,10],[-9,18],[-18,-16],[-8,18],[12,18],[13,-2],[24,-16],[14,4],[42,36],[-5,16],[-7,9],[-8,5],[-7,0],[9,10],[17,-11],[9,1],[2,4],[0,7],[0,6],[0,3],[26,19],[10,1],[4,3],[7,14],[12,7],[26,36],[-15,19],[6,8],[11,9],[6,13],[-3,10],[9,9],[19,-2],[7,14],[-2,15],[-10,13],[-55,31],[-52,-10],[-2,-8],[-9,-41],[-5,-15],[-9,-18],[-21,-33],[-21,-11],[-22,-21],[-11,-2],[-19,10],[-10,1],[-9,-11],[18,-11],[5,-9],[-43,0],[-7,13],[-13,38],[-7,8],[-4,-2],[-3,-5],[-3,-6],[-43,-61],[-9,-4],[-49,19],[-57,-32],[-48,-9],[-26,10],[-20,31],[7,13],[9,9],[24,13],[19,29],[6,16],[-9,9],[-26,0],[0,10],[10,0],[5,4],[4,7],[-19,26],[-5,4],[-7,-5],[-7,-13],[-7,-16],[-2,-17],[2,-2],[4,-2],[4,-5],[3,-11],[-2,-15],[-5,-5],[-18,0],[0,1335],[19,-34],[4,-14],[2,-14],[5,-14],[19,-25],[90,-31],[96,-85],[31,-9],[8,-15],[8,-29],[-20,-24],[-106,-36],[-42,-40],[9,-12],[9,-8],[-26,-18],[-7,-11],[11,-10],[14,1],[25,19],[5,8],[4,10],[5,8],[6,4],[5,-2],[10,-9],[5,0],[-5,-6],[-10,-5],[-5,-8],[32,-21],[7,5],[15,22],[7,5],[149,19],[5,-7],[-4,-13],[-7,-14],[-6,-6],[-30,7],[-8,-7],[50,-37],[10,-33],[-3,-5],[-3,-7],[-1,-11],[1,-12],[6,-9],[16,5],[6,-10],[4,-25],[-6,-15],[-8,-15],[-4,-24],[3,-5],[4,-8],[3,-11],[2,-12],[-2,-15],[-10,-39],[5,-2],[4,-9],[12,-42],[6,-7],[15,-1],[0,-9],[-3,-5],[-2,-7],[-5,-17],[9,-4],[6,-7],[0,-4],[0,-5],[1,-6],[1,-4],[9,-8],[8,1],[7,4],[71,9],[58,38],[124,23],[30,-20],[2,-5],[1,-8],[0,-10],[2,-6],[73,-6],[22,17],[15,-10],[17,11],[24,-5],[178,-33],[178,-33],[32,-31],[10,2],[5,19],[-2,5],[-9,50],[-9,18],[-22,8],[-8,9],[14,20],[17,2],[34,-13],[0,11],[-4,1],[-5,6],[-3,10],[-3,13],[6,17],[13,18],[3,15],[-26,62],[-11,18],[1,4],[1,3],[3,1],[18,-3],[9,3],[8,11],[-11,13],[-36,6],[-9,16],[-4,5],[-7,3],[-20,-3],[0,7],[1,16],[1,6],[-15,16],[-111,42],[-21,22],[6,0],[16,10],[-104,9],[3,16],[13,12],[6,12],[-6,11],[-15,0],[-6,9],[8,17],[9,14],[-6,9],[-10,7],[-10,2],[-6,-4],[-16,-22],[-6,-1],[-12,11],[-20,-27],[-21,12],[-19,26],[-19,26],[19,22],[10,11],[106,42],[11,13],[25,39],[17,14],[39,15],[15,24],[-13,16],[-4,3],[14,11],[37,-3],[9,22],[-11,3],[-21,16],[-11,1],[3,16],[0,4],[0,9],[21,14],[6,7],[-5,19],[-8,9],[-9,6],[-19,24],[-25,14],[-11,17],[0,5],[0,7],[0,9],[-3,9],[-5,7],[-57,8],[-10,15],[4,0],[6,2],[4,6],[1,12],[-4,8],[-50,24],[-13,-2],[-13,-11],[2,-10],[4,-26],[2,-3],[-4,-11],[-6,-1],[-6,4],[-28,39],[-52,72],[-86,36],[3,20],[11,22],[6,17],[-5,6],[-5,5],[-5,7],[-3,14],[5,12],[-2,11],[-6,12],[-4,13],[3,8],[2,12],[1,14],[-1,16],[7,1],[2,-1],[-2,0],[15,-3],[76,36],[23,33],[16,14],[1,0],[31,0],[14,14],[7,4],[19,-10],[13,12],[25,40],[-11,12],[-42,-3],[0,10],[8,6],[9,10],[9,15],[7,19],[-4,7],[-1,6],[-3,18],[47,-11],[-1,9],[-2,22],[-1,9],[30,20],[9,0],[-2,36],[3,29],[7,21],[10,13],[4,36],[20,24],[38,29],[-1,5],[-2,11],[-2,4],[9,23],[8,8],[18,10],[20,27],[8,3],[-3,0],[65,9],[26,-16],[12,-2],[30,27],[2,6],[0,3]],[[0,3087],[0,55],[13,-4],[12,-15],[2,0],[-9,-13],[-11,-9],[-7,-14]],[[4096,2474],[0,-196],[-297,-74],[-65,257],[362,13]]]}