{"objects":{"water":{"type":"GeometryCollection","geometries":[{"type":"MultiPolygon","properties":{"source":"naturalearthdata.com","kind":"ocean","area":989871000000000,"sort_rank":200,"min_zoom":0,"id":1},"arcs":[[[9],[10],[11],[12],[13],[14]]]},{"type":"MultiPolygon","properties":{"sort_rank":204,"source":"naturalearthdata.com","kind":"lake","min_zoom":5.7,"area":17226862204},"arcs":[[[15]]]},{"type":"LineString","properties":{"source":"naturalearthdata.com","kind":"lake","area":1474180000,"sort_rank":367,"boundary":true,"min_zoom":5.7,"id":196},"arcs":[16]},{"type":"LineString","properties":{"source":"naturalearthdata.com","kind":"ocean","sort_rank":205,"boundary":true,"min_zoom":0,"id":488},"arcs":[17]},{"type":"LineString","properties":{"source":"naturalearthdata.com","kind":"ocean","sort_rank":205,"boundary":true,"min_zoom":0,"id":489},"arcs":[18]},{"type":"LineString","properties":{"source":"naturalearthdata.com","kind":"ocean","sort_rank":205,"boundary":true,"min_zoom":0,"id":490},"arcs":[19]},{"type":"MultiLineString","properties":{"source":"naturalearthdata.com","kind":"ocean","sort_rank":205,"boundary":true,"min_zoom":0,"id":491},"arcs":[[20],[21]]},{"type":"LineString","properties":{"source":"naturalearthdata.com","kind":"ocean","sort_rank":205,"boundary":true,"min_zoom":0,"id":969},"arcs":[22]},{"type":"LineString","properties":{"source":"naturalearthdata.com","kind":"ocean","sort_rank":205,"boundary":true,"min_zoom":0,"id":970},"arcs":[23]},{"type":"MultiLineString","properties":{"source":"naturalearthdata.com","kind":"ocean","sort_rank":205,"boundary":true,"min_zoom":0,"id":972},"arcs":[[24],[25]]}]},"buildings":{"type":"GeometryCollection","geometries":[]},"places":{"type":"GeometryCollection","geometries":[]},"transit":{"type":"GeometryCollection","geometries":[]},"pois":{"type":"GeometryCollection","geometries":[]},"boundaries":{"type":"GeometryCollection","geometries":[{"type":"LineString","properties":{"sort_rank":256,"kind_detail":"4","kind":"region","min_zoom":2.0,"source":"naturalearthdata.com"},"arcs":[0]},{"type":"MultiLineString","properties":{"sort_rank":256,"kind_detail":"4","kind":"region","min_zoom":2.0,"source":"naturalearthdata.com"},"arcs":[[1],[2]]},{"type":"LineString","properties":{"sort_rank":256,"kind_detail":"4","kind":"region","min_zoom":2.0,"source":"naturalearthdata.com"},"arcs":[3]},{"type":"LineString","properties":{"sort_rank":256,"kind_detail":"4","kind":"region","min_zoom":2.0,"source":"naturalearthdata.com"},"arcs":[4]},{"type":"LineString","properties":{"sort_rank":256,"kind_detail":"4","kind":"region","min_zoom":2.0,"source":"naturalearthdata.com"},"arcs":[5]},{"type":"LineString","properties":{"sort_rank":256,"kind_detail":"4","kind":"region","min_zoom":2.0,"source":"naturalearthdata.com"},"arcs":[6]},{"type":"LineString","properties":{"sort_rank":256,"kind_detail":"4","kind":"region","min_zoom":2.0,"source":"naturalearthdata.com"},"arcs":[7]},{"type":"LineString","properties":{"sort_rank":256,"kind_detail":"4","kind":"region","min_zoom":2.0,"source":"naturalearthdata.com"},"arcs":[8]}]},"roads":{"type":"GeometryCollection","geometries":[]},"earth":{"type":"GeometryCollection","geometries":[{"type":"MultiPolygon","properties":{"sort_rank":10,"source":"naturalearthdata.com","min_zoom":1.5,"kind":"earth","area":383187630897},"arcs":[[[26]]]},{"type":"MultiPolygon","properties":{"sort_rank":10,"source":"naturalearthdata.com","kind":"earth","min_zoom":4.0,"area":9705978340},"arcs":[[[27]]]},{"type":"MultiPolygon","properties":{"sort_rank":10,"source":"naturalearthdata.com","min_zoom":0,"kind":"earth","area":13131386715102},"arcs":[[[28]],[[29]],[[30]],[[31]]]}]},"landuse":{"type":"GeometryCollection","geometries":[]}},"type":"Topology","transform":{"translate":[-112.5,70.612614238],"scale":[0.002746582,0.0008317698]},"arcs":[[[909,2422],[0,100]],[[909,2852],[0,1244]],[[909,2522],[0,6],[0,48]],[[909,2219],[0,44]],[[909,2298],[0,121]],[[909,2219]],[[909,2576],[0,217],[0,59]],[[909,2264],[0,34]],[[910,0],[0,99],[0,279],[-1,279],[0,278],[0,154],[0,154],[0,249],[0,181],[0,180],[0,145],[0,221]],[[4096,2067],[0,-2067],[-608,0],[-2,1],[-7,9],[-6,18],[-10,18],[-36,32],[-16,6],[-11,-26],[4,-14],[3,-21],[2,-23],[-163,0],[-5,10],[-18,48],[-5,8],[-12,12],[-8,17],[-13,18],[-9,7],[-24,37],[-6,6],[-7,3],[-22,-3],[-11,3],[-11,13],[-9,28],[-30,136],[-15,36],[-20,33],[-11,12],[-26,9],[-104,121],[-5,11],[-7,26],[-5,11],[-4,8],[7,22],[10,12],[20,15],[25,44],[7,19],[6,43],[-5,32],[-10,28],[-5,32],[3,27],[9,15],[11,7],[9,1],[38,-26],[8,6],[0,16],[-7,20],[-13,29],[-3,21],[2,19],[8,38],[-20,15],[-7,13],[-6,22],[14,56],[2,24],[-6,27],[-36,90],[-11,14],[-5,12],[-2,9],[-3,21],[-3,10],[-14,36],[-8,16],[-9,6],[-3,5],[-2,12],[-2,14],[-1,10],[-6,14],[-6,7],[-25,8],[-12,10],[-10,21],[-4,35],[0,28],[-2,21],[-3,18],[-17,65],[-7,20],[-7,9],[-1,5],[-4,25],[-4,11],[-6,8],[-15,4],[-6,5],[5,13],[-1,15],[-4,13],[-5,8],[5,23],[16,18],[6,17],[1,19],[-2,19],[-5,13],[-12,12],[-5,15],[-7,29],[-5,13],[-11,20],[-12,33],[-2,8],[-1,8],[-1,21],[-2,8],[-6,16],[-20,30],[-9,22],[-15,48],[-10,20],[8,8],[7,-4],[7,-7],[7,-5],[5,4],[2,9],[3,28],[-16,9],[-3,11],[9,21],[-1,4],[-4,9],[-2,4],[3,12],[2,4],[-7,8],[-25,8],[2,26],[-1,20],[-5,15],[-7,13],[20,21],[3,9],[-2,11],[-4,9],[-4,6],[-16,7],[-37,36],[2,11],[2,8],[3,8],[4,6],[-30,58],[10,9],[9,-12],[7,-19],[11,-13],[7,-17],[3,-6],[5,-2],[6,1],[12,10],[-5,16],[-8,11],[-17,13],[7,11],[3,6],[2,9],[-8,6],[-17,44],[-10,14],[-12,12],[-12,6],[-11,0],[0,8],[4,0],[3,3],[3,6],[3,7],[-6,6],[-3,8],[-3,10],[-3,9],[-6,8],[-15,14],[-7,12],[13,16],[-54,31],[-16,28],[-8,7],[-4,10],[1,23],[0,23],[-8,10],[-18,-1],[-10,8],[-4,-4],[-5,-7],[-4,-5],[-16,-4],[-15,5],[-48,36],[-20,5],[-4,5],[-6,23],[-2,5],[-6,4],[-20,29],[-16,7],[-8,8],[-6,25],[-13,11],[-5,6],[-2,9],[0,20],[-3,12],[-3,8],[-4,5],[-5,3],[-4,1],[-3,-1],[-1,-5],[0,-6],[-1,-9],[-7,-9],[-42,20],[-9,17],[-15,43],[-12,21],[-17,16],[-18,7],[-16,-3],[-11,-15],[-4,-2],[-13,8],[-4,1],[-8,-6],[-14,-16],[-8,-3],[1,-18],[-4,-14],[-12,-18],[34,-40],[8,-17],[-10,-22],[-12,-1],[-36,21],[-21,28],[-14,10],[-9,17],[-16,10],[-43,47],[-23,9],[-53,39],[-47,-3],[-80,35],[-28,-1],[7,-15],[15,-19],[6,-15],[-41,3],[-12,-11],[3,-6],[7,-6],[3,-5],[0,-5],[0,-17],[1,-7],[5,-11],[13,-19],[6,-7],[54,-30],[13,-28],[-72,22],[-36,-2],[-34,-36],[-14,-51],[12,-38],[39,-60],[-5,-6],[-7,-2],[-12,1],[-4,-4],[3,-9],[21,-35],[12,-26],[-6,-6],[-4,-11],[-2,-15],[2,-17],[4,-9],[12,-17],[5,-12],[0,-13],[-7,-7],[-6,-9],[1,-21],[3,-11],[11,-26],[12,-47],[4,-30],[-5,-13],[-5,-6],[3,-13],[9,-18],[4,-12],[8,-14],[4,-12],[-7,-28],[5,-19],[20,-26],[-6,-6],[-6,-2],[-5,-5],[-3,-13],[28,-16],[13,-15],[9,-26],[-5,-18],[-1,-13],[2,-12],[4,-15],[-40,-8],[15,-34],[18,-20],[20,-9],[19,-3],[-8,-25],[-23,-9],[3,-28],[5,-10],[12,-9],[4,-10],[1,-16],[-4,-8],[-12,-9],[11,-13],[16,-11],[14,-16],[6,-29],[-3,-18],[-8,-5],[-9,5],[-13,20],[-11,4],[-8,-4],[-1,-10],[8,-21],[9,-16],[8,-17],[3,-29],[0,-58],[2,-9],[2,-8],[1,-11],[-2,-17],[52,-17],[-7,-7],[-3,-1],[4,-8],[11,-13],[3,-7],[-2,-13],[-10,-6],[-3,-10],[1,-18],[6,-25],[6,-22],[5,-10],[15,-5],[30,-23],[15,-5],[7,-7],[3,-19],[0,-22],[-1,-17],[8,-1],[22,-16],[22,-7],[8,-9],[-7,-21],[-13,-12],[-14,-3],[-31,18],[-4,-1],[-9,-12],[-3,-7],[11,-10],[16,-28],[9,-7],[23,-7],[12,-10],[10,-15],[-97,-26],[-17,-11],[-12,-26],[-12,-31],[-14,-24],[-15,4],[-17,19],[-16,9],[-12,-30],[-2,-21],[2,-16],[5,-9],[7,-4],[5,-5],[23,-35],[-6,-20],[-9,-3],[-9,1],[-6,-4],[-3,0],[-7,-6],[-8,3],[-22,24],[-25,5],[2,31],[-5,27],[-9,23],[-11,17],[-18,8],[-37,-20],[-17,20],[21,12],[4,5],[2,10],[0,10],[-1,9],[-4,4],[-9,2],[-11,8],[-10,13],[-7,18],[13,29],[2,12],[-1,15],[-3,8],[-4,4],[-4,7],[-6,25],[6,11],[12,8],[9,17],[12,45],[-1,16],[-12,9],[-11,-8],[-23,-34],[-9,1],[5,8],[13,40],[-10,16],[-12,4],[-23,-2],[6,43],[1,23],[-2,16],[1,9],[1,23],[-2,17],[-1,19],[-3,14],[-9,0],[0,9],[4,0],[3,3],[3,5],[3,9],[-5,8],[-5,6],[-5,3],[-5,-1],[-1,-22],[-9,-7],[-12,3],[-8,10],[1,11],[1,13],[0,32],[0,8],[-21,104],[-6,16],[-13,29],[-5,17],[-2,25],[1,20],[3,19],[2,36],[3,24],[1,12],[2,14],[5,8],[5,7],[3,8],[2,24],[-3,16],[-5,15],[-2,23],[-6,20],[-15,14],[-71,34],[-7,-14],[9,-7],[4,-7],[4,-11],[-9,-2],[-26,10],[-31,-14],[-9,6],[2,6],[4,13],[2,6],[-3,3],[-7,13],[5,9],[5,11],[2,14],[-5,16],[28,12],[6,8],[-2,10],[-41,18],[-38,43],[3,11],[4,5],[5,3],[5,5],[-5,3],[-12,18],[-7,6],[-81,-18],[7,18],[3,5],[-137,132],[9,19],[31,4],[8,19],[-25,17],[-25,8],[-23,-16],[-12,-2],[-10,18],[-1,6],[1,7],[0,9],[-3,11],[-5,8],[-36,17],[-27,13],[-114,8],[-114,8],[-12,-9],[-6,-20],[3,-23],[10,-25],[13,-19],[18,-16],[9,-18],[14,-40],[15,-22],[16,-12],[92,-18],[9,-18],[3,-12],[9,-10],[1,-15],[-4,-12],[-7,-6],[-14,-6],[-8,-12],[-2,-7],[5,-5],[9,-1],[14,6],[15,15],[15,10],[21,-1],[17,-9],[4,-2],[15,-15],[15,-8],[40,-4],[10,-17],[-16,1],[-8,-4],[-6,-14],[4,-8],[7,-12],[3,-8],[-1,-9],[-7,-1],[-14,5],[-46,42],[-15,13],[-27,10],[-29,-3],[-3,-11],[4,-15],[9,-19],[-9,-10],[-36,-7],[10,-24],[16,-11],[17,2],[14,13],[13,5],[15,-14],[21,-29],[17,-23],[5,-19],[4,-20],[8,-20],[12,-16],[8,-6],[6,-3],[4,-5],[10,-27],[5,-9],[-11,-13],[-12,-5],[-13,3],[-42,37],[-1,2],[-34,44],[-37,14],[-14,-3],[-8,-13],[79,-57],[14,-18],[6,-9],[67,-46],[8,-18],[-10,-7],[-10,7],[-10,12],[-43,19],[-8,-4],[-4,-2],[-13,-21],[-3,0],[-8,18],[-2,3],[-9,4],[-19,24],[-28,58],[-17,10],[-15,22],[-8,5],[-11,1],[-5,-4],[-5,-9],[-5,-18],[-3,-7],[-3,-2],[-8,3],[-10,-4],[-10,-10],[-7,-16],[17,-28],[65,-54],[-9,-10],[-11,7],[-10,13],[-14,10],[-9,10],[-21,11],[-6,0],[-6,5],[-9,11],[-9,13],[-3,12],[4,11],[37,30],[3,8],[1,13],[-3,3],[-15,-7],[-23,2],[-12,6],[-20,24],[-9,0],[-9,-9],[-39,-56],[3,-18],[4,-13],[10,-26],[-56,7],[-10,-4],[-9,-8],[-3,-11],[9,-17],[-12,-23],[-15,-11],[-12,-16],[-1,-41],[5,-25],[9,-23],[7,-26],[1,-33],[-7,6],[-6,11],[-9,23],[-10,17],[-10,8],[-22,1],[0,5],[-6,21],[-2,6],[-5,6],[-15,4],[-5,-1],[-8,-11],[-7,-14],[-6,-7],[-9,8],[7,21],[28,36],[-8,8],[-17,-2],[-8,2],[10,18],[38,22],[7,10],[3,7],[2,9],[-13,10],[-19,-1],[-19,-10],[-12,-19],[-10,-25],[-13,-16],[-13,-10],[-19,-5],[-16,-14],[-6,-8],[-5,-11],[-2,-7],[1,-6],[4,-9],[7,-13],[8,-5],[18,1],[16,13],[8,3],[8,-8],[-23,-27],[-30,-18],[-10,-16],[-4,-5],[-6,0],[-12,4],[-5,-4],[-7,-29],[-7,-18],[-1,-8],[0,-9],[-2,-10],[-8,-21],[-7,-7],[-7,4],[-6,15],[6,18],[10,20],[8,20],[0,21],[1,17],[22,26],[5,19],[-5,23],[-11,-4],[-21,-28],[-17,-10],[-10,-1],[-8,7],[-11,15],[-6,5],[-5,1],[6,25],[12,17],[106,71],[42,52],[4,9],[-3,11],[-6,5],[-7,3],[-5,4],[75,66],[8,17],[2,9],[3,32],[3,17],[10,39],[3,16],[-1,13],[-8,15],[2,7],[1,8],[2,18],[-32,16],[-31,4],[-13,9],[-10,1],[-4,3],[0,4],[1,15],[-1,4],[-6,15],[-9,14],[-16,13],[-35,6],[-24,24],[-60,31],[-15,18],[-32,11],[-25,21],[-74,5],[-34,15],[-46,43],[0,1285],[4096,0],[0,-512],[-2,-4],[-5,-36],[-12,-10],[-28,9],[-14,-3],[-7,-4],[-7,-7],[-5,-9],[-19,-40],[-1,-8],[-3,-6],[-6,-5],[-7,0],[-14,6],[-7,-6],[16,-15],[8,-12],[4,-14],[-4,4],[-2,1],[-3,-1],[-4,-4],[8,-9],[28,-7],[6,-6],[8,-23],[6,-5],[30,-4],[12,-14],[-1,-31],[11,-18],[14,-7],[0,-766],[-17,2],[-13,7],[-24,31],[-5,2],[16,8],[4,-3],[6,-11],[4,-3],[7,4],[4,10],[3,13],[5,14],[-7,16],[-7,11],[-9,6],[-9,0],[4,-8],[7,-9],[4,-8],[-11,-8],[-16,6],[-15,13],[-11,14],[5,14],[-3,16],[-11,27],[-10,33],[-5,9],[-17,15],[-6,9],[5,9],[5,5],[5,3],[5,0],[-9,6],[-11,-6],[-7,-12],[2,-13],[-6,-11],[-10,10],[-12,17],[-18,15],[-29,52],[6,7],[24,-7],[-4,12],[-4,5],[-11,0],[3,9],[2,11],[2,11],[2,10],[-4,7],[-3,-1],[-8,-6],[-7,-1],[-8,1],[-8,5],[-6,7],[-5,14],[-3,23],[-12,-8],[-9,1],[-6,15],[8,21],[4,4],[0,8],[-36,-16],[-12,9],[-13,1],[-33,-12],[-28,10],[5,-17],[-10,-9],[-24,6],[-11,-5],[4,-5],[11,-3],[-15,-15],[-34,-7],[-12,-23],[-4,-9],[-10,-15],[-4,-9],[-3,-12],[-4,-25],[-3,-13],[0,-7],[0,-13],[0,-16],[-2,-13],[-25,-62],[-23,-35],[-8,-23],[1,-8],[0,-9],[-1,-11],[0,-13],[2,-18],[2,-5],[4,-1],[7,-8],[-5,-15],[-2,-6],[-3,-5],[5,-15],[14,-15],[12,-29],[15,-24],[73,-73],[1,-4],[2,-7],[2,-8],[3,-6],[4,-3],[14,3],[29,-29],[2,-10],[6,-3],[10,1],[3,-3],[2,-5],[1,-5],[1,-3],[11,-4],[3,2],[-4,9],[10,4],[27,-35],[12,-10],[12,-2],[12,-6],[12,-13],[10,-20],[-20,0],[3,-14],[12,-27],[5,-16],[-1,-4],[-3,-9],[-1,-4],[29,7],[17,-3],[6,-20],[-5,-2],[-27,7],[-10,-5],[6,-7],[1,-10],[-2,-10],[-5,-7],[2,0],[-2,-1],[0,-1],[0,-6],[5,-3],[3,-8],[3,-11],[4,-11],[4,-7],[21,-22],[5,-2],[10,-1],[4,2],[2,4],[3,0],[3,-6],[-2,-8],[7,-9],[7,6],[8,12],[8,7],[11,-2],[26,-18],[10,-13],[-3,0],[13,-15],[2,-6],[0,-11],[-2,-7],[-4,-3],[-3,1],[7,-9],[10,-2],[9,4],[8,7],[-1,34],[17,32],[23,23],[16,8]],[[726,2382],[-8,8],[-8,2],[-17,-2],[8,-25],[12,-9],[25,1],[-2,12],[-3,7],[-3,4],[-4,2]],[[766,2414],[-27,6],[-8,-6],[52,-16],[-3,12],[-4,5],[-5,0],[-5,-1]],[[796,2456],[-18,-3],[-9,-5],[-8,-8],[26,-12],[13,1],[8,19],[-12,8]],[[1606,3580],[2,-7],[11,-13],[8,-20],[2,-4],[12,-9],[95,20],[20,14],[18,-1],[7,6],[6,10],[4,16],[-35,30],[-63,10],[-60,-13],[-27,-39]],[[2847,3627],[-52,10],[-8,26],[-7,14],[-43,31],[-34,51],[-10,7],[-8,3],[-15,11],[-78,17],[-71,-11],[-53,-31],[-160,-15],[-160,-15],[-26,-25],[-24,-41],[-33,-82],[-13,-21],[-14,-15],[-12,-5],[-10,-9],[-11,-22],[-11,-27],[-6,-25],[19,-17],[72,-3],[30,-24],[14,-18],[18,-16],[40,-7],[19,-14],[4,-8],[8,-21],[5,-4],[7,-2],[9,-5],[6,-10],[1,-16],[83,-66],[-7,-6],[-14,5],[-7,-7],[7,-20],[7,-9],[23,-20],[18,-26],[-5,-8],[5,-7],[-5,-8],[-12,-3],[-6,-6],[58,-42],[6,1],[4,3],[5,1],[5,-5],[-3,-5],[-2,-5],[-3,-14],[12,-21],[7,-9],[14,-7],[5,-10],[10,-28],[20,-41],[89,-108],[5,-12],[4,-14],[1,-18],[4,-18],[8,-10],[16,-9],[-1,-5],[-1,-14],[0,-6],[19,10],[6,-1],[3,-6],[2,-9],[2,-11],[5,-2],[3,2],[3,4],[4,5],[20,8],[-7,10],[-20,15],[-21,33],[12,8],[-1,12],[-9,12],[-11,9],[11,12],[12,-9],[12,-14],[12,-5],[10,10],[30,52],[38,31],[12,26],[-3,53],[24,31],[21,44],[11,16],[27,21],[10,20],[-9,13],[4,21],[27,66],[30,49],[7,23],[0,17],[-3,20],[-2,26],[2,11],[9,23],[2,16],[-1,8],[-9,20],[6,19],[9,15],[7,18],[0,23],[5,14],[3,6],[3,4],[-5,42],[-21,34],[-44,41]],[[28,422],[15,12],[3,13],[0,17],[-4,15],[12,11],[40,-4],[18,18],[9,5],[11,-5],[-3,-15],[-2,-5],[-3,-5],[13,-12],[25,0],[12,-5],[4,-8],[9,-13],[5,-4],[-6,-10],[-13,-5],[-6,-10],[-2,-9],[-3,-40],[3,-10],[14,-23],[-1,-17],[-7,-9],[-20,-14],[-7,6],[-7,12],[-3,18],[-5,9],[-32,20],[8,6],[4,4],[3,6],[-4,8],[-14,9],[-4,6],[-7,13],[-4,5],[-4,3],[-5,-2],[-8,-8],[0,-2],[-1,-6],[0,-5],[-2,-4],[-3,-2],[-10,2],[-9,6],[-7,14],[-2,14]],[[28,422],[15,12],[3,13],[0,17],[-4,15],[12,11],[40,-4],[18,18],[9,5],[11,-5],[-3,-15],[-2,-5],[-3,-5],[13,-12],[25,0],[12,-5],[4,-8],[9,-13],[5,-4],[-6,-10],[-13,-5],[-6,-10],[-2,-9],[-3,-40],[3,-10],[14,-23],[-1,-17],[-7,-9],[-20,-14],[-7,6],[-7,12],[-3,18],[-5,9],[-32,20],[8,6],[4,4],[3,6],[-4,8],[-14,9],[-4,6],[-7,13],[-4,5],[-4,3],[-5,-2],[-8,-8],[0,-2],[-1,-6],[0,-5],[-2,-4],[-3,-2],[-10,2],[-9,6],[-7,14],[-2,14]],[[726,2382],[-8,8],[-8,2],[-17,-2],[8,-25],[12,-9],[25,1],[-2,12],[-3,7],[-3,4],[-4,2]],[[766,2414],[-27,6],[-8,-6],[52,-16],[-3,12],[-4,5],[-5,0],[-5,-1]],[[796,2456],[-18,-3],[-9,-5],[-8,-8],[26,-12],[13,1],[8,19],[-12,8]],[[3488,0],[-2,1],[-7,9],[-6,18],[-10,18],[-36,32],[-16,6],[-11,-26],[4,-14],[3,-21],[2,-23]],[[3246,0],[-5,10],[-18,48],[-5,8],[-12,12],[-8,17],[-13,18],[-9,7],[-24,37],[-6,6],[-7,3],[-22,-3],[-11,3],[-11,13],[-9,28],[-30,136],[-15,36],[-20,33],[-11,12],[-26,9],[-104,121],[-5,11],[-7,26],[-5,11],[-4,8],[7,22],[10,12],[20,15],[25,44],[7,19],[6,43],[-5,32],[-10,28],[-5,32],[3,27],[9,15],[11,7],[9,1],[38,-26],[8,6],[0,16],[-7,20],[-13,29],[-3,21],[2,19],[8,38],[-20,15],[-7,13],[-6,22],[14,56],[2,24],[-6,27],[-36,90],[-11,14],[-5,12],[-2,9],[-3,21],[-3,10],[-14,36],[-8,16],[-9,6],[-3,5],[-2,12],[-2,14],[-1,10],[-6,14],[-6,7],[-25,8],[-12,10],[-10,21],[-4,35],[0,28],[-2,21],[-3,18],[-17,65],[-7,20],[-7,9],[-1,5],[-4,25],[-4,11],[-6,8],[-15,4],[-6,5],[5,13],[-1,15],[-4,13],[-5,8],[5,23],[16,18],[6,17],[1,19],[-2,19],[-5,13],[-12,12],[-5,15],[-7,29],[-5,13],[-11,20],[-12,33],[-2,8],[-1,8],[-1,21],[-2,8],[-6,16],[-20,30],[-9,22],[-15,48],[-10,20],[8,8],[7,-4],[7,-7],[7,-5],[5,4],[2,9],[3,28],[-16,9],[-3,11],[9,21],[-1,4],[-4,9],[-2,4],[3,12],[2,4],[-7,8],[-25,8],[2,26],[-1,20],[-5,15],[-7,13],[20,21],[3,9],[-2,11],[-4,9],[-4,6],[-16,7],[-37,36],[2,11],[2,8],[3,8],[4,6],[-30,58],[10,9],[9,-12],[7,-19],[11,-13],[7,-17],[3,-6],[5,-2],[6,1],[12,10],[-5,16],[-8,11],[-17,13],[7,11],[3,6],[2,9],[-8,6],[-17,44],[-10,14],[-12,12],[-12,6],[-11,0],[0,8],[4,0],[3,3],[3,6],[3,7],[-6,6],[-3,8],[-3,10],[-3,9],[-6,8],[-15,14],[-7,12],[13,16],[-54,31],[-16,28],[-8,7],[-4,10],[1,23],[0,23],[-8,10],[-18,-1],[-10,8],[-4,-4],[-5,-7],[-4,-5],[-16,-4],[-15,5],[-48,36],[-20,5],[-4,5],[-6,23],[-2,5],[-6,4],[-20,29],[-16,7],[-8,8],[-6,25],[-13,11],[-5,6],[-2,9],[0,20],[-3,12],[-3,8],[-4,5],[-5,3],[-4,1],[-3,-1],[-1,-5],[0,-6],[-1,-9],[-7,-9],[-42,20],[-9,17],[-15,43],[-12,21],[-17,16],[-18,7],[-16,-3],[-11,-15],[-4,-2],[-13,8],[-4,1],[-8,-6],[-14,-16],[-8,-3],[1,-18],[-4,-14],[-12,-18],[34,-40],[8,-17],[-10,-22],[-12,-1],[-36,21],[-21,28],[-14,10],[-9,17],[-16,10],[-43,47],[-23,9],[-53,39],[-47,-3],[-80,35],[-28,-1],[7,-15],[15,-19],[6,-15],[-41,3],[-12,-11],[3,-6],[7,-6],[3,-5],[0,-5],[0,-17],[1,-7],[5,-11],[13,-19],[6,-7],[54,-30],[13,-28],[-72,22],[-36,-2],[-34,-36],[-14,-51],[12,-38],[39,-60],[-5,-6],[-7,-2],[-12,1],[-4,-4],[3,-9],[21,-35],[12,-26],[-6,-6],[-4,-11],[-2,-15],[2,-17],[4,-9],[12,-17],[5,-12],[0,-13],[-7,-7],[-6,-9],[1,-21],[3,-11],[11,-26],[12,-47],[4,-30],[-5,-13],[-5,-6],[3,-13],[9,-18],[4,-12],[8,-14],[4,-12],[-7,-28],[5,-19],[20,-26],[-6,-6],[-6,-2],[-5,-5],[-3,-13],[28,-16],[13,-15],[9,-26],[-5,-18],[-1,-13],[2,-12],[4,-15],[-40,-8],[15,-34],[18,-20],[20,-9],[19,-3],[-8,-25],[-23,-9],[3,-28],[5,-10],[12,-9],[4,-10],[1,-16],[-4,-8],[-12,-9],[11,-13],[16,-11],[14,-16],[6,-29],[-3,-18],[-8,-5],[-9,5],[-13,20],[-11,4],[-8,-4],[-1,-10],[8,-21],[9,-16],[8,-17],[3,-29],[0,-58],[2,-9],[2,-8],[1,-11],[-2,-17],[52,-17],[-7,-7],[-3,-1],[4,-8],[11,-13],[3,-7],[-2,-13],[-10,-6],[-3,-10],[1,-18],[6,-25],[6,-22],[5,-10],[15,-5],[30,-23],[15,-5],[7,-7],[3,-19],[0,-22],[-1,-17],[8,-1],[22,-16],[22,-7],[8,-9],[-7,-21],[-13,-12],[-14,-3],[-31,18],[-4,-1],[-9,-12],[-3,-7],[11,-10],[16,-28],[9,-7],[23,-7],[12,-10],[10,-15],[-97,-26],[-17,-11],[-12,-26],[-12,-31],[-14,-24],[-15,4],[-17,19],[-16,9],[-12,-30],[-2,-21],[2,-16],[5,-9],[7,-4],[5,-5],[23,-35],[-6,-20],[-9,-3],[-9,1],[-6,-4],[-3,0],[-7,-6],[-8,3],[-22,24],[-25,5],[2,31],[-5,27],[-9,23],[-11,17],[-18,8],[-37,-20],[-17,20],[21,12],[4,5],[2,10],[0,10],[-1,9],[-4,4],[-9,2],[-11,8],[-10,13],[-7,18],[13,29],[2,12],[-1,15],[-3,8],[-4,4],[-4,7],[-6,25],[6,11],[12,8],[9,17],[12,45],[-1,16],[-12,9],[-11,-8],[-23,-34],[-9,1],[5,8],[13,40],[-10,16],[-12,4],[-23,-2],[6,43],[1,23],[-2,16],[1,9],[1,23],[-2,17],[-1,19],[-3,14],[-9,0],[0,9],[4,0],[3,3],[3,5],[3,9],[-5,8],[-5,6],[-5,3],[-5,-1],[-1,-22],[-9,-7],[-12,3],[-8,10],[1,11],[1,13],[0,32],[0,8],[-21,104],[-6,16],[-13,29],[-5,17],[-2,25],[1,20],[3,19],[2,36],[3,24],[1,12],[2,14],[5,8],[5,7],[3,8],[2,24],[-3,16],[-5,15],[-2,23],[-6,20],[-15,14],[-71,34],[-7,-14],[9,-7],[4,-7],[4,-11],[-9,-2],[-26,10],[-31,-14],[-9,6],[2,6],[4,13],[2,6],[-3,3],[-7,13],[5,9],[5,11],[2,14],[-5,16],[28,12],[6,8],[-2,10],[-41,18],[-38,43],[3,11],[4,5],[5,3],[5,5],[-5,3],[-12,18],[-7,6],[-81,-18],[7,18],[3,5],[-137,132],[9,19],[31,4],[8,19],[-25,17],[-25,8],[-23,-16],[-12,-2],[-10,18],[-1,6],[1,7],[0,9],[-3,11],[-5,8],[-36,17],[-27,13],[-114,8],[-114,8],[-12,-9],[-6,-20],[3,-23],[10,-25],[13,-19],[18,-16],[9,-18],[14,-40],[15,-22],[16,-12],[92,-18],[9,-18],[3,-12],[9,-10],[1,-15],[-4,-12],[-7,-6],[-14,-6],[-8,-12],[-2,-7],[5,-5],[9,-1],[14,6],[15,15],[15,10],[21,-1],[17,-9],[4,-2],[15,-15],[15,-8],[40,-4],[10,-17],[-16,1],[-8,-4],[-6,-14],[4,-8],[7,-12],[3,-8],[-1,-9],[-7,-1],[-14,5],[-46,42],[-15,13],[-27,10],[-29,-3],[-3,-11],[4,-15],[9,-19],[-9,-10],[-36,-7],[10,-24],[16,-11],[17,2],[14,13],[13,5],[15,-14],[21,-29],[17,-23],[5,-19],[4,-20],[8,-20],[12,-16],[8,-6],[6,-3],[4,-5],[10,-27],[5,-9],[-11,-13],[-12,-5],[-13,3],[-42,37],[-1,2],[-34,44],[-37,14],[-14,-3],[-8,-13],[79,-57],[14,-18],[6,-9],[67,-46],[8,-18],[-10,-7],[-10,7],[-10,12],[-43,19],[-8,-4],[-4,-2],[-13,-21],[-3,0],[-8,18],[-2,3],[-9,4],[-19,24],[-28,58],[-17,10],[-15,22],[-8,5],[-11,1],[-5,-4],[-5,-9],[-5,-18],[-3,-7],[-3,-2],[-8,3],[-10,-4],[-10,-10],[-7,-16],[17,-28],[65,-54],[-9,-10],[-11,7],[-10,13],[-14,10],[-9,10],[-21,11],[-6,0],[-6,5],[-9,11],[-9,13],[-3,12],[4,11],[37,30],[3,8],[1,13],[-3,3],[-15,-7],[-23,2],[-12,6],[-20,24],[-9,0],[-9,-9],[-39,-56],[3,-18],[4,-13],[10,-26],[-56,7],[-10,-4],[-9,-8],[-3,-11],[9,-17],[-12,-23],[-15,-11],[-12,-16],[-1,-41],[5,-25],[9,-23],[7,-26],[1,-33],[-7,6],[-6,11],[-9,23],[-10,17],[-10,8],[-22,1],[0,5],[-6,21],[-2,6],[-5,6],[-15,4],[-5,-1],[-8,-11],[-7,-14],[-6,-7],[-9,8],[7,21],[28,36],[-8,8],[-17,-2],[-8,2],[10,18],[38,22],[7,10],[3,7],[2,9],[-13,10],[-19,-1],[-19,-10],[-12,-19],[-10,-25],[-13,-16],[-13,-10],[-19,-5],[-16,-14],[-6,-8],[-5,-11],[-2,-7],[1,-6],[4,-9],[7,-13],[8,-5],[18,1],[16,13],[8,3],[8,-8],[-23,-27],[-30,-18],[-10,-16],[-4,-5],[-6,0],[-12,4],[-5,-4],[-7,-29],[-7,-18],[-1,-8],[0,-9],[-2,-10],[-8,-21],[-7,-7],[-7,4],[-6,15],[6,18],[10,20],[8,20],[0,21],[1,17],[22,26],[5,19],[-5,23],[-11,-4],[-21,-28],[-17,-10],[-10,-1],[-8,7],[-11,15],[-6,5],[-5,1],[6,25],[12,17],[106,71],[42,52],[4,9],[-3,11],[-6,5],[-7,3],[-5,4],[75,66],[8,17],[2,9],[3,32],[3,17],[10,39],[3,16],[-1,13],[-8,15],[2,7],[1,8],[2,18],[-32,16],[-31,4],[-13,9],[-10,1],[-4,3],[0,4],[1,15],[-1,4],[-6,15],[-9,14],[-16,13],[-35,6],[-24,24],[-60,31],[-15,18],[-32,11],[-25,21],[-74,5],[-34,15],[-46,43]],[[1606,3580],[2,-7],[11,-13],[8,-20],[2,-4],[12,-9],[95,20],[20,14],[18,-1],[7,6],[6,10],[4,16],[-35,30],[-63,10],[-60,-13],[-27,-39]],[[2847,3627],[-52,10],[-8,26],[-7,14],[-43,31],[-34,51],[-10,7],[-8,3],[-15,11],[-78,17],[-71,-11],[-53,-31],[-160,-15],[-160,-15],[-26,-25],[-24,-41],[-33,-82],[-13,-21],[-14,-15],[-12,-5],[-10,-9],[-11,-22],[-11,-27],[-6,-25],[19,-17],[72,-3],[30,-24],[14,-18],[18,-16],[40,-7],[19,-14],[4,-8],[8,-21],[5,-4],[7,-2],[9,-5],[6,-10],[1,-16],[83,-66],[-7,-6],[-14,5],[-7,-7],[7,-20],[7,-9],[23,-20],[18,-26],[-5,-8],[5,-7],[-5,-8],[-12,-3],[-6,-6],[58,-42],[6,1],[4,3],[5,1],[5,-5],[-3,-5],[-2,-5],[-3,-14],[12,-21],[7,-9],[14,-7],[5,-10],[10,-28],[20,-41],[89,-108],[5,-12],[4,-14],[1,-18],[4,-18],[8,-10],[16,-9],[-1,-5],[-1,-14],[0,-6],[19,10],[6,-1],[3,-6],[2,-9],[2,-11],[5,-2],[3,2],[3,4],[4,5],[20,8],[-7,10],[-20,15],[-21,33],[12,8],[-1,12],[-9,12],[-11,9],[11,12],[12,-9],[12,-14],[12,-5],[10,10],[30,52],[38,31],[12,26],[-3,53],[24,31],[21,44],[11,16],[27,21],[10,20],[-9,13],[4,21],[27,66],[30,49],[7,23],[0,17],[-3,20],[-2,26],[2,11],[9,23],[2,16],[-1,8],[-9,20],[6,19],[9,15],[7,18],[0,23],[5,14],[3,6],[3,4],[-5,42],[-21,34],[-44,41]],[[4096,3584],[-2,-4],[-5,-36],[-12,-10],[-28,9],[-14,-3],[-7,-4],[-7,-7],[-5,-9],[-19,-40],[-1,-8],[-3,-6],[-6,-5],[-7,0],[-14,6],[-7,-6],[16,-15],[8,-12],[4,-14],[-4,4],[-2,1],[-3,-1],[-4,-4],[8,-9],[28,-7],[6,-6],[8,-23],[6,-5],[30,-4],[12,-14],[-1,-31],[11,-18],[14,-7]],[[4096,2530],[-17,2],[-13,7],[-24,31],[-5,2],[16,8],[4,-3],[6,-11],[4,-3],[7,4],[4,10],[3,13],[5,14],[-7,16],[-7,11],[-9,6],[-9,0],[4,-8],[7,-9],[4,-8],[-11,-8],[-16,6],[-15,13],[-11,14],[5,14],[-3,16],[-11,27],[-10,33],[-5,9],[-17,15],[-6,9],[5,9],[5,5],[5,3],[5,0],[-9,6],[-11,-6],[-7,-12],[2,-13],[-6,-11],[-10,10],[-12,17],[-18,15],[-29,52],[6,7],[24,-7],[-4,12],[-4,5],[-11,0],[3,9],[2,11],[2,11],[2,10],[-4,7],[-3,-1],[-8,-6],[-7,-1],[-8,1],[-8,5],[-6,7],[-5,14],[-3,23],[-12,-8],[-9,1],[-6,15],[8,21],[4,4],[0,8],[-36,-16],[-12,9],[-13,1],[-33,-12],[-28,10],[5,-17],[-10,-9],[-24,6],[-11,-5],[4,-5],[11,-3],[-15,-15],[-34,-7],[-12,-23],[-4,-9],[-10,-15],[-4,-9],[-3,-12],[-4,-25],[-3,-13],[0,-7],[0,-13],[0,-16],[-2,-13],[-25,-62],[-23,-35],[-8,-23],[1,-8],[0,-9],[-1,-11],[0,-13],[2,-18],[2,-5],[4,-1],[7,-8],[-5,-15],[-2,-6],[-3,-5],[5,-15],[14,-15],[12,-29],[15,-24],[73,-73],[1,-4],[2,-7],[2,-8],[3,-6],[4,-3],[14,3],[29,-29],[2,-10],[6,-3],[10,1],[3,-3],[2,-5],[1,-5],[1,-3],[11,-4],[3,2],[-4,9],[10,4],[27,-35],[12,-10],[12,-2],[12,-6],[12,-13],[10,-20],[-20,0],[3,-14],[12,-27],[5,-16],[-1,-4],[-3,-9],[-1,-4],[29,7],[17,-3],[6,-20],[-5,-2],[-27,7],[-10,-5],[6,-7],[1,-10],[-2,-10],[-5,-7],[2,0],[-2,-1],[0,-1],[0,-6],[5,-3],[3,-8],[3,-11],[4,-11],[4,-7],[21,-22],[5,-2],[10,-1],[4,2],[2,4],[3,0],[3,-6],[-2,-8],[7,-9],[7,6],[8,12],[8,7],[11,-2],[26,-18],[10,-13],[-3,0],[13,-15],[2,-6],[0,-11],[-2,-7],[-4,-3],[-3,1],[7,-9],[10,-2],[9,4],[8,7],[-1,34],[17,32],[23,23],[16,8]],[[2847,3627],[44,-41],[21,-34],[5,-42],[-3,-4],[-3,-6],[-5,-14],[0,-23],[-7,-18],[-9,-15],[-6,-19],[9,-20],[1,-8],[-2,-16],[-9,-23],[-2,-11],[2,-26],[3,-20],[0,-17],[-7,-23],[-30,-49],[-27,-66],[-4,-21],[9,-13],[-10,-20],[-27,-21],[-11,-16],[-21,-44],[-24,-31],[3,-53],[-12,-26],[-38,-31],[-30,-52],[-10,-10],[-12,5],[-12,14],[-12,9],[-11,-12],[11,-9],[9,-12],[1,-12],[-12,-8],[21,-33],[20,-15],[7,-10],[-20,-8],[-4,-5],[-3,-4],[-3,-2],[-5,2],[-2,11],[-2,9],[-3,6],[-6,1],[-19,-10],[0,6],[1,14],[1,5],[-16,9],[-8,10],[-4,18],[-1,18],[-4,14],[-5,12],[-89,108],[-20,41],[-10,28],[-5,10],[-14,7],[-7,9],[-12,21],[3,14],[2,5],[3,5],[-5,5],[-5,-1],[-4,-3],[-6,-1],[-58,42],[6,6],[12,3],[5,8],[-5,7],[5,8],[-18,26],[-23,20],[-7,9],[-7,20],[7,7],[14,-5],[7,6],[-83,66],[-1,16],[-6,10],[-9,5],[-7,2],[-5,4],[-8,21],[-4,8],[-19,14],[-40,7],[-18,16],[-14,18],[-30,24],[-72,3],[-19,17],[6,25],[11,27],[11,22],[10,9],[12,5],[14,15],[13,21],[33,82],[24,41],[26,25],[160,15],[160,15],[53,31],[71,11],[78,-17],[15,-11],[8,-3],[10,-7],[34,-51],[43,-31],[7,-14],[8,-26],[52,-10]],[[1606,3580],[27,39],[60,13],[63,-10],[35,-30],[-4,-16],[-6,-10],[-7,-6],[-18,1],[-20,-14],[-95,-20],[-12,9],[-2,4],[-8,20],[-11,13],[-2,7]],[[3246,0],[-3246,0],[0,2811],[46,-43],[34,-15],[74,-5],[25,-21],[32,-11],[15,-18],[60,-31],[24,-24],[35,-6],[16,-13],[9,-14],[6,-15],[1,-4],[-1,-15],[0,-4],[4,-3],[10,-1],[13,-9],[31,-4],[32,-16],[-2,-18],[-1,-8],[-2,-7],[8,-15],[1,-13],[-3,-16],[-10,-39],[-3,-17],[-3,-32],[-2,-9],[-8,-17],[-75,-66],[5,-4],[7,-3],[6,-5],[3,-11],[-4,-9],[-42,-52],[-106,-71],[-12,-17],[-6,-25],[5,-1],[6,-5],[11,-15],[8,-7],[10,1],[17,10],[21,28],[11,4],[5,-23],[-5,-19],[-22,-26],[-1,-17],[0,-21],[-8,-20],[-10,-20],[-4,-12],[-2,-6],[6,-15],[7,-4],[7,7],[6,18],[2,3],[2,10],[0,9],[1,8],[7,18],[7,29],[5,4],[12,-4],[6,0],[4,5],[10,16],[30,18],[23,27],[-8,8],[-8,-3],[-16,-13],[-18,-1],[-8,5],[-7,13],[-4,9],[-1,6],[2,7],[5,11],[6,8],[16,14],[19,5],[13,10],[13,16],[10,25],[12,19],[19,10],[19,1],[13,-10],[-2,-9],[-3,-7],[-7,-10],[-38,-22],[-10,-18],[8,-2],[17,2],[8,-8],[-28,-36],[-7,-21],[9,-8],[6,7],[7,14],[8,11],[5,1],[15,-4],[5,-6],[2,-6],[6,-21],[0,-5],[22,-1],[10,-8],[10,-17],[9,-23],[6,-11],[7,-6],[-1,33],[-7,26],[-9,23],[-5,25],[1,41],[12,16],[15,11],[12,23],[-9,17],[3,11],[9,8],[10,4],[56,-7],[-10,26],[-4,13],[-3,18],[39,56],[9,9],[9,0],[20,-24],[12,-6],[23,-2],[15,7],[3,-3],[-1,-13],[-3,-8],[-37,-30],[-4,-11],[3,-12],[9,-13],[9,-11],[6,-5],[6,0],[21,-11],[9,-10],[14,-10],[10,-13],[11,-7],[9,10],[-65,54],[-17,28],[7,16],[10,10],[10,4],[8,-3],[3,2],[3,7],[5,18],[5,9],[5,4],[11,-1],[8,-5],[15,-22],[17,-10],[28,-58],[19,-24],[9,-4],[2,-3],[8,-18],[3,0],[13,21],[4,2],[8,4],[43,-19],[10,-12],[10,-7],[10,7],[-8,18],[-67,46],[-6,9],[-14,18],[-79,57],[8,13],[14,3],[37,-14],[34,-44],[1,-2],[42,-37],[13,-3],[12,5],[11,13],[-5,9],[-10,27],[-4,5],[-6,3],[-8,6],[-12,16],[-8,20],[-4,20],[-5,19],[-17,23],[-21,29],[-15,14],[-13,-5],[-14,-13],[-17,-2],[-16,11],[-10,24],[36,7],[9,10],[-9,19],[-4,15],[3,11],[29,3],[27,-10],[15,-13],[46,-42],[14,-5],[7,1],[1,9],[-3,8],[-7,12],[-4,8],[6,14],[8,4],[16,-1],[-10,17],[-40,4],[-15,8],[-15,15],[-4,2],[-17,9],[-21,1],[-15,-10],[-15,-15],[-14,-6],[-9,1],[-5,5],[2,7],[8,12],[14,6],[7,6],[4,12],[-1,15],[-9,10],[-3,12],[-9,18],[-92,18],[-16,12],[-15,22],[-14,40],[-9,18],[-18,16],[-13,19],[-10,25],[-3,23],[6,20],[12,9],[114,-8],[114,-8],[27,-13],[36,-17],[5,-8],[3,-11],[0,-9],[-1,-7],[1,-6],[10,-18],[12,2],[23,16],[25,-8],[25,-17],[-8,-19],[-31,-4],[-9,-19],[137,-132],[-3,-5],[-7,-18],[81,18],[7,-6],[12,-18],[5,-3],[-5,-5],[-5,-3],[-4,-5],[-3,-11],[38,-43],[41,-18],[2,-10],[-6,-8],[-28,-12],[5,-16],[-2,-14],[-5,-11],[-5,-9],[7,-13],[3,-3],[-2,-6],[-4,-13],[-2,-6],[9,-6],[31,14],[26,-10],[9,2],[-4,11],[-4,7],[-9,7],[7,14],[71,-34],[15,-14],[6,-20],[2,-23],[5,-15],[3,-16],[-2,-24],[-3,-8],[-5,-7],[-5,-8],[-2,-14],[-1,-12],[-3,-24],[-2,-36],[-3,-19],[-1,-20],[2,-25],[5,-17],[13,-29],[6,-16],[15,-73],[6,-31],[0,-8],[0,-32],[-1,-13],[-1,-11],[8,-10],[12,-3],[9,7],[1,22],[5,1],[5,-3],[5,-6],[5,-8],[-3,-9],[-3,-5],[-3,-3],[-4,0],[0,-9],[9,0],[3,-14],[1,-19],[2,-17],[-1,-23],[-1,-9],[2,-16],[-1,-23],[-6,-43],[23,2],[12,-4],[10,-16],[-13,-40],[-5,-8],[9,-1],[23,34],[11,8],[12,-9],[1,-16],[-12,-45],[-9,-17],[-12,-8],[-6,-11],[6,-25],[4,-7],[4,-4],[3,-8],[1,-15],[-2,-12],[-13,-29],[7,-18],[10,-13],[11,-8],[9,-2],[4,-4],[1,-9],[0,-10],[-2,-10],[-4,-5],[-21,-12],[17,-20],[37,20],[18,-8],[11,-17],[9,-23],[5,-27],[-2,-31],[25,-5],[10,-12],[12,-12],[8,-3],[7,6],[3,0],[6,4],[9,-1],[9,3],[6,20],[-23,35],[-5,5],[-7,4],[-5,9],[-2,16],[2,21],[12,30],[16,-9],[17,-19],[15,-4],[14,24],[12,31],[12,26],[17,11],[97,26],[-10,15],[-12,10],[-23,7],[-9,7],[-16,28],[-11,10],[3,7],[9,12],[4,1],[31,-18],[14,3],[13,12],[7,21],[-8,9],[-22,7],[-22,16],[-8,1],[1,17],[0,22],[-3,19],[-7,7],[-15,5],[-30,23],[-15,5],[-5,10],[-6,22],[-6,25],[-1,18],[3,10],[10,6],[2,13],[-3,7],[-11,13],[-4,8],[3,1],[7,7],[-52,17],[2,17],[-1,11],[-2,8],[-2,9],[0,58],[0,1],[-3,28],[-8,17],[-9,16],[-8,21],[1,10],[8,4],[11,-4],[13,-20],[9,-5],[8,5],[3,18],[-6,29],[-14,16],[-16,11],[-11,13],[12,9],[4,8],[-1,16],[-4,10],[-12,9],[-5,10],[-3,28],[23,9],[8,25],[-19,3],[-18,8],[-2,1],[-18,20],[-15,34],[35,7],[5,1],[-4,15],[-1,7],[-1,5],[1,13],[0,1],[5,17],[-5,13],[-4,13],[-13,15],[-28,16],[3,13],[5,5],[6,2],[6,6],[-20,26],[-5,19],[7,28],[-4,12],[-8,14],[-4,12],[-9,18],[-3,13],[5,6],[5,13],[-4,30],[-12,47],[-11,26],[-3,11],[-1,21],[6,9],[7,7],[0,13],[-5,12],[-12,17],[-4,9],[-2,17],[2,15],[4,11],[6,6],[-12,26],[-21,35],[-3,9],[4,4],[12,-1],[7,2],[5,6],[-39,60],[-12,38],[14,51],[34,36],[36,2],[65,-20],[7,-2],[-7,15],[-6,13],[-54,30],[-6,7],[-13,19],[-5,11],[-1,7],[0,17],[0,5],[-3,5],[-7,6],[-3,6],[12,11],[41,-3],[-6,15],[-15,19],[-7,15],[28,1],[45,-20],[35,-15],[47,3],[53,-39],[23,-9],[43,-47],[16,-10],[9,-17],[14,-10],[21,-28],[36,-21],[12,1],[10,22],[-8,17],[-34,40],[12,18],[4,14],[-1,18],[8,3],[14,16],[8,6],[4,-1],[13,-8],[4,2],[11,15],[16,3],[18,-7],[17,-16],[12,-21],[15,-43],[9,-17],[42,-20],[7,9],[1,9],[0,6],[1,5],[3,1],[4,-1],[5,-3],[4,-5],[3,-8],[3,-12],[0,-20],[2,-9],[5,-6],[13,-11],[6,-25],[8,-8],[16,-7],[20,-29],[6,-4],[2,-5],[6,-23],[4,-5],[20,-5],[48,-36],[15,-5],[16,4],[4,5],[5,7],[4,4],[10,-8],[18,1],[8,-10],[0,-23],[-1,-23],[4,-10],[8,-7],[16,-28],[54,-31],[-13,-16],[7,-12],[15,-14],[6,-8],[3,-9],[3,-10],[3,-8],[6,-6],[-3,-7],[-3,-6],[-3,-3],[-4,0],[0,-8],[11,0],[12,-6],[12,-12],[10,-14],[17,-44],[8,-6],[-2,-9],[-3,-6],[-7,-11],[17,-13],[8,-11],[5,-16],[-12,-10],[-6,-1],[-5,2],[-3,6],[-7,17],[-11,13],[-7,19],[-9,12],[-10,-9],[30,-58],[-4,-6],[-3,-8],[-2,-8],[-2,-11],[37,-36],[16,-7],[4,-6],[4,-9],[2,-11],[-3,-9],[-20,-21],[7,-13],[5,-15],[1,-20],[-2,-26],[25,-8],[7,-8],[-2,-4],[-3,-12],[2,-4],[4,-9],[1,-4],[-9,-21],[3,-11],[16,-9],[-3,-28],[-2,-9],[-5,-4],[-7,5],[-7,7],[-7,4],[-8,-8],[10,-20],[15,-48],[9,-22],[20,-30],[6,-16],[2,-8],[1,-21],[1,-8],[2,-8],[12,-33],[11,-20],[5,-13],[7,-28],[0,-1],[5,-15],[12,-12],[5,-13],[2,-19],[-1,-19],[-6,-17],[-16,-18],[-5,-23],[5,-8],[4,-13],[1,-15],[-5,-13],[6,-5],[15,-4],[6,-8],[4,-11],[4,-25],[1,-5],[7,-9],[7,-20],[17,-65],[3,-18],[2,-21],[0,-28],[4,-35],[10,-21],[12,-10],[25,-8],[6,-7],[6,-14],[1,-10],[2,-14],[2,-12],[3,-5],[9,-6],[8,-16],[14,-36],[3,-10],[3,-21],[2,-9],[5,-12],[11,-14],[36,-90],[6,-27],[-2,-24],[-14,-56],[6,-22],[7,-13],[20,-15],[-8,-38],[-2,-19],[3,-21],[13,-29],[7,-20],[0,-16],[-8,-6],[-38,26],[-9,-1],[-11,-7],[-9,-15],[-3,-27],[5,-32],[10,-28],[5,-32],[-6,-43],[-7,-19],[-25,-44],[-20,-15],[-10,-12],[-7,-22],[4,-8],[5,-11],[7,-26],[5,-11],[104,-121],[26,-9],[11,-12],[20,-33],[15,-36],[30,-136],[9,-28],[11,-13],[11,-3],[22,3],[7,-3],[6,-6],[24,-37],[9,-7],[13,-18],[8,-17],[12,-12],[5,-8],[18,-48],[5,-10]],[[3488,0],[-79,0],[-2,23],[-3,21],[-4,14],[11,26],[16,-6],[36,-32],[10,-18],[6,-18],[7,-9],[2,-1]],[[4096,2530],[0,-463],[-16,-8],[-23,-23],[-17,-32],[1,-34],[-8,-7],[-9,-4],[-10,2],[-7,9],[3,-1],[4,3],[2,7],[0,11],[-2,6],[-13,15],[3,0],[-10,13],[-26,18],[-11,2],[-8,-7],[-8,-12],[-7,-6],[-7,9],[2,8],[-3,6],[-3,0],[-2,-4],[-4,-2],[-10,1],[-5,2],[-21,22],[-4,7],[-4,11],[-3,11],[-3,8],[-5,3],[0,6],[0,1],[2,1],[-2,0],[5,7],[2,10],[-1,10],[-6,7],[10,5],[27,-7],[5,2],[-6,20],[-17,3],[-29,-7],[1,4],[3,9],[1,4],[-5,16],[-12,27],[-3,14],[20,0],[-10,20],[-12,13],[-12,6],[-12,2],[-12,10],[-27,35],[-10,-4],[4,-9],[-3,-2],[-11,4],[-1,3],[-1,5],[-2,5],[-3,3],[-10,-1],[-6,3],[-2,10],[-29,29],[-14,-3],[-4,3],[-3,6],[-2,8],[-2,7],[-1,4],[-73,73],[-15,24],[-12,29],[-14,15],[-5,15],[3,5],[2,6],[5,15],[-7,8],[-4,1],[-2,5],[-2,18],[0,13],[1,11],[0,9],[-1,8],[8,23],[23,35],[25,62],[2,13],[0,16],[0,13],[0,7],[3,13],[4,25],[3,12],[4,9],[10,15],[4,9],[12,23],[34,7],[15,15],[-11,3],[-4,5],[11,5],[24,-6],[10,9],[-5,17],[28,-10],[33,12],[13,-1],[12,-9],[36,16],[0,-8],[-4,-4],[-8,-21],[6,-15],[9,-1],[12,8],[3,-23],[5,-14],[6,-7],[8,-5],[8,-1],[7,1],[8,6],[3,1],[4,-7],[-2,-10],[-2,-11],[-2,-11],[-3,-9],[11,0],[4,-5],[4,-12],[-24,7],[-6,-7],[29,-52],[18,-15],[12,-17],[10,-10],[6,11],[-2,13],[7,12],[11,6],[9,-6],[-5,0],[-5,-3],[-5,-5],[-5,-9],[6,-9],[17,-15],[5,-9],[10,-33],[11,-27],[3,-16],[-5,-14],[11,-14],[15,-13],[16,-6],[11,8],[-4,8],[-7,9],[-4,8],[9,0],[9,-6],[7,-11],[7,-16],[-5,-14],[-3,-13],[-4,-10],[-7,-4],[-4,3],[-6,11],[-4,3],[-16,-8],[5,-2],[24,-31],[13,-7],[17,-2]],[[4096,3584],[0,-288],[-14,7],[-11,18],[1,31],[-12,14],[-30,4],[-6,5],[-8,23],[-6,6],[-28,7],[-8,9],[4,4],[3,1],[2,-1],[4,-4],[-4,14],[-8,12],[-16,15],[7,6],[14,-6],[7,0],[6,5],[3,6],[1,8],[19,40],[5,9],[7,7],[7,4],[14,3],[28,-9],[12,10],[5,36],[2,4]]]}