{"objects":{"water":{"type":"GeometryCollection","geometries":[{"type":"Polygon","properties":{"source":"naturalearthdata.com","kind":"ocean","area":989871000000000,"sort_rank":200,"min_zoom":0,"id":1},"arcs":[[0],[1]]},{"type":"LineString","properties":{"source":"naturalearthdata.com","kind":"ocean","sort_rank":205,"boundary":true,"min_zoom":0,"id":528},"arcs":[2]},{"type":"MultiLineString","properties":{"source":"naturalearthdata.com","kind":"ocean","sort_rank":205,"boundary":true,"min_zoom":0,"id":2057},"arcs":[[3],[4]]},{"type":"LineString","properties":{"source":"naturalearthdata.com","kind":"ocean","sort_rank":205,"boundary":true,"min_zoom":0,"id":2779},"arcs":[5]}]},"buildings":{"type":"GeometryCollection","geometries":[]},"places":{"type":"GeometryCollection","geometries":[]},"transit":{"type":"GeometryCollection","geometries":[]},"pois":{"type":"GeometryCollection","geometries":[]},"boundaries":{"type":"GeometryCollection","geometries":[]},"roads":{"type":"GeometryCollection","geometries":[]},"earth":{"type":"GeometryCollection","geometries":[]},"landuse":{"type":"GeometryCollection","geometries":[]}},"type":"Topology","transform":{"translate":[-146.25,-31.952162238],"scale":[0.002746582,0.002443632]},"arcs":[[[4089,3615],[0,-3],[5,-3],[2,-1],[0,-3608],[-4096,0],[0,4096],[4096,0],[0,-480],[-7,-1]],[[716,1790],[-2,3],[-3,3],[-8,5],[-7,-3],[-3,-11],[0,-12],[3,-8],[5,-3],[4,1],[3,3],[3,5],[-1,0],[-1,8],[-1,0],[1,2],[5,4],[2,3]],[[3672,4063],[-4,-3],[-4,-1],[8,8],[0,-1],[0,-3]],[[4089,3615],[0,-3],[5,-3],[2,-1]],[[4096,3616],[-7,-1]],[[716,1790],[-2,3],[-3,3],[-8,5],[-7,-3],[-3,-11],[0,-12],[3,-8],[5,-3],[4,1],[3,3],[3,5],[-1,0],[-1,8],[-1,0],[1,2],[5,4],[2,3]]]}