{"objects":{"water":{"type":"GeometryCollection","geometries":[{"type":"MultiPolygon","properties":{"source":"naturalearthdata.com","kind":"ocean","area":989871000000000,"sort_rank":200,"min_zoom":0,"id":1},"arcs":[[[0]],[[1]]]},{"type":"MultiLineString","properties":{"source":"naturalearthdata.com","kind":"ocean","sort_rank":205,"boundary":true,"min_zoom":0,"id":2},"arcs":[[2],[3]]},{"type":"MultiLineString","properties":{"source":"naturalearthdata.com","kind":"ocean","sort_rank":205,"boundary":true,"min_zoom":0,"id":3035},"arcs":[[4],[5]]}]},"buildings":{"type":"GeometryCollection","geometries":[]},"places":{"type":"GeometryCollection","geometries":[]},"transit":{"type":"GeometryCollection","geometries":[]},"pois":{"type":"GeometryCollection","geometries":[]},"boundaries":{"type":"GeometryCollection","geometries":[]},"roads":{"type":"GeometryCollection","geometries":[]},"earth":{"type":"GeometryCollection","geometries":[{"type":"MultiPolygon","properties":{"sort_rank":10,"source":"naturalearthdata.com","min_zoom":3.0,"kind":"earth","area":99447052320},"arcs":[[[6]]]},{"type":"MultiPolygon","properties":{"sort_rank":10,"source":"naturalearthdata.com","min_zoom":0,"kind":"earth","area":53730332668114},"arcs":[[[7]]]}]},"landuse":{"type":"GeometryCollection","geometries":[]}},"type":"Topology","transform":{"translate":[-146.25,-79.1713346408],"scale":[0.002746582,0.0005689742]},"arcs":[[[108,4096],[-4,-29],[6,-40],[12,-31],[12,-19],[26,-20],[79,6],[10,-18],[7,-37],[1,-39],[-9,-22],[75,-81],[13,-20],[6,-33],[-13,3],[-58,-40],[-7,4],[-1,7],[-1,25],[-2,7],[-143,57],[-117,47],[0,91],[33,-25],[8,1],[7,15],[-9,11],[-4,9],[-4,12],[-11,44],[-3,8],[-3,7],[-6,3],[-3,5],[-2,12],[-3,9],[0,71],[108,0]],[[0,3743],[32,-30],[41,-13],[28,5],[13,-5],[120,-136],[121,-136],[11,-20],[-66,-26],[-36,22],[-4,-2],[-2,-5],[-3,-15],[-2,-6],[-3,-2],[-53,14],[-39,-14],[-13,12],[-12,19],[-13,12],[-12,-10],[-4,-38],[9,-45],[22,-60],[-2,-6],[-4,-14],[-2,-6],[17,-6],[9,-9],[7,-18],[-27,3],[-6,-4],[-13,-21],[-7,-5],[81,-10],[25,-30],[35,-72],[1,-11],[-1,-12],[0,-10],[4,-10],[55,-49],[-5,-2],[-5,-5],[-5,-8],[-4,-12],[3,-5],[5,-12],[3,-4],[-12,-29],[-13,-4],[-105,83],[-78,-4],[5,-19],[6,-9],[14,-7],[-34,-33],[-82,26],[0,813]],[[108,4096],[-4,-29],[6,-40],[12,-31],[12,-19],[26,-20],[79,6],[10,-18],[7,-37],[1,-39],[-9,-22],[75,-81],[13,-20],[6,-33],[-13,3],[-58,-40],[-7,4],[-1,7],[-1,25],[-2,7],[-143,57],[-117,47]],[[0,3743],[32,-30],[41,-13],[28,5],[13,-5],[120,-136],[121,-136],[11,-20],[-66,-26],[-36,22],[-4,-2],[-2,-5],[-3,-15],[-2,-6],[-3,-2],[-53,14],[-39,-14],[-13,12],[-12,19],[-13,12],[-12,-10],[-4,-38],[9,-45],[22,-60],[-2,-6],[-4,-14],[-2,-6],[17,-6],[9,-9],[7,-18],[-27,3],[-6,-4],[-13,-21],[-7,-5],[81,-10],[25,-30],[35,-72],[1,-11],[-1,-12],[0,-10],[4,-10],[55,-49],[-5,-2],[-5,-5],[-5,-8],[-4,-12],[3,-5],[5,-12],[3,-4],[-12,-29],[-13,-4],[-105,83],[-78,-4],[5,-19],[6,-9],[14,-7],[-34,-33],[-82,26]],[[31,3937],[-11,44],[-3,8],[-3,7],[-6,3],[-3,5],[-2,12],[-3,9]],[[0,3914],[33,-25],[8,1],[7,15],[-9,11],[-4,9],[-4,12]],[[0,3914],[0,111],[3,-9],[2,-12],[3,-5],[6,-3],[3,-7],[3,-8],[11,-44],[4,-12],[4,-9],[9,-11],[-7,-15],[-8,-1],[-33,25]],[[108,4096],[3988,0],[0,-4096],[-4096,0],[0,2930],[82,-26],[34,33],[-14,7],[-6,9],[-5,19],[78,4],[105,-83],[13,4],[12,29],[-3,4],[-5,12],[-3,5],[4,12],[5,8],[5,5],[5,2],[-55,49],[-4,10],[0,10],[1,12],[-1,11],[-35,72],[-25,30],[-81,10],[7,5],[13,21],[6,4],[27,-3],[-7,18],[-9,9],[-17,6],[2,6],[4,14],[2,6],[-22,60],[-9,45],[4,38],[12,10],[13,-12],[12,-19],[13,-12],[39,14],[53,-14],[3,2],[2,6],[3,15],[2,5],[4,2],[36,-22],[66,26],[-11,20],[-121,136],[-120,136],[-13,5],[-28,-5],[-41,13],[-32,30],[0,80],[117,-47],[143,-57],[2,-7],[1,-25],[1,-7],[7,-4],[58,40],[13,-3],[-6,33],[-13,20],[-75,81],[9,22],[-1,39],[-7,37],[-10,18],[-79,-6],[-26,20],[-12,19],[-12,31],[-6,40],[4,29]]]}