{"objects":{"water":{"type":"GeometryCollection","geometries":[{"type":"MultiPolygon","properties":{"source":"naturalearthdata.com","kind":"ocean","area":989871000000000,"sort_rank":200,"min_zoom":0,"id":1},"arcs":[[[8],[9],[10],[11],[12],[13],[14]]]},{"type":"LineString","properties":{"source":"naturalearthdata.com","kind":"ocean","sort_rank":205,"boundary":true,"min_zoom":0,"id":450},"arcs":[15]},{"type":"LineString","properties":{"source":"naturalearthdata.com","kind":"ocean","sort_rank":205,"boundary":true,"min_zoom":0,"id":457},"arcs":[16]},{"type":"LineString","properties":{"source":"naturalearthdata.com","kind":"ocean","sort_rank":205,"boundary":true,"min_zoom":0,"id":458},"arcs":[17]},{"type":"LineString","properties":{"source":"naturalearthdata.com","kind":"ocean","sort_rank":205,"boundary":true,"min_zoom":0,"id":461},"arcs":[18]},{"type":"LineString","properties":{"source":"naturalearthdata.com","kind":"ocean","sort_rank":205,"boundary":true,"min_zoom":0,"id":482},"arcs":[19]},{"type":"LineString","properties":{"source":"naturalearthdata.com","kind":"ocean","sort_rank":205,"boundary":true,"min_zoom":0,"id":486},"arcs":[20]},{"type":"LineString","properties":{"source":"naturalearthdata.com","kind":"ocean","sort_rank":205,"boundary":true,"min_zoom":0,"id":4122},"arcs":[21]},{"type":"LineString","properties":{"source":"naturalearthdata.com","kind":"ocean","sort_rank":205,"boundary":true,"min_zoom":0,"id":4125},"arcs":[22]}]},"buildings":{"type":"GeometryCollection","geometries":[]},"places":{"type":"GeometryCollection","geometries":[]},"transit":{"type":"GeometryCollection","geometries":[]},"pois":{"type":"GeometryCollection","geometries":[]},"boundaries":{"type":"GeometryCollection","geometries":[{"type":"LineString","properties":{"sort_rank":262,"kind_detail":"2","kind":"country","min_zoom":0,"source":"naturalearthdata.com"},"arcs":[0]},{"type":"LineString","properties":{"sort_rank":262,"kind_detail":"2","kind":"country","min_zoom":0,"source":"naturalearthdata.com"},"arcs":[1]},{"type":"MultiLineString","properties":{"sort_rank":256,"kind_detail":"4","kind":"region","min_zoom":2.0,"source":"naturalearthdata.com"},"arcs":[[2],[3],[4],[5],[6],[7]]}]},"roads":{"type":"GeometryCollection","geometries":[]},"earth":{"type":"GeometryCollection","geometries":[{"type":"MultiPolygon","properties":{"sort_rank":10,"source":"naturalearthdata.com","kind":"earth","min_zoom":5.0,"area":12275035991},"arcs":[[[23]],[[24]],[[25]],[[26]],[[27]]]},{"type":"MultiPolygon","properties":{"sort_rank":10,"source":"naturalearthdata.com","min_zoom":3.0,"kind":"earth","area":85393833487},"arcs":[[[28]]]},{"type":"MultiPolygon","properties":{"sort_rank":10,"source":"naturalearthdata.com","min_zoom":0,"kind":"earth","area":13131386715102},"arcs":[[[29]]]}]},"landuse":{"type":"GeometryCollection","geometries":[{"type":"Polygon","properties":{"kind":"park","protect_class":"1","area":108314912980,"sort_rank":24,"source":"openstreetmap.org","min_zoom":4.0,"tier":2,"id":-9459849},"arcs":[[30]]},{"type":"Polygon","properties":{"kind":"nature_reserve","tier":2,"protect_class":"4","area":595568000000,"sort_rank":23,"source":"openstreetmap.org","min_zoom":4.0,"operator":"US Fish and Wildlife Service","id":-8537673},"arcs":[[31],[32],[33],[34],[35],[36],[37],[38],[39]]},{"type":"MultiPolygon","properties":{"source":"openstreetmap.org","kind":"nature_reserve","area":565741688757,"tier":2,"min_zoom":4.0,"id":-8537784,"sort_rank":23},"arcs":[[[40]]]}]}},"type":"Topology","transform":{"translate":[-146.25,66.5132604431],"scale":[0.002746582,0.0010008188]},"arcs":[[[1909,3135]],[[1909,3135],[0,-146],[1,-145],[0,-146],[0,-146],[0,-145],[0,-146],[0,-146],[0,-145],[0,-146],[0,-145],[0,-146],[0,-146],[0,-145],[0,-146],[0,-146],[0,-145],[0,-146],[0,-146],[0,-145],[0,-146],[0,-146],[0,-76]],[[3673,490],[-2,2],[-2,6],[-2,6],[-1,5],[-2,13],[-2,7],[-4,5],[-5,9],[-2,8],[1,8],[1,10],[0,9],[0,5],[-1,4],[-1,4],[-1,5],[1,9],[2,3],[2,4],[2,5],[1,15],[-2,5],[-4,4],[-5,11],[-2,12],[3,10],[4,7],[4,4],[6,7],[7,6],[6,6],[7,7],[3,9],[1,14],[1,15],[1,13],[4,10],[3,5],[2,6],[-1,13],[-2,8],[-3,7],[-2,8],[-3,7],[-4,20],[1,3],[4,1],[3,13],[-3,6],[-7,6],[-7,6],[-5,5],[-6,5],[-3,3],[0,6],[3,13],[4,18],[1,15],[1,15],[1,18],[1,4],[3,3],[2,4],[-2,6],[-2,3],[-2,2],[-1,2],[-2,5],[-2,14],[0,14],[-1,14],[-3,15],[-9,23],[-9,18],[-10,12],[-13,6],[-7,1],[-7,2],[-7,3],[-7,3],[-3,1],[-4,2],[-3,3],[-3,4],[-2,6],[1,4],[0,5],[0,5],[0,2],[0,5],[0,5],[0,4],[-1,3],[-1,3],[-2,4],[-1,4],[-2,18],[0,20],[0,21],[1,19],[-1,88],[0,88],[0,88],[0,87],[0,99],[0,99],[0,98],[0,99],[0,49],[0,49],[0,49],[0,50],[0,24],[0,25],[0,24],[0,59],[0,49]],[[3770,490],[-35,0]],[[3735,490],[-36,0],[-6,0],[-7,0],[-7,0],[-6,0]],[[3989,490],[-47,0]],[[3942,490],[-48,0],[-21,0],[-33,0],[-35,0],[-35,0]],[[4096,490],[-43,0],[-42,0],[-22,0]],[[0,3669],[0,427],[4096,0],[0,-1130],[-13,7],[-11,-6],[2,0],[-6,-2],[-4,-2],[-4,-6],[-3,-11],[-7,21],[-11,-3],[-20,-25],[-20,-13],[-5,-7],[-1,-9],[-1,-11],[1,-10],[3,-4],[7,-31],[2,-7],[2,-6],[2,-18],[1,-10],[-1,-7],[0,-7],[3,-10],[4,-7],[6,-7],[6,-5],[5,-2],[2,-1],[1,-5],[1,-5],[0,-6],[-2,-4],[-3,0],[-60,26],[-12,11],[-22,34],[-14,5],[-16,0],[-19,6],[-6,-3],[-6,-6],[-4,-7],[0,-7],[1,-9],[3,-15],[12,-37],[4,-22],[-4,-9],[-6,6],[-16,33],[-5,15],[0,5],[0,13],[-1,6],[-2,5],[-4,6],[-2,3],[-5,9],[-7,2],[-24,-3],[-14,-8],[-12,-12],[-6,-19],[7,-30],[76,-108],[12,-9],[43,-13],[15,-13],[7,-19],[-21,17],[-42,10],[-60,59],[-9,21],[-4,4],[-9,6],[-30,36],[-14,3],[-12,-32],[-1,-15],[2,-19],[5,-28],[5,-55],[6,-12],[65,-34],[7,-12],[2,-7],[2,-13],[1,-7],[5,-5],[64,14],[-27,-24],[-32,-14],[-32,0],[-29,18],[-25,30],[-13,9],[-10,-8],[-4,-24],[6,-21],[19,-27],[0,-6],[-18,6],[-8,-2],[-4,-18],[50,-41],[16,-4],[79,8],[-3,-12],[-5,-6],[21,-34],[59,-6],[25,-15],[-60,7],[4,-18],[5,-16],[7,-10],[13,-6],[10,-9],[11,-4],[2,-5],[1,-7],[9,-34],[5,-10],[18,-9],[19,-20],[11,-3],[-6,-5],[-2,-2],[4,-12],[14,-3],[5,-12],[-14,2],[-25,20],[-13,5],[-32,-13],[-11,7],[-1,4],[0,7],[0,7],[-3,2],[-2,1],[-7,6],[-6,10],[-7,13],[-3,8],[-11,16],[-42,8],[-25,12],[-11,9],[-9,13],[-5,16],[-4,8],[-26,16],[-10,13],[-68,35],[-62,1],[-65,18],[-10,6],[-5,2],[-15,4],[-15,-9],[0,-8],[2,-1],[3,-5],[-27,6],[-5,-2],[-4,-6],[-3,-7],[-3,-5],[-7,-3],[-31,3],[-20,10],[-38,31],[-20,7],[-4,3],[-5,14],[-2,4],[-25,6],[-48,-6],[-12,3],[-28,24],[-47,20],[0,8],[17,0],[-15,11],[-34,3],[-128,74],[-82,49],[-48,43],[-31,46],[-6,12],[-4,17],[-1,29],[-5,17],[-12,4],[-14,-7],[-9,-18],[10,11],[5,3],[5,0],[-3,-15],[-1,-15],[-4,-13],[-8,-5],[-1,-2],[0,-5],[0,-5],[0,-2],[-3,-1],[-12,2],[-11,8],[-4,5],[7,0],[0,7],[-15,1],[-5,-1],[-3,-4],[-3,-7],[-4,-4],[-5,1],[-2,6],[-10,35],[-10,18],[-22,29],[-15,29],[-69,47],[-14,16],[-13,20],[-7,12],[-22,44],[-13,15],[-55,3],[-7,4],[-18,24],[-122,30],[-18,11],[-9,14],[22,-12],[41,-8],[-3,3],[-113,39],[-85,-3],[-26,-20],[-66,3],[-87,15],[-64,21],[-8,-5],[1,-2],[1,-5],[-13,0],[-7,1],[-5,6],[1,3],[1,0],[0,1],[0,4],[-33,5],[-6,5],[-3,3],[-110,41],[0,-7],[9,-2],[9,-4],[7,-1],[10,-7],[-9,-13],[-8,-16],[-9,-11],[-44,17],[-10,10],[-16,37],[-6,11],[-9,9],[-17,12],[-29,32],[-67,29],[-20,18],[-11,6],[-8,-7],[-7,-12],[-9,-3],[-10,3],[-10,8],[-3,31],[-21,14],[-59,7],[-9,7],[-11,22],[-3,3],[-4,0],[-9,7],[-3,4],[0,6],[2,9],[-4,5],[-5,2],[-11,-1],[1,5],[1,3],[1,3],[2,4],[-9,14],[-22,5],[-9,15],[4,3],[4,1],[3,-1],[4,-3],[-13,13],[-8,3],[-5,-6],[-5,-7],[-5,-2],[-6,1],[-5,5],[5,28],[-1,9],[-19,6],[-83,55],[-20,5],[3,-8],[-6,-5],[-7,-4],[-8,1],[-5,5],[-6,15],[-3,7],[-5,2],[-30,-7],[-5,3],[-4,6],[-4,6],[-4,6],[-26,12],[-15,3],[-8,-5],[-3,-18],[2,-19],[5,-16],[5,-12],[-8,-8],[-7,12],[-13,47],[-1,3],[-1,1],[-56,-10],[-5,6],[-7,21],[-2,3],[-5,-3],[0,-7],[1,-9],[-1,-9],[-5,-4],[-35,-4],[-7,2],[-18,14],[-10,-2],[-20,-15],[-10,-4],[-12,4],[-7,-1],[-3,-6],[-2,-11],[-5,0],[-8,8],[-3,0],[-5,-1],[-3,1],[-7,10],[-5,3],[-17,-7],[2,-12],[4,-8],[9,-14],[-8,-36],[-5,-17],[-5,-9],[1,15],[0,6],[2,7],[-2,7],[-1,6],[1,6],[2,8],[-6,11],[-9,9],[-9,4],[-4,-7],[-5,-13],[-12,-5],[-72,1],[-45,-24],[-20,-31],[-10,-6],[-42,-7],[-43,10],[-17,12],[-6,-3],[-20,-17],[-77,25],[-44,-10],[-10,7],[24,31],[8,6],[0,7],[-45,-14],[-11,3],[-21,15],[-11,3],[-5,7],[-11,28],[-7,6],[-10,0],[-4,-2],[-5,-5],[-6,-10],[-4,-4],[-5,0],[5,10],[-5,8],[-15,9],[-22,25],[-21,11],[-25,33],[-14,8],[2,-22],[-6,-1],[-14,15],[-4,-1],[-10,-9],[-6,-3],[-36,1],[-54,31],[-7,-1]],[[3890,2870],[70,-42],[10,-11],[14,-23],[6,6],[5,16],[2,17],[-3,13],[-17,-7],[-8,5],[3,4],[7,16],[-12,17],[-13,3],[-26,-6],[-22,14],[-11,0],[-5,-22]],[[2598,3138],[-18,-6],[-20,-16],[-35,-46],[-8,-14],[6,-1],[6,1],[6,4],[5,6],[5,4],[3,-5],[3,-9],[4,-8],[9,-11],[13,-11],[12,-7],[11,2],[7,11],[14,28],[9,10],[14,0],[30,-7],[13,13],[-8,14],[-11,11],[-11,7],[-22,7],[-25,19],[-12,4]],[[3887,3062],[10,-6],[10,0],[11,7],[9,13],[19,50],[3,12],[-25,0],[-14,-5],[-9,-12],[-17,-28],[-4,-15],[7,-16]],[[1757,3206],[-38,38],[-102,62],[-33,3],[15,-10],[21,-6],[13,-9],[19,-7],[24,-18],[23,-8],[40,-46],[22,-16],[10,-10],[-4,11],[-4,9],[-6,7]],[[3655,2664],[-13,-8],[9,-15],[15,-23],[1,-17],[-17,4],[1,-15],[20,-19],[17,-7],[12,11],[18,-3],[12,3],[-6,18],[-16,20],[-29,33],[-24,18]],[[3839,2993],[-30,-3],[-19,-10],[0,-14],[27,0],[21,-7],[26,-23],[15,-3],[2,18],[-42,42]],[[3890,2870],[70,-42],[10,-11],[14,-23],[6,6],[5,16],[2,17],[-3,13],[-17,-7],[-8,5],[3,4],[7,16],[-12,17],[-13,3],[-26,-6],[-22,14],[-11,0],[-5,-22]],[[2598,3138],[-18,-6],[-20,-16],[-35,-46],[-8,-14],[6,-1],[6,1],[6,4],[5,6],[5,4],[3,-5],[3,-9],[4,-8],[9,-11],[13,-11],[12,-7],[11,2],[7,11],[14,28],[9,10],[14,0],[30,-7],[13,13],[-8,14],[-11,11],[-11,7],[-22,7],[-25,19],[-12,4]],[[3887,3062],[10,-6],[10,0],[11,7],[9,13],[19,50],[3,12],[-25,0],[-14,-5],[-9,-12],[-17,-28],[-4,-15],[7,-16]],[[1757,3206],[-38,38],[-102,62],[-33,3],[15,-10],[21,-6],[13,-9],[19,-7],[24,-18],[23,-8],[40,-46],[22,-16],[10,-10],[-4,11],[-4,9],[-6,7]],[[3051,2576],[128,-74],[34,-3],[15,-11],[-17,0],[0,-8],[47,-20],[28,-24],[12,-3],[48,6],[25,-6],[2,-4],[5,-14],[4,-3],[20,-7],[38,-31],[20,-10],[31,-3],[7,3],[3,5],[3,7],[4,6],[5,2],[27,-6],[-3,5],[-2,1],[0,8],[15,9],[15,-4],[5,-2],[10,-6],[65,-18],[62,-1],[68,-35],[10,-13],[26,-16],[4,-8],[5,-16],[9,-13],[11,-9],[25,-12],[42,-8],[11,-16],[3,-8],[7,-13],[6,-10],[7,-6],[2,-1],[3,-2],[0,-7],[0,-7],[1,-4],[11,-7],[32,13],[13,-5],[25,-20],[14,-2],[-5,12],[-14,3],[-4,12],[2,2],[6,5],[-11,3],[-19,20],[-18,9],[-5,10],[-9,34],[-1,7],[-2,5],[-11,4],[-10,9],[-13,6],[-7,10],[-5,16],[-4,18],[60,-7],[-25,15],[-59,6],[-21,34],[5,6],[3,12],[-79,-8],[-16,4],[-50,41],[4,18],[8,2],[18,-6],[0,6],[-19,27],[-6,21],[4,24],[10,8],[13,-9],[25,-30],[29,-18],[32,0],[32,14],[27,24],[-64,-14],[-5,5],[-1,7],[-2,13],[-2,7],[-7,12],[-65,34],[-6,12],[-5,55],[-5,28],[-2,19],[1,15],[12,32],[14,-3],[30,-36],[9,-6],[4,-4],[9,-21],[60,-59],[42,-10],[21,-17],[-7,19],[-15,13],[-43,13],[-12,9],[-76,108],[-7,30],[6,19],[12,12],[14,8],[24,3],[7,-2],[5,-9],[2,-3],[4,-6],[2,-5],[1,-6],[0,-13],[0,-5],[5,-15],[16,-33],[6,-6],[4,9],[-4,22],[-12,37],[-3,15],[-1,9],[0,7],[4,7],[6,6],[6,3],[19,-6],[16,0],[14,-5],[22,-34],[12,-11],[60,-26],[3,0],[2,4],[0,6],[-1,5],[-1,5],[-2,1],[-5,2],[-6,5],[-6,7],[-4,7],[-3,10],[0,7],[1,7],[-1,10],[-2,18],[-2,6],[-2,7],[-7,31],[-3,4],[-1,10],[1,11],[1,9],[5,7],[20,13],[20,25],[11,3],[7,-21],[3,11],[4,6],[4,2],[6,2],[-2,0],[11,6],[13,-7]],[[0,3669],[7,1],[54,-31],[36,-1],[6,3],[10,9],[4,1],[14,-15],[6,1],[-2,22],[14,-8],[25,-33],[21,-11],[22,-25],[15,-9],[5,-8],[-5,-10],[5,0],[4,4],[6,10],[5,5],[4,2],[10,0],[7,-6],[11,-28],[5,-7],[11,-3],[21,-15],[11,-3],[45,14],[0,-7],[-8,-6],[-24,-31],[10,-7],[44,10],[77,-25],[20,17],[6,3],[17,-12],[43,-10],[42,7],[10,6],[20,31],[45,24],[72,-1],[12,5],[5,13],[4,7],[9,-4],[9,-9],[6,-11],[-2,-8],[-1,-6],[1,-6],[2,-7],[-2,-7],[0,-6],[-1,-15],[5,9],[5,17],[8,36],[-9,14],[-4,8],[-2,12],[17,7],[5,-3],[7,-10],[3,-1],[5,1],[3,0],[8,-8],[5,0],[2,11],[3,6],[7,1],[12,-4],[10,4],[20,15],[10,2],[18,-14],[7,-2],[35,4],[5,4],[1,9],[-1,9],[0,7],[5,3],[2,-3],[7,-21],[5,-6],[56,10],[1,-1],[1,-3],[13,-47],[7,-12],[8,8],[-5,12],[-5,16],[-2,19],[3,18],[8,5],[15,-3],[26,-12],[4,-6],[4,-6],[4,-6],[5,-3],[30,7],[5,-2],[3,-7],[6,-15],[5,-5],[8,-1],[7,4],[6,5],[-3,8],[20,-5],[83,-55],[19,-6],[1,-9],[-5,-28],[5,-5],[6,-1],[5,2],[5,7],[5,6],[8,-3],[13,-13],[-4,3],[-3,1],[-4,-1],[-4,-3],[9,-15],[22,-5],[9,-14],[-2,-4],[-1,-3],[-1,-3],[-1,-5],[11,1],[5,-2],[4,-5],[-2,-9],[0,-6],[3,-4],[9,-7],[4,0],[3,-3],[11,-22],[9,-7],[59,-7],[21,-14],[3,-31],[10,-8],[10,-3],[9,3],[7,12],[8,7],[11,-6],[20,-18],[67,-29],[29,-32],[17,-12],[9,-9],[6,-11],[16,-37],[10,-10],[44,-17],[9,11],[8,16],[9,13],[-10,7],[-7,1],[-9,4],[-9,2],[0,7],[110,-41],[3,-3],[6,-5],[33,-5],[0,-4],[0,-1],[-1,0],[-1,-3],[5,-6],[7,-1],[13,0],[-1,5],[-1,2],[8,5],[64,-21],[87,-15],[66,-3],[26,20],[85,3],[113,-39],[3,-3],[-41,8],[-22,12],[9,-14],[18,-11],[122,-30],[18,-24],[7,-4],[55,-3],[13,-15],[22,-44],[7,-12],[13,-20],[14,-16],[69,-47],[15,-29],[22,-29],[10,-18],[10,-35],[2,-6],[5,-1],[4,4],[3,7],[3,4],[5,1],[15,-1],[0,-7],[-7,0],[4,-5],[11,-8],[12,-2],[3,1],[0,2],[0,5],[0,5],[1,2],[8,5],[4,13],[1,15],[3,15],[-5,0],[-5,-3],[-10,-11],[9,18],[14,7],[12,-4],[5,-17],[1,-29],[4,-17],[6,-12],[31,-46],[48,-43],[82,-49]],[[3655,2664],[24,-18],[29,-33],[16,-20],[6,-18],[-12,-3],[-18,3],[-12,-11],[-17,7],[-20,19],[-1,15],[17,-4],[-1,17],[-15,23],[-9,15],[13,8]],[[3839,2993],[42,-42],[-2,-18],[-15,3],[-26,23],[-21,7],[-27,0],[0,14],[19,10],[30,3]],[[3655,2664],[24,-18],[29,-33],[16,-20],[6,-18],[-12,-3],[-18,3],[-12,-11],[-17,7],[-20,19],[-1,15],[17,-4],[-1,17],[-15,23],[-9,15],[13,8]],[[3890,2870],[5,22],[11,0],[22,-14],[26,6],[13,-3],[12,-17],[-7,-16],[-3,-4],[8,-5],[17,7],[3,-13],[-2,-17],[-5,-16],[-6,-6],[-14,23],[-10,11],[-70,42]],[[1757,3206],[6,-7],[4,-9],[4,-11],[-10,10],[-22,16],[-40,46],[-23,8],[-24,18],[-19,7],[-13,9],[-21,6],[-15,10],[33,-3],[102,-62],[38,-38]],[[3839,2993],[42,-42],[-2,-18],[-15,3],[-26,23],[-21,7],[-27,0],[0,14],[19,10],[30,3]],[[3887,3062],[-7,16],[4,15],[17,28],[9,12],[14,5],[25,0],[-3,-12],[-19,-50],[-9,-13],[-11,-7],[-10,0],[-10,6]],[[2598,3138],[12,-4],[25,-19],[22,-7],[11,-7],[11,-11],[8,-14],[-13,-13],[-30,7],[-14,0],[-9,-10],[-14,-28],[-7,-11],[-11,-2],[-12,7],[-13,11],[-9,11],[-4,8],[-3,9],[-3,5],[-5,-4],[-5,-6],[-6,-4],[-6,-1],[-6,1],[8,14],[35,46],[20,16],[18,6]],[[4096,2966],[0,-2966],[-3873,0],[-223,0],[0,3669],[7,1],[54,-31],[36,-1],[6,3],[10,9],[4,1],[14,-15],[6,1],[-2,22],[14,-8],[25,-33],[21,-11],[22,-25],[6,-4],[9,-5],[5,-8],[-5,-10],[5,0],[4,4],[6,10],[5,5],[4,2],[10,0],[7,-6],[11,-28],[5,-7],[11,-3],[21,-15],[11,-3],[45,14],[0,-7],[-8,-6],[-24,-31],[10,-7],[44,10],[77,-25],[20,17],[6,3],[17,-12],[43,-10],[42,7],[10,6],[20,31],[45,24],[72,-1],[12,5],[5,13],[4,7],[9,-4],[9,-9],[6,-11],[-2,-8],[-1,-6],[1,-6],[2,-7],[-2,-7],[0,-6],[-1,-15],[5,9],[5,17],[8,36],[-9,14],[-4,8],[-2,12],[17,7],[5,-3],[7,-10],[3,-1],[5,1],[3,0],[8,-8],[5,0],[2,11],[3,6],[7,1],[12,-4],[10,4],[20,15],[10,2],[18,-14],[7,-2],[35,4],[5,4],[1,9],[-1,9],[0,7],[5,3],[2,-3],[7,-21],[5,-6],[56,10],[1,-1],[1,-3],[13,-47],[7,-12],[8,8],[-5,12],[-5,16],[-2,19],[3,18],[8,5],[15,-3],[26,-12],[4,-6],[4,-6],[4,-6],[5,-3],[30,7],[5,-2],[3,-7],[6,-15],[5,-5],[8,-1],[7,4],[6,5],[-3,8],[20,-5],[83,-55],[19,-6],[1,-9],[-5,-28],[5,-5],[6,-1],[5,2],[5,7],[5,6],[8,-3],[13,-13],[-4,3],[-3,1],[-4,-1],[-4,-3],[9,-15],[22,-5],[9,-14],[-2,-4],[-1,-3],[-1,-3],[-1,-5],[11,1],[5,-2],[4,-5],[-2,-9],[0,-6],[3,-4],[9,-7],[4,0],[3,-3],[11,-22],[9,-7],[59,-7],[21,-14],[3,-31],[10,-8],[10,-3],[9,3],[7,12],[8,7],[11,-6],[20,-18],[67,-29],[29,-32],[17,-12],[9,-9],[6,-11],[16,-37],[10,-10],[44,-17],[9,11],[8,16],[9,13],[-10,7],[-7,1],[-9,4],[-9,2],[0,7],[110,-41],[3,-3],[6,-5],[33,-5],[0,-4],[0,-1],[-1,0],[-1,-3],[5,-6],[7,-1],[13,0],[-1,5],[-1,2],[8,5],[64,-21],[87,-15],[66,-3],[26,20],[85,3],[113,-39],[3,-3],[-41,8],[-22,12],[9,-14],[18,-11],[122,-30],[18,-24],[7,-4],[55,-3],[13,-15],[22,-44],[7,-12],[13,-20],[14,-16],[69,-47],[15,-29],[22,-29],[10,-18],[10,-35],[2,-6],[5,-1],[4,4],[3,7],[3,4],[5,1],[15,-1],[0,-7],[-7,0],[4,-5],[11,-8],[12,-2],[3,1],[0,2],[0,5],[0,5],[1,2],[8,5],[4,13],[1,15],[3,15],[-5,0],[-5,-3],[-10,-11],[9,18],[14,7],[12,-4],[5,-17],[1,-29],[4,-17],[6,-12],[31,-46],[48,-43],[82,-49],[128,-74],[34,-3],[15,-11],[-17,0],[0,-8],[47,-20],[28,-24],[12,-3],[48,6],[25,-6],[2,-4],[5,-14],[4,-3],[20,-7],[38,-31],[20,-10],[31,-3],[7,3],[3,5],[3,7],[4,6],[5,2],[27,-6],[-3,5],[-2,1],[0,8],[15,9],[15,-4],[5,-2],[10,-6],[65,-18],[62,-1],[68,-35],[10,-13],[26,-16],[4,-8],[5,-16],[9,-13],[11,-9],[25,-12],[42,-8],[11,-16],[3,-8],[7,-13],[6,-10],[7,-6],[2,-1],[3,-2],[0,-7],[0,-7],[1,-4],[11,-7],[32,13],[13,-5],[25,-20],[14,-2],[-5,12],[-14,3],[-4,12],[2,2],[6,5],[-11,3],[-19,20],[-18,9],[-5,10],[-9,34],[-1,7],[-2,5],[-11,4],[-10,9],[-13,6],[-7,10],[-5,16],[-4,18],[60,-7],[-25,15],[-59,6],[-21,34],[5,6],[3,12],[-79,-8],[-16,4],[-50,41],[4,18],[8,2],[18,-6],[0,6],[-19,27],[-6,21],[4,24],[10,8],[13,-9],[25,-30],[29,-18],[32,0],[32,14],[27,24],[-64,-14],[-5,5],[-1,7],[-2,13],[-2,7],[-7,12],[-65,34],[-6,12],[-5,55],[-5,28],[-2,19],[1,15],[12,32],[14,-3],[30,-36],[9,-6],[4,-4],[9,-21],[60,-59],[42,-10],[21,-17],[-7,19],[-15,13],[-43,13],[-12,9],[-76,108],[-7,30],[6,19],[12,12],[14,8],[24,3],[7,-2],[5,-9],[2,-3],[4,-6],[2,-5],[1,-6],[0,-13],[0,-5],[5,-15],[16,-33],[6,-6],[4,9],[-4,22],[-12,37],[-3,15],[-1,9],[0,7],[4,7],[6,6],[6,3],[19,-6],[16,0],[14,-5],[22,-34],[12,-11],[60,-26],[3,0],[2,4],[0,6],[-1,5],[-1,5],[-2,1],[-5,2],[-6,5],[-6,7],[-4,7],[-3,10],[0,7],[1,7],[-1,10],[-2,18],[-2,6],[-2,7],[-7,31],[-3,4],[-1,10],[1,11],[1,9],[5,7],[20,13],[20,25],[11,3],[7,-21],[3,11],[4,6],[4,2],[6,2],[-2,0],[11,6],[13,-7]],[[1911,1704],[0,1428],[219,-58],[183,24],[204,-68],[83,-42],[55,-93],[87,-72],[41,-60],[-2,-45],[45,16],[-9,-15],[23,-24],[1,0],[2,38],[42,-44],[-4,-101],[-22,-7],[0,-1],[50,-48],[32,4],[10,-60],[-60,-8],[-15,-31],[-65,0],[-64,-135],[-96,-54],[-102,-114],[-175,-23],[16,-17],[43,-80],[82,-14],[31,48],[67,-69],[26,15],[-18,51],[140,-44],[28,25],[77,-43],[-4,-55],[-41,-53],[-135,-36],[-27,-42],[-5,-91],[-56,-5],[-78,-63],[-9,-44],[-48,2],[-57,-68],[-51,37],[-16,-17],[6,23],[0,1],[-9,-12],[-7,2],[6,24],[-22,1],[13,13],[-45,19],[23,27],[-1,0],[-32,7],[17,14],[-14,28],[-14,-10],[1,21],[-39,13],[15,6],[-3,9],[-29,2],[5,22],[-1,1],[-16,-11],[4,20],[-28,-7],[-7,23],[-29,-12],[-20,-43],[0,-1],[11,3],[5,-13],[-43,-18],[-7,-30],[-70,1],[-2,-16],[-37,-10],[-59,59]],[[0,2789],[74,0],[10,58],[-84,89],[0,244],[1,11],[-1,2],[0,298],[112,163],[215,-132],[94,-7],[-32,-8],[-1,-32],[185,-26],[79,70],[65,6],[7,15],[51,25],[62,18],[16,21],[37,-13],[82,39],[58,-22],[62,27],[210,-127],[192,-158],[173,-89],[117,-98],[56,4],[71,-36],[0,-2757],[-51,-37],[9,-39],[-103,-26],[-18,-43],[-25,24],[-61,-15],[-19,190],[-156,-29],[-12,-100],[-54,0],[-26,-29],[-105,14],[0,58],[-80,0],[0,-44],[-52,0],[-14,87],[66,14],[11,145],[-13,57],[-27,0],[0,87],[-80,0],[0,86],[-59,0],[0,173],[-367,0],[0,-29],[-68,0],[-13,-28],[-41,0],[-27,43],[-55,0],[0,-43],[-54,0],[-32,-29],[8,36],[-67,35],[-11,51],[26,43],[65,0],[-5,611],[-3,-20],[-42,21],[-67,-34],[-35,15],[-91,-97],[-46,-11],[-76,-219],[-3,-54],[39,-70],[-7,-44],[-40,-101],[-30,-43],[0,400],[21,0],[-21,20],[0,1389]],[[1069,3467],[33,0],[-15,-72],[91,0],[0,57],[-61,0],[-21,69],[5,18],[77,-15],[0,38],[-92,40],[-16,-32],[8,-1],[0,-6],[-4,-8],[16,-31],[1,-24],[-3,-3],[-4,-2],[-4,-16],[-7,-4],[-1,-6],[-3,-2]],[[820,3556],[13,-28],[4,-47],[7,29],[228,14],[0,-28],[-31,-15],[24,-14],[9,18],[16,21],[-8,12],[-9,27],[-6,28],[2,20],[-68,-22],[-4,31],[-6,6],[-4,-46],[-50,-8],[-12,35],[-33,-42],[-72,9]],[[1051,1763],[16,-10],[4,8],[1,-14],[3,-6],[7,-4],[-3,32],[-28,-6]],[[798,3556],[18,-28],[-3,-30],[-5,-15],[6,-16],[21,14],[-4,3],[-4,9],[3,2],[-4,2],[0,2],[7,2],[-7,14],[6,8],[-15,8],[-19,25]],[[808,3560],[4,-15],[8,-13],[-1,32],[-11,-4]],[[724,3516],[0,-35],[75,15],[0,-29],[10,0],[-11,69],[-12,-17],[-62,-3]],[[512,1578],[0,-86],[84,0],[0,86],[-84,0]],[[432,1534],[5,-13],[21,-5],[-20,24],[-6,-6]],[[0,0],[0,402],[99,-165],[-28,-36],[45,-66],[-33,-30],[70,-15],[0,47],[-22,10],[57,38],[36,-8],[16,20],[-20,19],[62,44],[-1,35],[-41,40],[35,77],[10,215],[85,114],[11,117],[36,32],[54,0],[0,43],[55,0],[27,-43],[41,0],[13,28],[68,0],[0,29],[367,0],[0,-173],[59,0],[0,-86],[80,0],[0,-87],[27,0],[13,-57],[-11,-145],[-66,-14],[14,-87],[52,0],[0,44],[80,0],[0,-58],[105,-14],[26,29],[54,0],[12,100],[67,0],[0,-317],[-28,0],[0,-82],[-1526,0]]]}