{"objects":{"water":{"type":"GeometryCollection","geometries":[{"type":"MultiPolygon","properties":{"source":"naturalearthdata.com","kind":"ocean","area":989871000000000,"sort_rank":200,"min_zoom":0,"id":1},"arcs":[[[0]],[[1]]]},{"type":"MultiLineString","properties":{"source":"naturalearthdata.com","kind":"ocean","sort_rank":205,"boundary":true,"min_zoom":0,"id":2011},"arcs":[[2],[3],[4]]},{"type":"LineString","properties":{"source":"naturalearthdata.com","kind":"ocean","sort_rank":205,"boundary":true,"min_zoom":0,"id":2012},"arcs":[5]}]},"buildings":{"type":"GeometryCollection","geometries":[]},"places":{"type":"GeometryCollection","geometries":[]},"transit":{"type":"GeometryCollection","geometries":[]},"pois":{"type":"GeometryCollection","geometries":[]},"boundaries":{"type":"GeometryCollection","geometries":[]},"roads":{"type":"GeometryCollection","geometries":[]},"earth":{"type":"GeometryCollection","geometries":[{"type":"MultiPolygon","properties":{"sort_rank":10,"source":"naturalearthdata.com","min_zoom":3.0,"kind":"earth","area":66069933958},"arcs":[[[6]]]},{"type":"MultiPolygon","properties":{"sort_rank":10,"source":"naturalearthdata.com","min_zoom":0,"kind":"earth","area":21804330306050},"arcs":[[[7]]]}]},"landuse":{"type":"GeometryCollection","geometries":[]}},"type":"Topology","transform":{"translate":[90.0,81.0932138526],"scale":[0.002746582,0.000386492]},"arcs":[[[0,4096],[4096,0],[0,-4096],[-1734,0],[-70,118],[-3,13],[-3,35],[-1,10],[-11,14],[-22,12],[-10,22],[5,35],[-13,24],[-55,-4],[-6,10],[-3,25],[2,21],[20,30],[-8,21],[-37,24],[-23,63],[-21,33],[-122,-23],[-123,-22],[-25,-59],[9,-18],[167,-29],[11,-25],[-131,-8],[-29,-55],[-26,-22],[-54,-113],[-121,-104],[-62,26],[-79,-54],[-1029,0],[0,8],[10,20],[69,68],[5,14],[-1,19],[-9,28],[-33,100],[-168,19],[-168,19],[-168,19],[-2,-19],[-16,-3],[-8,-18],[0,3822]],[[0,0],[0,31],[107,-31],[-107,0]],[[563,157],[-33,100],[-168,19],[-168,19],[-168,19],[-2,-19],[-16,-3],[-8,-18]],[[0,31],[107,-31]],[[489,0],[0,8],[10,20],[69,68],[5,14],[-1,19],[-9,28]],[[2362,0],[-70,118],[-3,13],[-3,35],[-1,10],[-11,14],[-22,12],[-10,22],[5,35],[-13,24],[-55,-4],[-6,10],[-3,25],[2,21],[20,30],[-8,21],[-37,24],[-23,63],[-21,33],[-122,-23],[-123,-22],[-25,-59],[9,-18],[167,-29],[11,-25],[-131,-8],[-29,-55],[-26,-22],[-54,-113],[-121,-104],[-62,26],[-79,-54]],[[0,31],[0,243],[8,18],[16,3],[2,19],[168,-19],[168,-19],[168,-19],[33,-100],[9,-28],[1,-19],[-5,-14],[-69,-68],[-10,-20],[0,-8],[-382,0],[-107,31]],[[2362,0],[-844,0],[79,54],[62,-26],[121,104],[54,113],[26,22],[29,55],[131,8],[-11,25],[-167,29],[-9,18],[25,59],[123,22],[122,23],[21,-33],[23,-63],[37,-24],[8,-21],[-20,-30],[-2,-21],[3,-25],[6,-10],[55,4],[13,-24],[-5,-35],[10,-22],[22,-12],[11,-14],[1,-10],[3,-35],[3,-13],[70,-118]]]}