{"objects":{"water":{"type":"GeometryCollection","geometries":[{"type":"MultiPolygon","properties":{"source":"naturalearthdata.com","kind":"ocean","area":989871000000000,"sort_rank":200,"min_zoom":0,"id":1},"arcs":[[[0],[1],[2],[3],[4],[5],[6]]]},{"type":"LineString","properties":{"source":"naturalearthdata.com","kind":"ocean","sort_rank":205,"boundary":true,"min_zoom":0,"id":3079},"arcs":[7]},{"type":"LineString","properties":{"source":"naturalearthdata.com","kind":"ocean","sort_rank":205,"boundary":true,"min_zoom":0,"id":3080},"arcs":[8]},{"type":"LineString","properties":{"source":"naturalearthdata.com","kind":"ocean","sort_rank":205,"boundary":true,"min_zoom":0,"id":3082},"arcs":[9]},{"type":"LineString","properties":{"source":"naturalearthdata.com","kind":"ocean","sort_rank":205,"boundary":true,"min_zoom":0,"id":3083},"arcs":[10]},{"type":"LineString","properties":{"source":"naturalearthdata.com","kind":"ocean","sort_rank":205,"boundary":true,"min_zoom":0,"id":3084},"arcs":[11]},{"type":"LineString","properties":{"source":"naturalearthdata.com","kind":"ocean","sort_rank":205,"boundary":true,"min_zoom":0,"id":3085},"arcs":[12]},{"type":"MultiLineString","properties":{"source":"naturalearthdata.com","kind":"ocean","sort_rank":205,"boundary":true,"min_zoom":0,"id":3086},"arcs":[[13],[14]]},{"type":"MultiLineString","properties":{"source":"naturalearthdata.com","kind":"ocean","sort_rank":205,"boundary":true,"min_zoom":0,"id":3517},"arcs":[[15],[16],[17],[18],[19],[20],[21],[22],[23],[24]]}]},"buildings":{"type":"GeometryCollection","geometries":[]},"places":{"type":"GeometryCollection","geometries":[]},"transit":{"type":"GeometryCollection","geometries":[]},"pois":{"type":"GeometryCollection","geometries":[]},"boundaries":{"type":"GeometryCollection","geometries":[]},"roads":{"type":"GeometryCollection","geometries":[]},"earth":{"type":"GeometryCollection","geometries":[{"type":"MultiPolygon","properties":{"sort_rank":10,"source":"naturalearthdata.com","kind":"earth","min_zoom":2.0,"area":122502021757},"arcs":[[[25]]]},{"type":"MultiPolygon","properties":{"sort_rank":10,"source":"naturalearthdata.com","kind":"earth","min_zoom":4.0,"area":4843176898},"arcs":[[[26]]]},{"type":"MultiPolygon","properties":{"sort_rank":10,"source":"naturalearthdata.com","kind":"earth","min_zoom":5.0,"area":10393146010},"arcs":[[[27]],[[28]]]},{"type":"MultiPolygon","properties":{"sort_rank":10,"source":"naturalearthdata.com","min_zoom":3.0,"kind":"earth","area":41209153408},"arcs":[[[29]],[[30]],[[31]]]},{"type":"MultiPolygon","properties":{"sort_rank":10,"source":"naturalearthdata.com","min_zoom":0,"kind":"earth","area":11905472224618},"arcs":[[[32]],[[33]],[[34]],[[35]],[[36]],[[37]],[[38]],[[39]]]}]},"landuse":{"type":"GeometryCollection","geometries":[]}},"type":"Topology","transform":{"translate":[90.0,-66.5132604431],"scale":[0.002746582,0.0011979649]},"arcs":[[[4096,397],[0,-97],[-11,-12],[-7,-3],[-14,-1],[-7,-3],[-3,-9],[-2,-12],[-2,-15],[-9,-21],[-10,-18],[-67,-84],[-12,-10],[-12,-5],[-128,-10],[27,-15],[8,-8],[-14,-22],[33,2],[9,-8],[-28,-15],[-13,-14],[-9,-17],[-3,0],[-11,35],[-7,13],[-10,2],[-31,-24],[-8,-1],[3,29],[-5,13],[-10,2],[-18,-17],[-6,-1],[-5,0],[-7,-2],[-6,-5],[-11,-14],[-12,-12],[-6,-3],[-6,0],[-7,4],[-5,0],[-13,-7],[-5,-1],[-14,2],[-9,-2],[-9,-7],[-3,-4],[-303,0],[4,19],[-27,-1],[-30,-11],[-8,-7],[-120,0],[5,23],[-4,4],[-4,6],[-6,16],[-3,5],[-102,1],[-13,-11],[-16,-20],[-36,-20],[-4,-4],[-295,0],[-5,4],[-16,8],[-40,6],[-39,-14],[-6,-4],[-627,0],[-3,2],[-19,3],[-24,-5],[-7,0],[-7,4],[-18,13],[-9,4],[-15,0],[-9,8],[-5,3],[-4,-2],[-44,-25],[-29,-5],[-1,0],[-919,0],[-4,1],[-21,-1],[-19,0],[-35,13],[-25,-13],[-689,0],[0,4096],[4096,0],[0,-3244],[-45,67],[-70,28],[-74,-1],[-60,-19],[-30,-24],[-36,-39],[-30,-48],[-12,-49],[2,-32],[8,-22],[12,-12],[14,-5],[49,5],[8,-4],[4,-4],[1,-3],[-9,-9],[16,-5],[149,17],[21,15],[75,76],[7,18],[0,-356],[-4,-4],[-20,-14],[5,0],[4,-2],[4,-4],[3,-6],[-11,-4],[-5,-3],[-6,-5],[30,-7]],[[3127,105],[10,-36],[19,-27],[23,-16],[22,-4],[8,2],[9,6],[37,38],[5,11],[-34,25],[-54,21],[-19,0],[-14,-6],[-9,-7],[-3,-7]],[[2696,92],[-10,20],[-5,9],[-6,6],[-23,17],[-42,12],[-23,-2],[-21,-13],[-14,-31],[10,-11],[11,-8],[119,-22],[11,6],[-7,17]],[[3752,320],[-2,9],[-2,4],[-2,2],[-9,6],[-11,-2],[-10,-6],[-19,-20],[-27,-38],[-6,-17],[6,-14],[13,-7],[24,-3],[26,8],[16,18],[4,2],[-3,1],[-6,-1],[-3,1],[-2,2],[-5,8],[-2,2],[15,3],[7,6],[2,13],[0,5],[-2,12],[-2,6]],[[2518,383],[-14,1],[-31,-12],[-16,-1],[-8,4],[-15,15],[-9,5],[-23,4],[-25,-4],[-22,-9],[-18,-14],[-16,-20],[-10,-23],[-18,-54],[15,-11],[6,-21],[19,-5],[91,7],[91,7],[37,32],[8,27],[-6,29],[-15,26],[-21,17]],[[3931,614],[-31,-7],[-38,6],[-18,-5],[-8,-5],[-50,-53],[11,-12],[11,-6],[24,1],[40,13],[13,-5],[11,-7],[21,-7],[53,3],[22,11],[17,22],[5,22],[-7,14],[-12,7],[-64,8]],[[909,676],[-27,8],[-26,-1],[-24,-14],[-18,-32],[23,-44],[49,-18],[53,6],[33,27],[1,30],[-19,19],[-45,19]],[[3127,105],[10,-36],[19,-27],[23,-16],[22,-4],[8,2],[9,6],[37,38],[5,11],[-34,25],[-54,21],[-19,0],[-14,-6],[-9,-7],[-3,-7]],[[2696,92],[-10,20],[-5,9],[-6,6],[-23,17],[-42,12],[-23,-2],[-21,-13],[-14,-31],[10,-11],[11,-8],[119,-22],[11,6],[-7,17]],[[3752,320],[-2,9],[-2,4],[-2,2],[-9,6],[-11,-2],[-10,-6],[-19,-20],[-27,-38],[-6,-17],[6,-14],[13,-7],[24,-3],[26,8],[16,18],[4,2],[-3,1],[-6,-1],[-3,1],[-2,2],[-5,8],[-2,2],[15,3],[7,6],[2,13],[0,5],[-2,12],[-2,6]],[[2518,383],[-14,1],[-31,-12],[-16,-1],[-8,4],[-15,15],[-9,5],[-23,4],[-25,-4],[-22,-9],[-18,-14],[-16,-20],[-10,-23],[-18,-54],[15,-11],[6,-21],[19,-5],[91,7],[91,7],[37,32],[8,27],[-6,29],[-15,26],[-21,17]],[[3931,614],[-31,-7],[-38,6],[-18,-5],[-8,-5],[-50,-53],[11,-12],[11,-6],[24,1],[40,13],[13,-5],[11,-7],[21,-7],[53,3],[22,11],[17,22],[5,22],[-7,14],[-12,7],[-64,8]],[[909,676],[-27,8],[-26,-1],[-24,-14],[-18,-32],[23,-44],[49,-18],[53,6],[33,27],[1,30],[-19,19],[-45,19]],[[3847,927],[-30,-24],[-36,-39],[-30,-48],[-12,-49],[2,-32],[8,-22],[12,-12],[14,-5],[49,5],[8,-4],[4,-4],[1,-3],[-9,-9],[16,-5],[149,17],[21,15],[75,76],[7,18]],[[4096,852],[-45,67],[-70,28],[-74,-1],[-60,-19]],[[4096,446],[-4,-4],[-20,-14],[5,0],[4,-2],[4,-4],[3,-6],[-11,-4],[-5,-3],[-6,-5],[30,-7]],[[4096,300],[-11,-12],[-7,-3],[-14,-1],[-7,-3],[-3,-9],[-2,-12],[-2,-15],[-9,-21],[-10,-18],[-67,-84],[-12,-10],[-12,-5],[-128,-10],[27,-15],[8,-8],[-14,-22],[33,2],[9,-8],[-28,-15],[-13,-14],[-9,-17]],[[3822,0],[-11,35],[-7,13],[-10,2],[-31,-24],[-8,-1],[3,29],[-5,13],[-10,2],[-18,-17],[-6,-1],[-5,0],[-7,-2],[-6,-5],[-11,-14],[-12,-12],[-6,-3],[-6,0],[-7,4],[-5,0],[-13,-7],[-5,-1],[-14,2],[-9,-2],[-9,-7],[-3,-4]],[[3298,0],[4,19],[-27,-1],[-30,-11],[-8,-7]],[[3117,0],[5,23],[-4,4],[-4,6],[-6,16],[-3,5],[-102,1],[-13,-11],[-16,-20],[-36,-20],[-4,-4]],[[2639,0],[-5,4],[-16,8],[-40,6],[-39,-14],[-6,-4]],[[1906,0],[-3,2],[-19,3],[-24,-5]],[[1853,0],[-7,4],[-18,13],[-9,4],[-15,0],[-9,8],[-5,3],[-4,-2],[-44,-25],[-29,-5],[-1,0]],[[793,0],[-4,1],[-21,-1]],[[749,0],[-35,13],[-25,-13]],[[4096,852],[0,-50],[-7,-18],[-75,-76],[-21,-15],[-149,-17],[-16,5],[9,9],[-1,3],[-4,4],[-8,4],[-49,-5],[-14,5],[-12,12],[-8,22],[-2,32],[12,49],[30,48],[36,39],[30,24],[60,19],[74,1],[70,-28],[45,-67]],[[3752,320],[2,-6],[2,-12],[0,-5],[-2,-13],[-7,-6],[-15,-3],[2,-2],[5,-8],[2,-2],[3,-1],[6,1],[3,-1],[-4,-2],[-16,-18],[-26,-8],[-24,3],[-13,7],[-6,14],[6,17],[27,38],[19,20],[10,6],[11,2],[9,-6],[2,-2],[2,-4],[2,-9]],[[2696,92],[7,-17],[-11,-6],[-119,22],[-11,8],[-10,11],[14,31],[21,13],[23,2],[42,-12],[23,-17],[6,-6],[5,-9],[10,-20]],[[3931,614],[64,-8],[12,-7],[7,-14],[-5,-22],[-17,-22],[-22,-11],[-53,-3],[-21,7],[-11,7],[-13,5],[-40,-13],[-24,-1],[-11,6],[-11,12],[50,53],[8,5],[18,5],[38,-6],[31,7]],[[3127,105],[3,7],[9,7],[14,6],[19,0],[54,-21],[34,-25],[-5,-11],[-37,-38],[-9,-6],[-8,-2],[-22,4],[-23,16],[-19,27],[-10,36]],[[2518,383],[21,-17],[15,-26],[6,-29],[-8,-27],[-37,-32],[-91,-7],[-91,-7],[-19,5],[-6,21],[-15,11],[18,54],[10,23],[16,20],[18,14],[22,9],[25,4],[23,-4],[9,-5],[15,-15],[8,-4],[16,1],[31,12],[14,-1]],[[909,676],[45,-19],[19,-19],[-1,-30],[-33,-27],[-53,-6],[-49,18],[-23,44],[18,32],[24,14],[26,1],[27,-8]],[[689,0],[25,13],[35,-13],[-60,0]],[[3237,0],[8,7],[30,11],[27,1],[-4,-19],[-61,0]],[[2934,0],[4,4],[36,20],[16,20],[13,11],[102,-1],[3,-5],[6,-16],[4,-6],[4,-4],[-5,-23],[-183,0]],[[2533,0],[6,4],[39,14],[40,-6],[16,-8],[5,-4],[-106,0]],[[1712,0],[1,0],[29,5],[44,25],[4,2],[5,-3],[9,-8],[15,0],[9,-4],[18,-13],[7,-4],[-141,0]],[[4096,300],[0,-300],[-271,0],[9,17],[13,14],[28,15],[-9,8],[-33,-2],[14,22],[-8,8],[-27,15],[128,10],[12,5],[12,10],[67,84],[10,18],[9,21],[2,15],[2,12],[3,9],[7,3],[14,1],[7,3],[11,12]],[[4096,446],[0,-49],[-30,7],[6,5],[5,3],[11,4],[-3,6],[-4,4],[-4,2],[-5,0],[20,14],[4,4]],[[3601,0],[3,4],[9,7],[9,2],[14,-2],[5,1],[13,7],[5,0],[7,-4],[6,0],[6,3],[12,12],[11,14],[6,5],[7,2],[5,0],[6,1],[18,17],[10,-2],[5,-13],[-3,-29],[8,1],[31,24],[10,-2],[7,-13],[11,-35],[-221,0]]]}