{"objects":{"water":{"type":"GeometryCollection","geometries":[{"type":"MultiPolygon","properties":{"source":"naturalearthdata.com","kind":"ocean","area":989871000000000,"sort_rank":200,"min_zoom":0,"id":1},"arcs":[[[0]],[[1]],[[2]],[[3]],[[4]],[[5]]]},{"type":"MultiLineString","properties":{"source":"naturalearthdata.com","kind":"ocean","sort_rank":205,"boundary":true,"min_zoom":0,"id":3517},"arcs":[[6],[7],[8],[9],[10],[11],[12],[13],[14]]}]},"buildings":{"type":"GeometryCollection","geometries":[]},"places":{"type":"GeometryCollection","geometries":[]},"transit":{"type":"GeometryCollection","geometries":[]},"pois":{"type":"GeometryCollection","geometries":[]},"boundaries":{"type":"GeometryCollection","geometries":[]},"roads":{"type":"GeometryCollection","geometries":[]},"earth":{"type":"GeometryCollection","geometries":[{"type":"Polygon","properties":{"sort_rank":10,"source":"naturalearthdata.com","min_zoom":0,"kind":"earth","area":83319317895524},"arcs":[[15]]}]},"landuse":{"type":"GeometryCollection","geometries":[]}},"type":"Topology","transform":{"translate":[90.0,-70.612614238],"scale":[0.002746582,0.0010008188]},"arcs":[[[3601,4096],[-8,-13],[-22,-27],[-47,-39],[-19,-37],[-7,-21],[-9,-19],[-8,-3],[-8,24],[-1,26],[3,26],[12,48],[-17,-9],[-23,-25],[-16,-36],[0,-44],[-8,0],[-4,-7],[-10,-22],[-6,-7],[-5,-2],[-13,3],[-24,-4],[-12,-9],[-6,-16],[-2,-19],[-3,-8],[-4,1],[-18,9],[-4,5],[-5,9],[-8,21],[-4,10],[-5,4],[-7,0],[-3,-5],[-2,-10],[-4,-15],[-32,-59],[-9,-24],[-3,-29],[4,-24],[1,-22],[-10,-22],[-11,-5],[-9,9],[-6,22],[-2,33],[0,35],[-2,12],[-5,5],[-6,2],[-5,4],[-10,13],[41,46],[-4,15],[-7,42],[-5,14],[-6,7],[-14,8],[105,89],[17,28],[2,12],[303,0]],[[3237,4096],[-97,-96],[-31,-13],[-18,19],[11,19],[8,31],[7,40],[120,0]],[[2934,4096],[-30,-34],[-33,-8],[-17,-11],[-13,-25],[-23,-67],[-16,-20],[-9,1],[-25,32],[-9,4],[-20,-1],[-9,3],[-6,4],[-4,4],[-3,7],[-4,13],[-1,9],[-4,30],[-7,5],[-30,-14],[-24,50],[-5,15],[-3,3],[295,0]],[[2533,4096],[-126,-101],[-21,-1],[-44,28],[-9,4],[-42,-12],[-21,-15],[-10,-3],[-10,7],[-16,33],[-10,3],[-19,-24],[-19,-36],[-20,-27],[-21,0],[-12,7],[-12,0],[-24,-9],[-22,-16],[-6,-1],[-11,0],[-6,-3],[-22,-27],[-7,-4],[-14,8],[-8,2],[-5,-8],[11,48],[3,9],[-10,-3],[-49,12],[-5,5],[-1,11],[1,13],[0,13],[-9,44],[-15,29],[-16,14],[627,0]],[[1712,4096],[-57,-30],[-10,-9],[-10,-17],[-9,-21],[-7,-20],[-8,-11],[-47,-32],[-60,-20],[-4,-5],[-3,-9],[-2,-16],[-4,-9],[-6,-6],[-30,-13],[-17,-3],[7,14],[-3,16],[-8,12],[-9,7],[-9,-1],[-49,-58],[-6,-3],[-6,17],[-8,24],[-3,24],[5,14],[-2,4],[-4,9],[-2,4],[6,8],[4,11],[7,28],[-39,22],[-20,3],[-40,-8],[-59,7],[-30,-10],[-10,1],[-41,24],[-19,3],[-18,-12],[-35,-38],[-22,-15],[-20,-7],[-42,8],[-50,29],[-31,-5],[-19,7],[-56,75],[-14,7],[919,0]],[[689,4096],[-40,-25],[-31,1],[-20,-21],[-75,-38],[-21,-4],[-85,26],[-22,-4],[-9,-8],[-21,-28],[-73,-59],[-29,-33],[-4,-2],[-14,3],[-20,-13],[-19,-21],[-8,-5],[-19,2],[-7,-11],[-16,-47],[-11,-19],[-9,-1],[-9,14],[-5,5],[-4,2],[-12,-3],[-5,1],[-25,21],[-22,9],[-22,1],[-32,-14],[0,271],[689,0]],[[3825,4096],[-2,-5],[-1,5]],[[3601,4096],[-8,-13],[-22,-27],[-47,-39],[-19,-37],[-7,-21],[-9,-19],[-8,-3],[-8,24],[-1,26],[3,26],[12,48],[-17,-9],[-23,-25],[-16,-36],[0,-44],[-8,0],[-4,-7],[-10,-22],[-6,-7],[-5,-2],[-13,3],[-24,-4],[-12,-9],[-6,-16],[-2,-19],[-3,-8],[-4,1],[-18,9],[-4,5],[-5,9],[-8,21],[-4,10],[-5,4],[-7,0],[-3,-5],[-2,-10],[-4,-15],[-32,-59],[-9,-24],[-3,-29],[4,-24],[1,-22],[-10,-22],[-11,-5],[-9,9],[-6,22],[-2,33],[0,35],[-2,12],[-5,5],[-6,2],[-5,4],[-10,13],[41,46],[-4,15],[-7,42],[-5,14],[-6,7],[-14,8],[105,89],[17,28],[2,12]],[[3237,4096],[-97,-96],[-31,-13],[-18,19],[11,19],[8,31],[7,40]],[[2934,4096],[-30,-34],[-33,-8],[-17,-11],[-13,-25],[-23,-67],[-16,-20],[-9,1],[-25,32],[-9,4],[-20,-1],[-9,3],[-6,4],[-4,4],[-3,7],[-4,13],[-1,9],[-4,30],[-7,5],[-30,-14],[-24,50],[-5,15],[-3,3]],[[2533,4096],[-126,-101],[-21,-1],[-44,28],[-9,4],[-42,-12],[-21,-15],[-10,-3],[-10,7],[-16,33],[-10,3],[-19,-24],[-19,-36],[-20,-27],[-21,0],[-12,7],[-12,0],[-24,-9],[-22,-16],[-6,-1],[-11,0],[-6,-3],[-22,-27],[-7,-4],[-14,8],[-8,2],[-5,-8],[11,48],[3,9],[-10,-3],[-49,12],[-5,5],[-1,11],[1,13],[0,13],[-9,44],[-15,29],[-16,14]],[[1860,4096],[-5,-1],[-2,1]],[[1712,4096],[-57,-30],[-10,-9],[-10,-17],[-9,-21],[-7,-20],[-8,-11],[-47,-32],[-60,-20],[-4,-5],[-3,-9],[-2,-16],[-4,-9],[-6,-6],[-30,-13],[-17,-3],[7,14],[-3,16],[-8,12],[-9,7],[-9,-1],[-49,-58],[-6,-3],[-6,17],[-8,24],[-3,24],[5,14],[-2,4],[-4,9],[-2,4],[6,8],[4,11],[7,28],[-39,22],[-20,3],[-40,-8],[-59,7],[-30,-10],[-10,1],[-41,24],[-19,3],[-18,-12],[-35,-38],[-22,-15],[-20,-7],[-42,8],[-50,29],[-31,-5],[-19,7],[-56,75],[-14,7]],[[768,4096],[-16,-1],[-3,1]],[[689,4096],[-40,-25],[-31,1],[-20,-21],[-75,-38],[-21,-4],[-85,26],[-22,-4],[-9,-8],[-21,-28],[-73,-59],[-29,-33],[-4,-2],[-14,3],[-20,-13],[-19,-21],[-8,-5],[-19,2],[-7,-11],[-16,-47],[-11,-19],[-9,-1],[-9,14],[-5,5],[-4,2],[-12,-3],[-5,1],[-25,21],[-22,9],[-22,1],[-32,-14]],[[0,0],[0,3825],[32,14],[22,-1],[22,-9],[25,-21],[5,-1],[12,3],[4,-2],[5,-5],[9,-14],[9,1],[11,19],[16,47],[7,11],[19,-2],[8,5],[19,21],[20,13],[14,-3],[4,2],[29,33],[73,59],[21,28],[9,8],[22,4],[85,-26],[21,4],[75,38],[20,21],[31,-1],[40,25],[60,0],[3,-1],[15,1],[1,0],[25,0],[14,-7],[56,-75],[19,-7],[31,5],[50,-29],[42,-8],[20,7],[22,15],[35,38],[18,12],[19,-3],[41,-24],[10,-1],[30,10],[59,-7],[40,8],[20,-3],[39,-22],[-7,-28],[-4,-11],[-6,-8],[2,-4],[4,-9],[2,-4],[-5,-14],[3,-24],[8,-24],[6,-17],[6,3],[49,58],[9,1],[9,-7],[8,-12],[3,-16],[-7,-14],[17,3],[30,13],[6,6],[4,9],[2,16],[3,9],[4,5],[60,20],[47,32],[8,11],[7,20],[9,21],[10,17],[10,9],[57,30],[141,0],[2,-1],[5,1],[46,0],[16,-14],[15,-29],[9,-44],[0,-13],[-1,-13],[1,-11],[5,-5],[49,-12],[10,3],[-3,-9],[-11,-48],[5,8],[8,-2],[14,-8],[7,4],[20,24],[2,3],[6,3],[11,0],[6,1],[22,16],[24,9],[12,0],[12,-7],[21,0],[20,27],[19,36],[19,24],[10,-3],[16,-33],[10,-7],[10,3],[21,15],[42,12],[9,-4],[44,-28],[21,1],[126,101],[106,0],[3,-3],[5,-15],[24,-50],[30,14],[7,-5],[4,-30],[1,-9],[4,-13],[3,-7],[4,-4],[6,-4],[9,-3],[20,1],[9,-4],[25,-32],[9,-1],[16,20],[23,67],[13,25],[17,11],[33,8],[30,34],[183,0],[-7,-40],[-8,-31],[-11,-19],[18,-19],[31,13],[97,96],[61,0],[-2,-12],[-17,-28],[-105,-89],[14,-8],[6,-7],[5,-14],[7,-42],[4,-15],[-41,-46],[10,-13],[5,-4],[6,-2],[5,-5],[2,-12],[0,-35],[2,-33],[6,-22],[9,-9],[11,5],[10,22],[-1,22],[-4,24],[3,29],[9,24],[32,59],[4,15],[2,10],[3,5],[7,0],[5,-4],[4,-10],[8,-21],[5,-9],[4,-5],[18,-9],[4,-1],[3,8],[2,19],[6,16],[12,9],[24,4],[13,-3],[5,2],[6,7],[10,22],[4,7],[8,0],[0,44],[16,36],[23,25],[17,9],[-12,-48],[-3,-26],[1,-26],[8,-24],[8,3],[9,19],[7,21],[19,37],[47,39],[22,27],[8,13],[221,0],[1,-5],[2,5],[271,0],[0,-4096],[-4096,0]]]}