{"objects":{"water":{"type":"GeometryCollection","geometries":[{"type":"MultiPolygon","properties":{"source":"naturalearthdata.com","kind":"ocean","area":989871000000000,"sort_rank":200,"min_zoom":0,"id":1},"arcs":[[[0],[1],[2],[3],[4],[5],[6]]]},{"type":"LineString","properties":{"source":"naturalearthdata.com","kind":"ocean","sort_rank":205,"boundary":true,"min_zoom":0,"id":506},"arcs":[7]},{"type":"LineString","properties":{"source":"naturalearthdata.com","kind":"ocean","sort_rank":205,"boundary":true,"min_zoom":0,"id":507},"arcs":[8]},{"type":"LineString","properties":{"source":"naturalearthdata.com","kind":"ocean","sort_rank":205,"boundary":true,"min_zoom":0,"id":508},"arcs":[9]},{"type":"LineString","properties":{"source":"naturalearthdata.com","kind":"ocean","sort_rank":205,"boundary":true,"min_zoom":0,"id":1965},"arcs":[10]},{"type":"MultiLineString","properties":{"source":"naturalearthdata.com","kind":"ocean","sort_rank":205,"boundary":true,"min_zoom":0,"id":1981},"arcs":[[11],[12]]},{"type":"MultiLineString","properties":{"source":"naturalearthdata.com","kind":"ocean","sort_rank":205,"boundary":true,"min_zoom":0,"id":1989},"arcs":[[13],[14]]},{"type":"LineString","properties":{"source":"naturalearthdata.com","kind":"ocean","sort_rank":205,"boundary":true,"min_zoom":0,"id":3505},"arcs":[15]}]},"buildings":{"type":"GeometryCollection","geometries":[]},"places":{"type":"GeometryCollection","geometries":[]},"transit":{"type":"GeometryCollection","geometries":[]},"pois":{"type":"GeometryCollection","geometries":[]},"boundaries":{"type":"GeometryCollection","geometries":[]},"roads":{"type":"GeometryCollection","geometries":[]},"earth":{"type":"GeometryCollection","geometries":[{"type":"MultiPolygon","properties":{"sort_rank":10,"source":"naturalearthdata.com","min_zoom":0.5,"kind":"earth","area":294431309478},"arcs":[[[16]],[[17]]]},{"type":"MultiPolygon","properties":{"sort_rank":10,"source":"naturalearthdata.com","kind":"earth","min_zoom":5.0,"area":12407346672},"arcs":[[[18]],[[19]],[[20]]]},{"type":"MultiPolygon","properties":{"sort_rank":10,"source":"naturalearthdata.com","min_zoom":3.0,"kind":"earth","area":66069933958},"arcs":[[[21]]]},{"type":"MultiPolygon","properties":{"sort_rank":10,"source":"naturalearthdata.com","min_zoom":0,"kind":"earth","area":21804330306050},"arcs":[[[22]],[[23]]]}]},"landuse":{"type":"GeometryCollection","geometries":[{"type":"MultiPolygon","properties":{"kind":"nature_reserve","protect_class":"1","area":473449578101,"sort_rank":23,"source":"openstreetmap.org","min_zoom":4.0,"tier":2,"id":-7008278},"arcs":[[[24]],[[25]],[[26]],[[27]],[[28]]]}]}},"type":"Topology","transform":{"translate":[90.0,76.8408164144],"scale":[0.002746582,0.0005689742]},"arcs":[[[4096,2377],[0,-1904],[-16,-20],[-11,-27],[-3,-38],[3,-4],[17,-6],[6,-9],[0,-11],[-2,-11],[-1,-14],[4,-17],[-2,-6],[-1,-19],[-10,-36],[-20,-3],[-37,15],[-34,-10],[-13,-20],[5,-41],[-23,-93],[-5,-46],[13,-7],[-1,-13],[-2,-11],[-2,-9],[-3,-8],[-2,-9],[-3956,0],[0,4096],[1692,0],[-1,-9],[-5,-26],[-3,-24],[4,-18],[70,-107],[9,-7],[39,12],[13,-12],[-5,-13],[14,-29],[18,-1],[41,25],[14,24],[26,11],[48,60],[17,9],[20,-4],[11,-13],[3,-9],[5,-24],[8,-9],[18,-3],[8,-12],[-2,-7],[-8,-29],[4,-19],[0,-17],[-1,-15],[1,-16],[7,-17],[9,-5],[58,4],[28,-14],[159,51],[-5,-26],[-9,-10],[-10,-4],[-8,-8],[94,-5],[94,-4],[26,-39],[-7,-30],[-3,-7],[9,-10],[19,2],[74,-99],[29,-12],[9,-13],[-2,-13],[16,-18],[107,2],[16,-19],[-16,-23],[-39,13],[-17,-14],[14,-22],[84,19],[24,-13],[6,-7],[2,-14],[67,0],[50,27],[12,-14],[-10,-13],[55,0],[32,-42],[92,-5],[7,8],[1,10],[-5,10],[-12,8],[17,23],[118,-15],[75,36],[99,-9],[20,11],[36,50],[26,18],[21,54],[69,58],[18,26],[7,42],[-21,55],[-9,41],[8,30],[-3,21],[-7,53],[-1,11],[-4,4],[-8,16],[-107,39],[-15,38],[24,0],[11,6],[10,18],[-9,22],[564,0],[-3,-11],[12,-21],[13,-10],[-49,-18],[-6,-7],[-6,-17],[-3,-56],[-4,-19],[-7,-32],[87,-33],[8,-10],[0,-41],[-66,35],[-15,-6],[-14,-30],[-6,-17],[-24,-34],[-6,-15],[-2,-16],[0,-17],[-2,-21],[-10,-31],[-14,-27],[-10,-32],[1,-42],[-2,-13],[7,-26],[8,-12],[3,-18],[-3,-40],[12,-26],[17,-10],[65,-4],[17,-14],[14,-30],[-10,-17],[-24,-2],[-16,-12],[-2,8],[-2,12],[-4,11],[-5,5],[-95,21],[-35,37],[-13,2],[-13,-6],[-60,-65],[-6,-11],[-5,-12],[-2,-13],[-3,-40],[-1,-9],[-8,-28],[-28,-49],[2,-21],[-1,-17],[-2,-16],[1,-19],[4,-20],[5,-17],[3,-18],[-5,-23],[-27,-65],[-2,-10],[-3,-18],[-3,-10],[-4,-10],[-5,-3],[-4,-5],[-4,-17],[7,-25],[-6,-21],[-9,-21],[-5,-24],[-8,-19],[-15,-18],[-12,-19],[6,-22],[-7,-35],[7,-24],[10,-21],[2,-28],[-5,-7],[-24,-9],[-61,-112],[-17,-11],[-58,-115],[3,-12],[-22,-22],[-8,-25],[5,-37],[-19,-67],[-21,-54],[-14,-17],[-30,-20],[-14,-23],[7,-11],[23,-25],[-2,-24],[16,-7],[8,-10],[6,-19],[-5,-16],[-11,-13],[-4,-19],[37,0],[15,-28],[18,7],[35,32],[77,-24],[60,17],[120,107],[43,13],[36,55],[156,121],[52,93],[20,18],[15,0]],[[1408,2296],[20,17],[-3,21],[-11,17],[-8,14],[-15,12],[-10,17],[-16,2],[-19,-1],[-18,-10],[-17,-18],[-3,-27],[13,-27],[25,-7],[25,-12],[15,-5],[22,7]],[[894,3989],[-88,51],[-11,-15],[-3,0],[24,-28],[100,-61],[76,-6],[-24,26],[-74,33]],[[2377,641],[-24,8],[-7,-5],[-52,-82],[-108,-75],[-109,-75],[-45,6],[-58,-41],[-21,-32],[-29,-22],[-12,-25],[-7,-7],[9,-26],[95,19],[95,20],[33,29],[18,1],[12,-30],[-13,-20],[-43,-17],[-4,-6],[-10,-24],[-11,-10],[-11,-24],[-5,-7],[117,59],[27,30],[14,7],[26,-33],[16,4],[16,16],[11,25],[-5,4],[-5,6],[-3,10],[-3,16],[20,19],[14,26],[29,16],[14,23],[41,109],[-8,21],[-8,66],[-6,21]],[[751,1387],[-43,25],[-19,-4],[-10,-23],[6,-30],[11,-20],[27,-23],[17,1],[23,30],[5,10],[0,19],[-11,12],[-6,3]],[[62,529],[-17,-23],[1,-14],[45,16],[2,9],[2,10],[-1,6],[-9,5],[-23,-9]],[[227,715],[-11,-12],[2,-11],[6,-8],[28,11],[2,18],[-12,9],[-15,-7]],[[4096,473],[-16,-20],[-11,-27],[-3,-38],[3,-4],[17,-6],[6,-9],[0,-11],[-2,-11],[-1,-14],[4,-17],[-2,-6],[-1,-19],[-10,-36],[-20,-3],[-37,15],[-34,-10],[-13,-20],[5,-41],[-23,-93],[-5,-46],[13,-7],[-1,-13],[-2,-11],[-2,-9],[-3,-8],[-2,-9]],[[1408,2296],[20,17],[-3,21],[-11,17],[-8,14],[-15,12],[-10,17],[-16,2],[-19,-1],[-18,-10],[-17,-18],[-3,-27],[13,-27],[25,-7],[25,-12],[15,-5],[22,7]],[[894,3989],[-88,51],[-11,-15],[-3,0],[24,-28],[100,-61],[76,-6],[-24,26],[-74,33]],[[2377,641],[-24,8],[-7,-5],[-52,-82],[-108,-75],[-109,-75],[-45,6],[-58,-41],[-21,-32],[-29,-22],[-12,-25],[-7,-7],[9,-26],[95,19],[95,20],[33,29],[18,1],[12,-30],[-13,-20],[-43,-17],[-4,-6],[-10,-24],[-11,-10],[-11,-24],[-5,-7],[117,59],[27,30],[14,7],[26,-33],[16,4],[16,16],[11,25],[-5,4],[-5,6],[-3,10],[-3,16],[20,19],[14,26],[29,16],[14,23],[41,109],[-8,21],[-8,66],[-6,21]],[[4054,4096],[-3,-11],[12,-21],[13,-10],[-49,-18],[-6,-7],[-6,-17],[-3,-56],[-4,-19],[-7,-32],[87,-33],[8,-10]],[[4096,3821],[-66,35],[-15,-6],[-14,-30],[-6,-17],[-24,-34],[-6,-15],[-2,-16],[0,-17],[-2,-21],[-10,-31],[-14,-27],[-10,-32],[1,-42],[-2,-13],[7,-26],[8,-12],[3,-18],[-3,-40],[12,-26],[17,-10],[65,-4],[17,-14],[14,-30],[-10,-17],[-24,-2],[-16,-12],[-2,8],[-2,12],[-4,11],[-5,5],[-95,21],[-35,37],[-13,2],[-13,-6],[-60,-65],[-6,-11],[-5,-12],[-2,-13],[-3,-40],[-1,-9],[-8,-28],[-28,-49],[2,-21],[-1,-17],[-2,-16],[1,-19],[4,-20],[5,-17],[3,-18],[-5,-23],[-27,-65],[-2,-10],[-3,-18],[-3,-10],[-4,-10],[-5,-3],[-4,-5],[-4,-17],[7,-25],[-6,-21],[-9,-21],[-5,-24],[-8,-19],[-15,-18],[-12,-19],[6,-22],[-7,-35],[7,-24],[10,-21],[2,-28],[-5,-7],[-24,-9],[-61,-112],[-17,-11],[-58,-115],[3,-12],[-22,-22],[-8,-25],[5,-37],[-19,-67],[-21,-54],[-14,-17],[-30,-20],[-14,-23],[7,-11],[23,-25],[-2,-24],[16,-7],[8,-10],[6,-19],[-5,-16],[-11,-13],[-4,-19],[37,0],[15,-28],[18,7],[35,32],[77,-24],[60,17],[120,107],[43,13],[36,55],[156,121],[52,93],[20,18],[15,0]],[[3599,3868],[-3,21],[-7,53],[-1,11],[-4,4],[-8,16],[-107,39],[-15,38],[24,0],[11,6],[10,18],[-9,22]],[[1692,4096],[-1,-9],[-5,-26],[-3,-24],[4,-18],[70,-107],[9,-7],[39,12],[13,-12],[-5,-13],[14,-29],[18,-1],[41,25],[14,24],[26,11],[48,60],[17,9],[20,-4],[11,-13],[3,-9],[5,-24],[8,-9],[18,-3],[8,-12],[-2,-7],[-8,-29],[4,-19],[0,-17],[-1,-15],[1,-16],[7,-17],[9,-5],[58,4],[28,-14],[159,51],[-5,-26],[-9,-10],[-10,-4],[-8,-8],[94,-5],[94,-4],[26,-39],[-7,-30],[-3,-7],[9,-10],[19,2],[74,-99],[29,-12],[9,-13],[-2,-13],[16,-18],[107,2],[16,-19],[-16,-23],[-39,13],[-17,-14],[14,-22],[84,19],[24,-13],[6,-7],[2,-14],[67,0],[50,27],[12,-14],[-10,-13],[55,0],[32,-42],[92,-5],[7,8],[1,10],[-5,10],[-12,8],[17,23],[118,-15],[75,36],[99,-9],[20,11],[36,50],[26,18],[21,54],[69,58],[18,26],[7,42],[-21,55],[-9,41],[8,30]],[[751,1387],[-43,25],[-19,-4],[-10,-23],[6,-30],[11,-20],[27,-23],[17,1],[23,30],[5,10],[0,19],[-11,12],[-6,3]],[[4096,3821],[0,-1444],[-15,0],[-20,-18],[-52,-93],[-156,-121],[-36,-55],[-43,-13],[-120,-107],[-60,-17],[-77,24],[-35,-32],[-18,-7],[-15,28],[-37,0],[4,19],[11,13],[5,16],[-6,19],[-8,10],[-16,7],[2,24],[-23,25],[-7,11],[14,23],[30,20],[14,17],[21,54],[19,67],[-5,37],[8,25],[22,22],[-3,12],[58,115],[17,11],[61,112],[24,9],[5,7],[-2,28],[-10,21],[-7,24],[7,35],[-6,22],[12,19],[15,18],[8,19],[5,24],[9,21],[6,21],[-7,25],[4,17],[4,5],[5,3],[4,10],[3,10],[3,18],[2,10],[27,65],[5,23],[-3,18],[-5,17],[-4,20],[-1,19],[2,16],[1,17],[-2,21],[28,49],[8,28],[1,9],[3,40],[2,13],[5,12],[6,11],[60,65],[13,6],[13,-2],[35,-37],[95,-21],[5,-5],[4,-11],[2,-12],[2,-8],[16,12],[24,2],[10,17],[-14,30],[-17,14],[-65,4],[-17,10],[-12,26],[3,40],[-3,18],[-8,12],[-7,26],[2,13],[-1,42],[10,32],[14,27],[10,31],[2,21],[0,17],[2,16],[6,15],[24,34],[6,17],[14,30],[15,6],[66,-35]],[[4054,4096],[42,0],[0,-234],[-8,10],[-87,33],[7,32],[4,19],[3,56],[6,17],[6,7],[49,18],[-13,10],[-12,21],[3,11]],[[751,1387],[6,-3],[11,-12],[0,-19],[-5,-10],[-23,-30],[-17,-1],[-27,23],[-11,20],[-6,30],[10,23],[19,4],[43,-25]],[[1408,2296],[-22,-7],[-15,5],[-25,12],[-25,7],[-13,27],[3,27],[17,18],[18,10],[19,1],[16,-2],[10,-17],[15,-12],[8,-14],[11,-17],[3,-21],[-20,-17]],[[894,3989],[74,-33],[24,-26],[-76,6],[-100,61],[-24,28],[3,0],[11,15],[88,-51]],[[2377,641],[6,-21],[8,-66],[8,-21],[-41,-109],[-14,-23],[-29,-16],[-14,-26],[-20,-19],[3,-16],[3,-10],[5,-6],[5,-4],[-11,-25],[-16,-16],[-16,-4],[-26,33],[-14,-7],[-27,-30],[-117,-59],[5,7],[11,24],[11,10],[10,24],[4,6],[43,17],[13,20],[-12,30],[-18,-1],[-33,-29],[-95,-20],[-95,-19],[-9,26],[7,7],[12,25],[29,22],[21,32],[58,41],[45,-6],[109,75],[108,75],[52,82],[7,5],[24,-8]],[[1692,4096],[1798,0],[9,-22],[-10,-18],[-11,-6],[-24,0],[15,-38],[107,-39],[8,-16],[4,-4],[1,-11],[7,-53],[3,-21],[-8,-30],[9,-41],[21,-55],[-7,-42],[-18,-26],[-69,-58],[-21,-54],[-26,-18],[-36,-50],[-20,-11],[-99,9],[-75,-36],[-118,15],[-17,-23],[12,-8],[5,-10],[-1,-10],[-7,-8],[-92,5],[-32,42],[-55,0],[10,13],[-12,14],[-50,-27],[-67,0],[-2,14],[-6,7],[-24,13],[-84,-19],[-14,22],[17,14],[39,-13],[16,23],[-16,19],[-107,-2],[-16,18],[2,13],[-9,13],[-29,12],[-74,99],[-19,-2],[-9,10],[3,7],[7,30],[-26,39],[-94,4],[-94,5],[8,8],[10,4],[9,10],[5,26],[-159,-51],[-28,14],[-58,-4],[-9,5],[-7,17],[-1,16],[1,15],[0,17],[-4,19],[8,29],[2,7],[-8,12],[-18,3],[-8,9],[-5,24],[-3,9],[-11,13],[-20,4],[-17,-9],[-48,-60],[-26,-11],[-14,-24],[-41,-25],[-18,1],[-14,29],[5,13],[-13,12],[-39,-12],[-9,7],[-70,107],[-4,18],[3,24],[5,26],[1,9]],[[4096,473],[0,-473],[-140,0],[2,9],[3,8],[2,9],[2,11],[1,13],[-13,7],[5,46],[23,93],[-5,41],[13,20],[34,10],[37,-15],[20,3],[10,36],[1,19],[2,6],[-4,17],[1,14],[2,11],[0,11],[-6,9],[-17,6],[-3,4],[3,38],[11,27],[16,20]],[[4096,1479],[0,-82],[-45,51],[31,32],[14,-1]],[[3654,544],[79,111],[73,32],[2,-54],[-99,-127],[-32,-1],[-23,39]],[[1293,2358],[47,96],[43,19],[40,-14],[11,-38],[-29,-43],[-10,-109],[-63,8],[-39,81]],[[643,1408],[21,52],[48,9],[70,-75],[0,-42],[-42,-53],[-41,-10],[-46,51],[-10,68]],[[0,867],[270,18],[32,-35],[8,-99],[-310,-420],[0,536]]]}