{"objects":{"water":{"type":"GeometryCollection","geometries":[{"type":"Polygon","properties":{"name:pt":null,"collision_rank":400,"name:nl":"Keta","name:id":null,"name:hi":null,"name:tr":null,"name:ar":null,"min_zoom":5.0,"name:it":null,"name:vi":null,"name:ru":"\u041a\u0435\u0442\u0430","name:sv":null,"name:pl":"Keta","name:hu":null,"id":600,"name:ja":null,"name:el":null,"kind":"lake","name:en":"Lake Keta","name":"Ozero Keta","area":4393340000,"sort_rank":204,"name:bn":null,"name:de":"Ketasee","name:ko":null,"name:fr":"lac Keta","source":"naturalearthdata.com","wikidata_id":"Q1739872","name:zh":"\u514b\u5854\u6e56","name:es":null},"arcs":[[0]]},{"type":"Polygon","properties":{"name:pt":null,"collision_rank":400,"name:nl":"Lama","name:id":null,"name:hi":null,"name:tr":null,"name:ar":null,"min_zoom":5.0,"name:it":null,"name:vi":null,"name:ru":"\u041b\u0430\u043c\u0430","name:sv":null,"name:pl":"\u0141ama","name:hu":null,"id":601,"name:ja":null,"name:el":null,"kind":"lake","name:en":"Lake Lama","name":"Ozero Lama","area":5878890000,"sort_rank":204,"name:bn":null,"name:de":"Lamasee","name:ko":null,"name:fr":"lac Lama","source":"naturalearthdata.com","wikidata_id":"Q1460034","name:zh":"\u62c9\u99ac\u6e56","name:es":"Lago Lama"},"arcs":[[1]]},{"type":"Polygon","properties":{"name:pt":null,"collision_rank":400,"name:nl":"Hantayskoe ozero","name:id":null,"name:hi":null,"name:tr":null,"name:ar":null,"min_zoom":5.0,"name:it":null,"name:vi":null,"name:ru":"\u0425\u0430\u043d\u0442\u0430\u0439\u0441\u043a\u043e\u0435 \u043e\u0437\u0435\u0440\u043e","name:sv":null,"name:pl":"Jezioro Chantajskie","name:hu":null,"id":599,"name:ja":null,"name:el":null,"kind":"lake","name:en":"Lake Khantayskoye","name":"Ozero Khantayskoye","area":7701820000,"sort_rank":204,"name:bn":null,"name:de":"Chantaisee","name:ko":null,"name:fr":"lac de Khanta\u00ef","source":"naturalearthdata.com","wikidata_id":"Q233071","name:zh":"\u6f22\u6cf0\u6e56","name:es":"Lago de Khantai"},"arcs":[[2]]},{"type":"MultiLineString","properties":{"source":"naturalearthdata.com","min_zoom":5.0,"area":7701820000,"sort_rank":367,"boundary":true,"id":599,"kind":"lake"},"arcs":[[3],[4]]},{"type":"LineString","properties":{"source":"naturalearthdata.com","min_zoom":5.0,"area":5878890000,"sort_rank":367,"boundary":true,"id":601,"kind":"lake"},"arcs":[5]},{"type":"MultiLineString","properties":{"source":"naturalearthdata.com","min_zoom":5.0,"area":4393340000,"sort_rank":367,"boundary":true,"id":600,"kind":"lake"},"arcs":[[6],[7],[8]]}]},"buildings":{"type":"GeometryCollection","geometries":[]},"places":{"type":"GeometryCollection","geometries":[]},"transit":{"type":"GeometryCollection","geometries":[]},"pois":{"type":"GeometryCollection","geometries":[]},"boundaries":{"type":"GeometryCollection","geometries":[]},"roads":{"type":"GeometryCollection","geometries":[]},"earth":{"type":"GeometryCollection","geometries":[{"type":"MultiPolygon","properties":{"sort_rank":10,"source":"naturalearthdata.com","min_zoom":0,"kind":"earth","area":21804330306050},"arcs":[[[9]]]}]},"landuse":{"type":"GeometryCollection","geometries":[{"type":"MultiPolygon","properties":{"kind":"nature_reserve","protect_class":"1","area":473449578101,"sort_rank":23,"source":"openstreetmap.org","min_zoom":4.0,"tier":2,"id":-7008278},"arcs":[[[10]]]}]}},"type":"Topology","transform":{"translate":[90.0,66.5132604431],"scale":[0.002746582,0.0010008188]},"arcs":[[[4,2191],[-4,2],[0,19],[1,6],[-1,3],[0,122],[18,7],[14,0],[12,-17],[-2,-5],[-2,-12],[-2,-5],[7,-7],[5,-11],[10,-26],[7,-11],[49,-28],[42,-2],[107,37],[43,42],[147,25],[8,-3],[18,-14],[18,-8],[18,-3],[18,3],[42,25],[14,19],[8,4],[18,1],[8,-4],[-1,-14],[-6,-7],[-23,-10],[-44,-41],[-16,-7],[-11,0],[-42,15],[-66,-1],[-38,-20],[-29,-3],[-151,-67],[-112,-9],[-17,-10],[-8,-2],[-7,4],[-15,13],[-8,4],[-27,-4]],[[0,3099],[2,1],[18,-6],[4,2],[5,9],[3,7],[4,6],[6,2],[18,-4],[49,-31],[45,-6],[5,-6],[12,-18],[5,-4],[34,-2],[19,-11],[3,-5],[4,-23],[10,-31],[13,-15],[15,-5],[92,24],[85,-7],[42,12],[22,-2],[16,-21],[2,-6],[0,-12],[2,-5],[15,-14],[15,-22],[5,-5],[-10,-8],[-55,55],[-142,-6],[-17,7],[-10,2],[-17,-13],[-32,-2],[-26,-13],[-9,3],[-40,38],[-11,19],[-9,20],[-4,8],[-7,7],[-9,7],[-157,8],[-15,-6],[0,72]],[[691,1883],[-9,-2],[-35,1],[-40,-11],[-20,7],[-20,-5],[-21,11],[-23,-3],[-35,19],[-25,0],[-36,-13],[-28,-26],[-25,-31],[-10,-22],[-14,-19],[-20,0],[-37,16],[-80,-7],[-14,-7],[-30,-33],[-52,-21],[-36,0],[-33,16],[-10,-3],[-3,-7],[-2,-11],[-2,-11],[-3,-12],[-9,2],[-13,14],[-6,4],[0,133],[100,-38],[18,2],[21,26],[27,7],[25,28],[77,14],[-9,-7],[-19,-7],[-9,-6],[4,-20],[8,-11],[9,-4],[31,-2],[11,3],[7,12],[-11,6],[-5,6],[-4,10],[9,7],[57,15],[56,38],[100,8],[16,-8],[30,-22],[54,-18],[8,2],[17,11],[24,-6],[15,9],[78,112],[29,26],[18,-24],[-15,-9],[-13,-20],[-11,-28],[-8,-32],[12,-16],[114,3],[8,7],[-11,-23],[-20,-10],[-131,-2],[-26,-18]],[[691,1883],[-9,-2],[-35,1],[-40,-11],[-20,7],[-20,-5],[-21,11],[-23,-3],[-35,19],[-25,0],[-36,-13],[-28,-26],[-25,-31],[-10,-22],[-14,-19],[-20,0],[-37,16],[-80,-7],[-14,-7],[-30,-33],[-52,-21],[-36,0],[-33,16],[-10,-3],[-3,-7],[-2,-11],[-2,-11],[-3,-12],[-9,2],[-13,14],[-6,4]],[[0,1862],[100,-38],[18,2],[21,26],[27,7],[25,28],[77,14],[-9,-7],[-19,-7],[-9,-6],[4,-20],[8,-11],[9,-4],[31,-2],[11,3],[7,12],[-11,6],[-5,6],[-4,10],[9,7],[57,15],[56,38],[100,8],[16,-8],[30,-22],[54,-18],[8,2],[17,11],[24,-6],[15,9],[78,112],[29,26],[18,-24],[-15,-9],[-13,-20],[-11,-28],[-8,-32],[12,-16],[114,3],[8,7],[-11,-23],[-20,-10],[-131,-2],[-26,-18]],[[0,3099],[2,1],[18,-6],[4,2],[5,9],[3,7],[4,6],[6,2],[18,-4],[49,-31],[45,-6],[5,-6],[12,-18],[5,-4],[34,-2],[19,-11],[3,-5],[4,-23],[10,-31],[13,-15],[15,-5],[92,24],[85,-7],[42,12],[22,-2],[16,-21],[2,-6],[0,-12],[2,-5],[15,-14],[15,-22],[5,-5],[-10,-8],[-55,55],[-142,-6],[-17,7],[-10,2],[-17,-13],[-32,-2],[-26,-13],[-9,3],[-40,38],[-11,19],[-9,20],[-4,8],[-7,7],[-9,7],[-157,8],[-15,-6]],[[4,2191],[-4,2]],[[0,2212],[1,6],[-1,3]],[[0,2343],[18,7],[14,0],[12,-17],[-2,-5],[-2,-12],[-2,-5],[7,-7],[5,-11],[10,-26],[7,-11],[49,-28],[42,-2],[107,37],[43,42],[147,25],[8,-3],[18,-14],[18,-8],[18,-3],[18,3],[42,25],[14,19],[8,4],[18,1],[8,-4],[-1,-14],[-6,-7],[-23,-10],[-44,-41],[-16,-7],[-11,0],[-42,15],[-66,-1],[-38,-20],[-29,-3],[-151,-67],[-112,-9],[-17,-10],[-8,-2],[-7,4],[-15,13],[-8,4],[-27,-4]],[[0,4096],[4096,0],[0,-4096],[-2289,0],[-1807,0],[0,2923],[0,1173]],[[646,2430],[24,13],[-13,44],[21,15],[-31,68],[51,36],[-33,20],[6,37],[81,93],[60,1],[-23,61],[115,59],[59,95],[57,36],[56,85],[-29,89],[70,120],[100,68],[93,1],[119,-67],[85,-12],[109,28],[-24,-45],[12,-142],[189,-231],[21,-126],[74,-150],[208,-119],[82,-89],[21,25],[40,-41],[-12,-19],[134,-38],[36,-71],[8,-158],[-48,-85],[-89,-34],[-89,39],[-62,-49],[-73,57],[-70,-16],[15,-41],[-85,-54],[-69,-8],[0,-36],[-49,-52],[-122,-13],[-115,66],[-91,-43],[-161,74],[-163,12],[-9,59],[39,17],[42,148],[0,1],[-145,-8],[-57,35],[-120,-3],[-170,65],[-16,23],[47,61],[-15,68],[-20,19],[-45,-33],[-26,45]]]}