{"objects":{"water":{"type":"GeometryCollection","geometries":[{"type":"Polygon","properties":{"source":"naturalearthdata.com","kind":"ocean","area":990044000000000,"sort_rank":200,"min_zoom":0,"id":1},"arcs":[[0],[1],[2],[3]]},{"type":"LineString","properties":{"source":"naturalearthdata.com","kind":"ocean","sort_rank":205,"boundary":true,"min_zoom":0,"id":11},"arcs":[4]},{"type":"LineString","properties":{"source":"naturalearthdata.com","kind":"ocean","sort_rank":205,"boundary":true,"min_zoom":0,"id":840},"arcs":[5]},{"type":"LineString","properties":{"source":"naturalearthdata.com","kind":"ocean","sort_rank":205,"boundary":true,"min_zoom":0,"id":841},"arcs":[6]}]},"buildings":{"type":"GeometryCollection","geometries":[]},"places":{"type":"GeometryCollection","geometries":[]},"transit":{"type":"GeometryCollection","geometries":[]},"pois":{"type":"GeometryCollection","geometries":[]},"boundaries":{"type":"GeometryCollection","geometries":[]},"roads":{"type":"GeometryCollection","geometries":[]},"earth":{"type":"GeometryCollection","geometries":[{"type":"MultiPolygon","properties":{"sort_rank":10,"source":"naturalearthdata.com","min_zoom":0.5,"kind":"earth","area":55189556581},"arcs":[[[7]]]},{"type":"MultiPolygon","properties":{"sort_rank":10,"source":"naturalearthdata.com","min_zoom":3.0,"kind":"earth","area":87663321458},"arcs":[[[8]],[[9]]]}]},"landuse":{"type":"GeometryCollection","geometries":[{"type":"MultiPolygon","properties":{"kind":"nature_reserve","protect_class":"1","area":86180856805,"sort_rank":23,"source":"openstreetmap.org","min_zoom":4.0,"tier":2,"id":-6386456},"arcs":[[[10]]]},{"type":"MultiPolygon","properties":{"source":"openstreetmap.org","kind":"protected_area","area":1516140028780,"tier":2,"min_zoom":4.0,"id":-6063105,"sort_rank":17},"arcs":[[[11]]]},{"type":"MultiPolygon","properties":{"kind":"nature_reserve","protect_class":"4","area":1507195739376,"sort_rank":23,"source":"openstreetmap.org","min_zoom":4.0,"tier":2,"id":-3411897},"arcs":[[[12]]]},{"type":"MultiPolygon","properties":{"kind":"nature_reserve","protect_class":"1","area":181837951846,"sort_rank":23,"operator":"Australian Government Department of Environment","source":"openstreetmap.org","min_zoom":4.0,"tier":2,"id":-8449402},"arcs":[[[13]],[[14]],[[15]]]},{"type":"MultiPolygon","properties":{"kind":"protected_area","protect_class":"4","area":1857690954970,"sort_rank":17,"source":"openstreetmap.org","min_zoom":4.0,"tier":2,"id":-9299402},"arcs":[[[16]],[[17]],[[18]]]}]}},"type":"Topology","transform":{"translate":[67.5,-55.7765730187],"scale":[0.0054931641,0.0036124695]},"arcs":[[[4096,0],[-4096,0],[0,4096],[4096,0],[0,-4096]],[[239,1682],[11,-3],[22,2],[17,14],[12,34],[22,-3],[14,-6],[23,-15],[25,-9],[12,2],[12,11],[10,-3],[4,-9],[17,-12],[29,-5],[9,1],[15,11],[1,10],[8,8],[9,4],[-11,15],[-15,6],[-17,-2],[-1,-20],[-14,2],[-24,10],[-14,15],[-6,12],[2,5],[11,-2],[8,4],[7,9],[3,11],[14,1],[31,1],[13,-8],[11,-15],[8,-3],[8,1],[5,6],[-4,13],[17,10],[10,17],[3,18],[-4,18],[-9,15],[-14,6],[-16,1],[-6,-5],[-14,-16],[-27,-1],[-14,-6],[-23,-17],[-16,-8],[-19,-4],[-10,-1],[-12,3],[-25,21],[5,16],[25,-2],[13,3],[-10,13],[1,28],[-11,-1],[-40,-37],[-9,-2],[-14,2],[-24,7],[-4,18],[12,22],[1,11],[6,10],[-3,27],[-9,3],[4,8],[-2,13],[-5,6],[-9,-1],[-8,-9],[-11,-23],[-13,-20],[1,-22],[-7,-19],[-5,-19],[4,-11],[5,-9],[6,-1],[6,-7],[-13,-7],[-3,-11],[8,-15],[-4,-19],[8,-11],[2,-14],[-5,-15],[-6,-14],[-4,-14],[-1,-14],[5,-14]],[[310,1866],[3,-9],[11,3],[8,6],[13,23],[-5,17],[-18,3],[-18,-1],[-4,-10],[4,-10],[6,-10],[0,-12]],[[1062,760],[14,-32],[10,-10],[22,0],[22,13],[16,2],[8,4],[-20,6],[-26,18],[-36,8],[-15,9],[-10,-3],[0,-3],[6,-9],[9,-3]],[[513,1860],[-6,-5],[-14,-16],[-27,-1],[-14,-6],[-23,-17],[-16,-8],[-19,-4],[-10,-1],[-12,3],[-25,21],[5,16],[25,-2],[13,3],[-10,13],[1,28],[-11,-1],[-40,-37],[-9,-2],[-14,2],[-24,7],[-4,18],[12,22],[1,11],[6,10],[-3,27],[-9,3],[4,8],[-2,13],[-5,6],[-9,-1],[-8,-9],[-11,-23],[-13,-20],[1,-22],[-7,-19],[-5,-19],[4,-11],[5,-9],[6,-1],[6,-7],[-13,-7],[-3,-11],[8,-15],[-4,-19],[8,-11],[2,-14],[-5,-15],[-6,-14],[-4,-14],[-1,-14],[5,-14],[11,-3],[22,2],[17,14],[12,34],[22,-3],[14,-6],[23,-15],[25,-9],[12,2],[12,11],[10,-3],[4,-9],[17,-12],[29,-5],[9,1],[15,11],[1,10],[8,8],[9,4],[-11,15],[-15,6],[-17,-2],[-1,-20],[-14,2],[-24,10],[-14,15],[-6,12],[2,5],[11,-2],[8,4],[7,9],[3,11],[14,1],[31,1],[13,-8],[11,-15],[8,-3],[8,1],[5,6],[-4,13],[17,10],[10,17],[3,18],[-4,18],[-9,15],[-14,6],[-16,1]],[[1108,761],[-36,8],[-15,9],[-10,-3],[0,-3],[6,-9],[9,-3],[14,-32],[10,-10],[22,0],[22,13],[16,2],[8,4],[-20,6],[-26,18]],[[313,1857],[11,3],[8,6],[13,23],[-5,17],[-18,3],[-18,-1],[-4,-10],[4,-10],[6,-10],[0,-12],[3,-9]],[[307,1846],[14,-2],[9,2],[40,37],[11,1],[-1,-28],[10,-13],[-13,-3],[-25,2],[-5,-16],[25,-21],[12,-3],[10,1],[19,4],[16,8],[23,17],[14,6],[27,1],[14,16],[6,5],[16,-1],[14,-6],[9,-15],[4,-18],[-3,-18],[-10,-17],[-17,-10],[4,-13],[-5,-6],[-8,-1],[-8,3],[-11,15],[-13,8],[-31,-1],[-14,-1],[-3,-11],[-7,-9],[-8,-4],[-11,2],[-2,-5],[6,-12],[14,-15],[24,-10],[14,-2],[1,20],[17,2],[15,-6],[11,-15],[-9,-4],[-8,-8],[-1,-10],[-15,-11],[-9,-1],[-29,5],[-17,12],[-4,9],[-10,3],[-12,-11],[-12,-2],[-25,9],[-23,15],[-14,6],[-22,3],[-12,-34],[-17,-14],[-22,-2],[-11,3],[-5,14],[1,14],[4,14],[6,14],[5,15],[-2,14],[-8,11],[4,19],[-8,15],[3,11],[13,7],[-6,7],[-6,1],[-5,9],[-4,11],[5,19],[7,19],[-1,22],[13,20],[11,23],[8,9],[9,1],[5,-6],[2,-13],[-4,-8],[9,-3],[3,-27],[-6,-10],[-1,-11],[-12,-22],[4,-18],[24,-7]],[[1130,731],[-22,-13],[-22,0],[-10,10],[-14,32],[-9,3],[-6,9],[0,3],[10,3],[15,-9],[36,-8],[26,-18],[20,-6],[-8,-4],[-16,-2]],[[324,1860],[-11,-3],[-3,9],[0,12],[-6,10],[-4,10],[4,10],[18,1],[18,-3],[5,-17],[-13,-23],[-8,-6]],[[864,763],[38,51],[44,1],[42,-33],[38,45],[84,24],[96,-76],[14,-41],[-28,-43],[-106,-31],[-60,19],[-34,66],[-28,-36],[-44,-9],[-41,21],[-15,42]],[[0,1322],[0,1453],[91,70],[182,-277],[546,0],[182,-277],[347,0],[69,-147],[60,-256],[-1,-239],[-566,-341],[-235,-99],[-311,-185],[0,298],[-364,0]],[[0,1322],[0,1453],[91,70],[182,-277],[546,0],[182,-277],[347,0],[69,-147],[60,-256],[-1,-239],[-566,-341],[-235,-99],[-311,-185],[0,298],[-364,0]],[[1308,1414],[149,1],[-92,165],[110,67],[51,-21],[189,-113],[171,-153],[117,-140],[85,-151],[-377,-1],[-55,40],[-18,-40],[-166,0],[-164,346]],[[843,782],[31,21],[25,88],[89,-109],[74,53],[0,174],[-190,282],[181,105],[167,-369],[0,-397],[-357,0],[0,125],[-20,27]],[[619,1092],[91,55],[180,-244],[-71,-42],[-83,67],[-117,164]],[[1243,4096],[1165,0],[-85,-99],[-141,-107],[-157,-68],[-177,-29],[-179,18],[-170,63],[-152,105],[-104,117]],[[0,2775],[0,131],[66,27],[324,3],[376,-130],[380,-265],[202,-250],[-347,0],[-182,277],[-546,0],[-182,277],[-91,-70]],[[0,761],[0,561],[364,0],[0,-298],[-364,-263]]]}