{"objects":{"water":{"type":"GeometryCollection","geometries":[{"type":"Polygon","properties":{"source":"naturalearthdata.com","kind":"ocean","area":990044000000000,"sort_rank":200,"min_zoom":0,"id":1},"arcs":[[0]]},{"type":"Point","properties":{"name:ia":"Oceano Austral","label_placement":true,"name:pt":"Oceano Ant\u00e1rtico","alt_name:en":"Antarctic Ocean;South Polar Ocean;Austral Ocean","name:ms":"Lautan Selatan","name:tr":"G\u00fcney Okyanusu","name:ar":"\u0627\u0644\u0645\u062d\u064a\u0637 \u0627\u0644\u0645\u062a\u062c\u0645\u062f \u0627\u0644\u062c\u0646\u0648\u0628\u064a","name:cs":"Ji\u017en\u00ed oce\u00e1n","alt_name:eo":"Antarkta Oceano;Sudpolusa Oceano","name:io":"Antarktika oceano","min_zoom":1.0,"collision_rank":301,"name:it":"Mari antartici","name:tl":"Katimugang Karagatan","name:ru":"\u042e\u0436\u043d\u044b\u0439 \u043e\u043a\u0435\u0430\u043d","name:vi":"Nam \u0110\u1ea1i D\u01b0\u01a1ng","name:pl":"Ocean Po\u0142udniowy","name:mi":"Te Moana-t\u0101pokopoko-a-T\u0101whaki","id":305639157,"name:mk":"\u0408\u0443\u0436\u0435\u043d \u041e\u043a\u0435\u0430\u043d","name:vo":"Sul\u00fcdagladean","name:fa":"\u0627\u0642\u06cc\u0627\u0646\u0648\u0633 \u0645\u0646\u062c\u0645\u062f \u062c\u0646\u0648\u0628\u06cc","sort_rank":200,"name:fi":"Etel\u00e4inen j\u00e4\u00e4meri","name:de":"S\u00fcdlicher Ozean","source":"openstreetmap.org","name:fr":"Oc\u00e9an Austral","name:zh":"\u5357\u51b0\u6d0b","alt_name:tl":"Dakilang Katimugang Karagatan;Timog Polar na Karagatan;Karagatang Antartiko","name:ku":"Okyan\u00fbsa Ba\u015f\u00fbr","name:sl":"Ju\u017eni ocean","name:nl":"Zuidelijke Oceaan","name:no":"S\u00f8rishavet","name:sv":"Antarktiska oceanen","kind":"ocean","name:sk":"Ju\u017en\u00fd oce\u00e1n","name:uk":"\u041f\u0456\u0432\u0434\u0435\u043d\u043d\u0438\u0439 \u043e\u043a\u0435\u0430\u043d","name:be":"\u041f\u0430\u045e\u0434\u043d\u0451\u0432\u044b \u0430\u043a\u0456\u044f\u043d","name:hr":"Ju\u017eni ocean","alt_name:ia":"Oceano Antarctic","name:eo":"Suda Oceano","name:en":"Southern Ocean","name":"Southern Ocean","name:is":"Su\u00f0ur-\u00cdshaf","alt_name:pl":"Po\u0142udniowy Ocean Lodowaty;Ocean Antarktyczny","name:mg":"Ranomasimbe Atsimo","wikidata_id":"Q7354","alt_name:ku":"Deryaya Cemsera Ba\u015f\u00fb, Okyan\u00fbsa Antarkt\u00eeka","name:es":"Oc\u00e9ano Ant\u00e1rtico"},"coordinates":[4096,2485]}]},"buildings":{"type":"GeometryCollection","geometries":[]},"places":{"type":"GeometryCollection","geometries":[]},"transit":{"type":"GeometryCollection","geometries":[]},"pois":{"type":"GeometryCollection","geometries":[]},"boundaries":{"type":"GeometryCollection","geometries":[]},"roads":{"type":"GeometryCollection","geometries":[]},"earth":{"type":"GeometryCollection","geometries":[]},"landuse":{"type":"GeometryCollection","geometries":[]}},"type":"Topology","transform":{"translate":[67.5,-66.5132604431],"scale":[0.0054931641,0.0026212616]},"arcs":[[[4096,0],[-4096,0],[0,4096],[4096,0],[0,-4096]]]}