{"objects":{"water":{"type":"GeometryCollection","geometries":[{"type":"Polygon","properties":{"source":"naturalearthdata.com","kind":"ocean","area":990044000000000,"sort_rank":200,"min_zoom":0,"id":1},"arcs":[[0],[1],[2],[3],[4],[5],[6]]},{"type":"LineString","properties":{"source":"naturalearthdata.com","kind":"ocean","sort_rank":205,"boundary":true,"min_zoom":0,"id":214},"arcs":[7]},{"type":"LineString","properties":{"source":"naturalearthdata.com","kind":"ocean","sort_rank":205,"boundary":true,"min_zoom":0,"id":216},"arcs":[8]},{"type":"LineString","properties":{"source":"naturalearthdata.com","kind":"ocean","sort_rank":205,"boundary":true,"min_zoom":0,"id":217},"arcs":[9]},{"type":"LineString","properties":{"source":"naturalearthdata.com","kind":"ocean","sort_rank":205,"boundary":true,"min_zoom":0,"id":218},"arcs":[10]},{"type":"LineString","properties":{"source":"naturalearthdata.com","kind":"ocean","sort_rank":205,"boundary":true,"min_zoom":0,"id":219},"arcs":[11]},{"type":"LineString","properties":{"source":"naturalearthdata.com","kind":"ocean","sort_rank":205,"boundary":true,"min_zoom":0,"id":221},"arcs":[12]},{"type":"MultiLineString","properties":{"source":"naturalearthdata.com","kind":"ocean","sort_rank":205,"boundary":true,"min_zoom":0,"id":1386},"arcs":[[13],[14],[15]]}]},"buildings":{"type":"GeometryCollection","geometries":[]},"places":{"type":"GeometryCollection","geometries":[]},"transit":{"type":"GeometryCollection","geometries":[]},"pois":{"type":"GeometryCollection","geometries":[]},"boundaries":{"type":"GeometryCollection","geometries":[]},"roads":{"type":"GeometryCollection","geometries":[]},"earth":{"type":"GeometryCollection","geometries":[{"type":"MultiPolygon","properties":{"sort_rank":10,"source":"naturalearthdata.com","kind":"earth","min_zoom":4.0,"area":6407785552},"arcs":[[[16]],[[17]]]},{"type":"MultiPolygon","properties":{"sort_rank":10,"source":"naturalearthdata.com","min_zoom":3.0,"kind":"earth","area":87663321458},"arcs":[[[18]],[[19]],[[20]],[[21]]]},{"type":"MultiPolygon","properties":{"sort_rank":10,"source":"naturalearthdata.com","min_zoom":0,"kind":"earth","area":198841645716179},"arcs":[[[22]],[[23]],[[24]]]}]},"landuse":{"type":"GeometryCollection","geometries":[]}},"type":"Topology","transform":{"translate":[67.5,-74.0195433115],"scale":[0.0054931641,0.0018325886]},"arcs":[[[4096,3942],[-55,-15],[-63,3],[-50,10],[-52,4],[-87,-14],[-61,16],[-163,-83],[-25,-25],[-36,-28],[-115,-10],[-74,-58],[-51,1],[-57,19],[-67,13],[-48,-7],[-59,-71],[-47,-26],[-74,-81],[-35,-89],[-27,-4],[-100,-1],[-61,-43],[-46,1],[-151,-77],[-150,-63],[-196,-94],[-46,-31],[-56,-56],[-30,-63],[-14,-127],[-47,-71],[-39,-74],[-36,-97],[-50,-57],[-64,-17],[-76,-73],[-75,-82],[-45,1],[-40,-48],[-13,-82],[-34,-67],[-39,-24],[-50,20],[-105,-13],[-62,43],[-52,32],[-49,-46],[-64,-12],[-51,-88],[-40,-47],[-14,-78],[3,-86],[-26,-41],[-37,-69],[-28,-32],[-65,-27],[-24,-52],[-25,-81],[-31,-112],[-16,-84],[-5,-112],[-13,-60],[-20,-26],[-16,-35],[-64,-47],[-21,-11],[-8,-48],[-50,-68],[-61,-43],[-35,-65],[-39,-66],[-45,-19],[-27,-5],[-135,-53],[-57,-74],[-24,-55],[8,-91],[-8,-91],[-41,-45],[-45,-43],[0,716],[35,108],[33,85],[30,103],[50,57],[24,19],[33,39],[26,49],[19,31],[57,180],[2,65],[10,84],[-16,53],[-26,5],[-48,-24],[-36,-24],[-113,-5],[-51,52],[-29,12],[0,95],[14,23],[62,74],[20,32],[27,31],[44,-35],[59,-11],[33,5],[29,25],[15,53],[4,63],[-9,42],[-32,20],[-15,39],[5,53],[29,19],[56,3],[32,21],[15,34],[-3,42],[-15,71],[21,50],[-18,41],[-3,66],[42,75],[30,35],[10,38],[-14,47],[-21,54],[-16,65],[-18,65],[9,97],[-17,55],[-26,11],[-45,-45],[-49,-20],[-104,-15],[-42,19],[-109,24],[0,708],[4096,0],[0,-154]],[[3211,4028],[15,-3],[20,17],[-25,31],[-5,18],[-8,2],[-10,-35],[2,-12],[11,-18]],[[3418,3996],[-8,-20],[19,-30],[16,-2],[21,13],[21,27],[-18,7],[-6,10],[-25,7],[-20,-12]],[[3286,3979],[-38,2],[-5,-28],[8,-43],[47,-53],[1,-8],[5,-8],[31,15],[21,32],[-23,65],[-47,26]],[[766,2038],[-11,-28],[-2,-59],[4,-29],[12,-28],[21,-40],[16,-6],[14,0],[13,13],[4,19],[-4,27],[-4,13],[-10,24],[-22,28],[-5,21],[-2,30],[-8,26],[-16,-11]],[[408,1078],[9,-1],[23,70],[-4,5],[-18,8],[-11,-15],[-8,-26],[9,-41]],[[170,960],[-5,-22],[10,0],[38,13],[27,26],[4,35],[-20,41],[-12,-7],[-18,-48],[-24,-38]],[[3248,3981],[-5,-28],[8,-43],[47,-53],[1,-8],[5,-8],[31,15],[21,32],[-23,65],[-47,26],[-38,2]],[[3438,4008],[-20,-12],[-8,-20],[19,-30],[16,-2],[21,13],[21,27],[-18,7],[-6,10],[-25,7]],[[3216,4091],[-8,2],[-10,-35],[2,-12],[11,-18],[15,-3],[20,17],[-25,31],[-5,18]],[[418,1160],[-11,-15],[-8,-26],[9,-41],[9,-1],[23,70],[-4,5],[-18,8]],[[212,1046],[-18,-48],[-24,-38],[-5,-22],[10,0],[38,13],[27,26],[4,35],[-20,41],[-12,-7]],[[833,1907],[-4,13],[-10,24],[-22,28],[-5,21],[-2,30],[-8,26],[-16,-11],[-11,-28],[-2,-59],[4,-29],[12,-28],[21,-40],[16,-6],[14,0],[13,13],[4,19],[-4,27]],[[0,3388],[109,-24],[42,-19],[104,15],[49,20],[45,45],[26,-11],[17,-55],[-9,-97],[18,-65],[16,-65],[21,-54],[14,-47],[-10,-38],[-30,-35],[-42,-75],[3,-66],[18,-41],[-21,-50],[15,-71],[3,-42],[-15,-34],[-32,-21],[-56,-3],[-29,-19],[-5,-53],[15,-39],[32,-20],[9,-42],[-4,-63],[-15,-53],[-29,-25],[-33,-5],[-59,11],[-44,35],[-27,-31],[-20,-32],[-62,-74],[-14,-23]],[[0,2027],[29,-12],[51,-52],[113,5],[36,24],[48,24],[26,-5],[16,-53],[-10,-84],[-2,-65],[-57,-180],[-19,-31],[-26,-49],[-33,-39],[-24,-19],[-50,-57],[-30,-103],[-33,-85],[-35,-108]],[[0,422],[45,43],[41,45],[8,91],[-8,91],[24,55],[57,74],[135,53],[27,5],[45,19],[39,66],[35,65],[61,43],[50,68],[8,48],[21,11],[64,47],[16,35],[20,26],[13,60],[5,112],[16,84],[31,112],[25,81],[24,52],[65,27],[28,32],[37,69],[26,41],[-3,86],[14,78],[40,47],[51,88],[64,12],[49,46],[52,-32],[62,-43],[105,13],[50,-20],[39,24],[34,67],[13,82],[40,48],[45,-1],[75,82],[76,73],[64,17],[50,57],[36,97],[39,74],[47,71],[14,127],[30,63],[56,56],[46,31],[196,94],[150,63],[151,77],[46,-1],[61,43],[100,1],[27,4],[35,89],[74,81],[47,26],[59,71],[48,7],[67,-13],[57,-19],[51,-1],[74,58],[115,10],[36,28],[25,25],[163,83],[61,-16],[87,14],[52,-4],[50,-10],[63,-3],[55,15]],[[440,1147],[-23,-70],[-9,1],[-9,41],[8,26],[11,15],[18,-8],[4,-5]],[[3246,4042],[-20,-17],[-15,3],[-11,18],[-2,12],[10,35],[8,-2],[5,-18],[25,-31]],[[175,938],[-10,0],[5,22],[24,38],[18,48],[12,7],[20,-41],[-4,-35],[-27,-26],[-38,-13]],[[820,1848],[-14,0],[-16,6],[-21,40],[-12,28],[-4,29],[2,59],[11,28],[16,11],[8,-26],[2,-30],[5,-21],[22,-28],[10,-24],[4,-13],[4,-27],[-4,-19],[-13,-13]],[[3335,3856],[-31,-15],[-5,8],[-1,8],[-47,53],[-8,43],[5,28],[38,-2],[47,-26],[23,-65],[-21,-32]],[[3466,3957],[-21,-13],[-16,2],[-19,30],[8,20],[20,12],[25,-7],[6,-10],[18,-7],[-21,-27]],[[4096,3942],[0,-3942],[-4096,0],[0,422],[45,43],[41,45],[8,91],[-8,91],[24,55],[57,74],[135,53],[27,5],[45,19],[39,66],[35,65],[61,43],[50,68],[8,48],[21,11],[64,47],[16,35],[20,26],[13,60],[5,112],[16,84],[31,112],[25,81],[24,52],[65,27],[28,32],[37,69],[26,41],[-3,86],[14,78],[40,47],[51,88],[64,12],[49,46],[52,-32],[62,-43],[105,13],[50,-20],[39,24],[34,67],[13,82],[40,48],[45,-1],[75,82],[76,73],[64,17],[50,57],[36,97],[39,74],[47,71],[14,127],[30,63],[56,56],[46,31],[196,94],[150,63],[151,77],[46,-1],[61,43],[100,1],[27,4],[35,89],[74,81],[47,26],[59,71],[48,7],[67,-13],[57,-19],[51,-1],[74,58],[115,10],[36,28],[25,25],[163,83],[61,-16],[87,14],[52,-4],[50,-10],[63,-3],[55,15]],[[0,2122],[0,1266],[109,-24],[42,-19],[104,15],[49,20],[45,45],[26,-11],[17,-55],[-9,-97],[18,-65],[16,-65],[21,-54],[14,-47],[-10,-38],[-30,-35],[-42,-75],[3,-66],[18,-41],[-21,-50],[15,-71],[3,-42],[-15,-34],[-32,-21],[-56,-3],[-29,-19],[-5,-53],[15,-39],[32,-20],[9,-42],[-4,-63],[-15,-53],[-29,-25],[-33,-5],[-59,11],[-44,35],[-27,-31],[-20,-32],[-62,-74],[-14,-23]],[[0,1138],[0,889],[29,-12],[51,-52],[113,5],[36,24],[48,24],[26,-5],[16,-53],[-10,-84],[-2,-65],[-57,-180],[-19,-31],[-26,-49],[-33,-39],[-24,-19],[-50,-57],[-30,-103],[-33,-85],[-35,-108]]]}