{"objects":{"water":{"type":"GeometryCollection","geometries":[{"type":"Polygon","properties":{"source":"naturalearthdata.com","kind":"ocean","area":990044000000000,"sort_rank":200,"min_zoom":0,"id":1},"arcs":[[0]]}]},"buildings":{"type":"GeometryCollection","geometries":[]},"places":{"type":"GeometryCollection","geometries":[]},"transit":{"type":"GeometryCollection","geometries":[]},"pois":{"type":"GeometryCollection","geometries":[]},"boundaries":{"type":"GeometryCollection","geometries":[]},"roads":{"type":"GeometryCollection","geometries":[]},"earth":{"type":"GeometryCollection","geometries":[]},"landuse":{"type":"GeometryCollection","geometries":[{"type":"MultiPolygon","properties":{"kind":"nature_reserve","protect_class":"4","area":1507195739376,"sort_rank":23,"source":"openstreetmap.org","min_zoom":4.0,"tier":2,"id":-3411897},"arcs":[[[1]]]},{"type":"MultiPolygon","properties":{"kind":"protected_area","protect_class":"4","area":1857690954970,"sort_rank":17,"source":"openstreetmap.org","min_zoom":4.0,"tier":2,"id":-9299402},"arcs":[[[2],[3]]]}]}},"type":"Topology","transform":{"translate":[67.5,-40.9798980696],"scale":[0.0054931641,0.0046476691]},"arcs":[[[4096,0],[-4096,0],[0,4096],[4096,0],[0,-4096]],[[1729,426],[0,323],[91,54],[137,-108],[0,-215],[-137,-108],[-91,54]],[[2408,0],[-1165,0],[-22,19],[-96,136],[-59,152],[-20,164],[26,337],[102,242],[198,207],[263,122],[298,18],[287,-95],[225,-194],[133,-260],[25,-151],[0,-280],[-74,-258],[-88,-128],[-33,-31]],[[1729,426],[91,-54],[137,108],[0,215],[-137,108],[-91,-54],[0,-323]]]}