{"objects":{"water":{"type":"GeometryCollection","geometries":[{"type":"MultiPolygon","properties":{"source":"naturalearthdata.com","kind":"ocean","area":989871000000000,"sort_rank":200,"min_zoom":0,"id":1},"arcs":[[[0]],[[1]]]},{"type":"MultiLineString","properties":{"source":"naturalearthdata.com","kind":"ocean","sort_rank":205,"boundary":true,"min_zoom":0,"id":1},"arcs":[[2],[3]]}]},"buildings":{"type":"GeometryCollection","geometries":[]},"places":{"type":"GeometryCollection","geometries":[]},"transit":{"type":"GeometryCollection","geometries":[]},"pois":{"type":"GeometryCollection","geometries":[]},"boundaries":{"type":"GeometryCollection","geometries":[]},"roads":{"type":"GeometryCollection","geometries":[]},"earth":{"type":"GeometryCollection","geometries":[{"type":"Polygon","properties":{"sort_rank":10,"source":"naturalearthdata.com","min_zoom":0,"kind":"earth","area":92616631212867},"arcs":[[4]]}]},"landuse":{"type":"GeometryCollection","geometries":[]}},"type":"Topology","transform":{"translate":[22.5,-74.0195433115],"scale":[0.002746582,0.0008317698]},"arcs":[[[711,4096],[1549,0],[-24,-13],[-11,-11],[-21,-32],[-21,-22],[-8,-12],[-8,-8],[-50,19],[-12,0],[-9,-12],[-9,-17],[-11,-15],[-10,-3],[-22,12],[-10,-6],[-11,-12],[-10,-5],[-146,-18],[-4,-7],[-4,-13],[-8,-30],[-3,-7],[-11,-5],[-16,-20],[-11,-1],[-10,2],[-11,-3],[-9,-12],[-6,-15],[-8,-6],[-8,17],[-4,-22],[-7,-5],[-17,10],[-10,-1],[-8,-6],[-7,-13],[-9,-18],[7,-19],[7,-13],[8,-9],[8,-5],[15,2],[7,-5],[6,-17],[-7,-14],[0,-18],[2,-20],[-3,-19],[-7,-6],[-108,61],[-10,11],[-9,7],[-7,-9],[-7,-13],[-10,-2],[-8,2],[-4,-5],[-2,-10],[-7,-11],[-4,-1],[-9,4],[-25,0],[-9,-5],[-14,-41],[-11,-10],[-32,-18],[-5,0],[-5,4],[-4,0],[-12,-16],[-21,3],[-44,26],[-19,-8],[-21,-23],[-21,-10],[-43,1],[-24,9],[-32,31],[-17,2],[-9,5],[-10,11],[-5,4],[-5,-1],[-10,-11],[-5,0],[-6,3],[-9,12],[-8,12],[-8,8],[-10,-5],[2,-5],[3,-12],[2,-5],[-16,-1],[-30,17],[-66,-1],[-106,43],[-151,118],[-7,11],[-13,35],[-7,15],[-59,67],[-10,27],[-9,48],[9,-4],[10,2],[10,8],[40,71],[-1,2]],[[0,3917],[0,179],[385,0],[-2,-20],[-6,-24],[-5,-13],[-3,-13],[-4,-10],[-5,-5],[-10,-2],[-5,-2],[-4,-5],[0,-32],[-9,-32],[-32,-79],[-11,-14],[-13,-2],[-28,12],[-76,-13],[-6,-6],[-2,0],[-3,3],[-6,12],[-3,4],[-23,6],[-8,5],[-26,32],[-13,10],[-47,-5],[-12,-6],[-5,1],[-18,19]],[[2260,4096],[-24,-13],[-11,-11],[-21,-32],[-21,-22],[-8,-12],[-8,-8],[-50,19],[-12,0],[-9,-12],[-9,-17],[-11,-15],[-10,-3],[-22,12],[-10,-6],[-11,-12],[-10,-5],[-146,-18],[-4,-7],[-4,-13],[-8,-30],[-3,-7],[-11,-5],[-16,-20],[-11,-1],[-10,2],[-11,-3],[-9,-12],[-6,-15],[-8,-6],[-8,17],[-4,-22],[-7,-5],[-17,10],[-10,-1],[-8,-6],[-7,-13],[-9,-18],[7,-19],[7,-13],[8,-9],[8,-5],[15,2],[7,-5],[6,-17],[-7,-14],[0,-18],[2,-20],[-3,-19],[-7,-6],[-108,61],[-10,11],[-9,7],[-7,-9],[-7,-13],[-10,-2],[-8,2],[-4,-5],[-2,-10],[-7,-11],[-4,-1],[-9,4],[-25,0],[-9,-5],[-14,-41],[-11,-10],[-32,-18],[-5,0],[-5,4],[-4,0],[-12,-16],[-21,3],[-44,26],[-19,-8],[-21,-23],[-21,-10],[-43,1],[-24,9],[-32,31],[-17,2],[-9,5],[-10,11],[-5,4],[-5,-1],[-10,-11],[-5,0],[-6,3],[-9,12],[-8,12],[-8,8],[-10,-5],[2,-5],[3,-12],[2,-5],[-16,-1],[-30,17],[-66,-1],[-106,43],[-151,118],[-7,11],[-13,35],[-7,15],[-59,67],[-10,27],[-9,48],[9,-4],[10,2],[10,8],[40,71],[-1,2]],[[385,4096],[-2,-20],[-6,-24],[-5,-13],[-3,-13],[-4,-10],[-5,-5],[-10,-2],[-5,-2],[-4,-5],[0,-32],[-9,-32],[-32,-79],[-11,-14],[-13,-2],[-28,12],[-76,-13],[-6,-6],[-2,0],[-3,3],[-6,12],[-3,4],[-23,6],[-8,5],[-26,32],[-13,10],[-47,-5],[-12,-6],[-5,1],[-18,19]],[[0,3917],[18,-19],[5,-1],[12,6],[47,5],[13,-10],[26,-32],[8,-5],[23,-6],[3,-4],[6,-12],[3,-3],[2,0],[6,6],[76,13],[28,-12],[13,2],[11,14],[32,79],[9,32],[0,32],[4,5],[5,2],[10,2],[5,5],[4,10],[3,13],[5,13],[6,24],[2,20],[326,0],[1,-2],[-40,-71],[-10,-8],[-10,-2],[-9,4],[9,-48],[10,-27],[59,-67],[7,-15],[13,-35],[7,-11],[151,-118],[106,-43],[66,1],[30,-17],[16,1],[-2,5],[-3,12],[-2,5],[10,5],[8,-8],[8,-12],[9,-12],[6,-3],[5,0],[10,11],[5,1],[5,-4],[10,-11],[9,-5],[17,-2],[32,-31],[24,-9],[43,-1],[21,10],[21,23],[19,8],[44,-26],[21,-3],[12,16],[4,0],[5,-4],[5,0],[32,18],[11,10],[14,41],[9,5],[25,0],[9,-4],[4,1],[7,11],[2,10],[4,5],[8,-2],[10,2],[7,13],[7,9],[9,-7],[10,-11],[108,-61],[7,6],[3,19],[-2,20],[0,18],[7,14],[-6,17],[-7,5],[-15,-2],[-8,5],[-8,9],[-7,13],[-7,19],[9,18],[7,13],[8,6],[10,1],[17,-10],[7,5],[4,22],[8,-17],[8,6],[6,15],[9,12],[11,3],[10,-2],[11,1],[16,20],[11,5],[3,7],[8,30],[4,13],[4,7],[146,18],[10,5],[11,12],[10,6],[6,-3],[16,-9],[10,3],[11,15],[9,17],[9,12],[12,0],[50,-19],[8,8],[8,12],[21,22],[21,32],[11,11],[24,13],[1836,0],[0,-4096],[-4096,0],[0,3917]]]}