{"objects":{"water":{"type":"GeometryCollection","geometries":[{"type":"MultiPolygon","properties":{"source":"naturalearthdata.com","kind":"ocean","area":989871000000000,"sort_rank":200,"min_zoom":0,"id":1},"arcs":[[[0],[1],[2],[3]],[[4]]]},{"type":"LineString","properties":{"source":"naturalearthdata.com","kind":"ocean","sort_rank":205,"boundary":true,"min_zoom":0,"id":1991},"arcs":[5]},{"type":"LineString","properties":{"source":"naturalearthdata.com","kind":"ocean","sort_rank":205,"boundary":true,"min_zoom":0,"id":1993},"arcs":[6]},{"type":"LineString","properties":{"source":"naturalearthdata.com","kind":"ocean","sort_rank":205,"boundary":true,"min_zoom":0,"id":1994},"arcs":[7]},{"type":"MultiLineString","properties":{"source":"naturalearthdata.com","kind":"ocean","sort_rank":205,"boundary":true,"min_zoom":0,"id":1995},"arcs":[[8],[9],[10]]}]},"buildings":{"type":"GeometryCollection","geometries":[]},"places":{"type":"GeometryCollection","geometries":[]},"transit":{"type":"GeometryCollection","geometries":[]},"pois":{"type":"GeometryCollection","geometries":[]},"boundaries":{"type":"GeometryCollection","geometries":[]},"roads":{"type":"GeometryCollection","geometries":[]},"earth":{"type":"GeometryCollection","geometries":[{"type":"MultiPolygon","properties":{"sort_rank":10,"source":"naturalearthdata.com","kind":"earth","min_zoom":5.0,"area":29754728941},"arcs":[[[11]],[[12]]]},{"type":"MultiPolygon","properties":{"sort_rank":10,"source":"naturalearthdata.com","min_zoom":3.0,"kind":"earth","area":203468181153},"arcs":[[[13]]]},{"type":"MultiPolygon","properties":{"sort_rank":10,"source":"naturalearthdata.com","min_zoom":0,"kind":"earth","area":11714569654858},"arcs":[[[14]]]}]},"landuse":{"type":"GeometryCollection","geometries":[{"type":"MultiPolygon","properties":{"kind":"nature_reserve","protect_class":"1","area":2495102325819,"sort_rank":23,"source":"openstreetmap.org","min_zoom":4.0,"tier":2,"id":-9349959},"arcs":[[[15]],[[16]],[[17]]]}]}},"type":"Topology","transform":{"translate":[22.5,79.1713346408],"scale":[0.002746582,0.0004692088]},"arcs":[[[0,2700],[0,1396],[4096,0],[0,-4096],[-4096,0],[0,478],[5,-4],[139,55],[-88,-118],[-4,-99],[1,-17],[2,-6],[11,-39],[20,-45],[69,-95],[137,-24],[137,-24],[136,-25],[68,90],[8,21],[4,29],[0,20],[-4,35],[-1,18],[11,45],[100,30],[76,100],[54,16],[6,-5],[3,-11],[1,-10],[0,-10],[1,-10],[2,-10],[1,-22],[2,-10],[4,-5],[76,3],[67,51],[16,30],[85,50],[50,76],[9,8],[8,11],[5,23],[-7,26],[11,27],[27,39],[10,22],[5,19],[-1,23],[-19,83],[-3,17],[-4,17],[-11,14],[-5,14],[-10,17],[-5,16],[0,24],[6,11],[144,93],[27,58],[73,56],[11,25],[3,42],[19,2],[9,9],[9,18],[-2,28],[7,12],[39,8],[12,10],[24,77],[23,23],[84,27],[21,40],[11,68],[-5,41],[-33,65],[-11,41],[6,30],[14,47],[5,39],[-4,2],[-3,6],[-3,9],[-3,12],[4,14],[6,37],[3,15],[24,50],[-17,27],[-55,3],[-13,9],[-37,78],[-35,47],[-158,12],[-158,12],[-33,-27],[-52,0],[21,57],[6,30],[-13,26],[-16,-6],[-31,-48],[-4,36],[-6,25],[-7,17],[-8,9],[-12,3],[-22,-25],[-49,-10],[-18,16],[-16,44],[36,29],[12,31],[-88,-29],[-25,-34],[-56,18],[-28,-13],[-13,-15],[19,49],[6,32],[-3,35],[5,4],[5,9],[4,13],[4,18],[-6,24],[-16,46],[-8,-14],[-8,-27],[-11,-20],[-1,-15],[0,-16],[-1,-14],[-4,-17],[-5,-10],[-45,-30],[-9,-31],[-8,-20],[-12,0],[-12,12],[-9,16],[3,6],[4,16],[3,7],[-2,6],[-3,16],[-2,5],[10,23],[13,17],[13,8],[11,-1],[-33,67],[-11,14],[-80,44],[-27,-9],[-14,-45],[23,-33],[60,-6],[10,-19],[-8,-15],[-27,2],[0,-16],[6,1],[7,-6],[6,-12],[6,-14],[-15,-19],[-48,19],[3,-5],[5,-22],[-13,-15],[-41,58],[-66,15],[12,-24],[38,-48],[-7,-11],[-6,6],[-7,12],[-7,7],[-33,0],[-25,45],[-12,12],[-11,-30],[3,-7],[2,-9],[3,-25],[-4,1],[-4,-6],[-4,-11],[-3,-14],[7,-13],[21,-16],[-6,-12],[-11,-7],[-6,-9],[4,-18],[3,-19],[3,-16],[5,-6],[23,-15],[-11,-34],[-52,-25],[-22,-64],[-12,-19],[-13,10],[0,9],[2,25],[0,9],[-13,-4],[-4,4],[-7,24],[-3,6],[8,12],[3,12],[1,19],[-2,20],[-4,10],[-5,3],[-3,-2],[4,13],[-17,-5],[-9,-15],[-4,-30],[2,-16],[13,-51],[-11,-34],[-10,1],[-10,25],[-9,38],[0,6],[0,21],[-1,10],[-3,7],[-4,2],[-8,-3],[-12,4],[-6,-8],[-3,-24],[3,-4],[2,-5],[5,-20],[-57,14],[6,-21],[14,-14],[11,-35],[7,-15],[14,-16],[-17,-24],[-22,8],[-23,30],[-15,43],[-5,22],[0,13],[7,52],[11,118],[11,16],[51,19],[14,23],[6,4],[6,8],[3,19],[0,11],[-2,20],[0,11],[0,13],[-2,14],[1,12],[21,20],[-7,24],[-7,7],[-16,-3],[-23,17],[-7,-1],[4,3],[3,9],[2,13],[1,19],[-18,-2],[-9,7],[-8,23],[8,4],[17,20],[38,4],[9,16],[-3,1],[-3,3],[-6,11],[14,7],[7,9],[6,13],[-34,44],[-105,43],[-55,88],[-16,5],[-8,-7],[-4,-20],[3,-20],[6,-16],[6,-10],[5,-4],[-5,-47],[7,-32],[7,-22],[-6,-15],[5,-24],[2,-7],[-3,-6],[-4,-11],[-2,-15],[-1,-19],[-1,-14],[-4,-6],[-7,-5],[-20,-36],[-7,-4],[3,-22],[5,-13],[6,-10],[5,-15],[-28,7],[-14,18],[-8,35],[8,29],[12,69],[5,33],[0,16],[-66,24]],[[3859,2251],[-9,-16],[-19,3],[-10,-5],[-20,-27],[-175,-65],[-175,-64],[-176,-64],[-5,-11],[-2,-14],[7,-15],[42,-52],[148,43],[148,43],[148,43],[74,81],[93,25],[93,26],[19,17],[16,38],[-124,58],[-73,-44]],[[608,2717],[-4,-26],[-2,-30],[-3,-24],[-6,-7],[14,-47],[78,18],[-7,35],[-25,49],[-10,32],[-8,17],[-10,10],[-9,-3],[-8,-24]],[[653,2807],[-22,33],[-21,16],[-22,2],[-20,-9],[-7,1],[-9,-4],[-8,-11],[-6,-15],[12,-24],[75,-29],[16,7],[12,33]],[[0,2360],[0,89],[23,-20],[5,-26],[-10,-30],[-18,-13]],[[3859,2251],[-9,-16],[-19,3],[-10,-5],[-20,-27],[-175,-65],[-175,-64],[-176,-64],[-5,-11],[-2,-14],[7,-15],[42,-52],[148,43],[148,43],[148,43],[74,81],[93,25],[93,26],[19,17],[16,38],[-124,58],[-73,-44]],[[608,2717],[-4,-26],[-2,-30],[-3,-24],[-6,-7],[14,-47],[78,18],[-7,35],[-25,49],[-10,32],[-8,17],[-10,10],[-9,-3],[-8,-24]],[[653,2807],[-22,33],[-21,16],[-22,2],[-20,-9],[-7,1],[-9,-4],[-8,-11],[-6,-15],[12,-24],[75,-29],[16,7],[12,33]],[[1701,1923],[24,50],[-17,27],[-55,3],[-13,9],[-37,78],[-35,47],[-158,12],[-158,12],[-33,-27],[-52,0],[21,57],[6,30],[-13,26],[-16,-6],[-31,-48],[-4,36],[-6,25],[-7,17],[-8,9],[-12,3],[-22,-25],[-49,-10],[-18,16],[-16,44],[36,29],[12,31],[-88,-29],[-25,-34],[-56,18],[-28,-13],[-13,-15],[19,49],[6,32],[-3,35],[5,4],[5,9],[4,13],[4,18],[-6,24],[-16,46],[-8,-14],[-8,-27],[-11,-20],[-1,-15],[0,-16],[-1,-14],[-4,-17],[-5,-10],[-45,-30],[-9,-31],[-8,-20],[-12,0],[-12,12],[-9,16],[3,6],[4,16],[3,7],[-2,6],[-3,16],[-2,5],[10,23],[13,17],[13,8],[11,-1],[-33,67],[-11,14],[-80,44],[-27,-9],[-14,-45],[23,-33],[60,-6],[10,-19],[-8,-15],[-27,2],[0,-16],[6,1],[7,-6],[6,-12],[6,-14],[-15,-19],[-48,19],[3,-5],[5,-22],[-13,-15],[-41,58],[-66,15],[12,-24],[38,-48],[-7,-11],[-6,6],[-7,12],[-7,7],[-33,0],[-25,45],[-12,12],[-11,-30],[3,-7],[2,-9],[3,-25],[-4,1],[-4,-6],[-4,-11],[-3,-14],[7,-13],[21,-16],[-6,-12],[-11,-7],[-6,-9],[4,-18],[3,-19],[3,-16],[5,-6],[23,-15],[-11,-34],[-52,-25],[-22,-64],[-12,-19],[-13,10],[0,9],[2,25],[0,9],[-13,-4],[-4,4],[-7,24],[-3,6],[8,12],[3,12],[1,19],[-2,20],[-4,10],[-5,3],[-3,-2],[4,13],[-17,-5],[-9,-15],[-4,-30],[2,-16],[13,-51],[-11,-34],[-10,1],[-10,25],[-9,38],[0,6],[0,21],[-1,10],[-3,7],[-4,2],[-8,-3],[-12,4],[-6,-8],[-3,-24],[3,-4],[2,-5],[5,-20],[-57,14],[6,-21],[14,-14],[11,-35],[7,-15],[14,-16],[-17,-24],[-22,8],[-23,30],[-15,43],[-5,22],[0,13],[7,52],[11,118],[11,16],[51,19],[14,23],[6,4],[6,8],[3,19],[0,11],[-2,20],[0,11],[0,13],[-2,14],[1,12],[21,20],[-7,24],[-7,7],[-16,-3],[-23,17],[-7,-1],[4,3],[3,9],[2,13],[1,19],[-18,-2],[-9,7],[-8,23],[8,4],[17,20],[38,4],[9,16],[-3,1],[-3,3],[-6,11],[14,7],[7,9],[6,13],[-34,44],[-105,43],[-55,88],[-16,5],[-8,-7],[-4,-20],[3,-20],[6,-16],[6,-10],[5,-4],[-5,-47],[7,-32],[7,-22],[-6,-15],[5,-24],[2,-7],[-3,-6],[-4,-11],[-2,-15],[-1,-19],[-1,-14],[-4,-6],[-7,-5],[-20,-36],[-7,-4],[3,-22],[5,-13],[6,-10],[5,-15],[-28,7],[-14,18],[-8,35],[8,29],[12,69],[5,33],[0,16],[-66,24]],[[0,2449],[23,-20],[5,-26],[-10,-30],[-18,-13]],[[0,478],[5,-4],[139,55],[-88,-118],[-4,-99],[1,-17],[2,-6],[11,-39],[20,-45],[69,-95],[137,-24],[137,-24],[136,-25],[68,90],[8,21],[4,29],[0,20],[-4,35],[-1,18],[11,45],[100,30],[76,100],[54,16],[6,-5],[3,-11],[1,-10],[0,-10],[1,-10],[2,-10],[1,-22],[2,-10],[4,-5],[76,3],[67,51],[16,30],[85,50],[50,76],[9,8],[8,11],[5,23],[-7,26],[11,27],[27,39],[10,22],[5,19],[-1,23],[-19,83],[-3,17],[-4,17],[-11,14],[-5,14],[-10,17],[-5,16],[0,24],[6,11],[144,93],[27,58],[73,56],[11,25],[3,42],[19,2],[9,9],[9,18],[-2,28],[7,12],[39,8],[12,10],[24,77],[23,23],[84,27],[21,40],[11,68],[-5,41],[-33,65],[-11,41],[6,30],[14,47],[5,39],[-4,2],[-3,6],[-3,9],[-3,12],[4,14],[6,37],[3,15]],[[608,2717],[8,24],[9,3],[10,-10],[8,-17],[10,-32],[25,-49],[7,-35],[-78,-18],[-14,47],[6,7],[3,24],[2,30],[4,26]],[[653,2807],[-12,-33],[-16,-7],[-75,29],[-12,24],[6,15],[8,11],[9,4],[7,-1],[20,9],[22,-2],[21,-16],[22,-33]],[[3859,2251],[73,44],[124,-58],[-16,-38],[-19,-17],[-93,-26],[-93,-25],[-74,-81],[-148,-43],[-148,-43],[-148,-43],[-42,52],[-7,15],[2,14],[5,11],[176,64],[175,64],[175,65],[20,27],[10,5],[19,-3],[9,16]],[[0,2449],[0,251],[66,-24],[0,-16],[-5,-33],[-12,-69],[-8,-29],[8,-35],[14,-18],[28,-7],[-5,15],[-6,10],[-5,13],[-3,22],[7,4],[20,36],[7,5],[4,6],[1,14],[1,19],[2,15],[4,11],[3,6],[-2,7],[-5,24],[6,15],[-7,22],[-7,32],[5,47],[-5,4],[-6,10],[-6,16],[-3,20],[4,20],[8,7],[16,-5],[55,-88],[105,-43],[34,-44],[-6,-13],[-7,-9],[-14,-7],[6,-11],[3,-3],[3,-1],[-9,-16],[-38,-4],[-17,-20],[-8,-4],[8,-23],[9,-7],[18,2],[-1,-19],[-2,-13],[-3,-9],[-4,-3],[7,1],[23,-17],[16,3],[7,-7],[7,-24],[-21,-20],[-1,-12],[2,-14],[0,-13],[0,-11],[2,-20],[0,-11],[-3,-19],[-6,-8],[-6,-4],[-14,-23],[-51,-19],[-11,-16],[-11,-118],[-7,-52],[0,-13],[5,-22],[15,-43],[23,-30],[22,-8],[17,24],[-14,16],[-7,15],[-11,35],[-14,14],[-6,21],[57,-14],[-5,20],[-2,5],[-3,4],[3,24],[6,8],[12,-4],[8,3],[4,-2],[3,-7],[1,-10],[0,-21],[0,-6],[9,-38],[10,-25],[10,-1],[11,34],[-13,51],[-2,16],[4,30],[9,15],[17,5],[-4,-13],[3,2],[5,-3],[4,-10],[2,-20],[-1,-19],[-3,-12],[-8,-12],[3,-6],[7,-24],[4,-4],[13,4],[0,-9],[-2,-25],[0,-9],[13,-10],[12,19],[22,64],[52,25],[11,34],[-23,15],[-5,6],[-3,16],[-3,19],[-4,18],[6,9],[11,7],[6,12],[-21,16],[-7,13],[3,14],[4,11],[4,6],[4,-1],[-3,25],[-2,9],[-3,7],[11,30],[12,-12],[25,-45],[33,0],[7,-7],[7,-12],[6,-6],[7,11],[-38,48],[-12,24],[66,-15],[41,-58],[13,15],[-5,22],[-3,5],[48,-19],[15,19],[-6,14],[-6,12],[-7,6],[-6,-1],[0,16],[27,-2],[8,15],[-10,19],[-60,6],[-23,33],[14,45],[27,9],[80,-44],[11,-14],[33,-67],[-11,1],[-13,-8],[-13,-17],[-10,-23],[2,-5],[3,-16],[2,-6],[-3,-7],[-4,-16],[-3,-6],[9,-16],[12,-12],[12,0],[8,20],[9,31],[45,30],[5,10],[4,17],[1,14],[0,16],[1,15],[11,20],[8,27],[8,14],[16,-46],[6,-24],[-4,-18],[-4,-13],[-5,-9],[-5,-4],[3,-35],[-6,-32],[-19,-49],[13,15],[28,13],[56,-18],[25,34],[88,29],[-12,-31],[-36,-29],[16,-44],[18,-16],[49,10],[22,25],[12,-3],[8,-9],[7,-17],[6,-25],[4,-36],[31,48],[16,6],[13,-26],[-6,-30],[-21,-57],[52,0],[33,27],[158,-12],[158,-12],[35,-47],[37,-78],[13,-9],[55,-3],[17,-27],[-24,-50],[-3,-15],[-6,-37],[-4,-14],[3,-12],[3,-9],[3,-6],[4,-2],[-5,-39],[-14,-47],[-6,-30],[11,-41],[33,-65],[5,-41],[-11,-68],[-21,-40],[-84,-27],[-23,-23],[-24,-77],[-12,-10],[-39,-8],[-7,-12],[2,-28],[-9,-18],[-9,-9],[-19,-2],[-3,-42],[-11,-25],[-73,-56],[-27,-58],[-144,-93],[-6,-11],[0,-24],[5,-16],[10,-17],[5,-14],[11,-14],[4,-17],[3,-17],[19,-83],[1,-23],[-5,-19],[-10,-22],[-27,-39],[-11,-27],[7,-26],[-5,-23],[-8,-11],[-9,-8],[-50,-76],[-85,-50],[-16,-30],[-67,-51],[-76,-3],[-4,5],[-2,10],[-1,22],[-2,10],[-1,10],[0,10],[-1,10],[-3,11],[-6,5],[-54,-16],[-76,-100],[-100,-30],[-11,-45],[1,-18],[4,-35],[0,-20],[-4,-29],[-8,-21],[-68,-90],[-136,25],[-137,24],[-137,24],[-69,95],[-20,45],[-11,39],[-2,6],[-1,17],[4,99],[88,118],[-139,-55],[-5,4],[0,1882],[18,13],[10,30],[-5,26],[-23,20]],[[4096,2764],[0,-1098],[-661,-247],[-201,1],[-175,96],[-95,92],[-83,129],[-53,219],[48,265],[141,231],[327,277],[314,121],[195,7],[243,-93]],[[3109,0],[-923,0],[632,100],[121,-5],[114,-46],[56,-49]],[[1158,0],[-1158,0],[0,3484],[183,-141],[636,252],[164,3],[171,-61],[563,-567],[54,-123],[47,-287],[344,-95],[191,-123],[125,-159],[50,-207],[-10,-132],[-59,-140],[-266,-346],[-173,-297],[-184,-204],[-506,-732],[-172,-125]]]}