{"objects":{"water":{"type":"GeometryCollection","geometries":[{"type":"MultiPolygon","properties":{"source":"naturalearthdata.com","kind":"ocean","area":989871000000000,"sort_rank":200,"min_zoom":0,"id":1},"arcs":[[[0],[1],[2],[3]],[[4]],[[5]]]},{"type":"MultiLineString","properties":{"source":"naturalearthdata.com","kind":"ocean","sort_rank":205,"boundary":true,"min_zoom":0,"id":1972},"arcs":[[6],[7],[8],[9]]},{"type":"LineString","properties":{"source":"naturalearthdata.com","kind":"ocean","sort_rank":205,"boundary":true,"min_zoom":0,"id":1975},"arcs":[10]},{"type":"LineString","properties":{"source":"naturalearthdata.com","kind":"ocean","sort_rank":205,"boundary":true,"min_zoom":0,"id":1977},"arcs":[11]},{"type":"LineString","properties":{"source":"naturalearthdata.com","kind":"ocean","sort_rank":205,"boundary":true,"min_zoom":0,"id":1978},"arcs":[12]}]},"buildings":{"type":"GeometryCollection","geometries":[]},"places":{"type":"GeometryCollection","geometries":[]},"transit":{"type":"GeometryCollection","geometries":[]},"pois":{"type":"GeometryCollection","geometries":[]},"boundaries":{"type":"GeometryCollection","geometries":[]},"roads":{"type":"GeometryCollection","geometries":[]},"earth":{"type":"GeometryCollection","geometries":[{"type":"MultiPolygon","properties":{"sort_rank":10,"source":"naturalearthdata.com","min_zoom":1.0,"kind":"earth","area":300698960507},"arcs":[[[13]]]},{"type":"MultiPolygon","properties":{"sort_rank":10,"source":"naturalearthdata.com","min_zoom":3.0,"kind":"earth","area":203468181153},"arcs":[[[14]],[[15]]]}]},"landuse":{"type":"GeometryCollection","geometries":[{"type":"MultiPolygon","properties":{"kind":"nature_reserve","protect_class":"1","area":2495102325819,"sort_rank":23,"source":"openstreetmap.org","min_zoom":4.0,"tier":2,"id":-9349959},"arcs":[[[16]],[[17]]]}]}},"type":"Topology","transform":{"translate":[22.5,76.8408164144],"scale":[0.002746582,0.0005689742]},"arcs":[[[0,2422],[0,1674],[4096,0],[0,-4096],[-4096,0],[0,736],[40,-20],[34,-19],[80,33],[113,13],[20,48],[-7,63],[31,88],[13,6],[55,78],[71,54],[57,93],[9,29],[17,77],[7,46],[4,19],[12,13],[7,13],[6,18],[5,18],[6,17],[22,59],[27,58],[7,72],[32,71],[33,48],[-7,69],[-9,9],[-12,22],[-5,14],[-4,19],[-7,18],[-8,-4],[-8,-13],[-8,-8],[-60,-6],[-14,-24],[-14,-37],[-20,-13],[-114,32],[-6,6],[-17,42],[-35,36],[-27,55],[-10,13],[-90,52],[-17,37],[-7,53],[6,51],[12,38],[14,16],[76,14],[9,14],[-1,31],[8,15],[27,21],[0,12],[-18,18],[-34,56],[-70,56],[-27,5],[-34,38],[-158,-46],[-12,-20]],[[1646,3266],[-68,21],[-22,28],[-10,36],[-35,61],[-6,19],[-7,28],[-43,12],[-20,-15],[-16,-56],[16,-47],[6,-28],[3,-41],[62,-66],[18,-4],[4,-7],[1,-9],[-1,-14],[-1,-11],[-1,-3],[10,-24],[7,-8],[3,14],[10,11],[50,17],[15,14],[-2,35],[8,19],[19,18]],[[2526,3628],[-136,-1],[-11,13],[-15,35],[-74,57],[-135,5],[4,-40],[-10,-26],[-14,-15],[-77,-4],[-6,-8],[-11,-34],[-13,-13],[-14,-24],[-62,-42],[-7,-11],[89,-38],[6,1],[97,97],[91,30],[91,30],[7,-5],[14,-23],[113,-75],[36,-5],[-1,6],[-2,17],[138,61],[-15,39],[-30,0],[-53,-27]],[[2756,3809],[8,-46],[16,-23],[18,-4],[13,12],[-5,12],[25,1],[13,9],[9,15],[-4,14],[-3,6],[-3,4],[-87,0]],[[0,1075],[0,219],[3,0],[21,-17],[15,-34],[-9,-11],[-8,-21],[-2,-20],[9,-9],[11,46],[21,21],[40,6],[-6,-33],[-10,-32],[-21,-43],[-27,-12],[-13,-35],[-24,-25]],[[0,868],[0,21],[2,-19],[-2,-2]],[[701,1731],[-7,69],[-9,9],[-12,22],[-5,14],[-4,19],[-7,18],[-8,-4],[-8,-13],[-8,-8],[-60,-6],[-14,-24],[-14,-37],[-20,-13],[-114,32],[-6,6],[-17,42],[-35,36],[-27,55],[-10,13],[-90,52],[-17,37],[-7,53],[6,51],[12,38],[14,16],[76,14],[9,14],[-1,31],[8,15],[27,21],[0,12],[-18,18],[-34,56],[-70,56],[-27,5],[-34,38],[-158,-46],[-12,-20]],[[0,1294],[3,0],[21,-17],[15,-34],[-9,-11],[-8,-21],[-2,-20],[9,-9],[11,46],[21,21],[40,6],[-6,-33],[-10,-32],[-21,-43],[-27,-12],[-13,-35],[-24,-25]],[[0,889],[2,-19],[-2,-2]],[[0,736],[40,-20],[34,-19],[80,33],[113,13],[20,48],[-7,63],[31,88],[13,6],[55,78],[71,54],[57,93],[9,29],[17,77],[7,46],[4,19],[12,13],[7,13],[6,18],[5,18],[6,17],[22,59],[27,58],[7,72],[32,71],[33,48]],[[1646,3266],[-68,21],[-22,28],[-10,36],[-35,61],[-6,19],[-7,28],[-43,12],[-20,-15],[-16,-56],[16,-47],[6,-28],[3,-41],[62,-66],[18,-4],[4,-7],[1,-9],[-1,-14],[-1,-11],[-1,-3],[10,-24],[7,-8],[3,14],[10,11],[50,17],[15,14],[-2,35],[8,19],[19,18]],[[2526,3628],[-136,-1],[-11,13],[-15,35],[-74,57],[-135,5],[4,-40],[-10,-26],[-14,-15],[-77,-4],[-6,-8],[-11,-34],[-13,-13],[-14,-24],[-62,-42],[-7,-11],[89,-38],[6,1],[97,97],[91,30],[91,30],[7,-5],[14,-23],[113,-75],[36,-5],[-1,6],[-2,17],[138,61],[-15,39],[-30,0],[-53,-27]],[[2756,3809],[8,-46],[16,-23],[18,-4],[13,12],[-5,12],[25,1],[13,9],[9,15],[-4,14],[-3,6],[-3,4],[-87,0]],[[0,1294],[0,1128],[12,20],[158,46],[34,-38],[27,-5],[70,-56],[34,-56],[18,-18],[0,-12],[-27,-21],[-8,-15],[1,-31],[-9,-14],[-76,-14],[-14,-16],[-12,-38],[-6,-51],[7,-53],[17,-37],[90,-52],[10,-13],[27,-55],[35,-36],[17,-42],[6,-6],[114,-32],[20,13],[14,37],[14,24],[60,6],[8,8],[8,13],[8,4],[7,-18],[4,-19],[5,-14],[12,-22],[9,-9],[7,-69],[-33,-48],[-32,-71],[-7,-72],[-27,-58],[-22,-59],[-6,-17],[-5,-18],[-6,-18],[-7,-13],[-12,-13],[-4,-19],[-7,-46],[-17,-77],[-9,-29],[-57,-93],[-71,-54],[-55,-78],[-13,-6],[-31,-88],[7,-63],[-20,-48],[-113,-13],[-80,-33],[-34,19],[-40,20],[0,132],[2,2],[-2,19],[0,186],[24,25],[13,35],[27,12],[21,43],[10,32],[6,33],[-40,-6],[-21,-21],[-11,-46],[-9,9],[2,20],[8,21],[9,11],[-15,34],[-21,17],[-3,0]],[[1646,3266],[-19,-18],[-8,-19],[2,-35],[-15,-14],[-50,-17],[-10,-11],[-3,-14],[-7,8],[-10,24],[1,3],[1,11],[1,14],[-1,9],[-4,7],[-18,4],[-62,66],[-3,41],[-6,28],[-16,47],[16,56],[20,15],[43,-12],[7,-28],[6,-19],[35,-61],[10,-36],[22,-28],[68,-21]],[[2526,3628],[53,27],[30,0],[15,-39],[-138,-61],[2,-17],[1,-6],[-36,5],[-113,75],[-14,23],[-7,5],[-91,-30],[-91,-30],[-97,-97],[-6,-1],[-89,38],[7,11],[62,42],[14,24],[13,13],[11,34],[6,8],[77,4],[14,15],[10,26],[-4,40],[135,-5],[74,-57],[15,-35],[11,-13],[136,1]],[[2186,4096],[923,0],[37,-26],[66,-79],[41,-103],[-2,-171],[-78,-138],[-113,-108],[-237,-145],[-372,-305],[-103,-47],[-130,-13],[-111,24],[-114,64],[-57,-25],[-120,-118],[-202,-90],[-194,14],[-162,109],[-150,235],[-59,158],[-17,127],[58,186],[168,160],[130,48],[387,55],[152,119],[142,54],[117,15]],[[147,0],[-147,0],[0,4096],[1158,0],[-413,-249],[-695,-337],[-14,-27],[95,-276],[429,-696],[302,-297],[345,-235],[97,-177],[-5,-199],[-65,-146],[-477,-387],[-184,-434],[-161,-294],[-156,-222],[-109,-120]]]}