{"objects":{"water":{"type":"GeometryCollection","geometries":[{"type":"MultiPolygon","properties":{"source":"naturalearthdata.com","kind":"ocean","area":989871000000000,"sort_rank":200,"min_zoom":0,"id":1},"arcs":[[[0]]]},{"type":"MultiLineString","properties":{"source":"naturalearthdata.com","kind":"ocean","sort_rank":205,"boundary":true,"min_zoom":0,"id":1015},"arcs":[[1],[2],[3]]},{"type":"Point","properties":{"label_placement":true,"collision_rank":398,"name:sk":"Lincolnovo more","name:lt":"Linkolno j\u016bra","name:no":"Lincolnsj\u00f8en","name:sv":"Lincolnhavet","name:ar":"\u0628\u062d\u0631 \u0644\u0646\u0643\u0648\u0644\u0646","name:cs":"Lincolnovo mo\u0159e","kind":"sea","min_zoom":3.0,"name:it":"Mare di Lincoln","name:uk":"\u041c\u043e\u0440\u0435 \u041b\u0456\u043d\u043a\u043e\u043b\u044c\u043d\u0430","name:ru":"\u041c\u043e\u0440\u0435 \u041b\u0438\u043d\u043a\u043e\u043b\u044c\u043d\u0430","name:be":"\u041c\u043e\u0440\u0430 \u041b\u0456\u043d\u043a\u0430\u043b\u044c\u043d\u0430","name:pl":"Morze Lincolna","name:hu":"Lincoln-tenger","name:hr":"Linkolnovo more","id":305640308,"name:fa":"\u062f\u0631\u06cc\u0627\u06cc \u0644\u06cc\u0646\u06a9\u0644\u0646","name:eo":"Linkolna Maro","name:en":"Lincoln Sea","name":"Lincoln Sea","sort_rank":200,"name:fi":"Lincolninmeri","name:de":"Lincolnsee","source":"openstreetmap.org","name:fr":"Mer de Lincoln","wikidata_id":"Q243125","name:es":"Mar de Lincoln"},"coordinates":[3459,1018]}]},"buildings":{"type":"GeometryCollection","geometries":[]},"places":{"type":"GeometryCollection","geometries":[]},"transit":{"type":"GeometryCollection","geometries":[]},"pois":{"type":"GeometryCollection","geometries":[]},"boundaries":{"type":"GeometryCollection","geometries":[]},"roads":{"type":"GeometryCollection","geometries":[]},"earth":{"type":"GeometryCollection","geometries":[{"type":"MultiPolygon","properties":{"sort_rank":10,"source":"naturalearthdata.com","min_zoom":0,"kind":"earth","area":44884805284559},"arcs":[[[4]],[[5]],[[6]]]}]},"landuse":{"type":"GeometryCollection","geometries":[]}},"type":"Topology","transform":{"translate":[-67.5,82.6762849783],"scale":[0.002746582,0.000318109]},"arcs":[[[0,899],[0,3197],[4096,0],[0,-4096],[-2624,0],[-3,8],[-7,6],[-18,-14],[-3,0],[-6,14],[2,15],[3,35],[2,14],[-14,4],[-27,48],[-73,13],[132,61],[20,32],[20,59],[-3,26],[-2,28],[1,27],[4,24],[-10,46],[-14,27],[-126,17],[-125,16],[-70,-146],[-24,4],[-10,-26],[2,-9],[3,-25],[2,-9],[-15,-30],[-17,22],[-32,84],[-48,64],[-15,53],[11,57],[4,29],[-64,4],[-19,39],[12,32],[69,-10],[12,18],[10,47],[-15,30],[-159,-33],[-25,-57],[-27,-8],[-11,-19],[17,-29],[42,11],[16,-47],[-24,-3],[-11,-12],[-46,-121],[-12,-16],[17,-48],[38,-16],[18,-41],[-106,23],[-17,25],[-12,57],[19,60],[6,28],[-13,36],[-131,-2],[-141,-132],[-142,-132],[-11,-32],[-6,-60],[4,4],[3,-3],[4,-9],[4,-15],[-12,-31],[-70,39],[-88,-42],[-16,-41],[-42,-15],[-32,-53],[-55,0],[0,254],[4,7],[88,34],[35,71],[111,61],[17,39],[-3,22],[162,197],[8,41],[-9,13],[-4,13],[-5,17],[26,19],[7,24],[-8,9],[-15,-12],[-15,30],[-92,-6],[-30,46],[-17,8],[-24,-102],[-16,-2],[-30,29],[3,19],[12,43],[-59,29],[-7,-11],[1,-37],[-24,-47],[-116,91]],[[1472,0],[-3,8],[-7,6],[-18,-14]],[[1441,0],[-6,14],[2,15],[3,35],[2,14],[-14,4],[-27,48],[-73,13],[132,61],[20,32],[20,59],[-3,26],[-2,28],[1,27],[4,24],[-10,46],[-14,27],[-126,17],[-125,16],[-70,-146],[-24,4],[-10,-26],[2,-9],[3,-25],[2,-9],[-15,-30],[-17,22],[-32,84],[-48,64],[-15,53],[11,57],[4,29],[-64,4],[-19,39],[12,32],[69,-10],[12,18],[10,47],[-15,30],[-159,-33],[-25,-57],[-27,-8],[-11,-19],[17,-29],[42,11],[16,-47],[-24,-3],[-11,-12],[-46,-121],[-12,-16],[17,-48],[38,-16],[18,-41],[-106,23],[-17,25],[-12,57],[19,60],[6,28],[-13,36],[-131,-2],[-141,-132],[-142,-132],[-11,-32],[-6,-60],[4,4],[3,-3],[4,-9],[4,-15],[-12,-31],[-70,39],[-88,-42],[-16,-41],[-42,-15],[-32,-53]],[[0,254],[4,7],[88,34],[35,71],[111,61],[17,39],[-3,22],[162,197],[8,41],[-9,13],[-4,13],[-5,17],[26,19],[7,24],[-8,9],[-15,-12],[-15,30],[-92,-6],[-30,46],[-17,8],[-24,-102],[-16,-2],[-30,29],[3,19],[12,43],[-59,29],[-7,-11],[1,-37],[-24,-47],[-116,91]],[[0,254],[0,645],[116,-91],[24,47],[-1,37],[7,11],[59,-29],[-12,-43],[-3,-19],[30,-29],[16,2],[24,102],[17,-8],[30,-46],[92,6],[15,-30],[15,12],[8,-9],[-7,-24],[-26,-19],[5,-17],[4,-13],[9,-13],[-8,-41],[-162,-197],[3,-22],[-17,-39],[-111,-61],[-35,-71],[-88,-34],[-4,-7]],[[1441,0],[-1386,0],[32,53],[42,15],[16,41],[88,42],[70,-39],[12,31],[-4,15],[-4,9],[-3,3],[-4,-4],[6,60],[11,32],[142,132],[141,132],[131,2],[13,-36],[-6,-28],[-19,-60],[12,-57],[17,-25],[106,-23],[-18,41],[-38,16],[-17,48],[12,16],[46,121],[11,12],[24,3],[-16,47],[-42,-11],[-17,29],[11,19],[27,8],[25,57],[159,33],[15,-30],[-10,-47],[-12,-18],[-69,10],[-12,-32],[19,-39],[64,-4],[-4,-29],[-11,-57],[15,-53],[48,-64],[32,-84],[17,-22],[15,30],[-2,9],[-3,25],[-2,9],[10,26],[24,-4],[70,146],[125,-16],[126,-17],[14,-27],[10,-46],[-4,-24],[-1,-27],[2,-28],[3,-26],[-20,-59],[-20,-32],[-132,-61],[73,-13],[27,-48],[14,-4],[-2,-14],[-3,-35],[-2,-15],[6,-14]],[[1472,0],[-28,0],[18,14],[7,-6],[3,-8]]]}