{"objects":{"water":{"type":"GeometryCollection","geometries":[{"type":"MultiPolygon","properties":{"source":"naturalearthdata.com","kind":"ocean","area":989871000000000,"sort_rank":200,"min_zoom":0,"id":1},"arcs":[[[0]]]},{"type":"Point","properties":{"label_placement":true,"collision_rank":398,"name:sk":"Sargasov\u00e9 more","name:lt":"Sargaso j\u016bra","name:ar":"\u0628\u062d\u0631 \u0633\u0631\u0642\u0648\u0633\u0629","name:cs":"Sargasov\u00e9 mo\u0159e","kind":"sea","min_zoom":3.0,"name:sl":"Sarga\u0161ko morje","name:it":"Mar dei Sargassi","name:uk":"\u0421\u0430\u0440\u0433\u0430\u0441\u043e\u0432\u0435 \u043c\u043e\u0440\u0435","name:vi":"Bi\u1ec3n Sargasso","name:ru":"\u0421\u0430\u0440\u0433\u0430\u0441\u0441\u043e\u0432\u043e \u043c\u043e\u0440\u0435","name:pl":"Morze Sargassowe","name:hu":"Sargasso-tenger","name:hr":"Sarga\u0161ko more","id":305639165,"name:fa":"\u062f\u0631\u06cc\u0627\u06cc \u0633\u0627\u0631\u06af\u0627\u0633\u0648","name:eo":"Sargasa Maro","name:en":"Sargasso Sea","name":"Sargasso Sea","sort_rank":200,"name:fi":"Sargassomeri","name:de":"Sargassosee","source":"openstreetmap.org","name:fr":"Mer des Sargasses","wikidata_id":"Q169274","name:be":"\u0421\u0430\u0440\u0433\u0430\u0441\u0430\u0432\u0430 \u043c\u043e\u0440\u0430","name:zh":"\u9a6c\u5c3e\u85fb\u6d77","name:es":"Mar de los Sargazos"},"coordinates":[2731,3297]}]},"buildings":{"type":"GeometryCollection","geometries":[]},"places":{"type":"GeometryCollection","geometries":[]},"transit":{"type":"GeometryCollection","geometries":[]},"pois":{"type":"GeometryCollection","geometries":[]},"boundaries":{"type":"GeometryCollection","geometries":[]},"roads":{"type":"GeometryCollection","geometries":[]},"earth":{"type":"GeometryCollection","geometries":[]},"landuse":{"type":"GeometryCollection","geometries":[]}},"type":"Topology","transform":{"translate":[-67.5,21.9430455334],"scale":[0.002746582,0.002443632]},"arcs":[[[4096,0],[-4096,0],[0,4096],[4096,0],[0,-4096]]]}