{"objects":{"water":{"type":"GeometryCollection","geometries":[{"type":"MultiPolygon","properties":{"source":"naturalearthdata.com","kind":"ocean","area":989871000000000,"sort_rank":200,"min_zoom":0,"id":1},"arcs":[[[0]],[[1]],[[2]]]},{"type":"MultiLineString","properties":{"source":"naturalearthdata.com","kind":"ocean","sort_rank":205,"boundary":true,"min_zoom":0,"id":515},"arcs":[[3],[4],[5]]},{"type":"MultiLineString","properties":{"source":"naturalearthdata.com","kind":"ocean","sort_rank":205,"boundary":true,"min_zoom":0,"id":1015},"arcs":[[6],[7],[8],[9],[10],[11]]}]},"buildings":{"type":"GeometryCollection","geometries":[]},"places":{"type":"GeometryCollection","geometries":[]},"transit":{"type":"GeometryCollection","geometries":[]},"pois":{"type":"GeometryCollection","geometries":[]},"boundaries":{"type":"GeometryCollection","geometries":[]},"roads":{"type":"GeometryCollection","geometries":[]},"earth":{"type":"GeometryCollection","geometries":[{"type":"MultiPolygon","properties":{"sort_rank":10,"source":"naturalearthdata.com","min_zoom":0,"kind":"earth","area":44884805284559},"arcs":[[[12]],[[13]],[[14]],[[15]],[[16]],[[17]]]}]},"landuse":{"type":"GeometryCollection","geometries":[{"type":"MultiPolygon","properties":{"kind":"national_park","protect_class":"2","area":19551643767465,"sort_rank":18,"source":"openstreetmap.org","min_zoom":3.0,"tier":1,"id":-8515283},"arcs":[[[18]]]}]}},"type":"Topology","transform":{"translate":[-67.5,81.0932138526],"scale":[0.002746582,0.000386492]},"arcs":[[[1472,4096],[2624,0],[0,-1313],[-4,-8],[-17,2],[-13,53],[3,7],[7,30],[-14,13],[-27,62],[-14,14],[-98,-27],[-45,-55],[-34,9],[-28,-48],[-124,-28],[-125,-28],[-109,-48],[-109,-48],[-12,-28],[6,-37],[-103,0],[-156,-132],[-156,-132],[15,-60],[159,-121],[61,-10],[75,-93],[48,-36],[6,-15],[4,-35],[0,-42],[-6,-33],[14,-30],[7,-10],[37,-172],[32,-90],[29,-49],[8,-40],[-1,-8],[-3,-25],[142,-42],[25,-73],[52,-35],[74,-145],[21,-12],[27,-37],[10,-31],[-3,-59],[31,-60],[0,-59],[11,-35],[13,-21],[163,-97],[6,-14],[16,-61],[21,-43],[4,-27],[-32,-6],[-10,10],[-51,117],[-17,20],[-32,6],[-19,30],[-108,47],[-18,29],[-14,65],[8,13],[21,-1],[8,24],[-16,35],[-116,141],[2,35],[-3,16],[-37,74],[-18,13],[-90,-5],[-135,116],[-134,116],[-17,28],[-10,50],[0,66],[9,40],[23,37],[-10,24],[-13,19],[-10,34],[-4,73],[-8,56],[-17,34],[-97,47],[-97,48],[-86,-14],[-53,82],[-115,57],[-97,-43],[-17,-26],[-18,-2],[-19,-22],[-19,3],[-136,-126],[-136,-126],[-47,-102],[-9,-25],[-7,-55],[25,-61],[2,-54],[14,-50],[30,-33],[24,-105],[52,-106],[4,-11],[1,-18],[0,-40],[5,-27],[11,-13],[19,-4],[36,-46],[20,-43],[5,-44],[-11,-51],[-12,-32],[-167,-229],[-6,-15],[6,-41],[49,-84],[-4,-6],[-8,-19],[-3,-10],[8,-65],[11,-58],[23,-91],[17,-42],[37,-52],[17,-47],[-16,5],[-4,-5],[-3,-13],[-4,-32],[-2,-7],[-9,-4],[-17,-30],[-12,-32],[-87,6],[-21,-24],[-47,-15],[-11,-26],[3,-12],[-56,0],[-63,91],[-126,183],[-103,20],[-104,20],[-25,30],[-52,6],[-63,-44],[-18,-40],[-64,-95],[4,-58],[7,-40],[4,-39],[-1,-34],[-37,0],[0,7],[-25,92],[-32,50],[-22,-4],[-8,-15],[-17,-12],[-38,-66],[-13,-52],[-963,0],[10,51],[6,22],[61,81],[9,26],[9,40],[51,50],[43,79],[43,4],[73,71],[34,-14],[65,46],[103,164],[154,150],[82,183],[7,23],[5,29],[-4,39],[-6,24],[-13,35],[-5,23],[-3,26],[-4,22],[-5,9],[-142,-41],[-114,-61],[-178,-46],[-81,-76],[-94,-46],[-113,-64],[-113,-64],[-133,-55],[-105,-70],[-3,-2],[0,195],[79,51],[62,55],[60,31],[107,62],[17,42],[-19,39],[-111,52],[-111,52],[-84,-25],[0,95],[46,10],[110,23],[163,30],[85,-6],[87,19],[55,69],[20,-1],[6,-37],[26,-32],[176,138],[12,36],[-133,-37],[-59,37],[-50,-30],[-15,30],[125,51],[125,52],[7,19],[-2,19],[-3,16],[-4,12],[-3,7],[119,-35],[46,23],[15,-11],[36,-59],[149,-15],[25,35],[42,16],[15,22],[9,42],[-68,129],[-6,30],[14,0],[60,-72],[73,-12],[147,146],[146,146],[29,5],[-3,0],[97,96],[96,95],[9,41],[-8,7],[0,18],[5,18],[8,8],[31,-18],[49,20],[62,94],[31,69],[32,29],[15,39],[-14,30],[-30,13],[-14,26],[131,75],[131,74],[55,127],[7,8],[8,24],[8,56],[4,70],[0,62],[-7,78],[-11,54],[-75,176],[-83,90],[-3,10],[-96,10],[-96,9],[2,26],[0,10],[-57,0],[5,-16],[2,-4],[-7,-33],[-35,-20],[4,30],[3,12],[3,11],[-2,20],[11,29],[46,6],[0,16],[-103,-8],[-103,-9],[-9,-34],[4,-7],[4,-11],[3,-16],[2,-21],[-25,3],[-8,16],[-2,12],[-1,31],[-2,10],[-3,4],[-10,-4],[-12,-13],[-32,-112],[-16,-30],[-124,-41],[10,37],[14,15],[78,19],[0,19],[-10,0],[0,16],[8,3],[4,15],[2,23],[8,46],[0,20],[-2,18],[1,18],[9,40],[14,28],[15,17],[12,2],[-13,59],[-149,47],[-3,35],[28,-4],[15,15],[12,44],[-34,41],[-40,18],[-9,18]],[[1441,4096],[3,0],[-2,-1],[-1,1]],[[0,4046],[0,50],[55,0],[-34,-46],[-21,-4]],[[4096,2783],[-4,-8],[-17,2],[-13,53],[3,7],[7,30],[-14,13],[-27,62],[-14,14],[-98,-27],[-45,-55],[-34,9],[-28,-48],[-124,-28],[-125,-28],[-109,-48],[-109,-48],[-12,-28],[6,-37],[-103,0],[-156,-132],[-156,-132],[15,-60],[159,-121],[61,-10],[75,-93],[48,-36],[6,-15],[4,-35],[0,-42],[-6,-33],[14,-30],[7,-10],[37,-172],[32,-90],[29,-49],[8,-40],[-1,-8],[-3,-25],[142,-42],[25,-73],[52,-35],[74,-145],[21,-12],[27,-37],[10,-31],[-3,-59],[31,-60],[0,-59],[11,-35],[13,-21],[163,-97],[6,-14],[16,-61],[21,-43],[4,-27],[-32,-6],[-10,10],[-51,117],[-17,20],[-32,6],[-19,30],[-108,47],[-18,29],[-14,65],[8,13],[21,-1],[8,24],[-16,35],[-116,141],[2,35],[-3,16],[-37,74],[-18,13],[-90,-5],[-135,116],[-134,116],[-17,28],[-10,50],[0,66],[9,40],[23,37],[-10,24],[-13,19],[-10,34],[-4,73],[-8,56],[-17,34],[-97,47],[-97,48],[-86,-14],[-53,82],[-115,57],[-97,-43],[-17,-26],[-18,-2],[-19,-22],[-19,3],[-136,-126],[-136,-126],[-47,-102],[-9,-25],[-7,-55],[25,-61],[2,-54],[14,-50],[30,-33],[24,-105],[52,-106],[4,-11],[1,-18],[0,-40],[5,-27],[11,-13],[19,-4],[36,-46],[20,-43],[5,-44],[-11,-51],[-12,-32],[-167,-229],[-6,-15],[6,-41],[49,-84],[-4,-6],[-8,-19],[-3,-10],[8,-65],[11,-58],[23,-91],[17,-42],[37,-52],[17,-47],[-16,5],[-4,-5],[-3,-13],[-4,-32],[-2,-7],[-9,-4],[-17,-30],[-12,-32],[-87,6],[-21,-24],[-47,-15],[-11,-26],[3,-12]],[[2120,0],[-63,91],[-126,183],[-103,20],[-104,20],[-25,30],[-52,6],[-63,-44],[-18,-40],[-64,-95],[4,-58],[7,-40],[4,-39],[-1,-34]],[[1479,0],[0,7],[-25,92],[-32,50],[-22,-4],[-8,-15],[-17,-12],[-38,-66],[-13,-52]],[[2335,3203],[-7,78],[-11,54],[-75,176],[-83,90],[-3,10],[-96,10],[-96,9],[2,26],[0,10],[-57,0],[5,-16],[2,-4],[-7,-33],[-35,-20],[4,30],[3,12],[3,11],[-2,20],[11,29],[46,6],[0,16],[-103,-8],[-103,-9],[-9,-34],[4,-7],[4,-11],[3,-16],[2,-21],[-25,3],[-8,16],[-2,12],[-1,31],[-2,10],[-3,4],[-10,-4],[-12,-13],[-32,-112],[-16,-30],[-124,-41],[10,37],[14,15],[78,19],[0,19],[-10,0],[0,16],[8,3],[4,15],[2,23],[8,46],[0,20],[-2,18],[1,18],[9,40],[14,28],[15,17],[12,2],[-13,59],[-149,47],[-3,35],[28,-4],[15,15],[12,44],[-34,41],[-40,18],[-9,18]],[[1444,4096],[-2,-1],[-1,1]],[[55,4096],[-34,-46],[-21,-4]],[[361,0],[10,51],[6,22],[61,81],[9,26],[9,40],[51,50],[43,79],[43,4],[73,71],[34,-14],[65,46],[103,164],[154,150],[82,183],[7,23],[5,29],[-4,39],[-6,24],[-13,35],[-5,23],[-3,26],[-4,22],[-5,9],[-142,-41],[-114,-61],[-178,-46],[-81,-76],[-94,-46],[-113,-64],[-113,-64],[-133,-55],[-105,-70],[-3,-2]],[[0,853],[79,51],[62,55],[60,31],[107,62],[17,42],[-19,39],[-111,52],[-111,52],[-84,-25]],[[0,1307],[46,10],[110,23],[163,30],[85,-6],[87,19],[55,69],[20,-1],[6,-37],[26,-32],[176,138],[12,36],[-133,-37],[-59,37],[-50,-30],[-15,30],[125,51],[125,52],[7,19],[-2,19],[-3,16],[-4,12],[-3,7],[119,-35],[46,23],[15,-11],[36,-59],[149,-15],[25,35],[42,16],[15,22],[9,42],[-68,129],[-6,30],[14,0],[60,-72],[73,-12],[147,146],[146,146],[29,5],[-3,0],[97,96],[96,95],[9,41],[-8,7],[0,18],[5,18],[8,8],[31,-18],[49,20],[62,94],[31,69],[32,29],[15,39],[-14,30],[-30,13],[-14,26],[131,75],[131,74],[55,127],[7,8],[8,24],[8,56],[4,70],[0,62]],[[1444,4096],[28,0],[9,-18],[40,-18],[34,-41],[-12,-44],[-15,-15],[-28,4],[3,-35],[149,-47],[13,-59],[-12,-2],[-15,-17],[-14,-28],[-9,-40],[-1,-18],[2,-18],[0,-20],[-8,-46],[-2,-23],[-4,-15],[-8,-3],[0,-16],[10,0],[0,-19],[-78,-19],[-14,-15],[-10,-37],[124,41],[16,30],[32,112],[12,13],[10,4],[3,-4],[2,-10],[1,-31],[2,-12],[8,-16],[25,-3],[-2,21],[-3,16],[-4,11],[-4,7],[9,34],[103,9],[103,8],[0,-16],[-46,-6],[-11,-29],[2,-20],[-3,-11],[-3,-12],[-4,-30],[35,20],[7,33],[-2,4],[-5,16],[57,0],[0,-10],[-2,-26],[96,-9],[96,-10],[3,-10],[83,-90],[75,-176],[11,-54],[7,-78],[0,-62],[-4,-70],[-1,-7],[-7,-49],[-8,-24],[-7,-8],[-55,-127],[-131,-74],[-131,-75],[14,-26],[30,-13],[14,-30],[-15,-39],[-32,-29],[-31,-69],[-62,-94],[-49,-20],[-31,18],[-8,-8],[-5,-18],[0,-18],[8,-7],[-9,-41],[-96,-95],[-97,-96],[3,0],[-29,-5],[-146,-146],[-147,-146],[-73,12],[-60,72],[-14,0],[6,-30],[68,-129],[-9,-42],[-15,-22],[-42,-16],[-25,-35],[-149,15],[-36,59],[-15,11],[-46,-23],[-119,35],[3,-7],[4,-12],[3,-16],[2,-19],[-7,-19],[-125,-52],[-125,-51],[15,-30],[50,30],[59,-37],[133,37],[-12,-36],[-176,-138],[-26,32],[-6,37],[-20,1],[-55,-69],[-87,-19],[-85,6],[-163,-30],[-110,-23],[-46,-10],[0,2739],[21,4],[34,46],[1386,0],[1,-1],[2,1]],[[0,853],[0,359],[84,25],[111,-52],[111,-52],[19,-39],[-17,-42],[-107,-62],[-60,-31],[-62,-55],[-79,-51]],[[361,0],[-361,0],[0,658],[3,2],[105,70],[133,55],[113,64],[113,64],[94,46],[81,76],[178,46],[114,61],[142,41],[5,-9],[4,-22],[3,-26],[5,-23],[13,-35],[6,-24],[4,-39],[-5,-29],[-7,-23],[-82,-183],[-154,-150],[-103,-164],[-65,-46],[-34,14],[-73,-71],[-43,-4],[-43,-79],[-51,-50],[-9,-40],[-9,-26],[-61,-81],[-6,-22],[-10,-51]],[[4096,2783],[0,-2783],[-1920,0],[-3,12],[11,26],[47,15],[21,24],[87,-6],[12,32],[17,30],[9,4],[2,7],[4,32],[3,13],[4,5],[16,-5],[-17,47],[-37,52],[-17,42],[-23,91],[-11,58],[-8,65],[3,10],[8,19],[4,6],[-49,84],[-6,41],[6,15],[167,229],[12,32],[11,51],[-5,44],[-20,43],[-36,46],[-19,4],[-11,13],[-5,27],[0,40],[-1,18],[-4,11],[-52,106],[-24,105],[-30,33],[-14,50],[-2,54],[-25,61],[7,55],[9,25],[47,102],[136,126],[136,126],[19,-3],[19,22],[18,2],[17,26],[97,43],[115,-57],[53,-82],[86,14],[97,-48],[97,-47],[17,-34],[8,-56],[4,-73],[10,-34],[13,-19],[10,-24],[-23,-37],[-9,-40],[0,-66],[10,-50],[17,-28],[134,-116],[135,-116],[90,5],[18,-13],[37,-74],[3,-16],[-2,-35],[116,-141],[16,-35],[-8,-24],[-21,1],[-8,-13],[14,-65],[18,-29],[108,-47],[19,-30],[32,-6],[17,-20],[51,-117],[10,-10],[32,6],[-4,27],[-21,43],[-16,61],[-6,14],[-163,97],[-13,21],[-11,35],[0,59],[-31,60],[3,59],[-10,31],[-27,37],[-21,12],[-74,145],[-52,35],[-25,73],[-142,42],[3,25],[1,8],[-8,40],[-29,49],[-32,90],[-37,172],[-7,10],[-14,30],[6,33],[0,42],[-4,35],[-6,15],[-48,36],[-75,93],[-61,10],[-159,121],[-15,60],[156,132],[156,132],[103,0],[-6,37],[12,28],[109,48],[109,48],[125,28],[124,28],[28,48],[34,-9],[45,55],[98,27],[14,-14],[27,-62],[14,-13],[-7,-30],[-3,-7],[13,-53],[17,-2],[4,8]],[[1479,0],[-155,0],[13,52],[38,66],[17,12],[8,15],[22,4],[32,-50],[25,-92],[0,-7]],[[2120,0],[-604,0],[1,34],[-4,39],[-7,40],[-4,58],[64,95],[18,40],[63,44],[52,-6],[25,-30],[104,-20],[103,-20],[126,-183],[16,-22],[47,-69]],[[4096,3631],[0,-3631],[-2033,0],[-668,936],[548,1068],[789,905],[151,226],[429,135],[784,361]]]}