{"objects":{"water":{"type":"GeometryCollection","geometries":[{"type":"MultiPolygon","properties":{"source":"naturalearthdata.com","kind":"ocean","area":989871000000000,"sort_rank":200,"min_zoom":0,"id":1},"arcs":[[[0],[1],[2]]]},{"type":"LineString","properties":{"source":"naturalearthdata.com","kind":"ocean","sort_rank":205,"boundary":true,"min_zoom":0,"id":2622},"arcs":[3]},{"type":"LineString","properties":{"source":"naturalearthdata.com","kind":"ocean","sort_rank":205,"boundary":true,"min_zoom":0,"id":2623},"arcs":[4]},{"type":"LineString","properties":{"source":"naturalearthdata.com","kind":"ocean","sort_rank":205,"boundary":true,"min_zoom":0,"id":2624},"arcs":[5]},{"type":"LineString","properties":{"source":"naturalearthdata.com","kind":"ocean","sort_rank":205,"boundary":true,"min_zoom":0,"id":2625},"arcs":[6]},{"type":"LineString","properties":{"source":"naturalearthdata.com","kind":"ocean","sort_rank":205,"boundary":true,"min_zoom":0,"id":2626},"arcs":[7]}]},"buildings":{"type":"GeometryCollection","geometries":[]},"places":{"type":"GeometryCollection","geometries":[]},"transit":{"type":"GeometryCollection","geometries":[]},"pois":{"type":"GeometryCollection","geometries":[]},"boundaries":{"type":"GeometryCollection","geometries":[]},"roads":{"type":"GeometryCollection","geometries":[]},"earth":{"type":"GeometryCollection","geometries":[{"type":"MultiPolygon","properties":{"sort_rank":10,"source":"naturalearthdata.com","kind":"earth","min_zoom":5.0,"area":20337033755},"arcs":[[[8]]]},{"type":"MultiPolygon","properties":{"sort_rank":10,"source":"naturalearthdata.com","min_zoom":3.0,"kind":"earth","area":34889604215},"arcs":[[[9]],[[10]]]}]},"landuse":{"type":"GeometryCollection","geometries":[]}},"type":"Topology","transform":{"translate":[-67.5,-61.6063963714],"scale":[0.002746582,0.0014232967]},"arcs":[[[125,4096],[3971,0],[0,-4096],[-4096,0],[0,4056],[10,-6],[-1,9],[1,8],[-3,7],[-6,-3],[-1,-4],[0,29],[58,0],[0,-11],[8,4],[10,2],[10,4],[0,1],[11,0],[-2,-9],[4,-6],[6,2],[3,12],[4,-3],[5,-2],[4,1],[4,4],[0,1]],[[93,4052],[-4,7],[-10,6],[-27,7],[-9,-1],[-8,-5],[-5,-10],[6,-2],[11,3],[5,-3],[3,-8],[1,-7],[3,-5],[6,-2],[23,-16],[12,-5],[8,12],[-2,1],[-4,3],[-2,1],[4,9],[-1,6],[-4,5],[-6,4]],[[148,4061],[2,1],[1,2],[1,2],[1,5],[-8,5],[-7,-2],[-7,-7],[-6,-11],[-3,-6],[-2,-7],[-1,-7],[1,-8],[2,-4],[6,-5],[3,-4],[6,-11],[3,-4],[5,-1],[4,1],[4,2],[3,5],[-2,8],[-4,11],[-2,13],[-1,13],[1,9]],[[93,4052],[-4,7],[-10,6],[-27,7],[-9,-1],[-8,-5],[-5,-10],[6,-2],[11,3],[5,-3],[3,-8],[1,-7],[3,-5],[6,-2],[23,-16],[12,-5],[8,12],[-2,1],[-4,3],[-2,1],[4,9],[-1,6],[-4,5],[-6,4]],[[148,4061],[2,1],[1,2],[1,2],[1,5],[-8,5],[-7,-2],[-7,-7],[-6,-11],[-3,-6],[-2,-7],[-1,-7],[1,-8],[2,-4],[6,-5],[3,-4],[6,-11],[3,-4],[5,-1],[4,1],[4,2],[3,5],[-2,8],[-4,11],[-2,13],[-1,13],[1,9]],[[0,4056],[10,-6],[-1,9],[1,8],[-3,7],[-6,-3],[-1,-4]],[[97,4096],[-2,-9],[4,-6],[6,2],[3,12],[4,-3],[5,-2],[4,1],[4,4],[0,1]],[[58,4096],[0,-11],[8,4],[10,2],[10,4],[0,1]],[[93,4052],[6,-4],[4,-5],[1,-6],[-4,-9],[2,-1],[4,-3],[2,-1],[-8,-12],[-12,5],[-23,16],[-6,2],[-3,5],[-1,7],[-3,8],[-5,3],[-11,-3],[-6,2],[5,10],[8,5],[9,1],[27,-7],[10,-6],[4,-7]],[[0,4056],[0,11],[1,4],[6,3],[3,-7],[-1,-8],[1,-9],[-10,6]],[[58,4096],[28,0],[0,-1],[-10,-4],[-10,-2],[-8,-4],[0,11]]]}