{"objects":{"water":{"type":"GeometryCollection","geometries":[{"type":"MultiPolygon","properties":{"source":"naturalearthdata.com","kind":"ocean","area":989871000000000,"sort_rank":200,"min_zoom":0,"id":1},"arcs":[[[0],[1],[2],[3],[4]],[[5]],[[6]],[[7]],[[8]],[[9],[10],[11],[12],[13]]]},{"type":"MultiLineString","properties":{"source":"naturalearthdata.com","kind":"ocean","sort_rank":205,"boundary":true,"min_zoom":0,"id":2},"arcs":[[14],[15],[16],[17],[18],[19]]},{"type":"MultiLineString","properties":{"source":"naturalearthdata.com","kind":"ocean","sort_rank":205,"boundary":true,"min_zoom":0,"id":2546},"arcs":[[20],[21]]},{"type":"LineString","properties":{"source":"naturalearthdata.com","kind":"ocean","sort_rank":205,"boundary":true,"min_zoom":0,"id":2550},"arcs":[22]},{"type":"LineString","properties":{"source":"naturalearthdata.com","kind":"ocean","sort_rank":205,"boundary":true,"min_zoom":0,"id":2553},"arcs":[23]},{"type":"LineString","properties":{"source":"naturalearthdata.com","kind":"ocean","sort_rank":205,"boundary":true,"min_zoom":0,"id":2555},"arcs":[24]},{"type":"LineString","properties":{"source":"naturalearthdata.com","kind":"ocean","sort_rank":205,"boundary":true,"min_zoom":0,"id":2556},"arcs":[25]},{"type":"LineString","properties":{"source":"naturalearthdata.com","kind":"ocean","sort_rank":205,"boundary":true,"min_zoom":0,"id":2557},"arcs":[26]},{"type":"LineString","properties":{"source":"naturalearthdata.com","kind":"ocean","sort_rank":205,"boundary":true,"min_zoom":0,"id":2558},"arcs":[27]},{"type":"LineString","properties":{"source":"naturalearthdata.com","kind":"ocean","sort_rank":205,"boundary":true,"min_zoom":0,"id":2559},"arcs":[28]},{"type":"MultiLineString","properties":{"source":"naturalearthdata.com","kind":"ocean","sort_rank":205,"boundary":true,"min_zoom":0,"id":2560},"arcs":[[29],[30]]},{"type":"LineString","properties":{"source":"naturalearthdata.com","kind":"ocean","sort_rank":205,"boundary":true,"min_zoom":0,"id":2561},"arcs":[31]},{"type":"MultiLineString","properties":{"source":"naturalearthdata.com","kind":"ocean","sort_rank":205,"boundary":true,"min_zoom":0,"id":2565},"arcs":[[32],[33],[34]]}]},"buildings":{"type":"GeometryCollection","geometries":[]},"places":{"type":"GeometryCollection","geometries":[]},"transit":{"type":"GeometryCollection","geometries":[]},"pois":{"type":"GeometryCollection","geometries":[]},"boundaries":{"type":"GeometryCollection","geometries":[]},"roads":{"type":"GeometryCollection","geometries":[]},"earth":{"type":"GeometryCollection","geometries":[{"type":"MultiPolygon","properties":{"sort_rank":10,"source":"naturalearthdata.com","kind":"earth","min_zoom":2.0,"area":270874700878},"arcs":[[[35]]]},{"type":"MultiPolygon","properties":{"sort_rank":10,"source":"naturalearthdata.com","kind":"earth","min_zoom":5.0,"area":6168066812},"arcs":[[[36]],[[37]],[[38]]]},{"type":"MultiPolygon","properties":{"sort_rank":10,"source":"naturalearthdata.com","min_zoom":3.0,"kind":"earth","area":28297414695},"arcs":[[[39]],[[40]],[[41]],[[42]],[[43]]]},{"type":"MultiPolygon","properties":{"sort_rank":10,"source":"naturalearthdata.com","min_zoom":0,"kind":"earth","area":59133836386451},"arcs":[[[44]],[[45]]]}]},"landuse":{"type":"GeometryCollection","geometries":[]}},"type":"Topology","transform":{"translate":[-67.5,-70.612614238],"scale":[0.002746582,0.0010008188]},"arcs":[[[4096,4096],[0,-4096],[-1526,0],[2,16],[0,13],[-4,33],[-2,9],[-19,24],[-24,10],[-96,-5],[-24,-8],[-20,-17],[-5,-10],[-2,-11],[1,-12],[3,-13],[-2,-3],[-2,-10],[-3,-13],[0,-3],[-234,0],[71,22],[28,29],[-15,44],[-8,15],[-11,9],[-10,0],[-21,-8],[-147,2],[-56,-48],[-20,-5],[-15,15],[11,19],[7,23],[1,27],[-5,31],[-9,16],[-11,6],[-65,1],[-10,9],[-2,15],[3,37],[1,16],[-3,6],[-3,5],[-4,7],[-2,15],[10,6],[22,7],[9,14],[-14,24],[-6,13],[-6,21],[7,4],[20,-9],[22,6],[7,-1],[6,-6],[10,-18],[5,-4],[25,-3],[16,-7],[6,-7],[9,-27],[5,-1],[36,41],[12,20],[5,23],[-5,20],[-24,43],[-7,20],[-6,31],[-9,18],[-23,21],[-36,48],[-10,7],[-24,0],[-11,5],[-12,13],[3,11],[4,9],[5,7],[5,3],[-5,11],[-7,22],[-5,7],[-73,48],[3,12],[4,9],[15,20],[3,7],[1,9],[7,24],[1,10],[1,9],[2,12],[3,11],[7,21],[2,13],[4,26],[0,26],[-1,25],[-4,25],[-2,25],[3,43],[-1,21],[-16,28],[-43,-5],[-13,25],[-10,47],[-11,32],[-15,21],[-19,15],[-19,4],[-60,-30],[-9,5],[-9,13],[-16,32],[-5,22],[1,22],[3,19],[-1,12],[-22,62],[-8,17],[-10,12],[-8,-5],[-7,-12],[-9,-9],[-39,-8],[-19,10],[-14,28],[26,37],[12,25],[9,25],[1,16],[-6,5],[-111,6],[-66,34],[-16,0],[-6,3],[-6,9],[-5,16],[-2,15],[5,10],[21,15],[8,1],[58,-19],[74,14],[15,10],[-26,12],[5,21],[19,5],[8,18],[-36,43],[-9,24],[27,-4],[59,-41],[23,20],[-27,38],[-31,26],[-161,56],[-13,41],[13,-3],[6,2],[6,8],[-8,8],[-6,9],[-2,13],[6,20],[11,27],[6,12],[7,9],[15,15],[14,8],[72,1],[12,9],[38,67],[13,17],[20,8],[21,-1],[22,-9],[50,-45],[10,-6],[11,2],[7,10],[12,36],[5,27],[-5,12],[-166,6],[-105,-37],[-105,-37],[-21,1],[-10,-4],[-32,-38],[-18,-15],[-6,-15],[1,-25],[-32,14],[-10,-3],[7,-21],[11,-14],[12,-10],[10,-13],[-13,-17],[-36,16],[-16,-9],[29,-30],[61,-43],[28,-39],[-17,-5],[-32,12],[-16,-1],[16,-22],[30,-29],[4,-11],[3,-21],[-19,2],[-69,50],[-36,41],[-14,1],[11,-19],[5,-12],[3,-16],[-33,18],[-11,1],[-7,-3],[-5,-4],[-5,-1],[-17,15],[-5,6],[-17,41],[-3,12],[-3,18],[-4,8],[-4,2],[-19,-5],[-21,-13],[-12,-1],[-89,40],[-19,-4],[-5,2],[-6,9],[-4,8],[-4,6],[-7,3],[-22,-3],[-6,11],[2,34],[-20,7],[-6,4],[-4,10],[-3,15],[0,14],[3,8],[39,9],[10,13],[10,18],[36,24],[29,38],[8,16],[-31,40],[-7,3],[-15,-2],[-22,4],[-76,-23],[-17,4],[-13,16],[-4,12],[-3,19],[-1,18],[5,8],[32,10],[15,10],[9,10],[4,11],[5,15],[5,0],[7,-5],[7,1],[16,17],[15,25],[7,7],[6,-2],[15,-16],[14,-5],[16,6],[75,61],[14,19],[-3,10],[-1,9],[2,10],[4,7],[-13,24],[-7,8],[-8,6],[1,-7],[0,-16],[0,-7],[-44,0],[-14,11],[16,47],[3,20],[-19,-14],[-3,-7],[-6,-22],[-4,-8],[-38,-40],[-35,-49],[-18,-8],[-28,31],[-10,0],[-33,-19],[-5,0],[-5,6],[-3,6],[-3,4],[-90,-23],[0,20],[-1,17],[-6,34],[11,7],[21,-6],[11,7],[5,10],[6,22],[6,6],[12,4],[22,0],[52,33],[18,28],[-27,26],[-9,5],[-18,1],[-8,3],[-25,34],[-38,26],[-12,29],[24,-2],[13,4],[10,13],[6,32],[-11,58],[5,25],[10,9],[67,17],[2,6],[4,28],[4,11],[-23,13],[-7,8],[-2,9],[0,11],[-2,10],[-2,5],[-6,2],[-36,26],[-13,20],[0,30],[-9,6],[-3,11],[2,12],[7,11],[8,7],[18,8],[9,7],[-5,17],[-2,38],[-6,11],[-15,11],[-14,16],[11,58],[8,-17],[10,-15],[11,-10],[10,1],[5,6],[5,10],[3,14],[1,16],[-2,7],[-9,22],[-2,13],[30,-28],[4,-12],[-1,-16],[-1,-17],[0,-14],[9,-33],[13,-15],[15,-2],[15,6],[1,6],[-1,18],[2,5],[4,1],[2,2],[2,3],[14,29],[8,8],[4,-4],[9,-25],[12,-12],[12,3],[11,21],[-11,13],[7,5],[9,19],[7,5],[7,-2],[6,-7],[13,-18],[14,-7],[17,5],[32,20],[-16,45],[-79,25],[-21,35],[42,1],[22,9],[6,26],[8,-4],[32,7],[27,14],[-12,20],[-3,12],[2,18],[-18,8],[-6,0],[-6,-4],[-11,-13],[-5,-4],[-9,2],[-4,12],[-4,17],[-4,15],[-4,8],[-11,15],[-6,9],[18,29],[9,21],[4,20],[-3,20],[-9,19],[-18,28],[12,-5],[10,-8],[19,-26],[9,-18],[6,-19],[7,-14],[11,-6],[12,1],[7,5],[2,7],[1,40],[-1,12],[-5,23],[-14,38],[-6,21],[34,24],[11,19],[9,31],[2,4],[2,-2],[3,-4],[2,-1],[26,18],[-2,-75],[-3,-20],[-2,-11],[-1,-11],[3,-21],[9,-10],[30,6],[24,-13],[7,27],[6,33],[9,15],[13,-5],[6,-7],[11,-25],[12,-12],[29,-43],[25,-8],[78,19],[27,20],[13,35],[-18,54],[2,5],[3,11],[2,5],[-33,48],[-34,35],[-18,9],[-39,7],[-7,10],[-8,24],[-1,11],[3,7],[5,3],[10,2],[2,5],[4,24],[4,21],[6,17],[8,7],[9,-9],[16,-33],[9,-8],[11,4],[9,6],[27,9],[-6,14],[-4,15],[1,15],[6,15],[-23,16],[367,0],[3,-24],[3,-30],[2,-14],[4,-5],[4,-3],[5,-10],[1,-10],[0,-39],[5,-16],[44,-54],[8,-6],[20,0],[20,6],[10,6],[10,10],[5,12],[2,19],[1,28],[-10,-11],[-8,-6],[-18,-4],[1,23],[2,16],[10,31],[-44,2],[-23,12],[-6,37],[10,30],[2346,0]],[[2328,648],[-3,19],[-1,7],[0,4],[2,8],[0,4],[-1,7],[-1,5],[-3,10],[-5,11],[-6,9],[-13,12],[-28,16],[-15,1],[-14,-8],[-5,-6],[-4,-8],[-5,-10],[-3,-12],[-2,-11],[-2,-37],[13,-20],[15,-13],[15,-8],[15,-3],[25,6],[26,17]],[[2092,1157],[-5,12],[-3,6],[-11,16],[-5,11],[-4,13],[0,13],[4,13],[-14,11],[-58,78],[-12,29],[-15,27],[-36,39],[-69,38],[-30,2],[-26,-12],[-16,-31],[14,-40],[11,-45],[15,-48],[57,-93],[16,-44],[25,-48],[5,-19],[0,-9],[-2,-13],[0,-8],[1,-7],[2,-4],[1,-6],[-1,-9],[-2,-5],[-2,-4],[-2,-5],[0,-9],[6,-21],[17,-42],[5,-20],[0,-10],[-4,-9],[2,-10],[12,-12],[14,-3],[16,4],[12,9],[7,11],[-2,24],[3,14],[6,7],[8,3],[-2,3],[-8,20],[3,8],[10,12],[9,19],[4,5],[-5,6],[-5,17],[-6,33],[12,13],[0,1],[22,-7],[11,3],[-3,21],[13,2],[7,3],[5,8],[0,8],[-1,10],[-3,11],[-3,10]],[[2405,1851],[40,-34],[14,-5],[26,4],[8,19],[-5,29],[-18,32],[-27,23],[-34,13],[-31,-3],[-19,-25],[9,-16],[37,-37]],[[927,2949],[9,-7],[9,3],[29,25],[9,2],[9,-3],[11,-11],[-6,-12],[9,-9],[11,-1],[11,5],[9,8],[32,41],[-9,9],[-59,19],[-9,0],[5,-18],[2,-5],[-51,16],[-16,0],[3,-13],[1,-8],[1,-9],[-2,-8],[-2,-12],[-4,-10],[-2,-2]],[[0,4096],[656,0],[-3,-15],[-4,-18],[-2,-8],[1,-10],[10,-17],[2,-5],[-5,-10],[-6,0],[-6,2],[-6,0],[-6,-7],[2,-8],[42,-44],[-10,-24],[-6,-6],[-13,0],[-5,-7],[-4,-10],[-5,-9],[-8,-6],[-5,0],[-5,7],[-5,15],[-4,5],[-21,13],[-13,0],[-4,2],[-7,10],[-10,21],[-4,6],[-7,5],[-11,2],[-3,3],[-2,6],[-3,18],[-2,6],[-5,5],[-60,8],[-13,-3],[-80,-44],[-13,-20],[-2,-29],[6,-35],[3,-30],[-2,-31],[-7,-35],[41,-35],[8,-16],[-1,-20],[-7,-20],[-8,-12],[-5,-2],[-4,-1],[-3,-2],[-32,-76],[-6,-18],[-5,-25],[8,-6],[17,-1],[8,-4],[21,-29],[7,-8],[-30,-28],[5,-13],[10,-21],[4,-14],[7,-37],[1,-17],[1,-93],[-4,-28],[-13,-10],[-9,2],[-5,5],[-2,12],[-6,40],[-2,11],[-12,32],[-4,6],[-15,18],[-17,27],[-5,3],[-2,-5],[0,-11],[-2,-15],[-4,-11],[-9,-17],[-3,-12],[-1,-6],[1,-14],[0,-7],[-8,-23],[-11,1],[-22,26],[-27,1],[-11,8],[5,25],[3,13],[3,23],[4,11],[19,36],[-10,5],[-3,5],[-2,11],[-4,28],[-1,16],[1,11],[8,24],[3,14],[1,16],[-7,47],[-1,8],[4,26],[-12,18],[-30,17],[-6,1],[-10,-2],[-10,-5],[-5,-9],[-1,-18],[5,-17],[12,-29],[-9,-10],[-7,-6],[-8,2],[-7,14],[-6,13],[-8,12],[-7,2],[-3,-19],[-1,-30],[-2,-19],[-4,-16],[-16,-36],[-5,-6],[-33,19],[-7,8],[-6,18],[-3,5],[-3,3],[-3,0],[-4,-1],[-4,-6],[0,-7],[1,-8],[-1,-11],[-9,-27],[0,204],[2,-2],[22,-4],[19,6],[14,11],[14,16],[12,21],[11,24],[-1,6],[-4,19],[-2,5],[-4,8],[-2,4],[-1,6],[-1,4],[-1,5],[-2,4],[-6,9],[-36,24],[-14,1],[-14,-7],[-6,-9],[0,238]],[[0,3805],[0,14],[4,-9],[-4,-5]],[[0,3392],[0,34],[6,2],[14,-8],[-20,-28]],[[0,3272],[0,14],[6,-5],[-6,-9]],[[0,3020],[0,41],[10,0],[175,80],[6,0],[42,-25],[8,0],[14,-7],[24,-27],[37,-15],[7,1],[5,7],[10,20],[5,6],[8,2],[7,-7],[2,-14],[-3,-22],[-5,-17],[-3,-7],[-1,-10],[4,-25],[-22,3],[-41,20],[-22,-3],[-19,-15],[-38,-57],[-16,-32],[19,-13],[49,10],[15,-34],[-15,8],[-86,-19],[-5,-5],[-18,-34],[61,11],[40,-9],[13,3],[-11,-25],[-11,-8],[-11,-6],[-12,-15],[21,-41],[-1,-22],[-1,-14],[-5,-7],[-8,-5],[-52,-7],[-92,-43],[10,-11],[18,-8],[1,-8],[0,-10],[3,-11],[10,-9],[32,-16],[-12,-23],[-7,-6],[-8,1],[-13,7],[-7,-1],[-6,-12],[18,-7],[8,-7],[11,-29],[47,-58],[12,-24],[1,-22],[24,-7],[7,4],[7,12],[16,17],[16,8],[23,-1],[5,-9],[19,-48],[-24,-21],[-5,-7],[-6,-19],[-4,-9],[-13,-11],[-124,36],[-8,-4],[-6,-8],[-4,-12],[-2,-15],[4,-15],[9,-10],[24,3],[57,-13],[16,-16],[-19,9],[-11,1],[-6,-10],[2,-18],[9,-14],[20,-18],[-17,0],[-7,-7],[-4,-36],[-6,-11],[-8,-6],[-45,1],[-18,-13],[-5,-35],[10,-32],[17,-25],[32,-33],[4,-14],[-1,-43],[2,-16],[4,-16],[2,-16],[2,-15],[7,-13],[-14,-28],[-7,-10],[-8,-1],[-7,1],[-119,-7],[-28,-21],[-6,-10],[-1,-18],[3,-13],[6,-11],[39,-50],[28,-27],[143,-21],[12,-9],[7,-24],[-11,-6],[-12,-11],[-11,-16],[-9,-20],[17,3],[21,12],[19,-1],[11,-35],[-9,-1],[-19,-17],[-27,-11],[-9,-9],[-8,-13],[10,-11],[20,-30],[11,-12],[-6,-27],[-5,-18],[-7,-12],[-42,-30],[-73,3],[-8,-4],[-8,-10],[-6,-14],[-4,-22],[-3,-50],[-2,-8],[-4,-2],[-4,-1],[-3,-4],[-5,-20],[1,-16],[6,-11],[9,-9],[7,-13],[-3,-13],[-9,-11],[-17,-13],[-14,-22],[-9,-3],[-8,6],[-7,14],[-13,32],[-2,4],[0,1660],[39,8],[21,17],[17,33],[-1,4],[-11,15],[19,2],[6,-1],[8,33],[40,35],[-11,31],[-12,11],[-113,11],[-2,-1]],[[133,2472],[-25,7],[-13,-1],[-6,-12],[7,-27],[13,-1],[14,15],[10,19]],[[167,2749],[7,-13],[9,-8],[35,-6],[9,4],[8,12],[-16,19],[-17,4],[-35,-12]],[[152,2778],[-19,29],[-6,5],[-13,4],[-18,-4],[-37,-20],[38,-12],[-1,-4],[-6,-15],[-14,-19],[0,-8],[6,-8],[10,-10],[13,2],[12,7],[19,21],[8,14],[8,18]],[[251,3087],[-30,11],[-15,1],[-13,-6],[-5,-4],[-3,-4],[-5,-13],[-6,-9],[-22,-10],[-28,-31],[28,-14],[30,11],[27,22],[18,25],[9,2],[8,8],[7,11]],[[2139,0],[71,22],[28,29],[-15,44],[-8,15],[-11,9],[-10,0],[-21,-8],[-147,2],[-56,-48],[-20,-5],[-15,15],[11,19],[7,23],[1,27],[-5,31],[-9,16],[-11,6],[-65,1],[-10,9],[-2,15],[3,37],[1,16],[-3,6],[-3,5],[-4,7],[-2,15],[10,6],[22,7],[9,14],[-14,24],[-6,13],[-6,21],[7,4],[20,-9],[22,6],[7,-1],[6,-6],[10,-18],[5,-4],[25,-3],[16,-7],[6,-7],[9,-27],[5,-1],[36,41],[12,20],[5,23],[-5,20],[-24,43],[-7,20],[-6,31],[-9,18],[-23,21],[-36,48],[-10,7],[-24,0],[-11,5],[-12,13],[3,11],[4,9],[5,7],[5,3],[-5,11],[-7,22],[-5,7],[-73,48],[3,12],[4,9],[15,20],[3,7],[1,9],[7,24],[1,10],[1,9],[2,12],[3,11],[7,21],[2,13],[4,26],[0,26],[-1,25],[-4,25],[-2,25],[3,43],[-1,21],[-16,28],[-43,-5],[-13,25],[-10,47],[-11,32],[-15,21],[-19,15],[-19,4],[-60,-30],[-9,5],[-9,13],[-16,32],[-5,22],[1,22],[3,19],[-1,12],[-22,62],[-8,17],[-10,12],[-8,-5],[-7,-12],[-9,-9],[-39,-8],[-19,10],[-14,28],[26,37],[12,25],[9,25],[1,16],[-6,5],[-111,6],[-66,34],[-16,0],[-6,3],[-6,9],[-5,16],[-2,15],[5,10],[21,15],[8,1],[58,-19],[74,14],[15,10],[-26,12],[5,21],[19,5],[8,18],[-36,43],[-9,24],[27,-4],[59,-41],[23,20],[-27,38],[-31,26],[-161,56],[-13,41],[13,-3],[6,2],[6,8],[-8,8],[-6,9],[-2,13],[6,20],[11,27],[6,12],[7,9],[15,15],[14,8],[72,1],[12,9],[38,67],[13,17],[20,8],[21,-1],[22,-9],[50,-45],[10,-6],[11,2],[7,10],[12,36],[5,27],[-5,12],[-166,6],[-105,-37],[-105,-37],[-21,1],[-10,-4],[-32,-38],[-18,-15],[-6,-15],[1,-25],[-32,14],[-10,-3],[7,-21],[11,-14],[12,-10],[10,-13],[-13,-17],[-36,16],[-16,-9],[29,-30],[61,-43],[28,-39],[-17,-5],[-32,12],[-16,-1],[16,-22],[30,-29],[4,-11],[3,-21],[-19,2],[-69,50],[-36,41],[-14,1],[11,-19],[5,-12],[3,-16],[-33,18],[-11,1],[-7,-3],[-5,-4],[-5,-1],[-17,15],[-5,6],[-17,41],[-3,12],[-3,18],[-4,8],[-4,2],[-19,-5],[-21,-13],[-12,-1],[-89,40],[-19,-4],[-5,2],[-6,9],[-4,8],[-4,6],[-7,3],[-22,-3],[-6,11],[2,34],[-20,7],[-6,4],[-4,10],[-3,15],[0,14],[3,8],[39,9],[10,13],[10,18],[36,24],[29,38],[8,16],[-31,40],[-7,3],[-15,-2],[-22,4],[-76,-23],[-17,4],[-13,16],[-4,12],[-3,19],[-1,18],[5,8],[32,10],[15,10],[9,10],[4,11],[5,15],[5,0],[7,-5],[7,1],[16,17],[15,25],[7,7],[6,-2],[15,-16],[14,-5],[16,6],[75,61],[14,19],[-3,10],[-1,9],[2,10],[4,7],[-13,24],[-7,8],[-8,6],[1,-7],[0,-16],[0,-7],[-44,0],[-14,11],[16,47],[3,20],[-19,-14],[-3,-7],[-6,-22],[-4,-8],[-38,-40],[-35,-49],[-18,-8],[-28,31],[-10,0],[-33,-19],[-5,0],[-5,6],[-3,6],[-3,4],[-90,-23],[0,20],[-1,17],[-6,34],[11,7],[21,-6],[11,7],[5,10],[6,22],[6,6],[12,4],[22,0],[52,33],[18,28],[-27,26],[-9,5],[-18,1],[-8,3],[-25,34],[-38,26],[-12,29],[24,-2],[13,4],[10,13],[6,32],[-11,58],[5,25],[10,9],[67,17],[2,6],[4,28],[4,11],[-23,13],[-7,8],[-2,9],[0,11],[-2,10],[-2,5],[-6,2],[-36,26],[-13,20],[0,30],[-9,6],[-3,11],[2,12],[7,11],[8,7],[18,8],[9,7],[-5,17],[-2,38],[-6,11],[-15,11],[-14,16],[11,58],[8,-17],[10,-15],[11,-10],[10,1],[5,6],[5,10],[3,14],[1,16],[-2,7],[-9,22],[-2,13],[30,-28],[4,-12],[-1,-16],[-1,-17],[0,-14],[9,-33],[13,-15],[15,-2],[15,6],[1,6],[-1,18],[2,5],[4,1],[2,2],[2,3],[14,29],[8,8],[4,-4],[9,-25],[12,-12],[12,3],[11,21],[-11,13],[7,5],[9,19],[7,5],[7,-2],[6,-7],[13,-18],[14,-7],[17,5],[32,20],[-16,45],[-79,25],[-21,35],[42,1],[22,9],[6,26],[8,-4],[32,7],[27,14],[-12,20],[-3,12],[2,18],[-18,8],[-6,0],[-6,-4],[-11,-13],[-5,-4],[-9,2],[-4,12],[-4,17],[-4,15],[-4,8],[-11,15],[-6,9],[18,29],[9,21],[4,20],[-3,20],[-9,19],[-18,28],[12,-5],[10,-8],[19,-26],[9,-18],[6,-19],[7,-14],[11,-6],[12,1],[7,5],[2,7],[1,40],[-1,12],[-5,23],[-14,38],[-6,21],[34,24],[11,19],[9,31],[2,4],[2,-2],[3,-4],[2,-1],[26,18],[-2,-75],[-3,-20],[-2,-11],[-1,-11],[3,-21],[9,-10],[30,6],[24,-13],[7,27],[6,33],[9,15],[13,-5],[6,-7],[11,-25],[12,-12],[29,-43],[25,-8],[78,19],[27,20],[13,35],[-18,54],[2,5],[3,11],[2,5],[-33,48],[-34,35],[-18,9],[-39,7],[-7,10],[-8,24],[-1,11],[3,7],[5,3],[10,2],[2,5],[4,24],[4,21],[6,17],[8,7],[9,-9],[16,-33],[9,-8],[11,4],[9,6],[27,9],[-6,14],[-4,15],[1,15],[6,15],[-23,16]],[[1689,4096],[3,-24],[3,-30],[2,-14],[4,-5],[4,-3],[5,-10],[1,-10],[0,-39],[5,-16],[44,-54],[8,-6],[20,0],[20,6],[10,6],[10,10],[5,12],[2,19],[1,28],[-10,-11],[-8,-6],[-18,-4],[1,23],[2,16],[10,31],[-44,2],[-23,12],[-6,37],[10,30]],[[656,4096],[-3,-15],[-4,-18],[-2,-8],[1,-10],[10,-17],[2,-5],[-5,-10],[-6,0],[-6,2],[-6,0],[-6,-7],[2,-8],[42,-44],[-10,-24],[-6,-6],[-13,0],[-5,-7],[-4,-10],[-5,-9],[-8,-6],[-5,0],[-5,7],[-5,15],[-4,5],[-21,13],[-13,0],[-4,2],[-7,10],[-10,21],[-4,6],[-7,5],[-11,2],[-3,3],[-2,6],[-3,18],[-2,6],[-5,5],[-60,8],[-13,-3],[-80,-44],[-13,-20],[-2,-29],[6,-35],[3,-30],[-2,-31],[-7,-35],[41,-35],[8,-16],[-1,-20],[-7,-20],[-8,-12],[-5,-2],[-4,-1],[-3,-2],[-32,-76],[-6,-18],[-5,-25],[8,-6],[17,-1],[8,-4],[21,-29],[7,-8],[-30,-28],[5,-13],[10,-21],[4,-14],[7,-37],[1,-17],[1,-93],[-4,-28],[-13,-10],[-9,2],[-5,5],[-2,12],[-6,40],[-2,11],[-12,32],[-4,6],[-15,18],[-17,27],[-5,3],[-2,-5],[0,-11],[-2,-15],[-4,-11],[-9,-17],[-3,-12],[-1,-6],[1,-14],[0,-7],[-8,-23],[-11,1],[-22,26],[-27,1],[-11,8],[5,25],[3,13],[3,23],[4,11],[19,36],[-10,5],[-3,5],[-2,11],[-4,28],[-1,16],[1,11],[8,24],[3,14],[1,16],[-7,47],[-1,8],[4,26],[-12,18],[-30,17],[-6,1],[-10,-2],[-10,-5],[-5,-9],[-1,-18],[5,-17],[12,-29],[-9,-10],[-7,-6],[-8,2],[-7,14],[-6,13],[-8,12],[-7,2],[-3,-19],[-1,-30],[-2,-19],[-4,-16],[-16,-36],[-5,-6],[-33,19],[-7,8],[-6,18],[-3,5],[-3,3],[-3,0],[-4,-1],[-4,-6],[0,-7],[1,-8],[-1,-11],[-9,-27]],[[0,3426],[6,2],[14,-8],[-20,-28]],[[0,3286],[6,-5],[-6,-9]],[[0,3061],[10,0],[175,80],[6,0],[42,-25],[8,0],[14,-7],[24,-27],[37,-15],[7,1],[5,7],[10,20],[5,6],[8,2],[7,-7],[2,-14],[-3,-22],[-5,-17],[-3,-7],[-1,-10],[4,-25],[-22,3],[-41,20],[-22,-3],[-19,-15],[-38,-57],[-16,-32],[19,-13],[49,10],[15,-34],[-15,8],[-86,-19],[-5,-5],[-18,-34],[61,11],[40,-9],[13,3],[-11,-25],[-11,-8],[-11,-6],[-12,-15],[21,-41],[-1,-22],[-1,-14],[-5,-7],[-8,-5],[-52,-7],[-92,-43],[10,-11],[18,-8],[1,-8],[0,-10],[3,-11],[10,-9],[32,-16],[-12,-23],[-7,-6],[-8,1],[-13,7],[-7,-1],[-6,-12],[18,-7],[8,-7],[11,-29],[47,-58],[12,-24],[1,-22],[24,-7],[7,4],[7,12],[16,17],[16,8],[23,-1],[5,-9],[19,-48],[-24,-21],[-5,-7],[-6,-19],[-4,-9],[-13,-11],[-124,36],[-8,-4],[-6,-8],[-4,-12],[-2,-15],[4,-15],[9,-10],[24,3],[57,-13],[16,-16],[-19,9],[-11,1],[-6,-10],[2,-18],[9,-14],[20,-18],[-17,0],[-7,-7],[-4,-36],[-6,-11],[-8,-6],[-45,1],[-18,-13],[-5,-35],[10,-32],[17,-25],[32,-33],[4,-14],[-1,-43],[2,-16],[4,-16],[2,-16],[2,-15],[7,-13],[-14,-28],[-7,-10],[-8,-1],[-7,1],[-119,-7],[-28,-21],[-6,-10],[-1,-18],[3,-13],[6,-11],[39,-50],[28,-27],[143,-21],[12,-9],[7,-24],[-11,-6],[-12,-11],[-11,-16],[-9,-20],[17,3],[21,12],[19,-1],[11,-35],[-9,-1],[-19,-17],[-27,-11],[-9,-9],[-8,-13],[10,-11],[20,-30],[11,-12],[-6,-27],[-5,-18],[-7,-12],[-42,-30],[-73,3],[-8,-4],[-8,-10],[-6,-14],[-4,-22],[-3,-50],[-2,-8],[-4,-2],[-4,-1],[-3,-4],[-5,-20],[1,-16],[6,-11],[9,-9],[7,-13],[-3,-13],[-9,-11],[-17,-13],[-14,-22],[-9,-3],[-8,6],[-7,14],[-13,32],[-2,4]],[[2572,16],[0,13],[-4,33],[-2,9],[-19,24],[-24,10],[-96,-5],[-24,-8],[-20,-17],[-5,-10],[-2,-11],[1,-12],[3,-13],[-2,-3],[-2,-10],[-3,-13],[0,-3]],[[2570,0],[2,16]],[[2328,648],[-3,19],[-1,7],[0,4],[2,8],[0,4],[-1,7],[-1,5],[-3,10],[-5,11],[-6,9],[-13,12],[-28,16],[-15,1],[-14,-8],[-5,-6],[-4,-8],[-5,-10],[-3,-12],[-2,-11],[-2,-37],[13,-20],[15,-13],[15,-8],[15,-3],[25,6],[26,17]],[[2092,1157],[-5,12],[-3,6],[-11,16],[-5,11],[-4,13],[0,13],[4,13],[-14,11],[-58,78],[-12,29],[-15,27],[-36,39],[-69,38],[-30,2],[-26,-12],[-16,-31],[14,-40],[11,-45],[15,-48],[57,-93],[16,-44],[25,-48],[5,-19],[0,-9],[-2,-13],[0,-8],[1,-7],[2,-4],[1,-6],[-1,-9],[-2,-5],[-2,-4],[-2,-5],[0,-9],[6,-21],[17,-42],[5,-20],[0,-10],[-4,-9],[2,-10],[12,-12],[14,-3],[16,4],[12,9],[7,11],[-2,24],[3,14],[6,7],[8,3],[-2,3],[-8,20],[3,8],[10,12],[9,19],[4,5],[-5,6],[-5,17],[-6,33],[12,13],[0,1],[22,-7],[11,3],[-3,21],[13,2],[7,3],[5,8],[0,8],[-1,10],[-3,11],[-3,10]],[[2405,1851],[40,-34],[14,-5],[26,4],[8,19],[-5,29],[-18,32],[-27,23],[-34,13],[-31,-3],[-19,-25],[9,-16],[37,-37]],[[133,2472],[-25,7],[-13,-1],[-6,-12],[7,-27],[13,-1],[14,15],[10,19]],[[167,2749],[7,-13],[9,-8],[35,-6],[9,4],[8,12],[-16,19],[-17,4],[-35,-12]],[[152,2778],[-19,29],[-6,5],[-13,4],[-18,-4],[-37,-20],[38,-12],[-1,-4],[-6,-15],[-14,-19],[0,-8],[6,-8],[10,-10],[13,2],[12,7],[19,21],[8,14],[8,18]],[[927,2949],[9,-7],[9,3],[29,25],[9,2],[9,-3],[11,-11],[-6,-12],[9,-9],[11,-1],[11,5],[9,8],[32,41],[-9,9],[-59,19],[-9,0],[5,-18],[2,-5],[-51,16],[-16,0],[3,-13],[1,-8],[1,-9],[-2,-8],[-2,-12],[-4,-10],[-2,-2]],[[77,2880],[-1,4],[-11,15],[19,2],[6,-1],[8,33],[40,35],[-11,31],[-12,11],[-113,11],[-2,-1]],[[0,2822],[39,8],[21,17],[17,33]],[[251,3087],[-30,11],[-15,1],[-13,-6],[-5,-4],[-3,-4],[-5,-13],[-6,-9],[-22,-10],[-28,-31],[28,-14],[30,11],[27,22],[18,25],[9,2],[8,8],[7,11]],[[43,3707],[14,11],[14,16],[12,21],[11,24],[-1,6],[-4,19],[-2,5],[-4,8],[-2,4],[-1,6],[-1,4],[-1,5],[-2,4],[-6,9],[-36,24],[-14,1],[-14,-7],[-6,-9]],[[0,3819],[4,-9],[-4,-5]],[[0,3707],[2,-2],[22,-4],[19,6]],[[2092,1157],[3,-10],[3,-11],[1,-10],[0,-8],[-5,-8],[-7,-3],[-13,-2],[3,-21],[-11,-3],[-22,7],[0,-1],[-12,-13],[6,-33],[5,-17],[5,-6],[-4,-5],[-9,-19],[-10,-12],[-3,-8],[8,-20],[2,-3],[-8,-3],[-6,-7],[-3,-14],[2,-24],[-7,-11],[-12,-9],[-16,-4],[-14,3],[-12,12],[-2,10],[4,9],[0,10],[-5,20],[-17,42],[-6,21],[0,9],[2,5],[2,4],[2,5],[1,9],[-1,6],[-2,4],[-1,7],[0,8],[2,13],[0,9],[-5,19],[-25,48],[-16,44],[-57,93],[-15,48],[-11,45],[-14,40],[16,31],[26,12],[30,-2],[69,-38],[36,-39],[15,-27],[12,-29],[58,-78],[14,-11],[-4,-13],[0,-13],[4,-13],[5,-11],[11,-16],[3,-6],[5,-12]],[[152,2778],[-8,-18],[-8,-14],[-19,-21],[-12,-7],[-13,-2],[-10,10],[-6,8],[0,8],[14,19],[6,15],[1,4],[-38,12],[37,20],[18,4],[13,-4],[6,-5],[19,-29]],[[927,2949],[2,2],[4,10],[2,12],[2,8],[-1,9],[-1,8],[-3,13],[16,0],[51,-16],[-2,5],[-5,18],[9,0],[59,-19],[9,-9],[-32,-41],[-9,-8],[-11,-5],[-11,1],[-9,9],[6,12],[-11,11],[-9,3],[-9,-2],[-29,-25],[-9,-3],[-9,7]],[[251,3087],[-7,-11],[-8,-8],[-9,-2],[-18,-25],[-27,-22],[-30,-11],[-28,14],[28,31],[22,10],[6,9],[5,13],[3,4],[5,4],[13,6],[15,-1],[30,-11]],[[2570,0],[-197,0],[0,3],[3,13],[2,10],[2,3],[-3,13],[-1,12],[2,11],[5,10],[20,17],[24,8],[96,5],[24,-10],[19,-24],[2,-9],[4,-33],[0,-13],[-2,-16]],[[2328,648],[-26,-17],[-25,-6],[-15,3],[-15,8],[-15,13],[-13,20],[2,37],[2,11],[3,12],[5,10],[4,8],[5,6],[14,8],[15,-1],[28,-16],[13,-12],[6,-9],[5,-11],[3,-10],[1,-5],[1,-7],[0,-4],[-2,-8],[0,-4],[1,-7],[3,-19]],[[2405,1851],[-37,37],[-9,16],[19,25],[31,3],[34,-13],[27,-23],[18,-32],[5,-29],[-8,-19],[-26,-4],[-14,5],[-40,34]],[[0,2822],[0,198],[2,1],[113,-11],[12,-11],[11,-31],[-40,-35],[-8,-33],[-6,1],[-19,-2],[11,-15],[1,-4],[-17,-33],[-21,-17],[-39,-8]],[[0,3819],[0,39],[6,9],[14,7],[14,-1],[36,-24],[6,-9],[2,-4],[1,-5],[1,-4],[1,-6],[2,-4],[4,-8],[2,-5],[4,-19],[1,-6],[-11,-24],[-12,-21],[-14,-16],[-14,-11],[-19,-6],[-22,4],[-2,2],[0,98],[4,5],[-4,9]],[[1750,4096],[-10,-30],[6,-37],[23,-12],[44,-2],[-10,-31],[-2,-16],[-1,-23],[18,4],[8,6],[10,11],[-1,-28],[-2,-19],[-5,-12],[-10,-10],[-10,-6],[-20,-6],[-20,0],[-8,6],[-44,54],[-5,16],[0,39],[-1,10],[-5,10],[-4,3],[-4,5],[-2,14],[-3,30],[-3,24],[61,0]],[[656,4096],[666,0],[23,-16],[-6,-15],[-1,-15],[4,-15],[6,-14],[-27,-9],[-9,-6],[-11,-4],[-9,8],[-16,33],[-9,9],[-8,-7],[-6,-17],[-4,-21],[-4,-24],[-2,-5],[-10,-2],[-5,-3],[-3,-7],[1,-11],[8,-24],[7,-10],[39,-7],[18,-9],[34,-35],[33,-48],[-2,-5],[-3,-11],[-2,-5],[18,-54],[-13,-35],[-27,-20],[-78,-19],[-25,8],[-29,43],[-12,12],[-11,25],[-6,7],[-13,5],[-9,-15],[-6,-33],[-7,-27],[-24,13],[-30,-6],[-9,10],[-3,21],[1,11],[2,11],[3,20],[2,75],[-26,-18],[-2,1],[-3,4],[-2,2],[-2,-4],[-9,-31],[-11,-19],[-34,-24],[6,-21],[14,-38],[5,-23],[1,-12],[-1,-40],[-2,-7],[-7,-5],[-12,-1],[-11,6],[-7,14],[-6,19],[-9,18],[-19,26],[-10,8],[-12,5],[18,-28],[9,-19],[3,-20],[-4,-20],[-9,-21],[-18,-29],[6,-9],[11,-15],[4,-8],[4,-15],[4,-17],[4,-12],[9,-2],[5,4],[11,13],[6,4],[6,0],[18,-8],[-2,-18],[3,-12],[12,-20],[-27,-14],[-32,-7],[-8,4],[-6,-26],[-22,-9],[-42,-1],[21,-35],[79,-25],[16,-45],[-32,-20],[-17,-5],[-14,7],[-13,18],[-6,7],[-7,2],[-7,-5],[-9,-19],[-7,-5],[11,-13],[-11,-21],[-12,-3],[-12,12],[-9,25],[-4,4],[-8,-8],[-14,-29],[-2,-3],[-2,-2],[-4,-1],[-2,-5],[1,-18],[-1,-6],[-15,-6],[-15,2],[-13,15],[-9,33],[0,14],[1,17],[1,16],[-4,12],[-30,28],[2,-13],[9,-22],[2,-7],[-1,-16],[-3,-14],[-5,-10],[-5,-6],[-10,-1],[-11,10],[-10,15],[-8,17],[-11,-58],[14,-16],[15,-11],[6,-11],[2,-38],[5,-17],[-9,-7],[-18,-8],[-8,-7],[-7,-11],[-2,-12],[3,-11],[9,-6],[0,-30],[13,-20],[36,-26],[6,-2],[2,-5],[2,-10],[0,-11],[2,-9],[7,-8],[23,-13],[-4,-11],[-4,-28],[-2,-6],[-67,-17],[-10,-9],[-5,-25],[11,-58],[-6,-32],[-10,-13],[-13,-4],[-24,2],[12,-29],[38,-26],[25,-34],[8,-3],[18,-1],[9,-5],[27,-26],[-18,-28],[-52,-33],[-22,0],[-12,-4],[-6,-6],[-6,-22],[-5,-10],[-11,-7],[-21,6],[-11,-7],[6,-34],[1,-17],[0,-20],[90,23],[3,-4],[3,-6],[5,-6],[5,0],[33,19],[10,0],[28,-31],[18,8],[35,49],[38,40],[4,8],[6,22],[3,7],[19,14],[-3,-20],[-16,-47],[14,-11],[44,0],[0,7],[0,16],[-1,7],[8,-6],[7,-8],[13,-24],[-4,-7],[-2,-10],[1,-9],[3,-10],[-14,-19],[-75,-61],[-16,-6],[-14,5],[-15,16],[-6,2],[-7,-7],[-15,-25],[-16,-17],[-7,-1],[-7,5],[-5,0],[-5,-15],[-4,-11],[-9,-10],[-15,-10],[-32,-10],[-5,-8],[1,-18],[3,-19],[4,-12],[13,-16],[17,-4],[76,23],[22,-4],[15,2],[7,-3],[31,-40],[-8,-16],[-29,-38],[-36,-24],[-10,-18],[-10,-13],[-39,-9],[-3,-8],[0,-14],[3,-15],[4,-10],[6,-4],[20,-7],[-2,-34],[6,-11],[22,3],[7,-3],[4,-6],[4,-8],[6,-9],[5,-2],[19,4],[89,-40],[12,1],[21,13],[19,5],[4,-2],[4,-8],[3,-18],[3,-12],[17,-41],[5,-6],[17,-15],[5,1],[5,4],[7,3],[11,-1],[33,-18],[-3,16],[-5,12],[-11,19],[14,-1],[36,-41],[69,-50],[19,-2],[-3,21],[-4,11],[-30,29],[-16,22],[16,1],[32,-12],[17,5],[-28,39],[-61,43],[-29,30],[16,9],[36,-16],[13,17],[-10,13],[-12,10],[-11,14],[-7,21],[10,3],[32,-14],[-1,25],[6,15],[18,15],[32,38],[10,4],[21,-1],[105,37],[105,37],[166,-6],[5,-12],[-5,-27],[-12,-36],[-7,-10],[-11,-2],[-10,6],[-50,45],[-22,9],[-21,1],[-20,-8],[-13,-17],[-38,-67],[-12,-9],[-72,-1],[-14,-8],[-15,-15],[-7,-9],[-6,-12],[-11,-27],[-6,-20],[2,-13],[6,-9],[8,-8],[-6,-8],[-6,-2],[-13,3],[13,-41],[161,-56],[31,-26],[27,-38],[-23,-20],[-59,41],[-27,4],[9,-24],[36,-43],[-8,-18],[-19,-5],[-5,-21],[26,-12],[-15,-10],[-74,-14],[-58,19],[-8,-1],[-21,-15],[-5,-10],[2,-15],[5,-16],[6,-9],[6,-3],[16,0],[66,-34],[111,-6],[6,-5],[-1,-16],[-9,-25],[-12,-25],[-26,-37],[14,-28],[19,-10],[39,8],[9,9],[7,12],[8,5],[10,-12],[8,-17],[22,-62],[1,-12],[-3,-19],[-1,-22],[5,-22],[16,-32],[9,-13],[9,-5],[60,30],[19,-4],[19,-15],[15,-21],[11,-32],[10,-47],[13,-25],[43,5],[16,-28],[1,-21],[-3,-43],[2,-25],[4,-25],[1,-25],[0,-26],[-4,-26],[-2,-13],[-7,-21],[-3,-11],[-2,-12],[-1,-9],[-1,-10],[-7,-24],[-1,-9],[-3,-7],[-15,-20],[-4,-9],[-3,-12],[73,-48],[5,-7],[7,-22],[5,-11],[-5,-3],[-5,-7],[-4,-9],[-3,-11],[12,-13],[11,-5],[24,0],[10,-7],[36,-48],[23,-21],[9,-18],[6,-31],[7,-20],[24,-43],[5,-19],[0,-1],[0,-1],[-5,-22],[-12,-20],[-36,-41],[-5,1],[-9,27],[-6,7],[-16,7],[-25,3],[-5,4],[-10,18],[-6,6],[-7,1],[-22,-6],[-20,9],[-7,-4],[6,-21],[6,-13],[14,-24],[-9,-14],[-22,-7],[-10,-6],[2,-15],[4,-7],[3,-5],[3,-6],[-1,-16],[-3,-37],[2,-15],[10,-9],[65,-1],[11,-6],[9,-16],[5,-31],[-1,-27],[-7,-23],[-11,-19],[15,-15],[20,5],[56,48],[24,0],[123,-2],[21,8],[10,0],[11,-9],[8,-15],[15,-44],[-28,-29],[-71,-22],[-2139,0],[0,1162],[2,-4],[13,-32],[7,-14],[8,-6],[9,3],[14,22],[17,13],[9,11],[3,13],[-7,13],[-9,9],[-6,11],[-1,16],[5,20],[3,4],[4,1],[4,2],[2,8],[3,50],[4,22],[6,14],[8,10],[8,4],[73,-3],[42,30],[7,12],[5,18],[6,27],[-11,12],[-20,30],[-10,11],[8,13],[9,9],[27,11],[19,17],[9,1],[-11,35],[-19,1],[-21,-12],[-17,-3],[9,20],[11,16],[12,11],[11,6],[-7,24],[-12,9],[-143,21],[-28,27],[-39,50],[-6,11],[-3,13],[1,18],[6,10],[28,21],[119,7],[7,-1],[8,1],[7,10],[14,28],[-7,13],[-2,15],[-2,16],[-4,16],[-2,16],[1,43],[-4,14],[-32,33],[-17,25],[-10,32],[5,35],[18,13],[45,-1],[8,6],[6,11],[4,36],[7,7],[17,0],[-20,18],[-9,14],[-2,18],[6,10],[11,-1],[19,-9],[-16,16],[-57,13],[-24,-3],[-9,10],[-4,15],[2,15],[4,12],[6,8],[8,4],[124,-36],[13,11],[4,9],[6,19],[5,7],[24,21],[-19,48],[-5,9],[-23,1],[-16,-8],[-16,-17],[-7,-12],[-7,-4],[-24,7],[-1,22],[-12,24],[-47,58],[-11,29],[-8,7],[-18,7],[6,12],[7,1],[13,-7],[8,-1],[7,6],[12,23],[-32,16],[-10,9],[-3,11],[0,10],[-1,8],[-18,8],[-10,11],[92,43],[52,7],[8,5],[5,7],[1,14],[1,22],[-21,41],[12,15],[11,6],[11,8],[11,25],[-13,-3],[-40,9],[-61,-11],[18,34],[5,5],[86,19],[15,-8],[-15,34],[-49,-10],[-19,13],[16,32],[38,57],[19,15],[22,3],[41,-20],[22,-3],[-4,25],[1,10],[3,7],[5,17],[3,22],[-2,14],[-7,7],[-8,-2],[-5,-6],[-10,-20],[-5,-7],[-7,-1],[-37,15],[-24,27],[-14,7],[-8,0],[-42,25],[-6,0],[-175,-80],[-10,0],[0,211],[6,9],[-6,5],[0,106],[20,28],[-14,8],[-6,-2],[0,77],[9,27],[1,11],[-1,8],[0,7],[4,6],[4,1],[3,0],[3,-3],[3,-5],[6,-18],[7,-8],[33,-19],[5,6],[16,36],[4,16],[2,19],[1,30],[3,19],[7,-2],[8,-12],[6,-13],[7,-14],[8,-2],[7,6],[9,10],[-12,29],[-5,17],[1,18],[5,9],[10,5],[10,2],[6,-1],[30,-17],[12,-18],[-4,-26],[1,-8],[7,-47],[-1,-16],[-3,-14],[-8,-24],[-1,-11],[1,-16],[4,-28],[2,-11],[3,-5],[10,-5],[-19,-36],[-4,-11],[-3,-23],[-3,-13],[-5,-25],[11,-8],[27,-1],[22,-26],[11,-1],[8,23],[0,7],[-1,14],[1,6],[3,12],[9,17],[4,11],[2,15],[0,11],[2,5],[5,-3],[17,-27],[15,-18],[4,-6],[12,-32],[2,-11],[6,-40],[2,-12],[5,-5],[9,-2],[13,10],[4,28],[-1,93],[-1,17],[-7,37],[-4,14],[-10,21],[-5,13],[30,28],[-7,8],[-21,29],[-8,4],[-17,1],[-8,6],[5,25],[6,18],[32,76],[3,2],[4,1],[5,2],[8,12],[7,20],[1,20],[-8,16],[-41,35],[7,35],[2,31],[-3,30],[-6,35],[2,29],[13,20],[80,44],[13,3],[60,-8],[5,-5],[2,-6],[3,-18],[2,-6],[3,-3],[11,-2],[7,-5],[4,-6],[10,-21],[7,-10],[4,-2],[13,0],[21,-13],[4,-5],[5,-15],[5,-7],[5,0],[8,6],[5,9],[4,10],[5,7],[13,0],[6,6],[10,24],[-42,44],[-2,8],[6,7],[6,0],[6,-2],[6,0],[5,10],[-2,5],[-10,17],[-1,10],[2,8],[4,18],[3,15]]]}