{"objects":{"water":{"type":"GeometryCollection","geometries":[{"type":"MultiPolygon","properties":{"source":"naturalearthdata.com","kind":"ocean","area":989871000000000,"sort_rank":200,"min_zoom":0,"id":1},"arcs":[[[0]],[[1]]]},{"type":"MultiLineString","properties":{"source":"naturalearthdata.com","kind":"ocean","sort_rank":205,"boundary":true,"min_zoom":0,"id":2},"arcs":[[2],[3]]}]},"buildings":{"type":"GeometryCollection","geometries":[]},"places":{"type":"GeometryCollection","geometries":[]},"transit":{"type":"GeometryCollection","geometries":[]},"pois":{"type":"GeometryCollection","geometries":[]},"boundaries":{"type":"GeometryCollection","geometries":[]},"roads":{"type":"GeometryCollection","geometries":[]},"earth":{"type":"GeometryCollection","geometries":[{"type":"MultiPolygon","properties":{"sort_rank":10,"source":"naturalearthdata.com","min_zoom":0,"kind":"earth","area":59133836386451},"arcs":[[[4]]]}]},"landuse":{"type":"GeometryCollection","geometries":[]}},"type":"Topology","transform":{"translate":[-67.5,-76.8408164144],"scale":[0.002746582,0.0006887874]},"arcs":[[[2203,4096],[1893,0],[0,-4096],[-4096,0],[0,1070],[123,36],[172,49],[172,50],[27,37],[140,103],[139,104],[8,13],[24,53],[9,9],[92,6],[169,137],[168,137],[168,137],[169,137],[20,35],[8,49],[-124,20],[-123,19],[-127,-36],[-31,20],[-9,-3],[-40,-41],[-7,2],[-4,19],[-4,24],[-7,8],[-8,3],[-8,15],[5,24],[7,14],[16,16],[31,56],[8,6],[17,2],[16,17],[119,47],[118,47],[14,-3],[29,-20],[32,-3],[96,44],[-10,38],[-64,139],[-13,14],[-24,12],[-101,-20],[-101,-21],[-8,5],[-16,28],[-11,6],[-22,2],[-11,13],[24,27],[137,52],[12,10],[9,21],[-7,9],[12,65],[19,6],[42,-45],[81,-30],[29,7],[9,8],[6,24],[-3,35],[-14,67],[-15,49],[-52,99],[10,67],[0,8],[6,5],[22,-5],[5,4],[8,15],[5,5],[7,-1],[86,-76],[14,-5],[14,7],[26,37],[12,0],[10,-37],[-7,-21],[-2,-27],[4,-24],[8,-13],[15,1],[5,-3],[8,-15],[-7,-30],[0,-39],[3,-39],[6,-36],[1,-38],[-2,-38],[-2,-37],[6,-38],[18,-29],[21,-1],[122,67],[95,145],[17,44],[12,61],[4,83],[-2,15],[-5,7],[-6,4],[-11,0],[-4,3],[-3,10],[-4,21],[-3,11],[-4,7],[-10,12],[-4,7],[-8,33],[-18,53],[-10,18],[-11,13],[-18,7],[-9,7],[-27,66],[-24,40],[-20,49],[-11,80],[58,-41],[33,-48],[148,-60],[7,3],[9,8],[7,-1],[18,-56],[19,-9],[173,35],[33,33],[26,69],[-6,17],[-7,11],[-6,8],[-8,5],[10,20],[5,7],[5,2],[3,4],[8,20],[4,9],[38,28],[35,50],[16,46],[-4,57],[-15,21],[-22,5],[-39,-14],[-76,-80],[-77,-43],[-77,2],[-56,45],[-77,-45],[-11,5],[-6,25],[3,2],[6,8],[3,3],[-7,31],[-10,17],[-12,12],[-11,20],[21,1],[40,-16],[20,5],[10,14],[24,74],[9,12],[31,10],[-6,-29],[1,-25],[6,-19],[8,-10],[7,2],[12,15],[8,-5],[-4,-7],[-3,-9],[-2,-13],[-2,-15],[29,8],[60,57],[39,66],[16,41],[12,48],[0,43],[-10,15],[-97,-5],[-10,15],[-10,34],[-15,18],[-1,1]],[[2075,4096],[98,0],[-89,-33],[-30,18],[21,15]],[[0,1070],[123,36],[172,49],[172,50],[27,37],[140,103],[139,104],[8,13],[24,53],[9,9],[92,6],[169,137],[168,137],[168,137],[169,137],[20,35],[8,49],[-124,20],[-123,19],[-127,-36],[-31,20],[-9,-3],[-40,-41],[-7,2],[-4,19],[-4,24],[-7,8],[-8,3],[-8,15],[5,24],[7,14],[16,16],[31,56],[8,6],[17,2],[16,17],[119,47],[118,47],[14,-3],[29,-20],[32,-3],[96,44],[-10,38],[-64,139],[-13,14],[-24,12],[-101,-20],[-101,-21],[-8,5],[-16,28],[-11,6],[-22,2],[-11,13],[24,27],[137,52],[12,10],[9,21],[-7,9],[12,65],[19,6],[42,-45],[81,-30],[29,7],[9,8],[6,24],[-3,35],[-14,67],[-15,49],[-52,99],[10,67],[0,8],[6,5],[22,-5],[5,4],[8,15],[5,5],[7,-1],[86,-76],[14,-5],[14,7],[26,37],[12,0],[10,-37],[-7,-21],[-2,-27],[4,-24],[8,-13],[15,1],[5,-3],[8,-15],[-7,-30],[0,-39],[3,-39],[6,-36],[1,-38],[-2,-38],[-2,-37],[6,-38],[18,-29],[21,-1],[122,67],[95,145],[17,44],[12,61],[4,83],[-2,15],[-5,7],[-6,4],[-11,0],[-4,3],[-3,10],[-4,21],[-3,11],[-4,7],[-10,12],[-4,7],[-8,33],[-18,53],[-10,18],[-11,13],[-18,7],[-9,7],[-27,66],[-24,40],[-20,49],[-11,80],[58,-41],[33,-48],[148,-60],[7,3],[9,8],[7,-1],[18,-56],[19,-9],[173,35],[33,33],[26,69],[-6,17],[-7,11],[-6,8],[-8,5],[10,20],[5,7],[5,2],[3,4],[8,20],[4,9],[38,28],[35,50],[16,46],[-4,57],[-15,21],[-22,5],[-39,-14],[-76,-80],[-77,-43],[-77,2],[-56,45],[-77,-45],[-11,5],[-6,25],[3,2],[6,8],[3,3],[-7,31],[-10,17],[-12,12],[-11,20],[21,1],[40,-16],[20,5],[10,14],[24,74],[9,12],[31,10],[-6,-29],[1,-25],[6,-19],[8,-10],[7,2],[12,15],[8,-5],[-4,-7],[-3,-9],[-2,-13],[-2,-15],[29,8],[60,57],[39,66],[16,41],[12,48],[0,43],[-10,15],[-97,-5],[-10,15],[-10,34],[-15,18],[-1,1]],[[2173,4096],[-89,-33],[-30,18],[21,15]],[[2173,4096],[30,0],[1,-1],[15,-18],[10,-34],[10,-15],[97,5],[10,-15],[0,-43],[-12,-48],[-16,-41],[-39,-66],[-60,-57],[-29,-8],[2,15],[2,13],[3,9],[4,7],[-8,5],[-12,-15],[-7,-2],[-8,10],[-6,19],[-1,25],[6,29],[-31,-10],[-9,-12],[-24,-74],[-10,-14],[-20,-5],[-21,8],[-19,8],[-21,-1],[11,-20],[12,-12],[10,-17],[7,-31],[0,-1],[-3,-2],[-6,-8],[-3,-2],[6,-25],[6,-3],[5,-2],[77,45],[56,-45],[77,-2],[77,43],[76,80],[39,14],[22,-5],[15,-21],[4,-57],[-16,-46],[-35,-50],[-38,-28],[-4,-9],[-8,-20],[-3,-4],[-5,-2],[-5,-7],[-10,-20],[8,-5],[6,-8],[7,-11],[6,-17],[-26,-69],[-33,-33],[-173,-35],[-19,9],[-18,56],[-7,1],[-9,-8],[-7,-3],[-59,24],[-89,36],[-33,48],[-58,41],[11,-80],[20,-49],[24,-40],[27,-66],[9,-7],[18,-7],[11,-13],[10,-18],[18,-53],[8,-33],[4,-7],[10,-12],[4,-7],[3,-11],[3,-15],[1,-6],[3,-10],[4,-3],[11,0],[6,-4],[5,-7],[2,-15],[-4,-83],[-12,-61],[-16,-41],[-1,-3],[-95,-145],[-122,-67],[-21,1],[-18,29],[-6,38],[2,37],[2,38],[-1,38],[-6,36],[-3,39],[0,39],[7,30],[-8,15],[-5,3],[-15,-1],[-8,13],[-4,24],[2,27],[7,21],[-10,37],[-12,0],[-26,-37],[-14,-7],[-14,5],[-86,76],[-7,1],[-5,-5],[-8,-15],[-5,-4],[-22,5],[-6,-5],[0,-8],[-10,-67],[52,-99],[15,-49],[14,-67],[3,-35],[-6,-24],[-9,-8],[-29,-7],[-81,30],[-42,45],[-19,-6],[-12,-65],[7,-9],[-9,-21],[-12,-10],[-137,-52],[-24,-27],[11,-13],[22,-2],[11,-6],[16,-28],[8,-5],[101,21],[101,20],[24,-12],[13,-14],[64,-139],[10,-38],[-96,-44],[-32,3],[-29,20],[-14,3],[-118,-47],[-119,-47],[-16,-17],[-17,-2],[-8,-6],[-31,-56],[-16,-16],[-7,-14],[-5,-24],[8,-15],[8,-3],[7,-8],[4,-24],[4,-19],[7,-2],[40,41],[9,3],[31,-20],[127,36],[123,-19],[124,-20],[-8,-49],[-20,-35],[-169,-137],[-168,-137],[-168,-137],[-169,-137],[-92,-6],[-9,-9],[-24,-53],[-8,-13],[-139,-104],[-140,-103],[-27,-37],[-172,-50],[-172,-49],[-123,-36],[0,3026],[2075,0],[-21,-15],[30,-18],[89,33]]]}