{"objects":{"water":{"type":"GeometryCollection","geometries":[{"type":"MultiPolygon","properties":{"source":"naturalearthdata.com","kind":"ocean","area":989871000000000,"sort_rank":200,"min_zoom":0,"id":1},"arcs":[[[0],[1]],[[2]]]},{"type":"LineString","properties":{"source":"naturalearthdata.com","kind":"ocean","sort_rank":205,"boundary":true,"min_zoom":0,"id":2516},"arcs":[3]},{"type":"MultiLineString","properties":{"source":"naturalearthdata.com","kind":"ocean","sort_rank":205,"boundary":true,"min_zoom":0,"id":2517},"arcs":[[4],[5]]},{"type":"MultiLineString","properties":{"source":"naturalearthdata.com","kind":"ocean","sort_rank":205,"boundary":true,"min_zoom":0,"id":2519},"arcs":[[6],[7],[8]]}]},"buildings":{"type":"GeometryCollection","geometries":[]},"places":{"type":"GeometryCollection","geometries":[]},"transit":{"type":"GeometryCollection","geometries":[]},"pois":{"type":"GeometryCollection","geometries":[]},"boundaries":{"type":"GeometryCollection","geometries":[]},"roads":{"type":"GeometryCollection","geometries":[]},"earth":{"type":"GeometryCollection","geometries":[{"type":"MultiPolygon","properties":{"sort_rank":10,"source":"naturalearthdata.com","kind":"earth","min_zoom":2.0,"area":270874700878},"arcs":[[[9]],[[10]],[[11]]]},{"type":"MultiPolygon","properties":{"sort_rank":10,"source":"naturalearthdata.com","min_zoom":1.0,"kind":"earth","area":724536482796},"arcs":[[[12]]]}]},"landuse":{"type":"GeometryCollection","geometries":[]}},"type":"Topology","transform":{"translate":[-67.5,-81.0932138526],"scale":[0.002746582,0.0004692088]},"arcs":[[[0,3989],[0,107],[4096,0],[0,-4096],[-4096,0],[0,3018],[68,-82],[138,-164],[23,-12],[22,13],[-3,-10],[-7,-40],[-3,-14],[-56,-115],[-9,-47],[6,-32],[13,-18],[74,4],[17,-36],[110,-51],[10,-17],[6,-15],[7,-24],[6,-30],[2,-33],[-7,0],[-22,-28],[3,-9],[4,-8],[4,-10],[1,-17],[-1,-4],[-4,-17],[31,-44],[32,-12],[156,125],[6,20],[9,34],[4,14],[5,11],[79,55],[18,26],[4,0],[-10,14],[-5,11],[-3,16],[-1,21],[1,20],[0,21],[-2,23],[-4,15],[-5,8],[-125,71],[-10,21],[2,1],[10,17],[110,39],[8,9],[-3,12],[-3,9],[-7,9],[8,25],[1,11],[-6,-11],[-11,13],[-18,38],[-14,15],[-119,-49],[-36,17],[-57,97],[-114,41],[-22,25],[-20,47],[8,11],[8,6],[146,-28],[90,60],[2,-2],[2,-5],[2,-12],[0,-3],[10,-9],[10,2],[45,67],[9,6],[-11,35],[-14,13],[-106,-56],[-110,12],[-109,13],[-30,32],[-14,28],[-6,5],[-32,6],[18,23],[6,16],[-3,-2],[-97,-1],[-97,-1],[-18,28],[0,104],[12,-2],[16,11],[17,22],[16,35],[27,27],[6,12],[-18,2],[-6,11],[5,17],[2,7],[-9,23],[-10,12],[-52,26],[-6,9],[0,1],[0,26],[60,145],[23,35],[7,0],[11,-20],[4,-3],[5,1],[37,52],[10,25],[7,38],[-3,7],[-101,53],[-60,32]],[[2990,1883],[-4,30],[2,7],[1,7],[1,10],[0,10],[-15,3],[-1,2],[0,5],[0,14],[-1,5],[-5,9],[-7,2],[-41,-18],[12,28],[5,19],[4,24],[-4,16],[-32,35],[-137,-8],[-4,6],[-4,10],[-15,52],[9,17],[50,26],[5,13],[3,27],[-1,25],[-4,22],[-12,45],[-2,11],[-10,38],[-2,23],[4,15],[-1,24],[2,13],[21,18],[6,-3],[6,-9],[10,-33],[4,-8],[4,-2],[11,8],[-2,12],[-4,27],[-3,12],[-6,14],[-3,10],[-2,18],[5,14],[34,2],[-11,33],[-8,9],[-19,5],[-6,-5],[-5,-14],[-10,-17],[-14,-13],[-13,8],[-8,41],[1,4],[2,9],[0,3],[-3,38],[3,27],[8,18],[6,7],[20,1],[46,-35],[-23,51],[-11,18],[-18,-18],[-7,0],[-7,7],[-6,13],[6,16],[5,21],[5,25],[4,29],[-8,11],[-106,13],[-106,12],[-30,42],[94,67],[28,1],[15,22],[3,2],[7,-2],[3,3],[3,12],[4,18],[3,22],[2,20],[-13,9],[-173,-160],[-173,-160],[-25,-56],[-9,-87],[-126,-18],[-11,-8],[-10,-16],[3,-3],[17,-40],[58,-70],[24,-59],[3,-13],[-1,-11],[-8,-39],[-3,-11],[-8,-14],[-150,-1],[12,-44],[4,-4],[-33,-2],[-11,-7],[-6,-8],[-4,-11],[-1,-14],[5,-19],[17,-38],[5,-15],[3,-16],[4,-39],[3,-16],[14,-23],[7,-17],[0,-31],[-1,-9],[-2,-8],[-2,-9],[0,-11],[2,-9],[30,-51],[5,-14],[2,-14],[4,-28],[4,-12],[7,-14],[25,-19],[95,-3],[-3,-6],[-10,-38],[-97,-102],[-96,-101],[-168,-6],[-169,-7],[-168,-6],[-169,-6],[-169,-7],[-168,-6],[-169,-6],[-169,-7],[-168,-6],[-90,80],[-14,29],[-9,52],[2,12],[4,42],[8,46],[-6,35],[-2,13],[10,27],[5,21],[1,20],[-4,22],[-6,14],[-6,9],[-10,6],[-7,-2],[-4,-10],[1,-27],[-4,2],[-19,-16],[-90,-18],[-70,-133],[-10,-39],[-3,-43],[1,-15],[2,-9],[3,-7],[2,-10],[2,-21],[4,-47],[3,-20],[3,-10],[18,-40],[176,-144],[176,-145],[176,-144],[176,-145],[176,-144],[24,14],[15,24],[2,14],[-5,41],[3,24],[13,38],[-2,11],[-2,9],[-3,6],[-2,3],[14,24],[91,18],[5,5],[5,9],[5,15],[7,33],[4,13],[5,8],[118,15],[119,14],[20,-32],[5,-15],[4,-22],[2,-33],[0,-47],[2,-13],[4,-13],[19,-30],[5,-17],[3,-26],[-2,-20],[-3,-18],[-3,-22],[1,-48],[10,-33],[158,-191],[171,-51],[170,-51],[170,-51],[170,-51],[106,94],[99,183],[99,182],[3,15],[9,51],[11,42],[11,33],[9,14],[3,7],[2,10],[7,38],[-9,12],[-9,-1],[-28,-31],[-33,21],[6,79],[3,30],[4,17],[5,8],[34,15],[34,55],[2,9],[5,27],[3,8],[3,4],[4,1],[3,-2],[1,-3],[2,-15],[1,-4],[6,-6],[22,25],[1,20],[4,28],[5,24],[4,11],[-15,5],[-4,-3],[-6,-8],[-3,1],[-4,6],[-7,18],[-4,7],[-15,3],[-8,-5],[-7,-11],[3,-13],[2,-14],[-2,-17],[-4,-13],[-4,-8],[-47,-37],[-14,9],[8,25],[6,47],[5,53],[2,46],[-1,30],[0,10],[3,11],[4,10],[16,11],[-15,15],[-5,19],[0,41],[1,6],[2,11],[0,6],[1,9],[0,20],[0,6],[6,34],[7,9],[7,-2],[7,4],[4,15],[7,44],[4,23],[8,16],[14,-9],[9,7],[-2,9],[-3,22],[-2,10],[-2,3],[-7,3],[-2,8],[0,14],[1,15],[4,27],[1,22],[2,13],[3,7],[4,5],[74,20],[9,-7],[13,-23],[6,-5],[8,7],[-3,12]],[[0,3780],[0,36],[11,-11],[-11,-25]],[[2990,1883],[-4,30],[2,7],[1,7],[1,10],[0,10],[-15,3],[-1,2],[0,5],[0,14],[-1,5],[-5,9],[-7,2],[-41,-18],[12,28],[5,19],[4,24],[-4,16],[-32,35],[-137,-8],[-4,6],[-4,10],[-15,52],[9,17],[50,26],[5,13],[3,27],[-1,25],[-4,22],[-12,45],[-2,11],[-10,38],[-2,23],[4,15],[-1,24],[2,13],[21,18],[6,-3],[6,-9],[10,-33],[4,-8],[4,-2],[11,8],[-2,12],[-4,27],[-3,12],[-6,14],[-3,10],[-2,18],[5,14],[34,2],[-11,33],[-8,9],[-19,5],[-6,-5],[-5,-14],[-10,-17],[-14,-13],[-13,8],[-8,41],[1,4],[2,9],[0,3],[-3,38],[3,27],[8,18],[6,7],[20,1],[46,-35],[-23,51],[-11,18],[-18,-18],[-7,0],[-7,7],[-6,13],[6,16],[5,21],[5,25],[4,29],[-8,11],[-106,13],[-106,12],[-30,42],[94,67],[28,1],[15,22],[3,2],[7,-2],[3,3],[3,12],[4,18],[3,22],[2,20],[-13,9],[-173,-160],[-173,-160],[-25,-56],[-9,-87],[-126,-18],[-11,-8],[-10,-16],[3,-3],[17,-40],[58,-70],[24,-59],[3,-13],[-1,-11],[-8,-39],[-3,-11],[-8,-14],[-150,-1],[12,-44],[4,-4],[-33,-2],[-11,-7],[-6,-8],[-4,-11],[-1,-14],[5,-19],[17,-38],[5,-15],[3,-16],[4,-39],[3,-16],[14,-23],[7,-17],[0,-31],[-1,-9],[-2,-8],[-2,-9],[0,-11],[2,-9],[30,-51],[5,-14],[2,-14],[4,-28],[4,-12],[7,-14],[25,-19],[95,-3],[-3,-6],[-10,-38],[-97,-102],[-96,-101],[-168,-6],[-169,-7],[-168,-6],[-169,-6],[-169,-7],[-168,-6],[-169,-6],[-169,-7],[-168,-6],[-90,80],[-14,29],[-9,52],[2,12],[4,42],[8,46],[-6,35],[-2,13],[10,27],[5,21],[1,20],[-4,22],[-6,14],[-6,9],[-10,6],[-7,-2],[-4,-10],[1,-27],[-4,2],[-19,-16],[-90,-18],[-70,-133],[-10,-39],[-3,-43],[1,-15],[2,-9],[3,-7],[2,-10],[2,-21],[4,-47],[3,-20],[3,-10],[18,-40],[176,-144],[176,-145],[176,-144],[176,-145],[176,-144],[24,14],[15,24],[2,14],[-5,41],[3,24],[13,38],[-2,11],[-2,9],[-3,6],[-2,3],[14,24],[91,18],[5,5],[5,9],[5,15],[7,33],[4,13],[5,8],[118,15],[119,14],[20,-32],[5,-15],[4,-22],[2,-33],[0,-47],[2,-13],[4,-13],[19,-30],[5,-17],[3,-26],[-2,-20],[-3,-18],[-3,-22],[1,-48],[10,-33],[158,-191],[171,-51],[170,-51],[170,-51],[170,-51],[106,94],[99,183],[99,182],[3,15],[9,51],[11,42],[11,33],[9,14],[3,7],[2,10],[7,38],[-9,12],[-9,-1],[-28,-31],[-33,21],[6,79],[3,30],[4,17],[5,8],[34,15],[34,55],[2,9],[5,27],[3,8],[3,4],[4,1],[3,-2],[1,-3],[2,-15],[1,-4],[6,-6],[22,25],[1,20],[4,28],[5,24],[4,11],[-15,5],[-4,-3],[-6,-8],[-3,1],[-4,6],[-7,18],[-4,7],[-15,3],[-8,-5],[-7,-11],[3,-13],[2,-14],[-2,-17],[-4,-13],[-4,-8],[-47,-37],[-14,9],[8,25],[6,47],[5,53],[2,46],[-1,30],[0,10],[3,11],[4,10],[16,11],[-15,15],[-5,19],[0,41],[1,6],[2,11],[0,6],[1,9],[0,20],[0,6],[6,34],[7,9],[7,-2],[7,4],[4,15],[7,44],[4,23],[8,16],[14,-9],[9,7],[-2,9],[-3,22],[-2,10],[-2,3],[-7,3],[-2,8],[0,14],[1,15],[4,27],[1,22],[2,13],[3,7],[4,5],[74,20],[9,-7],[13,-23],[6,-5],[8,7],[-3,12]],[[492,3122],[-110,12],[-109,13],[-30,32],[-14,28],[-6,5],[-32,6],[18,23],[6,16],[-3,-2],[-97,-1],[-97,-1],[-18,28]],[[0,3018],[68,-82],[138,-164],[23,-12],[22,13],[-3,-10],[-7,-40],[-3,-14],[-56,-115],[-9,-47],[6,-32],[13,-18],[74,4],[17,-36],[110,-51],[10,-17],[6,-15],[7,-24],[6,-30],[2,-33],[-7,0],[-22,-28],[3,-9],[4,-8],[4,-10],[1,-17],[-1,-4],[-4,-17],[31,-44],[32,-12],[156,125],[6,20],[9,34],[4,14],[5,11],[79,55],[18,26],[4,0],[-10,14],[-5,11],[-3,16],[-1,21],[1,20],[0,21],[-2,23],[-4,15],[-5,8],[-125,71],[-10,21],[2,1],[10,17],[110,39],[8,9],[-3,12],[-3,9],[-7,9],[8,25],[1,11],[-6,-11],[-11,13],[-18,38],[-14,15],[-119,-49],[-36,17],[-57,97],[-114,41],[-22,25],[-20,47],[8,11],[8,6],[146,-28],[90,60],[2,-2],[2,-5],[2,-12],[0,-3],[10,-9],[10,2],[45,67],[9,6],[-11,35],[-14,13],[-106,-56]],[[0,3816],[11,-11],[-11,-25]],[[0,3385],[12,-2],[16,11],[17,22],[16,35],[27,27],[6,12],[-18,2],[-6,11],[5,17],[2,7],[-9,23],[-10,12],[-52,26],[-6,9],[0,1]],[[0,3624],[60,145],[23,35],[7,0],[11,-20],[4,-3],[5,1],[37,52],[10,25],[7,38],[-3,7],[-101,53],[-60,32]],[[0,3018],[0,263],[18,-28],[97,1],[97,1],[3,2],[-6,-16],[-18,-23],[32,-6],[6,-5],[14,-28],[30,-32],[109,-13],[110,-12],[106,56],[14,-13],[11,-35],[-9,-6],[-45,-67],[-10,-2],[-10,9],[0,3],[-2,12],[-2,5],[-2,2],[-90,-60],[-146,28],[-8,-6],[-8,-11],[20,-47],[22,-25],[114,-41],[57,-97],[36,-17],[119,49],[14,-15],[18,-38],[11,-13],[6,11],[-1,-11],[-8,-25],[7,-9],[3,-9],[3,-12],[-8,-9],[-110,-39],[-10,-17],[-2,-1],[10,-21],[125,-71],[5,-8],[4,-15],[2,-23],[0,-21],[-1,-20],[1,-21],[3,-16],[5,-11],[10,-14],[-4,0],[-18,-26],[-79,-55],[-5,-11],[-4,-14],[-9,-34],[-6,-20],[-156,-125],[-32,12],[-31,44],[4,17],[1,4],[-1,17],[-4,10],[-4,8],[-3,9],[22,28],[7,0],[-2,33],[-6,30],[-7,24],[-6,15],[-10,17],[-110,51],[-17,36],[-74,-4],[-13,18],[-6,32],[9,47],[56,115],[3,14],[7,40],[3,10],[-22,-13],[-23,12],[-138,164],[-68,82]],[[0,3816],[0,173],[60,-32],[101,-53],[3,-7],[-7,-38],[-10,-25],[-37,-52],[-5,-1],[-4,3],[-11,20],[-7,0],[-23,-35],[-60,-145],[0,156],[11,25],[-11,11]],[[0,3385],[0,213],[0,-1],[6,-9],[52,-26],[10,-12],[9,-23],[-2,-7],[-5,-17],[6,-11],[18,-2],[-6,-12],[-27,-27],[-16,-35],[-17,-22],[-16,-11],[-12,2]],[[2990,1883],[3,-12],[-8,-7],[-6,5],[-13,23],[-9,7],[-74,-20],[-4,-5],[-3,-7],[-2,-13],[-1,-22],[-4,-27],[-1,-15],[0,-14],[2,-8],[7,-3],[2,-3],[2,-10],[3,-22],[2,-9],[-9,-7],[-14,9],[-8,-16],[-4,-23],[-7,-44],[-4,-15],[-7,-4],[-7,2],[-7,-9],[-6,-34],[0,-6],[0,-20],[-1,-9],[0,-6],[-2,-11],[-1,-6],[0,-41],[5,-19],[15,-15],[-16,-11],[-4,-10],[-3,-11],[0,-10],[1,-30],[-2,-46],[-5,-53],[-6,-47],[-8,-25],[14,-9],[47,37],[4,8],[4,13],[2,17],[-2,14],[-3,13],[7,11],[8,5],[15,-3],[4,-7],[7,-18],[4,-6],[3,-1],[6,8],[4,3],[15,-5],[-4,-11],[-5,-24],[-4,-28],[-1,-20],[-22,-25],[-6,6],[-1,4],[-2,15],[-1,3],[-3,2],[-4,-1],[-3,-4],[-3,-8],[-5,-27],[-2,-9],[-34,-55],[-34,-15],[-5,-8],[-4,-17],[-3,-30],[-6,-79],[33,-21],[28,31],[9,1],[9,-12],[-7,-38],[-2,-10],[-3,-7],[-9,-14],[-11,-33],[-11,-42],[-9,-51],[-3,-15],[-99,-182],[-99,-183],[-106,-94],[-170,51],[-170,51],[-170,51],[-171,51],[-158,191],[-10,33],[-1,48],[3,22],[3,18],[2,20],[-3,26],[-5,17],[-19,30],[-4,13],[-2,13],[0,47],[-2,33],[-4,22],[-5,15],[-20,32],[-119,-14],[-118,-15],[-5,-8],[-4,-13],[-7,-33],[-5,-15],[-5,-9],[-5,-5],[-91,-18],[-14,-24],[2,-3],[3,-6],[2,-9],[2,-11],[-13,-38],[-3,-24],[5,-41],[-2,-14],[-15,-24],[-24,-14],[-176,144],[-176,145],[-176,144],[-176,145],[-176,144],[-18,40],[-3,10],[-3,20],[-4,47],[-2,21],[-2,10],[-3,7],[-2,9],[-1,15],[3,43],[10,39],[70,133],[90,18],[19,16],[4,-2],[-1,27],[4,10],[7,2],[10,-6],[6,-9],[6,-14],[4,-22],[-1,-20],[-5,-21],[-10,-27],[2,-13],[6,-35],[-8,-46],[-4,-42],[-2,-12],[9,-52],[14,-29],[90,-80],[168,6],[169,7],[169,6],[168,6],[169,7],[169,6],[168,6],[169,7],[168,6],[96,101],[97,102],[10,38],[3,6],[-95,3],[-25,19],[-7,14],[-4,12],[-4,28],[-2,14],[-5,14],[-30,51],[-2,9],[0,11],[2,9],[2,8],[1,9],[0,31],[-7,17],[-14,23],[-3,16],[-4,39],[-3,16],[-5,15],[-17,38],[-5,19],[1,14],[4,11],[6,8],[11,7],[33,2],[-4,4],[-12,44],[150,1],[8,14],[3,11],[8,39],[1,11],[-3,13],[-24,59],[-58,70],[-17,40],[-3,3],[10,16],[11,8],[126,18],[9,87],[25,56],[173,160],[173,160],[13,-9],[-2,-20],[-3,-22],[-4,-18],[-3,-12],[-3,-3],[-7,2],[-3,-2],[-15,-22],[-28,-1],[-94,-67],[30,-42],[106,-12],[106,-13],[8,-11],[-4,-29],[-5,-25],[-5,-21],[-6,-16],[6,-13],[7,-7],[7,0],[18,18],[11,-18],[23,-51],[-46,35],[-20,-1],[-6,-7],[-8,-18],[-3,-27],[3,-38],[0,-3],[-2,-9],[-1,-4],[8,-41],[13,-8],[14,13],[10,17],[5,14],[6,5],[19,-5],[8,-9],[11,-33],[-34,-2],[-5,-14],[2,-18],[3,-10],[6,-14],[3,-12],[4,-27],[2,-12],[-11,-8],[-4,2],[-4,8],[-10,33],[-6,9],[-6,3],[-21,-18],[-2,-13],[1,-24],[-4,-15],[2,-23],[10,-38],[2,-11],[12,-45],[4,-22],[1,-25],[-3,-27],[-5,-13],[-50,-26],[-9,-17],[15,-52],[4,-10],[4,-6],[137,8],[32,-35],[4,-16],[-4,-24],[-5,-19],[-12,-28],[41,18],[7,-2],[5,-9],[1,-5],[0,-14],[0,-5],[1,-2],[15,-3],[0,-10],[-1,-10],[-1,-7],[-2,-7],[4,-30]]]}