{"objects":{"water":{"type":"GeometryCollection","geometries":[{"type":"MultiPolygon","properties":{"source":"naturalearthdata.com","kind":"ocean","area":989871000000000,"sort_rank":200,"min_zoom":0,"id":1},"arcs":[[[0]],[[1]],[[2],[3],[4],[5]],[[6]],[[7]]]},{"type":"MultiLineString","properties":{"source":"naturalearthdata.com","kind":"ocean","sort_rank":205,"boundary":true,"min_zoom":0,"id":515},"arcs":[[8],[9],[10],[11],[12]]},{"type":"LineString","properties":{"source":"naturalearthdata.com","kind":"ocean","sort_rank":205,"boundary":true,"min_zoom":0,"id":1015},"arcs":[13]},{"type":"LineString","properties":{"source":"naturalearthdata.com","kind":"ocean","sort_rank":205,"boundary":true,"min_zoom":0,"id":4132},"arcs":[14]}]},"buildings":{"type":"GeometryCollection","geometries":[]},"places":{"type":"GeometryCollection","geometries":[]},"transit":{"type":"GeometryCollection","geometries":[]},"pois":{"type":"GeometryCollection","geometries":[]},"boundaries":{"type":"GeometryCollection","geometries":[]},"roads":{"type":"GeometryCollection","geometries":[]},"earth":{"type":"GeometryCollection","geometries":[{"type":"MultiPolygon","properties":{"sort_rank":10,"source":"naturalearthdata.com","kind":"earth","min_zoom":4.0,"area":112145940633},"arcs":[[[15]]]},{"type":"MultiPolygon","properties":{"sort_rank":10,"source":"naturalearthdata.com","min_zoom":0,"kind":"earth","area":44884805284559},"arcs":[[[16]],[[17]]]}]},"landuse":{"type":"GeometryCollection","geometries":[{"type":"MultiPolygon","properties":{"kind":"national_park","protect_class":"2","area":19551643767465,"sort_rank":18,"source":"openstreetmap.org","min_zoom":3.0,"tier":1,"id":-8515283},"arcs":[[[18]]]}]}},"type":"Topology","transform":{"translate":[-67.5,79.1713346408],"scale":[0.002746582,0.0004692088]},"arcs":[[[2120,4096],[56,0],[7,-34],[-15,-24],[-48,58]],[[1479,4096],[37,0],[-1,-19],[6,-48],[50,-233],[11,-33],[47,-73],[13,-37],[24,-82],[12,-30],[14,-18],[-8,-25],[3,-18],[8,-12],[32,-18],[7,-16],[-15,-51],[-15,12],[-15,34],[-34,44],[-13,55],[-12,62],[-13,45],[-69,107],[-21,57],[-32,156],[-13,49],[-3,92]],[[361,4096],[963,0],[-24,-77],[-69,-19],[-44,-43],[-71,0],[-30,-50],[-86,-18],[-13,-12],[-6,-34],[4,-32],[11,-21],[20,-20],[-18,-29],[6,-13],[2,-3],[-15,-26],[-73,-9],[-14,-17],[-8,-34],[20,-58],[-3,-16],[-2,-13],[-4,-11],[-3,-8],[-9,-7],[-2,-3],[-1,-11],[0,-14],[-1,-12],[0,-7],[-8,-22],[-18,-29],[-91,-52],[-91,-51],[-25,-33],[-6,-25],[7,-20],[70,-47],[-10,-20],[-96,3],[-96,2],[-8,-11],[-3,-28],[-3,-34],[-6,-30],[-13,-19],[-112,-60],[-112,-60],[-9,-13],[-3,-28],[4,-20],[11,-6],[19,4],[-4,-7],[-3,-10],[-3,-12],[-3,-16],[2,-5],[2,-5],[2,-4],[2,-1],[-5,-12],[-12,-12],[-4,-12],[-4,-20],[-3,-10],[-45,-19],[-45,-86],[-48,-56],[-11,-6],[3,0],[-7,-4],[-21,-37],[-7,-7],[-15,5],[-47,-48],[-11,-41],[11,-5],[3,-15],[-3,-23],[-8,-28],[-8,-23],[0,1419],[97,-9],[132,155],[72,56],[52,91],[7,18],[1,5]],[[264,3042],[3,2],[3,4],[5,5],[3,1],[4,2],[4,0],[3,2],[2,2],[22,0],[2,1],[9,0],[3,2],[5,5],[0,19],[-2,4],[-5,5],[0,2],[-4,2],[0,1],[-4,7],[-2,0],[-7,6],[0,2],[-18,17],[0,2],[-5,5],[0,6],[-4,9],[-2,3],[-3,4],[0,2],[-6,5],[0,2],[-17,17],[-2,-1],[-5,6],[-2,0],[-4,3],[-4,0],[-3,2],[-4,2],[-3,2],[-2,2],[-4,0],[-4,1],[-1,2],[-15,0],[-2,-2],[-2,0],[-1,0],[-5,-2],[0,-4],[-2,-2],[0,-10],[1,-1],[1,-1],[2,-14],[2,-2],[0,-7],[2,-2],[0,-7],[1,-2],[0,-19],[2,-2],[0,-11],[4,-3],[0,-4],[2,-2],[1,-7],[4,-7],[4,-7],[0,-4],[2,-3],[2,-1],[4,-2],[2,-2],[9,0],[4,-6],[0,-14],[10,-10],[4,-2],[4,-1],[3,-2],[6,0]],[[122,2795],[4,5],[0,12],[-1,3],[-10,9],[-1,4],[0,7],[-2,2],[0,2],[-5,4],[-3,2],[-17,0],[-3,-2],[-4,-2],[-5,-4],[0,-5],[5,-3],[8,-8],[4,-6],[3,-5],[4,-5],[0,-2],[5,-4],[3,0],[2,-2],[4,-2],[9,0]],[[429,3514],[4,2],[5,6],[0,6],[-5,6],[-4,0],[-5,5],[-4,2],[-5,0],[-4,-2],[-2,-2],[0,-8],[1,-1],[0,-4],[8,-8],[4,-2],[7,0]],[[0,2213],[0,112],[5,-6],[7,-13],[6,-18],[5,-21],[-4,1],[-3,-3],[-6,-14],[10,-30],[-11,2],[-6,-4],[-3,-6]],[[591,0],[-591,0],[0,2201],[14,-41],[68,-55],[30,15],[10,-7],[20,-31],[11,-7],[-15,-26],[-1,-15],[8,-31],[14,-36],[3,-22],[-9,-15],[11,-34],[181,27],[19,22],[19,68],[5,3],[6,-7],[5,-11],[10,-11],[21,-5],[24,-42],[30,-19],[13,-35],[13,-50],[14,-26],[72,-18],[150,99],[53,80],[138,-50],[165,70],[31,65],[8,5],[11,23],[16,101],[12,23],[2,7],[-2,20],[-2,26],[1,27],[6,18],[8,5],[8,-4],[7,-9],[4,-22],[-3,-35],[-9,-64],[6,-19],[5,-25],[5,-20],[7,-9],[132,-14],[-13,-29],[-34,-15],[-64,32],[-16,-5],[-78,-139],[-128,-58],[-128,-59],[-10,-33],[34,-59],[10,-44],[-17,-41],[-6,-27],[3,-35],[-15,-28],[15,-51],[3,-22],[-38,-11],[-10,-19],[10,-20],[27,-24],[11,0],[0,-13],[-20,0],[6,-31],[11,-25],[23,-31],[-8,-15],[-18,-17],[-7,-28],[24,-40],[21,-62],[-7,-36],[-21,-40],[-9,-27],[14,-18],[28,-20],[13,-27],[9,-33],[4,-30],[2,-39],[0,-59],[-4,-54],[-11,-41],[-22,-47],[-47,-47],[-13,-50],[7,-5],[7,-11],[-9,-21],[-20,-20],[-8,-31],[5,-16],[-7,-32],[-10,-13],[-20,-13],[-12,-27],[-53,-31],[-5,-7],[-5,-31],[-4,-7],[-4,-4],[-3,-8],[-2,-10],[-2,-7],[-20,-14],[-5,-15],[6,-20],[6,-25],[-8,-15],[-29,2],[-18,-17],[-14,-27],[2,-25],[4,-14],[6,-6],[5,1],[-11,-24],[-60,-65],[-7,-15]],[[2176,4096],[7,-34],[-15,-24],[-48,58]],[[1516,4096],[-1,-19],[6,-48],[50,-233],[11,-33],[47,-73],[13,-37],[24,-82],[12,-30],[14,-18],[-8,-25],[3,-18],[8,-12],[32,-18],[7,-16],[-15,-51],[-15,12],[-15,34],[-34,44],[-13,55],[-12,62],[-13,45],[-69,107],[-21,57],[-32,156],[-13,49],[-3,92]],[[1324,4096],[-24,-77],[-69,-19],[-44,-43],[-71,0],[-30,-50],[-86,-18],[-13,-12],[-6,-34],[4,-32],[11,-21],[20,-20],[-18,-29],[6,-13],[2,-3],[-15,-26],[-73,-9],[-14,-17],[-8,-34],[20,-58],[-3,-16],[-2,-13],[-4,-11],[-3,-8],[-9,-7],[-2,-3],[-1,-11],[0,-14],[-1,-12],[0,-7],[-8,-22],[-18,-29],[-91,-52],[-91,-51],[-25,-33],[-6,-25],[7,-20],[70,-47],[-10,-20],[-96,3],[-96,2],[-8,-11],[-3,-28],[-3,-34],[-6,-30],[-13,-19],[-112,-60],[-112,-60],[-9,-13],[-3,-28],[4,-20],[11,-6],[19,4],[-4,-7],[-3,-10],[-3,-12],[-3,-16],[2,-5],[2,-5],[2,-4],[2,-1],[-5,-12],[-12,-12],[-4,-12],[-4,-20],[-3,-10],[-45,-19],[-45,-86],[-48,-56],[-11,-6],[3,0],[-7,-4],[-21,-37],[-7,-7],[-15,5],[-47,-48],[-11,-41],[11,-5],[3,-15],[-3,-23],[-8,-28],[-8,-23]],[[0,2325],[5,-6],[7,-13],[6,-18],[5,-21],[-4,1],[-3,-3],[-6,-14],[10,-30],[-11,2],[-6,-4],[-3,-6]],[[0,2201],[14,-41],[68,-55],[30,15],[10,-7],[20,-31],[11,-7],[-15,-26],[-1,-15],[8,-31],[14,-36],[3,-22],[-9,-15],[11,-34],[181,27],[19,22],[19,68],[5,3],[6,-7],[5,-11],[10,-11],[21,-5],[24,-42],[30,-19],[13,-35],[13,-50],[14,-26],[72,-18],[150,99],[53,80],[138,-50],[165,70],[31,65],[8,5],[11,23],[16,101],[12,23],[2,7],[-2,20],[-2,26],[1,27],[6,18],[8,5],[8,-4],[7,-9],[4,-22],[-3,-35],[-9,-64],[6,-19],[5,-25],[5,-20],[7,-9],[132,-14],[-13,-29],[-34,-15],[-64,32],[-16,-5],[-78,-139],[-128,-58],[-128,-59],[-10,-33],[34,-59],[10,-44],[-17,-41],[-6,-27],[3,-35],[-15,-28],[15,-51],[3,-22],[-38,-11],[-10,-19],[10,-20],[27,-24],[11,0],[0,-13],[-20,0],[6,-31],[11,-25],[23,-31],[-8,-15],[-18,-17],[-7,-28],[24,-40],[21,-62],[-7,-36],[-21,-40],[-9,-27],[14,-18],[28,-20],[13,-27],[9,-33],[4,-30],[2,-39],[0,-59],[-4,-54],[-11,-41],[-22,-47],[-47,-47],[-13,-50],[7,-5],[7,-11],[-9,-21],[-20,-20],[-8,-31],[5,-16],[-7,-32],[-10,-13],[-20,-13],[-12,-27],[-53,-31],[-5,-7],[-5,-31],[-4,-7],[-4,-4],[-3,-8],[-2,-10],[-2,-7],[-20,-14],[-5,-15],[6,-20],[6,-25],[-8,-15],[-29,2],[-18,-17],[-14,-27],[2,-25],[4,-14],[6,-6],[5,1],[-11,-24],[-60,-65],[-7,-15]],[[0,3780],[97,-9],[132,155],[72,56],[52,91],[7,18],[1,5]],[[264,3042],[-6,0],[-3,2],[-4,1],[-4,2],[-10,10],[0,14],[-4,6],[-9,0],[-2,2],[-4,2],[-2,1],[-2,3],[0,4],[-4,7],[-4,7],[-1,7],[-2,2],[0,4],[-4,3],[0,11],[-2,2],[0,19],[-1,2],[0,7],[-2,2],[0,7],[-2,2],[-2,14],[-1,1],[-1,1],[0,10],[2,2],[0,4],[5,2],[1,0],[2,0],[2,2],[15,0],[1,-2],[4,-1],[4,0],[2,-2],[3,-2],[4,-2],[3,-2],[4,0],[4,-3],[2,0],[5,-6],[2,1],[17,-17],[0,-2],[6,-5],[0,-2],[3,-4],[2,-3],[4,-9],[0,-6],[5,-5],[0,-2],[18,-17],[0,-2],[7,-6],[2,0],[4,-7],[0,-1],[4,-2],[0,-2],[5,-5],[2,-4],[0,-19],[-5,-5],[-3,-2],[-9,0],[-2,-1],[-22,0],[-2,-2],[-3,-2],[-4,0],[-4,-2],[-3,-1],[-5,-5],[-3,-4],[-3,-2]],[[264,3042],[-6,0],[-3,2],[-4,1],[-4,2],[-10,10],[0,14],[-4,6],[-9,0],[-2,2],[-4,2],[-2,1],[-2,3],[0,4],[-4,7],[-4,7],[-1,7],[-2,2],[0,4],[-4,3],[0,11],[-2,2],[0,19],[-1,2],[0,7],[-2,2],[0,7],[-2,2],[-2,14],[-1,1],[-1,1],[0,10],[2,2],[0,4],[5,2],[1,0],[2,0],[2,2],[15,0],[1,-2],[4,-1],[4,0],[2,-2],[3,-2],[4,-2],[3,-2],[4,0],[4,-3],[2,0],[5,-6],[2,1],[17,-17],[0,-2],[6,-5],[0,-2],[3,-4],[2,-3],[4,-9],[0,-6],[5,-5],[0,-2],[18,-17],[0,-2],[7,-6],[2,0],[4,-7],[0,-1],[4,-2],[0,-2],[5,-5],[2,-4],[0,-19],[-5,-5],[-3,-2],[-9,0],[-2,-1],[-22,0],[-2,-2],[-3,-2],[-4,0],[-4,-2],[-3,-1],[-5,-5],[-3,-4],[-3,-2]],[[0,3780],[0,316],[361,0],[-1,-5],[-7,-18],[-52,-91],[-72,-56],[-132,-155],[-97,9]],[[2176,4096],[1920,0],[0,-4096],[-3505,0],[7,15],[60,65],[11,24],[-5,-1],[-6,6],[-4,14],[-2,25],[14,27],[18,17],[29,-2],[8,15],[-6,25],[-6,20],[5,15],[20,14],[2,7],[2,10],[3,8],[4,4],[4,7],[5,31],[5,7],[53,31],[12,27],[20,13],[10,13],[7,32],[-5,16],[8,31],[20,20],[9,21],[-7,11],[-7,5],[13,50],[47,47],[22,47],[11,41],[4,54],[0,59],[-2,39],[-4,30],[-9,33],[-13,27],[-28,20],[-14,18],[9,27],[21,40],[7,36],[-21,62],[-24,40],[7,28],[18,17],[8,15],[-23,31],[-11,25],[-6,31],[20,0],[0,13],[-11,0],[-27,24],[-10,20],[10,19],[38,11],[-3,22],[-15,51],[15,28],[-3,35],[6,27],[17,41],[-10,44],[-34,59],[10,33],[128,59],[128,58],[78,139],[16,5],[64,-32],[34,15],[13,29],[-132,14],[-7,9],[-5,20],[-5,25],[-6,19],[9,64],[3,35],[-4,22],[-7,9],[-8,4],[-8,-5],[-6,-18],[-1,-27],[2,-26],[2,-20],[-2,-7],[-12,-23],[-16,-101],[-11,-23],[-8,-5],[-31,-65],[-165,-70],[-138,50],[-53,-80],[-150,-99],[-72,18],[-14,26],[-13,50],[-13,35],[-30,19],[-24,42],[-21,5],[-10,11],[-5,11],[-6,7],[-5,-3],[-19,-68],[-19,-22],[-181,-27],[-11,34],[9,15],[-3,22],[-14,36],[-8,31],[1,15],[15,26],[-11,7],[-20,31],[-10,7],[-30,-15],[-68,55],[-14,41],[0,12],[3,6],[6,4],[11,-2],[-10,30],[6,14],[3,3],[4,-1],[-5,21],[-6,18],[-7,13],[-5,6],[0,36],[8,23],[8,28],[3,23],[-3,15],[-11,5],[11,41],[47,48],[15,-5],[7,7],[21,37],[7,4],[-3,0],[11,6],[48,56],[45,86],[45,19],[3,10],[4,20],[4,12],[12,12],[5,12],[-2,1],[-2,4],[-2,5],[-2,5],[3,16],[3,12],[3,10],[4,7],[-19,-4],[-11,6],[-4,20],[3,28],[9,13],[48,26],[64,34],[112,60],[13,19],[6,30],[3,34],[3,28],[8,11],[96,-2],[96,-3],[10,20],[-70,47],[-7,20],[6,25],[25,33],[91,51],[91,52],[18,29],[8,22],[0,7],[1,12],[0,14],[1,11],[2,3],[9,7],[3,8],[4,11],[2,13],[3,16],[-20,58],[8,34],[14,17],[73,9],[15,26],[-2,3],[-6,13],[18,29],[-20,20],[-11,21],[-4,32],[6,34],[13,12],[86,18],[30,50],[71,0],[44,43],[69,19],[24,77],[155,0],[3,-92],[13,-49],[32,-156],[21,-57],[69,-107],[13,-45],[12,-62],[13,-55],[34,-44],[15,-34],[15,-12],[15,51],[-7,16],[-32,18],[-8,12],[-3,18],[8,25],[-14,18],[-12,30],[-24,82],[-13,37],[-47,73],[-11,33],[-50,233],[-6,48],[1,19],[604,0],[48,-58],[15,24],[-7,34]],[[2063,4096],[2033,0],[0,-2358],[-224,103],[-1809,2255]]]}