{"objects":{"water":{"type":"GeometryCollection","geometries":[{"type":"MultiPolygon","properties":{"source":"naturalearthdata.com","kind":"ocean","area":989871000000000,"sort_rank":200,"min_zoom":0,"id":1},"arcs":[[[0]],[[1]],[[2]],[[3]]]},{"type":"MultiLineString","properties":{"source":"naturalearthdata.com","kind":"ocean","sort_rank":205,"boundary":true,"min_zoom":0,"id":515},"arcs":[[4],[5],[6],[7]]}]},"buildings":{"type":"GeometryCollection","geometries":[]},"places":{"type":"GeometryCollection","geometries":[]},"transit":{"type":"GeometryCollection","geometries":[]},"pois":{"type":"GeometryCollection","geometries":[]},"boundaries":{"type":"GeometryCollection","geometries":[]},"roads":{"type":"GeometryCollection","geometries":[]},"earth":{"type":"GeometryCollection","geometries":[{"type":"MultiPolygon","properties":{"sort_rank":10,"source":"naturalearthdata.com","min_zoom":0,"kind":"earth","area":44884805284559},"arcs":[[[8]]]}]},"landuse":{"type":"GeometryCollection","geometries":[]}},"type":"Topology","transform":{"translate":[-67.5,76.8408164144],"scale":[0.002746582,0.0005689742]},"arcs":[[[0,4037],[0,59],[591,0],[-4,-8],[-8,-27],[6,-5],[5,-14],[11,-6],[23,2],[-12,-16],[-93,3],[10,-9],[10,-2],[9,-8],[6,-29],[-50,-2],[-26,24],[-30,-22],[-17,3],[-7,7],[1,15],[-1,-2],[2,26],[1,12],[-13,9],[-39,-9],[-6,-5],[-10,-19],[-7,-1],[-5,8],[-9,24],[-6,5],[-33,-1],[-11,-14],[-21,-39],[-11,-9],[-9,15],[14,20],[14,28],[-18,-8],[-32,-52],[-18,-13],[2,15],[2,14],[2,11],[2,8],[-8,26],[-11,15],[-7,-3],[3,-25],[-11,-27],[-14,-13],[-13,7],[-11,33],[2,2],[3,7],[2,3],[-5,18],[-4,2],[-4,-6],[-4,-3],[-12,11],[-6,0],[-5,-11],[3,-11],[-3,-2],[-7,-10],[9,-12],[3,-8],[2,-16],[-18,-5],[-99,40]],[[0,3982],[0,37],[3,-8],[3,-5],[3,-10],[0,-14],[-6,-2],[-3,2]],[[0,953],[0,272],[91,65],[13,21],[10,35],[13,58],[3,29],[-7,14],[8,14],[106,22],[46,50],[22,11],[-8,-23],[-11,-24],[-3,-22],[14,-15],[26,4],[5,-10],[6,-18],[36,-42],[74,-28],[8,-13],[6,-19],[-1,-15],[-7,-12],[-13,-16],[39,4],[11,-16],[-7,-7],[-13,-4],[-5,-13],[6,-17],[8,-11],[17,-8],[3,-5],[5,-27],[3,-10],[6,-9],[11,-9],[6,-12],[-12,-16],[-3,-8],[2,-4],[8,-20],[-21,-58],[-28,-15],[-140,12],[-28,-24],[24,-62],[-2,-10],[6,-14],[14,-58],[18,-41],[20,-32],[73,-18],[16,-41],[-10,-14],[-13,-2],[-89,48],[-97,136],[-121,24],[-121,24],[-23,-1]],[[0,586],[0,45],[150,-38],[164,-43],[170,79],[-10,-40],[-17,-21],[-69,-20],[-6,-15],[4,-18],[21,-19],[7,-12],[-18,-3],[-35,34],[-161,-7],[-29,29],[-19,-5],[-145,52],[-7,2]],[[591,4096],[-4,-8],[-8,-27],[6,-5],[5,-14],[11,-6],[23,2],[-12,-16],[-93,3],[10,-9],[10,-2],[9,-8],[6,-29],[-50,-2],[-26,24],[-30,-22],[-17,3],[-7,7],[1,15],[-1,-2],[2,26],[1,12],[-13,9],[-39,-9],[-6,-5],[-10,-19],[-7,-1],[-5,8],[-9,24],[-6,5],[-33,-1],[-11,-14],[-21,-39],[-11,-9],[-9,15],[14,20],[14,28],[-18,-8],[-32,-52],[-18,-13],[2,15],[2,14],[2,11],[2,8],[-8,26],[-11,15],[-7,-3],[3,-25],[-11,-27],[-14,-13],[-13,7],[-11,33],[2,2],[3,7],[2,3],[-5,18],[-4,2],[-4,-6],[-4,-3],[-12,11],[-6,0],[-5,-11],[3,-11],[-3,-2],[-7,-10],[9,-12],[3,-8],[2,-16],[-18,-5],[-99,40]],[[0,4019],[3,-8],[3,-5],[3,-10],[0,-14],[-6,-2],[-3,2]],[[0,1225],[91,65],[13,21],[10,35],[13,58],[3,29],[-7,14],[8,14],[106,22],[46,50],[22,11],[-8,-23],[-11,-24],[-3,-22],[14,-15],[26,4],[5,-10],[6,-18],[36,-42],[74,-28],[8,-13],[6,-19],[-1,-15],[-7,-12],[-13,-16],[39,4],[11,-16],[-7,-7],[-13,-4],[-5,-13],[6,-17],[8,-11],[17,-8],[3,-5],[5,-27],[3,-10],[6,-9],[11,-9],[6,-12],[-12,-16],[-3,-8],[2,-4],[8,-20],[-21,-58],[-28,-15],[-140,12],[-28,-24],[24,-62],[-2,-10],[6,-14],[14,-58],[18,-41],[20,-32],[73,-18],[16,-41],[-10,-14],[-13,-2],[-89,48],[-97,136],[-121,24],[-121,24],[-23,-1]],[[0,631],[150,-38],[164,-43],[170,79],[-10,-40],[-17,-21],[-69,-20],[-6,-15],[4,-18],[21,-19],[7,-12],[-18,-3],[-35,34],[-161,-7],[-29,29],[-19,-5],[-145,52],[-7,2]],[[591,4096],[3505,0],[0,-4096],[-4096,0],[0,586],[7,-2],[145,-52],[19,5],[29,-29],[161,7],[35,-34],[18,3],[-7,12],[-21,19],[-4,18],[6,15],[69,20],[17,21],[10,40],[-170,-79],[-164,43],[-150,38],[0,322],[23,1],[121,-24],[121,-24],[97,-136],[89,-48],[13,2],[10,14],[-16,41],[-73,18],[-20,32],[-18,41],[-14,58],[-6,14],[2,10],[-24,62],[28,24],[140,-12],[28,15],[21,58],[-8,20],[-2,4],[3,8],[12,16],[-6,12],[-11,9],[-6,9],[-3,10],[-5,27],[-3,5],[-17,8],[-8,11],[-6,17],[5,13],[13,4],[7,7],[-11,16],[-39,-4],[13,16],[7,12],[1,15],[-6,19],[-8,13],[-74,28],[-36,42],[-6,18],[-5,10],[-26,-4],[-14,15],[3,22],[11,24],[8,23],[-22,-11],[-46,-50],[-106,-22],[-8,-14],[7,-14],[-3,-29],[-13,-58],[-10,-35],[-13,-21],[-91,-65],[0,2757],[3,-2],[6,2],[0,14],[-3,10],[-3,5],[-3,8],[0,18],[99,-40],[18,5],[-2,16],[-3,8],[-9,12],[7,10],[3,2],[-3,11],[5,11],[6,0],[12,-11],[4,3],[4,6],[4,-2],[5,-18],[-2,-3],[-3,-7],[-2,-2],[11,-33],[13,-7],[14,13],[11,27],[-3,25],[7,3],[11,-15],[8,-26],[-2,-8],[-2,-11],[-2,-14],[-2,-15],[18,13],[32,52],[18,8],[-14,-28],[-14,-20],[9,-15],[11,9],[21,39],[11,14],[33,1],[6,-5],[9,-24],[5,-8],[7,1],[10,19],[6,5],[39,9],[13,-9],[-1,-12],[-2,-26],[1,2],[-1,-15],[7,-7],[17,-3],[30,22],[26,-24],[50,2],[-6,29],[-9,8],[-10,2],[-10,9],[93,-3],[12,16],[-23,-2],[-11,6],[-5,14],[-6,5],[8,27],[4,8]]]}