{"objects":{"water":{"type":"GeometryCollection","geometries":[{"type":"MultiPolygon","properties":{"source":"naturalearthdata.com","kind":"ocean","area":989871000000000,"sort_rank":200,"min_zoom":0,"id":1},"arcs":[[[0],[1]]]},{"type":"MultiLineString","properties":{"source":"naturalearthdata.com","kind":"ocean","sort_rank":205,"boundary":true,"min_zoom":0,"id":515},"arcs":[[2],[3],[4],[5],[6],[7],[8]]},{"type":"LineString","properties":{"source":"naturalearthdata.com","kind":"ocean","sort_rank":205,"boundary":true,"min_zoom":0,"id":1506},"arcs":[9]}]},"buildings":{"type":"GeometryCollection","geometries":[]},"places":{"type":"GeometryCollection","geometries":[]},"transit":{"type":"GeometryCollection","geometries":[]},"pois":{"type":"GeometryCollection","geometries":[]},"boundaries":{"type":"GeometryCollection","geometries":[]},"roads":{"type":"GeometryCollection","geometries":[]},"earth":{"type":"GeometryCollection","geometries":[{"type":"MultiPolygon","properties":{"sort_rank":10,"source":"naturalearthdata.com","kind":"earth","min_zoom":4.0,"area":112145940633},"arcs":[[[10]]]},{"type":"MultiPolygon","properties":{"sort_rank":10,"source":"naturalearthdata.com","min_zoom":0,"kind":"earth","area":44884805284559},"arcs":[[[11]],[[12]],[[13]],[[14]],[[15]],[[16]],[[17]]]}]},"landuse":{"type":"GeometryCollection","geometries":[]}},"type":"Topology","transform":{"translate":[-67.5,74.0195433115],"scale":[0.002746582,0.0006887874]},"arcs":[[[4096,33],[0,-33],[-4096,0],[0,2899],[23,-6],[124,-33],[17,-20],[8,-5],[32,4],[70,-24],[66,-61],[28,-10],[14,21],[-6,6],[-7,28],[-4,6],[-8,5],[-15,20],[-20,14],[-27,41],[-21,14],[-16,21],[-89,49],[-9,25],[9,12],[5,8],[4,10],[-8,36],[-9,19],[-11,9],[-80,25],[3,16],[1,7],[3,7],[-2,9],[16,20],[35,-6],[17,7],[0,11],[-8,4],[-4,4],[-3,6],[-4,9],[1,7],[5,8],[7,17],[10,12],[18,12],[44,-1],[22,-14],[19,-26],[3,-27],[16,-8],[33,6],[-5,-18],[-9,-16],[-10,-12],[-8,-4],[8,-27],[13,-11],[15,-6],[11,-11],[17,-30],[6,-4],[4,-6],[8,-28],[5,-6],[39,-14],[11,14],[6,24],[-1,21],[-7,17],[-8,17],[12,17],[14,1],[7,6],[-13,35],[34,27],[15,23],[4,41],[2,0],[-1,36],[11,12],[14,-4],[25,-28],[17,-6],[103,27],[36,-16],[32,-42],[-9,-12],[-71,-26],[4,-14],[9,-6],[17,-1],[-4,-18],[-6,0],[-7,4],[-6,-6],[-1,-13],[2,-31],[-1,-15],[-9,-23],[-29,-12],[-11,-25],[10,-14],[32,-16],[6,-6],[11,-19],[6,-4],[24,0],[-2,-18],[-2,-7],[-3,-6],[112,-20],[-3,34],[7,10],[10,6],[6,21],[-2,22],[-20,66],[15,20],[-3,10],[-4,7],[-4,3],[-4,0],[6,18],[39,12],[11,-4],[1,-16],[-12,-50],[27,-8],[35,10],[5,-3],[10,-18],[9,-21],[5,-3],[5,6],[1,7],[-2,11],[-1,5],[0,14],[-3,17],[-11,25],[-3,18],[63,-2],[19,-23],[18,-30],[19,-20],[19,-4],[19,19],[-32,31],[-5,24],[5,17],[11,-4],[18,-18],[10,7],[-2,13],[-9,14],[-16,14],[-8,19],[-6,26],[-1,27],[7,27],[10,3],[10,-9],[24,-39],[5,-1],[11,8],[15,-15],[8,6],[6,13],[9,7],[8,10],[3,22],[-1,21],[-7,7],[2,4],[3,11],[2,4],[-5,19],[-11,26],[-4,15],[39,5],[56,-44],[0,-11],[-6,0],[-5,-4],[-5,-10],[-4,-15],[4,1],[3,-3],[1,-7],[2,-12],[-3,-5],[-3,-7],[-4,-18],[12,-70],[15,-57],[19,-38],[24,-14],[80,33],[20,27],[4,2],[3,-2],[3,1],[2,9],[-1,8],[-3,6],[-3,4],[-3,2],[8,19],[21,9],[8,12],[6,17],[9,36],[5,16],[28,54],[12,42],[-5,44],[6,7],[1,4],[1,-1],[40,0],[9,-4],[19,-21],[9,-5],[34,9],[21,-27],[22,-2],[74,-56],[11,-34],[-2,-18],[-10,-20],[0,-22],[5,-15],[22,-23],[-5,-21],[7,-1],[6,6],[10,16],[0,9],[-18,29],[15,27],[57,15],[67,-34],[8,1],[6,33],[7,12],[13,13],[13,7],[16,-6],[16,-15],[12,-23],[-13,-24],[-5,-6],[11,-24],[18,2],[34,22],[31,1],[13,-13],[12,-32],[6,-9],[28,4],[7,-3],[36,-29],[64,-18],[23,16],[65,-6],[49,-34],[16,-4],[31,21],[19,0],[19,-11],[15,-21],[-7,-8],[-3,-16],[3,-14],[7,-3],[-6,-18],[-17,-11],[-5,-20],[30,0],[-1,-9],[-4,-31],[8,0],[-3,-22],[-2,-8],[5,-8],[13,-3],[6,-13],[4,-16],[3,-7],[5,-3],[5,0],[4,2],[10,18],[17,17],[9,18],[13,4],[6,6],[3,10],[6,21],[3,4],[8,-1],[10,-5],[7,-15],[-2,-29],[122,-2],[13,-28],[-7,-5],[-3,-6],[-1,0],[-4,-13],[-3,-15],[25,-20],[23,-1],[7,-9],[-10,-41],[8,-12],[10,-6],[19,-1],[-1,21],[8,7],[18,1],[24,37],[9,4],[8,-4],[7,-9],[26,-52],[18,-15],[-7,-20],[-24,-8],[-10,-17],[-7,-19],[-19,-29],[-7,-16],[-7,-33],[5,-18],[10,-8],[18,0],[4,3],[4,7],[8,23],[4,7],[4,-1],[2,-15],[5,-8],[9,15],[16,37],[12,17],[12,10],[85,19],[32,-9],[16,-46],[-31,-8],[-16,-13],[-13,-19],[17,3],[8,-5],[5,-18],[0,-25],[-6,-11],[-16,-14],[13,-10],[14,1],[27,22],[13,0],[11,-18],[4,-28],[-10,-26],[5,-8],[3,-2],[-5,-11],[13,-14],[89,26],[30,23],[97,-6],[15,-18],[-8,-24],[-13,-3],[-24,6],[-9,-5],[-9,-13],[-6,-18],[4,-23],[10,-14],[13,-7],[14,-1],[38,17],[15,-5],[10,-20],[-30,-52],[-8,-22],[-4,-38],[11,-13],[59,-19],[16,-14],[9,-21],[-1,-28],[-6,-23],[-8,-20],[-5,-18],[3,-16],[2,-5],[-12,-11],[-40,2],[-10,-6],[-15,-28],[-11,-7],[-29,-4],[-48,-43],[-10,-15],[-5,-27],[66,-1],[8,10],[7,26],[17,38],[23,18],[24,1],[20,-12],[-11,-22],[-25,-18],[-7,-30],[12,-12],[6,-8],[5,-10],[-12,-16],[-6,-3],[-7,-1],[-14,8],[-7,-1],[-4,-16],[5,-22],[13,-23],[24,-25],[-2,-15],[0,-5],[21,-19],[9,-17],[2,-24],[26,-21],[57,2],[27,-26],[6,-24],[-7,-18],[-69,-62],[11,-10],[5,-7],[4,-13],[-18,2],[-7,-8],[-5,-24],[6,-22],[8,-8],[8,3],[15,15],[31,1],[24,-13],[5,-11],[5,-24],[12,-10],[55,0],[11,-8],[41,-50],[47,-23],[9,-10],[3,-18],[4,-5],[15,-4],[3,-7],[4,-28],[9,-10],[77,24],[9,-3],[15,-22],[8,-5],[-2,-51],[5,-20],[48,-9],[13,-17],[8,-33],[-18,-4],[-8,-7],[-13,-20],[-11,-5],[-4,-4],[-5,-9],[-2,-10],[-3,-8],[-5,-3],[-11,3],[-11,7],[-9,14],[-8,21],[-8,6],[-11,-10],[-17,-30],[17,-11],[5,0],[-1,-13],[-2,-11],[-3,-9],[-4,-7],[25,12],[13,-1],[7,-20],[-4,-3],[-4,-6],[-3,-9],[-4,-11],[6,-8],[11,-5],[6,-8],[-5,-10],[5,-18],[8,-8],[8,4],[7,34],[10,11],[17,8],[8,-6],[12,-26],[7,-9],[14,-6],[3,-9],[-5,-15],[24,-26],[84,6],[0,-9],[-10,-24],[-12,-13],[-26,-14],[5,-19],[7,-10],[21,-16],[12,-2],[5,-7],[13,-22],[3,-3],[63,12],[0,-42],[-2,-4],[-2,-26],[4,-11],[0,-33],[-17,4],[-115,-49],[-67,0],[0,-10],[14,1],[71,-59],[7,5],[7,8],[8,5],[92,-7],[0,-62],[-92,-2],[-29,-26],[-33,10],[-15,-12],[13,-20],[14,-8],[39,-6],[-1,-12],[-17,-35],[77,30],[25,-10],[-7,-27],[-103,-62],[2,-3],[3,-11],[3,-6],[-6,-7],[-17,-2],[-5,-7],[-10,-19],[-6,-4],[-75,-5],[-34,-35],[-14,-7],[-43,7],[4,-20],[7,-13],[14,-17],[-6,-7],[-9,-1],[-27,18],[-30,-10],[-4,-5],[-4,-13],[-3,-15],[-1,-11],[3,-13],[6,-5],[134,48],[133,47],[111,106],[3,6],[0,-89],[-4,-6],[4,-17],[0,-6],[-5,-21],[-19,-36],[6,-14],[18,6],[0,-35],[-18,-10],[-22,-3],[-16,-13],[-3,-10],[14,1],[4,-6],[0,-15],[11,-13],[30,-3]],[[3998,690],[13,7],[6,18],[-30,11],[5,4],[2,5],[1,10],[-34,28],[-34,13],[-20,-6],[-29,-26],[-129,-30],[-129,-29],[0,-9],[17,-15],[115,-12],[37,22],[133,14],[1,-7],[75,2]],[[0,2899],[23,-6],[124,-33],[17,-20],[8,-5],[32,4],[70,-24],[66,-61],[28,-10],[14,21],[-6,6],[-7,28],[-4,6],[-8,5],[-15,20],[-20,14],[-27,41],[-21,14],[-16,21],[-89,49],[-9,25],[9,12],[5,8],[4,10],[-8,36],[-9,19],[-11,9],[-80,25],[3,16],[1,7],[3,7],[-2,9],[16,20],[35,-6],[17,7],[0,11],[-8,4],[-4,4],[-3,6],[-4,9],[1,7],[5,8],[7,17],[10,12],[18,12],[44,-1],[22,-14],[19,-26],[3,-27],[16,-8],[33,6],[-5,-18],[-9,-16],[-10,-12],[-8,-4],[8,-27],[13,-11],[15,-6],[11,-11],[17,-30],[6,-4],[4,-6],[8,-28],[5,-6],[39,-14],[11,14],[6,24],[-1,21],[-7,17],[-8,17],[12,17],[14,1],[7,6],[-13,35],[34,27],[15,23],[4,41],[2,0],[-1,36],[11,12],[14,-4],[25,-28],[17,-6],[103,27],[36,-16],[32,-42],[-9,-12],[-71,-26],[4,-14],[9,-6],[17,-1],[-4,-18],[-6,0],[-7,4],[-6,-6],[-1,-13],[2,-31],[-1,-15],[-9,-23],[-29,-12],[-11,-25],[10,-14],[32,-16],[6,-6],[11,-19],[6,-4],[24,0],[-2,-18],[-2,-7],[-3,-6],[112,-20],[-3,34],[7,10],[10,6],[6,21],[-2,22],[-20,66],[15,20],[-3,10],[-4,7],[-4,3],[-4,0],[6,18],[39,12],[11,-4],[1,-16],[-12,-50],[27,-8],[35,10],[5,-3],[10,-18],[9,-21],[5,-3],[5,6],[1,7],[-2,11],[-1,5],[0,14],[-3,17],[-11,25],[-3,18],[63,-2],[19,-23],[18,-30],[19,-20],[19,-4],[19,19],[-32,31],[-5,24],[5,17],[11,-4],[18,-18],[10,7],[-2,13],[-9,14],[-16,14],[-8,19],[-6,26],[-1,27],[7,27],[10,3],[10,-9],[24,-39],[5,-1],[11,8],[15,-15],[8,6],[6,13],[9,7],[8,10],[3,22],[-1,21],[-7,7],[2,4],[3,11],[2,4],[-5,19],[-11,26],[-4,15],[39,5],[56,-44],[0,-11],[-6,0],[-5,-4],[-5,-10],[-4,-15],[4,1],[3,-3],[1,-7],[2,-12],[-3,-5],[-3,-7],[-4,-18],[12,-70],[15,-57],[19,-38],[24,-14],[80,33],[20,27],[4,2],[3,-2],[3,1],[2,9],[-1,8],[-3,6],[-3,4],[-3,2],[8,19],[21,9],[8,12],[6,17],[9,36],[5,16],[28,54],[12,42],[-5,44],[6,7],[1,4],[1,-1],[40,0],[9,-4],[19,-21],[9,-5],[34,9],[21,-27],[22,-2],[74,-56],[11,-34],[-2,-18],[-10,-20],[0,-22],[5,-15],[22,-23],[-5,-21],[7,-1],[6,6],[10,16],[0,9],[-18,29],[15,27],[57,15],[67,-34],[8,1],[6,33],[7,12],[13,13],[13,7],[16,-6],[16,-15],[12,-23],[-13,-24],[-5,-6],[11,-24],[18,2],[34,22],[31,1],[13,-13],[12,-32],[6,-9],[28,4],[7,-3],[36,-29],[64,-18],[23,16],[65,-6],[49,-34],[16,-4],[31,21],[19,0],[19,-11],[15,-21],[-7,-8],[-3,-16],[3,-14],[7,-3],[-6,-18],[-17,-11],[-5,-20],[30,0],[-1,-9],[-4,-31],[8,0],[-3,-22],[-2,-8],[5,-8],[13,-3],[6,-13],[4,-16],[3,-7],[5,-3],[5,0],[4,2],[10,18],[17,17],[9,18],[13,4],[6,6],[3,10],[6,21],[3,4],[8,-1],[10,-5],[7,-15],[-2,-29],[122,-2],[13,-28],[-7,-5],[-3,-6],[-1,0],[-4,-13],[-3,-15],[25,-20],[23,-1],[7,-9],[-10,-41],[8,-12],[10,-6],[19,-1],[-1,21],[8,7],[18,1],[24,37],[9,4],[8,-4],[7,-9],[26,-52],[18,-15],[-7,-20],[-24,-8],[-10,-17],[-7,-19],[-19,-29],[-7,-16],[-7,-33],[5,-18],[10,-8],[18,0],[4,3],[4,7],[8,23],[4,7],[4,-1],[2,-15],[5,-8],[9,15],[16,37],[12,17],[12,10],[85,19],[32,-9],[16,-46],[-31,-8],[-16,-13],[-13,-19],[17,3],[8,-5],[5,-18],[0,-25],[-6,-11],[-16,-14],[13,-10],[14,1],[27,22],[13,0],[11,-18],[4,-28],[-10,-26],[5,-8],[3,-2],[-5,-11],[13,-14],[89,26],[30,23],[97,-6],[15,-18],[-8,-24],[-13,-3],[-24,6],[-9,-5],[-9,-13],[-6,-18],[4,-23],[10,-14],[13,-7],[14,-1],[38,17],[15,-5],[10,-20],[-30,-52],[-8,-22],[-4,-38],[11,-13],[59,-19],[16,-14],[9,-21],[-1,-28],[-6,-23],[-8,-20],[-5,-18],[3,-16],[2,-5],[-12,-11],[-40,2],[-10,-6],[-15,-28],[-11,-7],[-29,-4],[-48,-43],[-10,-15],[-5,-27],[66,-1],[8,10],[7,26],[17,38],[23,18],[24,1],[20,-12],[-11,-22],[-25,-18],[-7,-30],[12,-12],[6,-8],[5,-10],[-12,-16],[-6,-3],[-7,-1],[-14,8],[-7,-1],[-4,-16],[5,-22],[13,-23],[24,-25],[-2,-15],[0,-5],[21,-19],[9,-17],[2,-24],[26,-21],[57,2],[27,-26],[6,-24],[-7,-18],[-69,-62],[11,-10],[5,-7],[4,-13],[-18,2],[-7,-8],[-5,-24],[6,-22],[8,-8],[8,3],[15,15],[31,1],[24,-13],[5,-11],[5,-24],[12,-10],[55,0],[11,-8],[41,-50],[47,-23],[9,-10],[3,-18],[4,-5],[15,-4],[3,-7],[4,-28],[9,-10],[77,24],[9,-3],[15,-22],[8,-5],[-2,-51],[5,-20],[48,-9],[13,-17],[8,-33],[-18,-4],[-8,-7],[-13,-20],[-11,-5],[-4,-4],[-5,-9],[-2,-10],[-3,-8],[-5,-3],[-11,3],[-11,7],[-9,14],[-8,21],[-8,6],[-11,-10],[-17,-30],[17,-11],[5,0],[-1,-13],[-2,-11],[-3,-9],[-4,-7],[25,12],[13,-1],[7,-20],[-4,-3],[-4,-6],[-3,-9],[-4,-11],[6,-8],[11,-5],[6,-8],[-5,-10],[5,-18],[8,-8],[8,4],[7,34],[10,11],[17,8],[8,-6],[12,-26],[7,-9],[14,-6],[3,-9],[-5,-15],[24,-26],[84,6],[0,-9],[-10,-24],[-12,-13],[-26,-14],[5,-19],[7,-10],[21,-16],[12,-2],[5,-7],[13,-22],[3,-3],[63,12]],[[4096,745],[-2,-4],[-2,-26],[4,-11]],[[4096,671],[-17,4],[-115,-49],[-67,0],[0,-10],[14,1],[71,-59],[7,5],[7,8],[8,5],[92,-7]],[[4096,507],[-92,-2],[-29,-26],[-33,10],[-15,-12],[13,-20],[14,-8],[39,-6],[-1,-12],[-17,-35],[77,30],[25,-10],[-7,-27],[-103,-62],[2,-3],[3,-11],[3,-6],[-6,-7],[-17,-2],[-5,-7],[-10,-19],[-6,-4],[-75,-5],[-34,-35],[-14,-7],[-43,7],[4,-20],[7,-13],[14,-17],[-6,-7],[-9,-1],[-27,18],[-30,-10],[-4,-5],[-4,-13],[-3,-15],[-1,-11],[3,-13],[6,-5],[134,48],[133,47],[111,106],[3,6]],[[4096,234],[-4,-6],[4,-17]],[[4096,205],[-5,-21],[-19,-36],[6,-14],[18,6]],[[4096,105],[-18,-10],[-22,-3],[-16,-13],[-3,-10],[14,1],[4,-6],[0,-15],[11,-13],[30,-3]],[[3998,690],[13,7],[6,18],[-30,11],[5,4],[2,5],[1,10],[-34,28],[-34,13],[-20,-6],[-29,-26],[-129,-30],[-129,-29],[0,-9],[17,-15],[115,-12],[37,22],[133,14],[1,-7],[75,2]],[[3998,690],[-75,-2],[-1,7],[-133,-14],[-37,-22],[-115,12],[-17,15],[0,9],[129,29],[129,30],[29,26],[20,6],[34,-13],[34,-28],[-1,-10],[-2,-5],[-5,-4],[30,-11],[-6,-18],[-13,-7]],[[4096,105],[0,-72],[-30,3],[-11,13],[0,15],[-4,6],[-14,-1],[3,10],[16,13],[22,3],[18,10]],[[4096,205],[0,-65],[-18,-6],[-6,14],[19,36],[5,21]],[[4096,234],[0,-23],[-4,17],[4,6]],[[4096,507],[0,-184],[-3,-6],[-111,-106],[-133,-47],[-134,-48],[-6,5],[-3,13],[1,11],[3,15],[4,13],[4,5],[30,10],[27,-18],[9,1],[6,7],[-14,17],[-7,13],[-4,20],[43,-7],[14,7],[34,35],[75,5],[6,4],[10,19],[5,7],[17,2],[6,7],[-3,6],[-3,11],[-2,3],[103,62],[7,27],[-25,10],[-77,-30],[17,35],[1,12],[-39,6],[-14,8],[-13,20],[15,12],[33,-10],[29,26],[92,2]],[[4096,671],[0,-102],[-92,7],[-8,-5],[-7,-8],[-7,-5],[-71,59],[-14,-1],[0,10],[67,0],[115,49],[17,-4]],[[4096,745],[0,-41],[-4,11],[2,26],[2,4]],[[0,2899],[0,1197],[4096,0],[0,-3309],[-63,-12],[-3,3],[-13,22],[-5,7],[-12,2],[-21,16],[-7,10],[-5,19],[26,14],[12,13],[10,24],[0,9],[-84,-6],[-24,26],[5,15],[-3,9],[-14,6],[-7,9],[-12,26],[-8,6],[-17,-8],[-10,-11],[-7,-34],[-8,-4],[-8,8],[-5,18],[5,10],[-6,8],[-11,5],[-6,8],[4,11],[3,9],[4,6],[4,3],[-7,20],[-13,1],[-25,-12],[4,7],[3,9],[2,11],[1,13],[-5,0],[-17,11],[17,30],[11,10],[8,-6],[8,-21],[9,-14],[11,-7],[11,-3],[5,3],[3,8],[2,10],[5,9],[4,4],[11,5],[13,20],[8,7],[18,4],[-8,33],[-13,17],[-48,9],[-5,20],[2,51],[-8,5],[-15,22],[-9,3],[-77,-24],[-9,10],[-4,28],[-3,7],[-15,4],[-4,5],[-3,18],[-9,10],[-47,23],[-41,50],[-11,8],[-55,0],[-12,10],[-5,24],[-5,11],[-24,13],[-31,-1],[-15,-15],[-8,-3],[-8,8],[-6,22],[5,24],[7,8],[18,-2],[-4,13],[-5,7],[-11,10],[69,62],[7,18],[-6,24],[-27,26],[-57,-2],[-26,21],[-2,24],[-9,17],[-21,19],[0,5],[2,15],[-24,25],[-13,23],[-5,22],[4,16],[7,1],[14,-8],[7,1],[6,3],[12,16],[-5,10],[-6,8],[-12,12],[7,30],[25,18],[11,22],[-20,12],[-24,-1],[-23,-18],[-17,-38],[-7,-26],[-8,-10],[-66,1],[5,27],[10,15],[48,43],[29,4],[11,7],[15,28],[10,6],[40,-2],[12,11],[-2,5],[-3,16],[5,18],[8,20],[6,23],[1,28],[-9,21],[-16,14],[-59,19],[-11,13],[4,38],[8,22],[30,52],[-10,20],[-15,5],[-38,-17],[-14,1],[-13,7],[-10,14],[-4,23],[6,18],[9,13],[9,5],[24,-6],[13,3],[8,24],[-15,18],[-97,6],[-30,-23],[-89,-26],[-13,14],[5,11],[-3,2],[-5,8],[10,26],[-4,28],[-11,18],[-13,0],[-27,-22],[-14,-1],[-13,10],[16,14],[6,11],[0,25],[-5,18],[-8,5],[-17,-3],[13,19],[16,13],[31,8],[-16,46],[-32,9],[-85,-19],[-12,-10],[-12,-17],[-16,-37],[-9,-15],[-5,8],[-2,15],[-4,1],[-4,-7],[-8,-23],[-4,-7],[-4,-3],[-18,0],[-10,8],[-5,18],[7,33],[7,16],[19,29],[7,19],[10,17],[24,8],[7,20],[-18,15],[-26,52],[-7,9],[-8,4],[-9,-4],[-24,-37],[-18,-1],[-8,-7],[1,-21],[-19,1],[-10,6],[-8,12],[10,41],[-7,9],[-23,1],[-25,20],[3,15],[4,13],[1,0],[3,6],[7,5],[-13,28],[-122,2],[2,29],[-7,15],[-10,5],[-8,1],[-3,-4],[-1,-2],[-5,-19],[-3,-10],[-6,-6],[-13,-4],[-9,-18],[-17,-17],[-10,-18],[-4,-2],[-5,0],[-5,3],[-3,7],[-4,16],[-6,13],[-13,3],[-5,8],[2,8],[3,22],[-8,0],[2,14],[2,17],[1,9],[-30,0],[5,20],[17,11],[6,18],[-7,3],[-3,14],[3,16],[7,8],[-15,21],[-19,11],[-19,0],[-31,-21],[-16,4],[-49,34],[-65,6],[-23,-16],[-64,18],[-36,29],[-7,3],[-11,-2],[-17,-2],[-6,9],[-12,32],[-13,13],[-31,-1],[-34,-22],[-18,-2],[-11,24],[5,6],[13,24],[-12,23],[-16,15],[-16,6],[-13,-7],[-13,-13],[-7,-12],[-6,-33],[-8,-1],[-67,34],[-57,-15],[-15,-27],[18,-29],[0,-9],[-10,-16],[-6,-6],[-7,1],[5,21],[-22,23],[-5,15],[0,22],[10,20],[2,18],[-11,34],[-74,56],[-22,2],[-21,27],[-34,-9],[-9,5],[-19,21],[-9,4],[-40,0],[-1,1],[-1,-4],[-6,-7],[5,-44],[-12,-42],[-28,-54],[-5,-16],[-9,-36],[-6,-17],[-8,-12],[-21,-9],[-8,-19],[3,-2],[3,-4],[3,-6],[1,-8],[-2,-9],[-3,-1],[-3,2],[-4,-2],[-20,-27],[-80,-33],[-24,14],[-19,38],[-15,57],[-12,70],[4,18],[3,7],[3,5],[-2,12],[-1,7],[-3,3],[-4,-1],[4,15],[5,10],[5,4],[6,0],[0,11],[-56,44],[-39,-5],[4,-15],[11,-26],[5,-19],[-2,-4],[-3,-11],[-2,-4],[7,-7],[1,-21],[-3,-22],[-8,-10],[-9,-7],[-6,-13],[-8,-6],[-15,15],[-11,-8],[-5,1],[-24,39],[-10,9],[-10,-3],[-7,-27],[1,-27],[6,-26],[8,-19],[16,-14],[9,-14],[2,-13],[-10,-7],[-18,18],[-11,4],[-5,-17],[5,-24],[32,-31],[-19,-19],[-19,4],[-19,20],[-18,30],[-19,23],[-63,2],[3,-18],[11,-25],[3,-17],[0,-14],[1,-5],[2,-11],[-1,-7],[-5,-6],[-5,3],[-9,21],[-10,18],[-5,3],[-35,-10],[-27,8],[12,50],[-1,16],[-11,4],[-39,-12],[-6,-18],[4,0],[4,-3],[4,-7],[3,-10],[-15,-20],[20,-66],[2,-22],[-5,-17],[-1,-4],[-10,-6],[-7,-10],[3,-34],[-112,20],[3,6],[2,7],[2,18],[-24,0],[-5,3],[-1,1],[-11,19],[-6,6],[-32,16],[-10,14],[11,25],[29,12],[9,23],[1,15],[-2,31],[1,13],[6,6],[7,-4],[6,0],[4,18],[-17,1],[-9,6],[-4,14],[71,26],[9,12],[-32,42],[-36,16],[-103,-27],[-17,6],[-25,28],[-14,4],[-11,-12],[1,-36],[-2,0],[-4,-41],[-15,-23],[-34,-27],[13,-35],[-7,-6],[-14,-1],[-12,-17],[8,-17],[7,-17],[1,-21],[-6,-24],[-11,-14],[-39,14],[-5,6],[-8,28],[-4,6],[-6,4],[-17,30],[-11,11],[-15,6],[-13,11],[-8,27],[8,4],[10,12],[9,16],[5,18],[-33,-6],[-16,8],[-3,27],[-19,26],[-22,14],[-44,1],[-18,-12],[-10,-12],[-7,-17],[-5,-8],[-1,-7],[4,-9],[3,-6],[4,-4],[8,-4],[0,-11],[-17,-7],[-35,6],[-16,-20],[2,-9],[-3,-7],[-1,-7],[-3,-16],[80,-25],[11,-9],[9,-19],[8,-36],[-4,-10],[-5,-8],[-9,-12],[9,-25],[2,-1],[87,-48],[16,-21],[21,-14],[27,-41],[20,-14],[15,-20],[8,-5],[4,-6],[7,-28],[6,-6],[-14,-21],[-28,10],[-66,61],[-70,24],[-32,-4],[-8,5],[-17,20],[-124,33],[-23,6]]]}