{"objects":{"water":{"type":"GeometryCollection","geometries":[{"type":"Polygon","properties":{"source":"naturalearthdata.com","kind":"ocean","area":990044000000000,"sort_rank":200,"min_zoom":0,"id":1},"arcs":[[0]]},{"type":"MultiLineString","properties":{"source":"naturalearthdata.com","kind":"ocean","sort_rank":205,"boundary":true,"min_zoom":0,"id":222},"arcs":[[1],[2]]}]},"buildings":{"type":"GeometryCollection","geometries":[]},"places":{"type":"GeometryCollection","geometries":[]},"transit":{"type":"GeometryCollection","geometries":[]},"pois":{"type":"GeometryCollection","geometries":[]},"boundaries":{"type":"GeometryCollection","geometries":[]},"roads":{"type":"GeometryCollection","geometries":[]},"earth":{"type":"GeometryCollection","geometries":[{"type":"MultiPolygon","properties":{"sort_rank":10,"source":"naturalearthdata.com","min_zoom":3.0,"kind":"earth","area":87663321458},"arcs":[[[3]]]}]},"landuse":{"type":"GeometryCollection","geometries":[{"type":"MultiPolygon","properties":{"kind":"nature_reserve","protect_class":"4","area":2451986384914,"sort_rank":23,"operator":"Parks Australia","source":"openstreetmap.org","min_zoom":4.0,"tier":2,"id":-8448061},"arcs":[[[4]]]},{"type":"Polygon","properties":{"kind":"nature_reserve","tier":2,"protect_class":"1","area":175281000000,"sort_rank":23,"source":"openstreetmap.org","min_zoom":4.0,"operator":"Parks Australia","id":-8444293},"arcs":[[5]]}]}},"type":"Topology","transform":{"translate":[157.5,-66.5132604431],"scale":[0.0054931641,0.0026212616]},"arcs":[[[4096,4096],[0,-180],[0,-268],[0,-269],[0,-268],[0,-268],[0,-268],[0,-269],[0,-268],[0,-268],[0,-268],[0,-269],[0,-268],[0,-268],[0,-268],[0,-269],[0,-160],[-3173,0],[8,14],[-9,17],[-46,69],[-2,-5],[-1,-15],[6,-17],[-5,-20],[36,-43],[-910,0],[0,4096],[4096,0]],[[876,100],[-2,-5],[-1,-15],[6,-17],[-5,-20],[36,-43]],[[923,0],[8,14],[-9,17],[-46,69]],[[923,0],[-13,0],[-36,43],[5,20],[-6,17],[1,15],[2,5],[46,-69],[9,-17],[-8,-14]],[[198,4096],[1057,0],[-22,-151],[-50,-124],[11,-5],[-54,-104],[-43,-104],[-42,-56],[-25,-47],[-48,-48],[-58,-77],[-78,-61],[-50,-49],[-41,-21],[-49,-38],[-131,-55],[-65,-33],[-23,-4],[-28,-11],[-261,-32],[0,1020]],[[1260,4096],[-9,-66],[-57,-214],[-547,280],[613,0]]]}