{"objects":{"water":{"type":"GeometryCollection","geometries":[{"type":"Polygon","properties":{"source":"naturalearthdata.com","kind":"ocean","area":990044000000000,"sort_rank":200,"min_zoom":0,"id":1},"arcs":[[0],[1],[2],[3]]},{"type":"LineString","properties":{"source":"naturalearthdata.com","kind":"ocean","sort_rank":205,"boundary":true,"min_zoom":0,"id":207},"arcs":[4]},{"type":"LineString","properties":{"source":"naturalearthdata.com","kind":"ocean","sort_rank":205,"boundary":true,"min_zoom":0,"id":209},"arcs":[5]},{"type":"LineString","properties":{"source":"naturalearthdata.com","kind":"ocean","sort_rank":205,"boundary":true,"min_zoom":0,"id":211},"arcs":[6]},{"type":"LineString","properties":{"source":"naturalearthdata.com","kind":"ocean","sort_rank":205,"boundary":true,"min_zoom":0,"id":222},"arcs":[7]},{"type":"LineString","properties":{"source":"naturalearthdata.com","kind":"ocean","sort_rank":205,"boundary":true,"min_zoom":0,"id":1386},"arcs":[8]}]},"buildings":{"type":"GeometryCollection","geometries":[]},"places":{"type":"GeometryCollection","geometries":[]},"transit":{"type":"GeometryCollection","geometries":[]},"pois":{"type":"GeometryCollection","geometries":[]},"boundaries":{"type":"GeometryCollection","geometries":[]},"roads":{"type":"GeometryCollection","geometries":[]},"earth":{"type":"GeometryCollection","geometries":[{"type":"MultiPolygon","properties":{"sort_rank":10,"source":"naturalearthdata.com","min_zoom":3.0,"kind":"earth","area":87663321458},"arcs":[[[9]],[[10]],[[11]],[[12]]]},{"type":"MultiPolygon","properties":{"sort_rank":10,"source":"naturalearthdata.com","min_zoom":0,"kind":"earth","area":198841645716179},"arcs":[[[13]]]}]},"landuse":{"type":"GeometryCollection","geometries":[]}},"type":"Topology","transform":{"translate":[157.5,-74.0195433115],"scale":[0.0054931641,0.0018325886]},"arcs":[[[4096,4096],[0,-154],[0,-384],[0,-384],[0,-383],[0,-384],[0,-384],[0,-383],[0,-384],[0,-384],[0,-383],[0,-384],[0,-105],[-2763,0],[15,9],[14,42],[-17,48],[-25,152],[11,89],[35,12],[23,-4],[21,-103],[1,-116],[17,-53],[37,19],[34,-12],[33,24],[35,48],[-25,57],[-20,21],[26,9],[28,23],[49,4],[104,-10],[54,57],[44,-4],[32,29],[-17,32],[-72,33],[-71,28],[-67,124],[-2,33],[78,-41],[50,-74],[127,14],[64,-4],[32,34],[64,-13],[55,-60],[93,82],[30,94],[24,45],[-3,36],[-101,59],[-82,38],[-36,43],[-36,49],[27,2],[26,-3],[65,-46],[67,-10],[61,-25],[49,-37],[29,20],[15,48],[-5,57],[-24,-14],[-32,-3],[14,157],[35,91],[34,0],[49,-11],[33,55],[-15,67],[-32,77],[-30,101],[-29,-14],[-5,-68],[-16,-33],[-34,27],[-57,38],[-157,129],[-76,42],[-38,8],[-38,49],[-16,44],[-14,48],[-29,38],[-13,24],[-62,21],[-109,59],[-91,17],[-50,-7],[-118,41],[-89,8],[-57,25],[-74,-69],[-79,-3],[-39,12],[-59,65],[-64,107],[-83,-16],[-36,-58],[3,-101],[45,-187],[-1,-29],[-16,-10],[-50,72],[-53,-5],[-37,49],[-70,278],[-38,74],[-32,55],[-81,58],[-15,74],[0,57],[-35,57],[-27,59],[-73,29],[-134,81],[-39,12],[-50,49],[-41,15],[-29,-13],[-50,-53],[0,1522],[910,0],[2,-4],[9,-2],[2,6],[3173,0]],[[1018,3994],[13,-65],[13,-27],[9,-7],[3,33],[0,12],[-5,17],[-6,32],[-15,11],[-12,-6]],[[1309,3525],[10,-5],[16,15],[5,20],[11,31],[-3,16],[-10,30],[-5,20],[-25,37],[-2,-16],[4,-65],[-10,-50],[9,-33]],[[2214,328],[-33,-66],[8,-12],[34,-35],[24,11],[3,20],[18,30],[-13,30],[-19,73],[-8,3],[-12,-15],[-5,-18],[3,-21]],[[1308,3689],[-2,-16],[4,-65],[-10,-50],[9,-33],[10,-5],[16,15],[5,20],[11,31],[-3,16],[-10,30],[-5,20],[-25,37]],[[1051,3957],[-6,32],[-15,11],[-12,-6],[13,-65],[13,-27],[9,-7],[3,33],[0,12],[-5,17]],[[2255,306],[-19,73],[-8,3],[-12,-15],[-5,-18],[3,-21],[-33,-66],[8,-12],[34,-35],[24,11],[3,20],[18,30],[-13,30]],[[910,4096],[2,-4],[9,-2],[2,6]],[[0,2574],[50,53],[29,13],[41,-15],[50,-49],[39,-12],[134,-81],[73,-29],[27,-59],[35,-57],[0,-57],[15,-74],[81,-58],[32,-55],[38,-74],[70,-278],[37,-49],[53,5],[50,-72],[16,10],[1,29],[-45,187],[-3,101],[36,58],[83,16],[64,-107],[59,-65],[39,-12],[79,3],[74,69],[57,-25],[89,-8],[118,-41],[50,7],[91,-17],[109,-59],[62,-21],[13,-24],[29,-38],[14,-48],[16,-44],[38,-49],[38,-8],[76,-42],[157,-129],[57,-38],[34,-27],[16,33],[5,68],[29,14],[30,-101],[32,-77],[15,-67],[-33,-55],[-49,11],[-34,0],[-35,-91],[-14,-157],[32,3],[24,14],[5,-57],[-15,-48],[-29,-20],[-49,37],[-61,25],[-67,10],[-65,46],[-26,3],[-27,-2],[36,-49],[36,-43],[82,-38],[101,-59],[3,-36],[-24,-45],[-30,-94],[-93,-82],[-55,60],[-64,13],[-32,-34],[-64,4],[-127,-14],[-50,74],[-78,41],[2,-33],[67,-124],[71,-28],[72,-33],[17,-32],[-32,-29],[-44,4],[-54,-57],[-104,10],[-49,-4],[-28,-23],[-26,-9],[20,-21],[25,-57],[-35,-48],[-33,-24],[-34,12],[-37,-19],[-17,53],[-1,116],[-21,103],[-23,4],[-35,-12],[-11,-89],[25,-152],[17,-48],[-14,-42],[-15,-9]],[[2247,226],[-24,-11],[-34,35],[-8,12],[33,66],[-3,21],[5,18],[12,15],[8,-3],[19,-73],[13,-30],[-18,-30],[-3,-20]],[[1335,3535],[-16,-15],[-10,5],[-9,33],[10,50],[-4,65],[2,16],[25,-37],[5,-20],[10,-30],[3,-16],[-11,-31],[-5,-20]],[[1056,3928],[-3,-33],[-9,7],[-13,27],[-13,65],[12,6],[15,-11],[6,-32],[5,-17],[0,-12]],[[910,4096],[13,0],[-2,-6],[-9,2],[-2,4]],[[1333,0],[-1333,0],[0,2574],[50,53],[29,13],[41,-15],[50,-49],[39,-12],[134,-81],[73,-29],[27,-59],[35,-57],[0,-57],[15,-74],[81,-58],[32,-55],[38,-74],[70,-278],[37,-49],[53,5],[50,-72],[16,10],[1,29],[-45,187],[-3,101],[36,58],[83,16],[64,-107],[59,-65],[39,-12],[79,3],[74,69],[57,-25],[89,-8],[118,-41],[50,7],[91,-17],[109,-59],[62,-21],[13,-24],[29,-38],[14,-48],[16,-44],[38,-49],[38,-8],[76,-42],[157,-129],[57,-38],[34,-27],[16,33],[5,68],[29,14],[30,-101],[32,-77],[15,-67],[-33,-55],[-49,11],[-34,0],[-35,-91],[-14,-157],[32,3],[24,14],[5,-57],[-15,-48],[-29,-20],[-49,37],[-61,25],[-67,10],[-65,46],[-26,3],[-27,-2],[36,-49],[36,-43],[82,-38],[101,-59],[3,-36],[-24,-45],[-30,-94],[-93,-82],[-55,60],[-64,13],[-32,-34],[-64,4],[-127,-14],[-50,74],[-78,41],[2,-33],[67,-124],[71,-28],[72,-33],[17,-32],[-32,-29],[-44,4],[-54,-57],[-104,10],[-49,-4],[-28,-23],[-26,-9],[20,-21],[25,-57],[-35,-48],[-33,-24],[-34,12],[-37,-19],[-17,53],[-1,116],[-21,103],[-23,4],[-35,-12],[-11,-89],[25,-152],[17,-48],[-14,-42],[-15,-9]]]}