{"objects":{"water":{"type":"GeometryCollection","geometries":[{"type":"Polygon","properties":{"source":"naturalearthdata.com","kind":"ocean","area":990044000000000,"sort_rank":200,"min_zoom":0,"id":1},"arcs":[[0]]},{"type":"LineString","properties":{"source":"naturalearthdata.com","kind":"ocean","sort_rank":205,"boundary":true,"min_zoom":0,"id":1386},"arcs":[1]}]},"buildings":{"type":"GeometryCollection","geometries":[]},"places":{"type":"GeometryCollection","geometries":[]},"transit":{"type":"GeometryCollection","geometries":[]},"pois":{"type":"GeometryCollection","geometries":[]},"boundaries":{"type":"GeometryCollection","geometries":[]},"roads":{"type":"GeometryCollection","geometries":[]},"earth":{"type":"GeometryCollection","geometries":[{"type":"MultiPolygon","properties":{"sort_rank":10,"source":"naturalearthdata.com","min_zoom":0,"kind":"earth","area":198841645716179},"arcs":[[[2]]]}]},"landuse":{"type":"GeometryCollection","geometries":[]}},"type":"Topology","transform":{"translate":[157.5,-82.6762849783],"scale":[0.0054931641,0.0008557008]},"arcs":[[[4096,4096],[0,-328],[0,-822],[0,-822],[0,-821],[0,-822],[0,-481],[-2510,0],[-42,54],[-182,286],[-43,36],[-135,-49],[-134,-78],[-17,-65],[-30,-19],[-67,63],[-247,-10],[-22,96],[230,109],[228,148],[-14,78],[-109,178],[-27,56],[-6,64],[-45,40],[-27,78],[-79,131],[-48,50],[-27,0],[-123,257],[-79,58],[1,82],[11,34],[33,49],[2,101],[-2,240],[-20,7],[-61,64],[-3,70],[45,9],[39,30],[20,28],[-1,65],[-40,44],[-15,62],[15,88],[6,68],[-17,29],[-269,-21],[-90,23],[-2,87],[38,65],[257,240],[37,39],[32,51],[0,95],[-31,58],[-51,-15],[-39,39],[-4,81],[71,62],[15,53],[-4,66],[-44,3],[-19,55],[16,28],[26,8],[80,149],[4,80],[-19,66],[-15,118],[14,35],[3539,0]],[[557,4096],[-14,-35],[15,-118],[19,-66],[-4,-80],[-80,-149],[-26,-8],[-16,-28],[19,-55],[44,-3],[4,-66],[-15,-53],[-71,-62],[4,-81],[39,-39],[51,15],[31,-58],[0,-95],[-32,-51],[-37,-39],[-257,-240],[-38,-65],[2,-87],[90,-23],[269,21],[17,-29],[-6,-68],[-15,-88],[15,-62],[40,-44],[1,-65],[-20,-28],[-39,-30],[-45,-9],[3,-70],[61,-64],[20,-7],[2,-240],[-2,-101],[-33,-49],[-11,-34],[-1,-82],[79,-58],[123,-257],[27,0],[48,-50],[79,-131],[27,-78],[45,-40],[6,-64],[27,-56],[109,-178],[14,-78],[-228,-148],[-230,-109],[22,-96],[247,10],[67,-63],[30,19],[17,65],[134,78],[135,49],[43,-36],[182,-286],[42,-54]],[[1586,0],[-1586,0],[0,4096],[557,0],[-14,-35],[15,-118],[19,-66],[-4,-80],[-80,-149],[-26,-8],[-16,-28],[19,-55],[44,-3],[4,-66],[-15,-53],[-71,-62],[4,-81],[39,-39],[51,15],[31,-58],[0,-95],[-32,-51],[-37,-39],[-257,-240],[-38,-65],[2,-87],[90,-23],[269,21],[17,-29],[-6,-68],[-15,-88],[15,-62],[40,-44],[1,-65],[-20,-28],[-39,-30],[-45,-9],[3,-70],[61,-64],[20,-7],[2,-240],[-2,-101],[-33,-49],[-11,-34],[-1,-82],[79,-58],[123,-257],[27,0],[48,-50],[79,-131],[27,-78],[45,-40],[6,-64],[27,-56],[109,-178],[14,-78],[-228,-148],[-230,-109],[22,-96],[247,10],[67,-63],[30,19],[17,65],[134,78],[135,49],[43,-36],[182,-286],[42,-54]]]}