{"objects":{"water":{"type":"GeometryCollection","geometries":[{"type":"Polygon","properties":{"source":"naturalearthdata.com","kind":"ocean","area":990044000000000,"sort_rank":200,"min_zoom":0,"id":1},"arcs":[[0]]},{"type":"LineString","properties":{"source":"naturalearthdata.com","kind":"ocean","sort_rank":205,"boundary":true,"min_zoom":0,"id":1386},"arcs":[1]}]},"buildings":{"type":"GeometryCollection","geometries":[]},"places":{"type":"GeometryCollection","geometries":[]},"transit":{"type":"GeometryCollection","geometries":[]},"pois":{"type":"GeometryCollection","geometries":[]},"boundaries":{"type":"GeometryCollection","geometries":[]},"roads":{"type":"GeometryCollection","geometries":[]},"earth":{"type":"GeometryCollection","geometries":[{"type":"MultiPolygon","properties":{"sort_rank":10,"source":"naturalearthdata.com","min_zoom":0,"kind":"earth","area":198841645716179},"arcs":[[[2]]]}]},"landuse":{"type":"GeometryCollection","geometries":[]}},"type":"Topology","transform":{"translate":[157.5,-85.0511287798],"scale":[0.0054931641,0.0005797958]},"arcs":[[[4096,4096],[0,-503],[0,-1212],[0,-1174],[-69,143],[-40,107],[-83,43],[-82,79],[-26,15],[-26,-5],[-114,95],[-304,175],[-56,10],[-51,47],[-25,108],[-32,67],[-217,49],[-29,85],[-48,4],[-95,148],[-77,-4],[-97,54],[-70,108],[-45,45],[-12,138],[-34,46],[-40,22],[-88,-74],[-90,137],[-314,64],[-49,79],[-34,76],[3,70],[28,-19],[27,-1],[48,23],[15,33],[16,96],[13,49],[23,106],[-60,135],[-34,21],[-48,-96],[-41,-29],[-36,84],[-19,22],[-12,58],[7,126],[-28,134],[-29,64],[-40,13],[-53,60],[-43,79],[2510,0]],[[1586,4096],[43,-79],[53,-60],[40,-13],[29,-64],[28,-134],[-7,-126],[12,-58],[19,-22],[36,-84],[41,29],[48,96],[34,-21],[60,-135],[-23,-106],[-13,-49],[-16,-96],[-15,-33],[-48,-23],[-27,1],[-28,19],[-3,-70],[34,-76],[49,-79],[314,-64],[90,-137],[88,74],[40,-22],[34,-46],[12,-138],[45,-45],[70,-108],[97,-54],[77,4],[95,-148],[48,-4],[29,-85],[217,-49],[32,-67],[25,-108],[51,-47],[56,-10],[304,-175],[114,-95],[26,5],[26,-15],[82,-79],[83,-43],[40,-107],[69,-143]],[[0,0],[0,4096],[1586,0],[43,-79],[53,-60],[40,-13],[29,-64],[28,-134],[-7,-126],[12,-58],[19,-22],[36,-84],[41,29],[48,96],[34,-21],[60,-135],[-23,-106],[-13,-49],[-16,-96],[-15,-33],[-48,-23],[-27,1],[-28,19],[-3,-70],[34,-76],[49,-79],[314,-64],[90,-137],[88,74],[40,-22],[34,-46],[12,-138],[45,-45],[70,-108],[97,-54],[77,4],[95,-148],[48,-4],[29,-85],[217,-49],[32,-67],[25,-108],[51,-47],[56,-10],[304,-175],[114,-95],[26,5],[26,-15],[82,-79],[83,-43],[40,-107],[69,-143],[0,-1207],[-4096,0]]]}