{"objects":{"water":{"type":"GeometryCollection","geometries":[{"type":"MultiPolygon","properties":{"source":"naturalearthdata.com","kind":"ocean","area":990044000000000,"sort_rank":200,"min_zoom":0,"id":1},"arcs":[[[0]],[[1],[2]]]},{"type":"LineString","properties":{"source":"naturalearthdata.com","kind":"ocean","sort_rank":205,"boundary":true,"min_zoom":0,"id":688},"arcs":[3]},{"type":"MultiLineString","properties":{"source":"naturalearthdata.com","kind":"ocean","sort_rank":205,"boundary":true,"min_zoom":0,"id":1388},"arcs":[[4],[5]]}]},"buildings":{"type":"GeometryCollection","geometries":[]},"places":{"type":"GeometryCollection","geometries":[]},"transit":{"type":"GeometryCollection","geometries":[]},"pois":{"type":"GeometryCollection","geometries":[]},"boundaries":{"type":"GeometryCollection","geometries":[]},"roads":{"type":"GeometryCollection","geometries":[]},"earth":{"type":"GeometryCollection","geometries":[{"type":"MultiPolygon","properties":{"sort_rank":10,"source":"naturalearthdata.com","kind":"earth","min_zoom":2.0,"area":650942670114},"arcs":[[[6]]]},{"type":"MultiPolygon","properties":{"sort_rank":10,"source":"naturalearthdata.com","min_zoom":0,"kind":"earth","area":158482837729342},"arcs":[[[7]]]}]},"landuse":{"type":"GeometryCollection","geometries":[{"type":"MultiPolygon","properties":{"kind":"nature_reserve","protect_class":"7","area":476554318953,"sort_rank":23,"source":"openstreetmap.org","min_zoom":4.0,"tier":2,"id":-5637990},"arcs":[[[8]]]},{"type":"MultiPolygon","properties":{"kind":"nature_reserve","protect_class":"1","area":3380599052966,"sort_rank":23,"source":"openstreetmap.org","min_zoom":4.0,"tier":2,"id":-9349959},"arcs":[[[9]],[[10]],[[11]]]}]}},"type":"Topology","transform":{"translate":[157.5,55.7765730187],"scale":[0.0054931641,0.0026212616]},"arcs":[[[0,791],[0,1506],[54,-1],[50,-16],[15,4],[33,24],[39,-6],[50,15],[46,28],[21,2],[19,-6],[23,-40],[13,-10],[11,-24],[31,15],[83,55],[10,1],[13,-4],[3,-21],[-1,-18],[-13,-55],[-15,-42],[-42,-82],[-9,-12],[5,-22],[7,-40],[-21,-44],[-8,-22],[17,-5],[22,25],[33,15],[17,-1],[18,-8],[-28,-74],[-4,-38],[-5,-15],[0,-20],[20,11],[15,16],[21,11],[52,6],[27,53],[22,27],[209,220],[38,46],[20,3],[19,-7],[16,1],[4,16],[6,6],[19,-2],[12,-41],[13,-21],[10,4],[7,6],[10,16],[10,13],[11,21],[-9,14],[-36,21],[1,38],[21,60],[-2,40],[8,40],[9,21],[8,9],[8,14],[-10,31],[8,21],[8,15],[168,56],[29,3],[28,-11],[41,-40],[45,-21],[65,-8],[3,-18],[-25,6],[-12,-6],[2,-16],[-3,-12],[-15,14],[-43,8],[-40,16],[-13,-1],[-56,-48],[-15,-20],[-24,-95],[-1,-65],[-9,-62],[-25,-27],[-8,-31],[-6,-37],[30,-16],[4,-12],[2,-17],[-20,-40],[-50,-49],[-5,-10],[-7,-23],[28,-41],[-22,-15],[-22,-11],[-21,-18],[-69,-7],[-47,-47],[-81,-47],[-36,-27],[-12,-17],[-29,-72],[-17,-31],[-55,-47],[-42,-70],[-66,-83],[-26,-10],[-30,-20],[-36,-59],[-92,-102],[-46,-123],[-26,-41],[-26,-33],[-18,-35],[-31,-36],[-64,-54],[-43,-46],[-24,-30],[-8,-28],[-12,6],[-43,-15],[-56,13],[-30,-65]],[[4096,0],[-3300,0],[9,24],[30,95],[11,15],[34,23],[23,18],[12,10],[-7,52],[18,22],[15,13],[38,-5],[12,12],[17,5],[-11,-27],[-15,-19],[-33,-27],[-15,-37],[38,-64],[24,-12],[14,4],[26,36],[13,14],[13,22],[-7,82],[-9,45],[2,47],[-17,14],[-21,6],[-23,-7],[-13,13],[-9,21],[-2,24],[5,57],[-2,30],[-8,54],[0,15],[3,28],[32,46],[28,33],[14,28],[5,19],[2,39],[-14,18],[-78,42],[-12,0],[-24,-16],[-10,-53],[-14,-19],[1,11],[3,13],[-39,19],[-18,17],[-11,17],[-6,24],[-8,37],[16,74],[17,67],[57,100],[34,34],[37,54],[16,9],[7,9],[6,12],[-12,36],[7,9],[6,4],[14,-6],[34,65],[-1,83],[10,71],[8,29],[8,20],[15,20],[15,10],[21,25],[10,19],[6,5],[24,-2],[19,-7],[22,-13],[-4,-33],[25,29],[23,32],[11,6],[16,-4],[26,-25],[20,-47],[14,-12],[18,1],[12,6],[10,32],[2,59],[19,10],[17,4],[24,26],[30,12],[66,46],[43,47],[31,2],[-8,-27],[-2,-26],[-12,-64],[-11,-34],[-6,-42],[2,-22],[7,-27],[16,2],[11,7],[22,28],[93,137],[48,38],[72,24],[22,16],[71,24],[60,7],[37,-11],[22,0],[80,13],[9,-15],[62,-46],[36,-66],[7,-5],[6,-13],[2,-26],[5,-17],[10,-14],[32,-31],[35,-8],[9,17],[5,14],[16,81],[14,32],[0,19],[3,16],[35,24],[27,10],[99,77],[43,45],[19,-2],[16,10],[14,14],[13,6],[26,31],[33,24],[-5,21],[6,20],[18,7],[16,1],[21,23],[-2,17],[8,8],[10,-2],[15,-6],[7,7],[-13,24],[-5,23],[9,13],[36,-24],[14,0],[47,57],[42,61],[36,-14],[58,44],[27,9],[41,2],[18,17],[19,30],[15,-3],[72,36],[14,26],[17,8],[14,2],[32,22],[130,61],[19,25],[49,36],[37,12],[46,9],[5,12],[-33,13],[-8,12],[0,14],[5,11],[6,21],[12,4],[15,-15],[16,1],[7,12],[8,-1],[3,-17],[-8,-19],[-3,-16],[-1,-17],[11,-5],[57,-1],[64,-14],[172,-73],[15,-12],[14,-2],[2,29],[8,28],[21,16],[34,39],[17,28],[0,33],[-11,34],[-24,8],[-14,22],[-8,26],[13,19],[14,7],[-3,27],[-11,16],[-55,35],[-19,24],[-1,21],[-23,54],[-3,-12],[2,-26],[-8,-18],[-12,3],[-1,15],[7,31],[-10,13],[-34,7],[-5,12],[34,17],[10,0],[9,6],[-7,67],[-8,47],[-21,4],[-15,14],[4,29],[1,15],[-18,51],[-12,20],[-15,19],[-12,-21],[-6,-28],[-16,-6],[-17,1],[-48,31],[-46,54],[-5,49],[11,62],[-7,10],[-8,4],[-61,-20],[-38,-33],[-20,-3],[-41,22],[-67,-37],[15,21],[11,8],[13,16],[-9,30],[-10,23],[-14,16],[-21,7],[-20,-15],[-16,-15],[-33,-16],[-63,-14],[-43,0],[-72,-25],[-27,1],[100,36],[54,2],[70,23],[51,45],[67,-41],[23,-5],[50,3],[43,-24],[15,7],[13,22],[-18,32],[-15,21],[-18,6],[-54,-4],[-35,7],[-20,9],[13,9],[39,-13],[46,17],[54,-26],[14,-23],[15,-8],[45,-59],[30,-23],[98,-17],[42,-27],[33,11],[82,57],[55,16],[37,38],[32,43],[31,12],[0,-144],[0,-268],[0,-269],[0,-268],[0,-268],[0,-268],[0,-269],[0,-268],[0,-268],[0,-268],[0,-269],[0,-268],[0,-268],[0,-181]],[[1288,1314],[-11,2],[-57,-50],[-80,-31],[1,-16],[3,-16],[-10,-50],[-28,-60],[-27,-24],[1,-12],[3,-9],[4,-5],[30,35],[59,54],[58,36],[61,18],[9,33],[-6,54],[-10,41]],[[1288,1314],[-11,2],[-57,-50],[-80,-31],[1,-16],[3,-16],[-10,-50],[-28,-60],[-27,-24],[1,-12],[3,-9],[4,-5],[30,35],[59,54],[58,36],[61,18],[9,33],[-6,54],[-10,41]],[[0,2297],[54,-1],[50,-16],[15,4],[33,24],[39,-6],[50,15],[46,28],[21,2],[19,-6],[23,-40],[13,-10],[11,-24],[31,15],[83,55],[10,1],[13,-4],[3,-21],[-1,-18],[-13,-55],[-15,-42],[-42,-82],[-9,-12],[5,-22],[7,-40],[-21,-44],[-8,-22],[17,-5],[22,25],[33,15],[17,-1],[18,-8],[-28,-74],[-4,-38],[-5,-15],[0,-20],[20,11],[15,16],[21,11],[52,6],[27,53],[22,27],[209,220],[38,46],[20,3],[19,-7],[16,1],[4,16],[6,6],[19,-2],[12,-41],[13,-21],[10,4],[7,6],[10,16],[10,13],[11,21],[-9,14],[-36,21],[1,38],[21,60],[-2,40],[8,40],[9,21],[8,9],[8,14],[-10,31],[8,21],[8,15],[168,56],[29,3],[28,-11],[41,-40],[45,-21],[65,-8],[3,-18],[-25,6],[-12,-6],[2,-16],[-3,-12],[-15,14],[-43,8],[-40,16],[-13,-1],[-56,-48],[-15,-20],[-24,-95],[-1,-65],[-9,-62],[-25,-27],[-8,-31],[-6,-37],[30,-16],[4,-12],[2,-17],[-20,-40],[-50,-49],[-5,-10],[-7,-23],[28,-41],[-22,-15],[-22,-11],[-21,-18],[-69,-7],[-47,-47],[-81,-47],[-36,-27],[-12,-17],[-29,-72],[-17,-31],[-55,-47],[-42,-70],[-66,-83],[-26,-10],[-30,-20],[-36,-59],[-92,-102],[-46,-123],[-26,-41],[-26,-33],[-18,-35],[-31,-36],[-64,-54],[-43,-46],[-24,-30],[-8,-28],[-12,6],[-43,-15],[-56,13],[-30,-65]],[[796,0],[9,24],[30,95],[11,15],[34,23],[23,18],[12,10],[-7,52],[18,22],[15,13],[38,-5],[12,12],[17,5],[-11,-27],[-15,-19],[-33,-27],[-15,-37],[38,-64],[24,-12],[14,4],[26,36],[13,14],[13,22],[-7,82],[-9,45],[2,47],[-17,14],[-21,6],[-23,-7],[-13,13],[-9,21],[-2,24],[5,57],[-2,30],[-8,54],[0,15],[3,28],[32,46],[28,33],[14,28],[5,19],[2,39],[-14,18],[-78,42],[-12,0],[-24,-16],[-10,-53],[-14,-19],[1,11],[3,13],[-39,19],[-18,17],[-11,17],[-6,24],[-8,37],[16,74],[17,67],[57,100],[34,34],[37,54],[16,9],[7,9],[6,12],[-12,36],[7,9],[6,4],[14,-6],[34,65],[-1,83],[10,71],[8,29],[8,20],[15,20],[15,10],[21,25],[10,19],[6,5],[24,-2],[19,-7],[22,-13],[-4,-33],[25,29],[23,32],[11,6],[16,-4],[26,-25],[20,-47],[14,-12],[18,1],[12,6],[10,32],[2,59],[19,10],[17,4],[24,26],[30,12],[66,46],[43,47],[31,2],[-8,-27],[-2,-26],[-12,-64],[-11,-34],[-6,-42],[2,-22],[7,-27],[16,2],[11,7],[22,28],[93,137],[48,38],[72,24],[22,16],[71,24],[60,7],[37,-11],[22,0],[80,13],[9,-15],[62,-46],[36,-66],[7,-5],[6,-13],[2,-26],[5,-17],[10,-14],[32,-31],[35,-8],[9,17],[5,14],[16,81],[14,32],[0,19],[3,16],[35,24],[27,10],[99,77],[43,45],[19,-2],[16,10],[14,14],[13,6],[26,31],[33,24],[-5,21],[6,20],[18,7],[16,1],[21,23],[-2,17],[8,8],[10,-2],[15,-6],[7,7],[-13,24],[-5,23],[9,13],[36,-24],[14,0],[47,57],[42,61],[36,-14],[58,44],[27,9],[41,2],[18,17],[19,30],[15,-3],[72,36],[14,26],[17,8],[14,2],[32,22],[130,61],[19,25],[49,36],[37,12],[46,9],[5,12],[-33,13],[-8,12],[0,14],[5,11],[6,21],[12,4],[15,-15],[16,1],[7,12],[8,-1],[3,-17],[-8,-19],[-3,-16],[-1,-17],[11,-5],[57,-1],[64,-14],[172,-73],[15,-12],[14,-2],[2,29],[8,28],[21,16],[34,39],[17,28],[0,33],[-11,34],[-24,8],[-14,22],[-8,26],[13,19],[14,7],[-3,27],[-11,16],[-55,35],[-19,24],[-1,21],[-23,54],[-3,-12],[2,-26],[-8,-18],[-12,3],[-1,15],[7,31],[-10,13],[-34,7],[-5,12],[34,17],[10,0],[9,6],[-7,67],[-8,47],[-21,4],[-15,14],[4,29],[1,15],[-18,51],[-12,20],[-15,19],[-12,-21],[-6,-28],[-16,-6],[-17,1],[-48,31],[-46,54],[-5,49],[11,62],[-7,10],[-8,4],[-61,-20],[-38,-33],[-20,-3],[-41,22],[-67,-37],[15,21],[11,8],[13,16],[-9,30],[-10,23],[-14,16],[-21,7],[-20,-15],[-16,-15],[-33,-16],[-63,-14],[-43,0],[-72,-25],[-27,1],[100,36],[54,2],[70,23],[51,45],[67,-41],[23,-5],[50,3],[43,-24],[15,7],[13,22],[-18,32],[-15,21],[-18,6],[-54,-4],[-35,7],[-20,9],[13,9],[39,-13],[46,17],[54,-26],[14,-23],[15,-8],[45,-59],[30,-23],[98,-17],[42,-27],[33,11],[82,57],[55,16],[37,38],[32,43],[31,12]],[[1117,1078],[-30,-35],[-4,5],[-3,9],[-1,12],[27,24],[28,60],[10,50],[-3,16],[-1,16],[80,31],[57,50],[11,-2],[10,-41],[6,-54],[-9,-33],[-61,-18],[-58,-36],[-59,-54]],[[0,2297],[0,1799],[4096,0],[0,-459],[0,-93],[-31,-12],[-32,-43],[-37,-38],[-55,-16],[-82,-57],[-33,-11],[-42,27],[-98,17],[-30,23],[-45,59],[-15,8],[-14,23],[-54,26],[-46,-17],[-39,13],[-13,-9],[20,-9],[35,-7],[54,4],[18,-6],[15,-21],[18,-32],[-13,-22],[-15,-7],[-43,24],[-50,-3],[-23,5],[-67,41],[-51,-45],[-70,-23],[-54,-2],[-100,-36],[27,-1],[72,25],[43,0],[63,14],[33,16],[16,15],[20,15],[21,-7],[14,-16],[10,-23],[9,-30],[-13,-16],[-11,-8],[-15,-21],[67,37],[41,-22],[20,3],[38,33],[61,20],[8,-4],[7,-10],[-11,-62],[5,-49],[46,-54],[48,-31],[17,-1],[16,6],[6,28],[12,21],[15,-19],[12,-20],[18,-51],[-1,-15],[-4,-29],[15,-14],[21,-4],[8,-47],[7,-67],[-9,-6],[-10,0],[-34,-17],[5,-12],[34,-7],[10,-13],[-7,-31],[1,-15],[12,-3],[8,18],[-2,26],[3,12],[23,-54],[1,-21],[19,-24],[55,-35],[11,-16],[3,-27],[-14,-7],[-13,-19],[8,-26],[14,-22],[24,-8],[11,-34],[0,-33],[-17,-28],[-34,-39],[-21,-16],[-8,-28],[-2,-29],[-14,2],[-15,12],[-172,73],[-64,14],[-57,1],[-11,5],[1,17],[3,16],[8,19],[-3,17],[-8,1],[-7,-12],[-16,-1],[-15,15],[-12,-4],[-6,-21],[-5,-11],[0,-14],[8,-12],[33,-13],[-5,-12],[-46,-9],[-37,-12],[-49,-36],[-19,-25],[-130,-61],[-32,-22],[-14,-2],[-17,-8],[-14,-26],[-72,-36],[-15,3],[-19,-30],[-18,-17],[-41,-2],[-27,-9],[-58,-44],[-36,14],[-42,-61],[-47,-57],[-14,0],[-36,24],[-9,-13],[5,-23],[13,-24],[-7,-7],[-15,6],[-10,2],[-8,-8],[2,-17],[-21,-23],[-16,-1],[-18,-7],[-6,-20],[5,-21],[-33,-24],[-26,-31],[-13,-6],[-14,-14],[-16,-10],[-19,2],[-43,-45],[-99,-77],[-27,-10],[-35,-24],[-3,-16],[0,-19],[-14,-32],[-16,-81],[-5,-14],[-9,-17],[-35,8],[-32,31],[-10,14],[-5,17],[-2,26],[-6,13],[-7,5],[-36,66],[-62,46],[-9,15],[-80,-13],[-22,0],[-37,11],[-60,-7],[-71,-24],[-22,-16],[-72,-24],[-48,-38],[-93,-137],[-22,-28],[-11,-7],[-16,-2],[-7,27],[-2,22],[6,42],[11,34],[12,64],[2,26],[8,27],[-31,-2],[-43,-47],[-66,-46],[-30,-12],[-24,-26],[-17,-4],[-19,-10],[-2,-59],[-10,-32],[-12,-6],[-18,-1],[-14,12],[-20,47],[-26,25],[-16,4],[-11,-6],[-23,-32],[-25,-29],[4,33],[-22,13],[-19,7],[-24,2],[-6,-5],[-10,-19],[-21,-25],[-15,-10],[-15,-20],[-8,-20],[-8,-29],[-10,-71],[1,-83],[-34,-65],[-14,6],[-6,-4],[-7,-9],[12,-36],[-6,-12],[-7,-9],[-16,-9],[-37,-54],[-34,-34],[-57,-100],[-17,-67],[-16,-74],[8,-37],[6,-24],[11,-17],[18,-17],[39,-19],[-3,-13],[-1,-11],[14,19],[10,53],[24,16],[12,0],[78,-42],[14,-18],[-2,-39],[-5,-19],[-14,-28],[-28,-33],[-32,-46],[-3,-28],[0,-15],[8,-54],[2,-30],[-5,-57],[2,-24],[9,-21],[13,-13],[23,7],[21,-6],[17,-14],[-2,-47],[9,-45],[7,-82],[-13,-22],[-13,-14],[-26,-36],[-14,-4],[-24,12],[-38,64],[15,37],[33,27],[15,19],[11,27],[-17,-5],[-12,-12],[-38,5],[-15,-13],[-18,-22],[7,-52],[-12,-10],[-23,-18],[-34,-23],[-11,-15],[-30,-95],[-9,-24],[-796,0],[0,791],[30,65],[56,-13],[43,15],[12,-6],[8,28],[24,30],[43,46],[64,54],[31,36],[18,35],[26,33],[26,41],[46,123],[92,102],[36,59],[30,20],[26,10],[66,83],[42,70],[55,47],[17,31],[29,72],[12,17],[36,27],[81,47],[47,47],[69,7],[21,18],[22,11],[22,15],[-28,41],[7,23],[5,10],[50,49],[20,40],[-2,17],[-4,12],[-30,16],[6,37],[8,31],[25,27],[9,62],[1,65],[24,95],[15,20],[56,48],[13,1],[40,-16],[43,-8],[15,-14],[3,12],[-2,16],[12,6],[25,-6],[-3,18],[-65,8],[-45,21],[-41,40],[-28,11],[-29,-3],[-168,-56],[-8,-15],[-8,-21],[10,-31],[-8,-14],[-8,-9],[-9,-21],[-8,-40],[2,-40],[-21,-60],[-1,-38],[36,-21],[9,-14],[-11,-21],[-10,-13],[-10,-16],[-7,-6],[-10,-4],[-13,21],[-12,41],[-19,2],[-6,-6],[-4,-16],[-16,-1],[-19,7],[-20,-3],[-38,-46],[-209,-220],[-22,-27],[-27,-53],[-52,-6],[-21,-11],[-15,-16],[-20,-11],[0,20],[5,15],[4,38],[28,74],[-18,8],[-17,1],[-33,-15],[-22,-25],[-17,5],[8,22],[21,44],[-7,40],[-5,22],[9,12],[42,82],[15,42],[13,55],[1,18],[-3,21],[-13,4],[-10,-1],[-83,-55],[-31,-15],[-11,24],[-13,10],[-23,40],[-19,6],[-21,-2],[-46,-28],[-50,-15],[-39,6],[-33,-24],[-15,-4],[-50,16],[-54,1]],[[2392,3595],[71,53],[235,57],[-13,-154],[-120,-76],[-25,-22],[19,-12],[-59,-21],[-14,-34],[-4,17],[-52,-9],[-17,29],[-1,22],[24,1],[0,1],[-22,10],[12,94],[-34,44]],[[1662,0],[-215,0],[97,33],[118,-33]],[[1527,1540],[14,84],[67,-9],[46,23],[39,-33],[-80,-101],[-62,-3],[-24,39]],[[1218,2084],[95,103],[140,89],[41,-21],[32,32],[51,-79],[0,-24],[-130,4],[-109,-48],[-38,-142],[-50,18],[-32,68]]]}