{"objects":{"water":{"type":"GeometryCollection","geometries":[{"type":"MultiPolygon","properties":{"source":"naturalearthdata.com","kind":"ocean","area":990044000000000,"sort_rank":200,"min_zoom":0,"id":1},"arcs":[[[0],[1],[2],[3],[4],[5],[6],[7],[8],[9],[10],[11],[12],[13]]]},{"type":"LineString","properties":{"source":"naturalearthdata.com","kind":"ocean","sort_rank":205,"boundary":true,"min_zoom":0,"id":431},"arcs":[14]},{"type":"LineString","properties":{"source":"naturalearthdata.com","kind":"ocean","sort_rank":205,"boundary":true,"min_zoom":0,"id":432},"arcs":[15]},{"type":"LineString","properties":{"source":"naturalearthdata.com","kind":"ocean","sort_rank":205,"boundary":true,"min_zoom":0,"id":1357},"arcs":[16]},{"type":"LineString","properties":{"source":"naturalearthdata.com","kind":"ocean","sort_rank":205,"boundary":true,"min_zoom":0,"id":1358},"arcs":[17]},{"type":"LineString","properties":{"source":"naturalearthdata.com","kind":"ocean","sort_rank":205,"boundary":true,"min_zoom":0,"id":1359},"arcs":[18]},{"type":"LineString","properties":{"source":"naturalearthdata.com","kind":"ocean","sort_rank":205,"boundary":true,"min_zoom":0,"id":1360},"arcs":[19]},{"type":"LineString","properties":{"source":"naturalearthdata.com","kind":"ocean","sort_rank":205,"boundary":true,"min_zoom":0,"id":1361},"arcs":[20]},{"type":"LineString","properties":{"source":"naturalearthdata.com","kind":"ocean","sort_rank":205,"boundary":true,"min_zoom":0,"id":1362},"arcs":[21]},{"type":"LineString","properties":{"source":"naturalearthdata.com","kind":"ocean","sort_rank":205,"boundary":true,"min_zoom":0,"id":1365},"arcs":[22]},{"type":"LineString","properties":{"source":"naturalearthdata.com","kind":"ocean","sort_rank":205,"boundary":true,"min_zoom":0,"id":1366},"arcs":[23]},{"type":"LineString","properties":{"source":"naturalearthdata.com","kind":"ocean","sort_rank":205,"boundary":true,"min_zoom":0,"id":1367},"arcs":[24]},{"type":"LineString","properties":{"source":"naturalearthdata.com","kind":"ocean","sort_rank":205,"boundary":true,"min_zoom":0,"id":1380},"arcs":[25]},{"type":"LineString","properties":{"source":"naturalearthdata.com","kind":"ocean","sort_rank":205,"boundary":true,"min_zoom":0,"id":1415},"arcs":[26]}]},"buildings":{"type":"GeometryCollection","geometries":[]},"places":{"type":"GeometryCollection","geometries":[]},"transit":{"type":"GeometryCollection","geometries":[]},"pois":{"type":"GeometryCollection","geometries":[]},"boundaries":{"type":"GeometryCollection","geometries":[]},"roads":{"type":"GeometryCollection","geometries":[]},"earth":{"type":"GeometryCollection","geometries":[{"type":"MultiPolygon","properties":{"sort_rank":10,"source":"naturalearthdata.com","min_zoom":3.0,"kind":"earth","area":331560690158},"arcs":[[[27]]]}]},"landuse":{"type":"GeometryCollection","geometries":[]}},"type":"Topology","transform":{"translate":[157.5,-0.0],"scale":[0.0054931641,0.0053571889]},"arcs":[[[0,0],[0,4096],[4096,0],[0,-27],[0,-131],[0,-132],[0,-131],[0,-131],[0,-131],[0,-132],[0,-131],[0,-131],[0,-131],[0,-132],[0,-131],[0,-131],[0,-131],[0,-132],[0,-131],[0,-131],[0,-131],[0,-132],[0,-131],[0,-131],[0,-131],[0,-132],[0,-131],[0,-131],[0,-131],[0,-132],[0,-131],[0,-131],[0,-131],[0,-132],[0,-131],[-4096,0]],[[1701,2082],[4,-1],[4,1],[2,2],[-2,1],[-5,-1],[-3,-2]],[[2035,1369],[-1,-2],[8,-4],[18,-2],[3,3],[-14,3],[-14,2]],[[2494,1320],[6,-1],[6,0],[7,3],[11,2],[5,3],[-30,-4],[-23,9],[-9,7],[-3,-3],[11,-9],[19,-7]],[[2566,1310],[3,-2],[9,1],[6,-2],[7,-5],[4,0],[-12,10],[-13,0],[-7,4],[3,-6]],[[145,1298],[-20,4],[-9,-6],[-2,-7],[6,-4],[4,-15],[14,-2],[10,4],[-1,8],[5,7],[-7,11]],[[2201,1083],[5,0],[3,5],[7,20],[10,7],[1,8],[-6,-7],[-9,-6],[-4,-17],[-3,-6],[-4,-4]],[[988,989],[12,-4],[-2,9],[-4,2],[-7,-3],[1,-4]],[[2801,579],[4,-1],[11,6],[-1,3],[0,1],[-14,-9]],[[2790,573],[-9,-7],[-5,0],[4,-4],[13,8],[7,0],[1,4],[-11,-1]],[[2816,352],[10,-12],[-1,5],[-7,9],[-2,3],[-3,4],[-3,2],[-1,-3],[7,-8]],[[2825,322],[-5,-2],[7,1],[3,4],[-1,7],[0,5],[-3,1],[1,-12],[-2,-4]],[[2827,254],[-3,-4],[5,1],[4,0],[8,2],[10,0],[2,1],[0,3],[-3,2],[-2,-1],[-21,-4]],[[2820,191],[2,-6],[2,0],[2,1],[8,-6],[-5,-9],[-13,-14],[4,-1],[13,15],[3,6],[1,5],[-9,7],[-6,2],[-2,0]],[[987,993],[1,-4],[12,-4],[-2,9],[-4,2],[-7,-3]],[[125,1302],[-9,-6],[-2,-7],[6,-4],[4,-15],[14,-2],[10,4],[-1,8],[5,7],[-7,11],[-20,4]],[[2201,1083],[5,0],[3,5],[7,20],[10,7],[1,8],[-6,-7],[-9,-6],[-4,-17],[-3,-6],[-4,-4]],[[2815,588],[-14,-9],[4,-1],[11,6],[-1,3],[0,1]],[[2776,566],[4,-4],[13,8],[7,0],[1,4],[-11,-1],[-9,-7],[-5,0]],[[2818,354],[-2,3],[-3,4],[-3,2],[-1,-3],[7,-8],[10,-12],[-1,5],[-7,9]],[[2829,337],[-3,1],[1,-12],[-2,-4],[-5,-2],[7,1],[3,4],[-1,7],[0,5]],[[2828,189],[-6,2],[-2,0],[2,-6],[2,0],[2,1],[8,-6],[-5,-9],[-13,-14],[4,-1],[13,15],[3,6],[1,5],[-9,7]],[[2035,1369],[-1,-2],[8,-4],[18,-2],[3,3],[-14,3],[-14,2]],[[2595,1302],[-4,0],[-7,5],[-6,2],[-9,-1],[-3,2],[-3,6],[7,-4],[13,0],[12,-10]],[[2529,1327],[-5,-3],[-11,-2],[-7,-3],[-6,0],[-6,1],[-19,7],[-11,9],[3,3],[9,-7],[23,-9],[30,4]],[[2829,251],[-5,-1],[3,4],[21,4],[2,1],[3,-2],[0,-3],[-2,-1],[-10,0],[-8,-2],[-4,0]],[[1709,2085],[-5,-1],[-3,-2],[4,-1],[4,1],[2,2],[-2,1]],[[148,1272],[-10,-4],[-14,2],[-4,15],[-6,4],[2,7],[9,6],[20,-4],[7,-11],[-5,-7],[1,-8]]]}