{"objects":{"water":{"type":"GeometryCollection","geometries":[{"type":"MultiPolygon","properties":{"source":"naturalearthdata.com","kind":"ocean","area":990044000000000,"sort_rank":200,"min_zoom":0,"id":1},"arcs":[[[2],[3]]]},{"type":"LineString","properties":{"source":"naturalearthdata.com","kind":"ocean","sort_rank":205,"boundary":true,"min_zoom":0,"id":61},"arcs":[4]},{"type":"MultiLineString","properties":{"source":"naturalearthdata.com","kind":"ocean","sort_rank":205,"boundary":true,"min_zoom":0,"id":138},"arcs":[[5],[6]]},{"type":"LineString","properties":{"source":"naturalearthdata.com","kind":"ocean","sort_rank":205,"boundary":true,"min_zoom":0,"id":1128},"arcs":[7]},{"type":"LineString","properties":{"source":"naturalearthdata.com","kind":"ocean","sort_rank":205,"boundary":true,"min_zoom":0,"id":1200},"arcs":[8]},{"type":"MultiLineString","properties":{"source":"naturalearthdata.com","kind":"ocean","sort_rank":205,"boundary":true,"min_zoom":0,"id":1201},"arcs":[[9],[10],[11]]},{"type":"Point","properties":{"label_placement":true,"collision_rank":398,"name:sk":"\u010cukotsk\u00e9 more","name:lt":"\u010ciuk\u010di\u0173 j\u016bra","name:ar":"\u0628\u062d\u0631 \u062a\u0634\u0648\u0643\u0634\u064a","name:cs":"\u010cukotsk\u00e9 mo\u0159e","kind":"sea","min_zoom":3.0,"name:sl":"\u010cukotsko morje","name:it":"Mare dei \u010cuk\u010di","name:uk":"\u0427\u0443\u043a\u043e\u0442\u0441\u044c\u043a\u0435 \u043c\u043e\u0440\u0435","name:ru":"\u0427\u0443\u043a\u043e\u0442\u0441\u043a\u043e\u0435 \u043c\u043e\u0440\u0435","name:vi":"Bi\u1ec3n Chukotka","name:pl":"Morze Czukockie","name:hu":"Csukcs-tenger","name:hr":"\u010cukotsko more","id":305640107,"name:fa":"\u062f\u0631\u06cc\u0627\u06cc \u0686\u0648\u06a9\u0686\u06cc","name:eo":"\u0108uk\u0109a Maro","name:en":"Chukchi Sea","name":"\u0427\u0443\u043a\u043e\u0442\u0441\u043a\u043e\u0435 \u043c\u043e\u0440\u0435","source":"openstreetmap.org","sort_rank":200,"name:fi":"T\u0161ukt\u0161imeri","name:de":"Tschuktschensee","alt_name:vi":"Bi\u1ec3n Chukchi","name:fr":"Mer des Tchouktches","wikidata_id":"Q159252","name:be":"\u0427\u0443\u043a\u043e\u0446\u043a\u0430\u0435 \u043c\u043e\u0440\u0430","name:zh":"\u695a\u79d1\u5947\u6d77","name:es":"Mar de Chukotsk"},"coordinates":[546,805]}]},"buildings":{"type":"GeometryCollection","geometries":[]},"places":{"type":"GeometryCollection","geometries":[]},"transit":{"type":"GeometryCollection","geometries":[]},"pois":{"type":"GeometryCollection","geometries":[]},"boundaries":{"type":"GeometryCollection","geometries":[{"type":"LineString","properties":{"sort_rank":262,"kind_detail":"2","kind":"country","min_zoom":0,"source":"naturalearthdata.com"},"arcs":[0]},{"type":"LineString","properties":{"sort_rank":256,"kind_detail":"4","kind":"region","min_zoom":2.0,"source":"naturalearthdata.com"},"arcs":[1]}]},"roads":{"type":"GeometryCollection","geometries":[]},"earth":{"type":"GeometryCollection","geometries":[{"type":"MultiPolygon","properties":{"sort_rank":10,"source":"naturalearthdata.com","min_zoom":0,"kind":"earth","area":608027485394504},"arcs":[[[12]],[[13]],[[14]],[[15]],[[16]],[[17]]]},{"type":"MultiPolygon","properties":{"sort_rank":10,"source":"naturalearthdata.com","min_zoom":3.0,"kind":"earth","area":833312034851},"arcs":[[[18]]]}]},"landuse":{"type":"GeometryCollection","geometries":[]}},"type":"Topology","transform":{"translate":[-180.0,66.5132604431],"scale":[0.0109863281,0.0030903501]},"arcs":[[[3550,0],[0,70],[0,94],[0,95],[0,94],[0,95],[0,94],[0,95],[0,95],[0,94],[0,95],[0,94]],[[4096,159],[-24,0],[-26,0],[-26,0],[-26,0],[-4,3],[-3,7],[-2,17],[0,15],[0,9],[0,6],[6,15],[4,20],[0,5],[-2,16],[-1,7],[-1,6],[-2,9],[0,9],[1,21],[-4,20],[-2,8],[-3,5],[-12,16],[-4,12],[-1,14],[0,94],[0,94],[0,95],[1,89]],[[0,4096],[4096,0],[0,-3137],[-13,-3],[-5,-6],[-3,-8],[-2,-33],[-4,-5],[-18,10],[-11,-15],[-7,6],[-20,-64],[6,-10],[9,-10],[9,-6],[7,-2],[-2,-6],[-9,-2],[-16,0],[-5,-3],[-1,-6],[4,-15],[1,-3],[22,-8],[18,-16],[3,-5],[16,-43],[-3,-3],[-9,3],[-46,45],[-23,16],[-34,4],[-20,-2],[-32,20],[-18,4],[-55,42],[-24,19],[-15,22],[-36,31],[-45,64],[-72,35],[-39,-6],[-41,10],[-13,5],[-7,3],[-19,2],[-5,-6],[-6,2],[-11,20],[-16,18],[-54,32],[-12,23],[-26,30],[-46,27],[-5,-7],[-8,-2],[-19,4],[-16,0],[-29,-15],[-32,-5],[-19,-19],[-52,9],[-4,8],[-18,6],[-35,35],[-21,-1],[-21,9],[-42,2],[-29,-7],[-58,16],[-8,7],[-7,20],[-16,4],[-9,13],[-10,1],[-11,-14],[-10,1],[-19,32],[-14,3],[-39,24],[-13,-3],[-12,7],[-30,-1],[-25,-21],[-11,-3],[-12,3],[-13,15],[-11,6],[-28,-14],[-14,-5],[-9,-10],[-65,11],[11,19],[2,8],[3,8],[-37,-2],[-7,4],[-2,15],[-12,2],[-6,11],[3,26],[18,24],[-6,12],[-17,11],[-16,3],[-11,-4],[-41,18],[-24,-13],[-18,0],[-20,-5],[-25,-24],[-18,12],[-19,3],[-17,15],[5,10],[5,20],[-13,20],[-11,11],[-21,5],[-5,-6],[-8,-21],[-24,-39],[-12,-12],[-15,-8],[-9,3],[-6,19],[-10,9],[31,21],[16,22],[5,19],[-6,20],[-15,2],[-60,33],[-9,16],[6,13],[10,5],[-7,4],[-29,-29],[-17,-29],[-20,-44],[-12,-17],[-26,-32],[-27,-26],[-8,-5],[-45,-2],[-2,-6],[-10,-7],[-34,1],[-7,-10],[-16,-8],[-5,2],[-3,9],[7,11],[7,5],[-1,9],[-4,6],[-7,1],[-34,-30],[-36,-49],[11,-1],[20,-33],[32,-2],[-27,-15],[-12,6],[-2,-14],[-2,-21],[1,-21],[-1,-14],[-4,17],[-17,0],[8,37],[-9,8],[13,31],[-8,6],[-6,2],[-47,-47],[-2,-9],[-31,-37],[-59,-23],[-11,-12],[-21,-10],[-7,-1],[3,4],[11,10],[9,14],[5,3],[-2,6],[-3,4],[-6,14],[-9,-15],[-8,-19],[-25,-43],[-55,-109],[-13,-48],[-4,-50],[-2,-22],[-3,-2],[-1,4],[-4,-16],[-26,-56],[-31,-43],[-25,-25],[-14,-8],[-54,-11],[-14,-6],[-42,-5],[-64,6],[3,-29],[-9,-72],[-9,-48],[-6,-12],[-12,-9],[-7,4],[10,16],[-9,-5],[-13,-16],[19,-12],[15,-4],[16,-10],[25,-39],[52,-36],[115,-142],[17,-42],[13,-67],[7,-24],[17,-30],[48,-25],[22,3],[16,-6],[16,28],[0,-14],[2,-13],[39,10],[22,-10],[9,-13],[-10,-18],[-14,-39],[2,-33],[16,-18],[10,-18],[16,-13],[32,33],[17,6],[20,-21],[26,2],[9,-13],[3,-19],[-140,0],[-13,15],[-13,35],[3,38],[-11,5],[-11,38],[-10,9],[-10,-5],[-12,-12],[6,-29],[7,-22],[13,-1],[12,-13],[25,-58],[-170,0],[1,6],[-6,10],[-5,4],[7,3],[16,-3],[-8,13],[-30,-1],[-37,-8],[-19,-10],[-13,-14],[-553,0],[-3,5],[-20,21],[-20,27],[-19,46],[-20,36],[-22,14],[-22,-3],[-16,9],[-15,11],[-36,13],[1,-11],[38,-18],[6,-8],[-3,-7],[-8,-2],[-29,6],[-9,4],[-8,14],[-4,-2],[-4,-8],[1,-18],[4,-15],[-7,-8],[-8,3],[0,19],[2,15],[9,26],[5,5],[1,6],[-31,12],[-8,8],[-9,4],[-18,-12],[-52,-1],[-9,-4],[0,-9],[3,-5],[8,-3],[8,0],[5,-12],[12,-6],[6,-13],[4,-22],[2,-15],[2,-16],[-5,-29],[-8,-12],[-8,-7],[3,-16],[9,-13],[16,-6],[2,-3],[-53,0],[-2,8],[-10,15],[-5,6],[-18,3],[-5,4],[5,32],[9,20],[-1,43],[-4,14],[-5,13],[-5,30],[0,35],[6,21],[2,26],[-6,19],[-8,10],[-6,-8],[-5,-12],[-3,-3],[-20,-3],[13,29],[-1,24],[-2,15],[-4,11],[-3,25],[-142,143],[-25,18],[-11,15],[-10,7],[-10,-2],[-7,-4],[-4,5],[4,13],[6,4],[-14,22],[-52,58],[-11,8],[8,-15],[39,-46],[6,-13],[-12,-16],[-12,-7],[3,19],[-2,21],[-5,12],[-13,13],[-21,11],[-20,15],[-4,15],[-1,22],[12,-19],[7,-5],[-14,29],[-16,25],[-37,23],[-7,9],[-11,19],[-4,2],[-7,-4],[-19,11],[-18,14],[0,6],[0,323],[0,322],[24,-7],[21,-16],[8,-1],[24,6],[57,25],[42,8],[22,9],[27,32],[3,17],[-3,14],[-5,6],[-21,19],[-15,16],[-7,15],[-7,9],[-7,6],[-13,15],[-8,4],[-40,12],[-10,5],[-11,1],[-13,-8],[-14,-2],[-13,5],[-13,-1],[-14,-9],[-14,-4],[0,149],[0,324],[0,324],[0,323],[0,324],[0,323],[0,324],[0,324],[0,55]],[[3719,1015],[-14,-17],[4,-6],[11,-13],[8,12],[15,4],[-5,9],[-13,10],[-6,1]],[[0,1626],[14,4],[14,9],[13,1],[13,-5],[14,2],[13,8],[11,-1],[10,-5],[40,-12],[8,-4],[13,-15],[7,-6],[7,-9],[7,-15],[15,-16],[21,-19],[5,-6],[3,-14],[-3,-17],[-27,-32],[-22,-9],[-42,-8],[-57,-25],[-24,-6],[-8,1],[-21,16],[-24,7]],[[0,799],[18,-14],[19,-11],[7,4],[4,-2],[11,-19],[7,-9],[37,-23],[16,-25],[14,-29],[-7,5],[-12,19],[1,-22],[4,-15],[20,-15],[21,-11],[13,-13],[5,-12],[2,-21],[-3,-19],[12,7],[12,16],[-6,13],[-39,46],[-8,15],[11,-8],[52,-58],[14,-22],[-6,-4],[-4,-13],[4,-5],[7,4],[10,2],[10,-7],[11,-15],[25,-18],[142,-143],[3,-25],[4,-11],[2,-15],[1,-24],[-13,-29],[20,3],[3,3],[5,12],[6,8],[8,-10],[6,-19],[-2,-26],[-6,-21],[0,-35],[5,-30],[5,-13],[4,-14],[1,-43],[-9,-20],[-5,-32],[5,-4],[18,-3],[5,-6],[10,-15],[2,-8]],[[555,0],[-2,3],[-16,6],[-9,13],[-3,16],[8,7],[8,12],[5,29],[-2,16],[-2,15],[-4,22],[-6,13],[-12,6],[-5,12],[-8,0],[-8,3],[-3,5],[0,9],[9,4],[52,1],[18,12],[9,-4],[8,-8],[31,-12],[-1,-6],[-5,-5],[-9,-26],[-2,-15],[0,-19],[8,-3],[7,8],[-4,15],[-1,18],[4,8],[4,2],[8,-14],[9,-4],[29,-6],[8,2],[3,7],[-6,8],[-38,18],[-1,11],[36,-13],[15,-11],[16,-9],[22,3],[22,-14],[20,-36],[19,-46],[20,-27],[20,-21],[3,-5]],[[3705,998],[4,-6],[11,-13],[8,12],[15,4],[-5,9],[-13,10],[-6,1],[-14,-17]],[[4096,959],[-13,-3],[-5,-6],[-3,-8],[-2,-33],[-4,-5],[-18,10],[-11,-15],[-7,6],[-20,-64],[6,-10],[9,-10],[9,-6],[7,-2],[-2,-6],[-9,-2],[-16,0],[-5,-3],[-1,-6],[4,-15],[1,-3],[22,-8],[18,-16],[3,-5],[16,-43],[-3,-3],[-9,3],[-46,45],[-23,16],[-29,4]],[[3965,771],[-5,0],[-20,-2],[-32,20],[-18,4],[-55,42],[-24,19],[-15,22],[-36,31],[-45,64],[-72,35],[-39,-6],[-41,10],[-13,5],[-7,3],[-19,2],[-5,-6],[-6,2],[-11,20],[-16,18],[-54,32],[-12,23],[-26,30],[-46,27],[-5,-7],[-8,-2],[-19,4],[-16,0],[-29,-15],[-32,-5],[-19,-19],[-52,9],[-4,8],[-18,6],[-35,35],[-21,-1],[-21,9],[-42,2],[-29,-7],[-58,16],[-8,7],[-7,20],[-16,4],[-9,13],[-10,1],[-11,-14],[-10,1],[-19,32],[-14,3],[-39,24],[-13,-3],[-12,7],[-30,-1],[-25,-21],[-11,-3],[-12,3],[-13,15],[-11,6],[-28,-14],[-14,-5],[-9,-10],[-65,11],[11,19],[2,8],[3,8],[-37,-2],[-7,4],[-2,15],[-12,2],[-6,11],[3,26],[18,24],[-6,12],[-17,11],[-16,3],[-11,-4],[-41,18],[-24,-13],[-18,0],[-20,-5],[-25,-24],[-18,12],[-19,3],[-17,15],[5,10],[5,20],[-13,20],[-11,11],[-21,5],[-5,-6],[-8,-21],[-24,-39],[-12,-12],[-15,-8],[-9,3],[-6,19],[-10,9],[31,21],[16,22],[5,19],[-6,20],[-15,2],[-60,33],[-9,16],[6,13],[10,5],[-7,4],[-29,-29],[-17,-29],[-20,-44],[-12,-17],[-26,-32],[-27,-26],[-8,-5],[-45,-2],[-2,-6],[-10,-7],[-34,1],[-7,-10],[-16,-8],[-5,2],[-3,9],[7,11],[7,5],[-1,9],[-4,6],[-7,1],[-34,-30],[-36,-49],[11,-1],[20,-33],[32,-2],[-27,-15],[-12,6],[-2,-14],[-2,-21],[1,-21],[-1,-14],[-4,17],[-17,0],[8,37],[-9,8],[13,31],[-8,6],[-6,2],[-47,-47],[-2,-9],[-31,-37],[-59,-23],[-11,-12],[-21,-10],[-7,-1],[3,4],[11,10],[9,14],[5,3],[-2,6],[-3,4],[-6,14],[-9,-15],[-8,-19],[-25,-43],[-55,-109],[-13,-48],[-4,-50],[-2,-22],[-3,-2],[-1,4],[-4,-16],[-26,-56],[-31,-43],[-25,-25],[-14,-8],[-54,-11],[-14,-6],[-42,-5],[-64,6],[3,-29],[-9,-72],[-9,-48],[-6,-12],[-12,-9],[-7,4],[10,16],[-9,-5],[-13,-16],[19,-12],[15,-4],[16,-10],[25,-39],[52,-36],[115,-142],[17,-42],[13,-67],[7,-24],[17,-30],[48,-25],[22,3],[16,-6],[16,28],[0,-14],[2,-13],[39,10],[22,-10],[9,-13],[-10,-18],[-14,-39],[2,-33],[16,-18],[10,-18],[16,-13],[32,33],[17,6],[20,-21],[26,2],[9,-13],[3,-19]],[[1660,0],[-13,15],[-13,35],[3,38],[-11,5],[-11,38],[-10,9],[-10,-5],[-12,-12],[6,-29],[7,-22],[13,-1],[12,-13],[25,-58]],[[1476,0],[1,6],[-6,10],[-5,4],[7,3],[16,-3],[-8,13],[-30,-1],[-37,-8],[-19,-10],[-13,-14]],[[4096,959],[0,-959],[-2296,0],[-3,19],[-9,13],[-26,-2],[-20,21],[-17,-6],[-32,-33],[-16,13],[-10,18],[-16,18],[-2,33],[14,39],[10,18],[-9,13],[-22,10],[-39,-10],[-2,13],[0,14],[-16,-28],[-16,6],[-22,-3],[-48,25],[-17,30],[-7,24],[-13,67],[-17,42],[-115,142],[-52,36],[-25,39],[-16,10],[-15,4],[-19,12],[13,16],[9,5],[-10,-16],[7,-4],[12,9],[6,12],[9,48],[9,72],[-3,29],[64,-6],[42,5],[14,6],[54,11],[14,8],[25,25],[31,43],[26,56],[4,16],[1,-4],[3,2],[2,22],[4,50],[13,48],[55,109],[25,43],[8,19],[9,15],[6,-14],[3,-4],[2,-6],[-5,-3],[-9,-14],[-11,-10],[-3,-4],[7,1],[21,10],[11,12],[59,23],[31,37],[2,9],[47,47],[6,-2],[8,-6],[-13,-31],[9,-8],[-8,-37],[17,0],[4,-17],[1,14],[-1,21],[2,21],[2,14],[12,-6],[27,15],[-32,2],[-20,33],[-11,1],[36,49],[34,30],[7,-1],[4,-6],[1,-9],[-7,-5],[-7,-11],[3,-9],[5,-2],[16,8],[7,10],[34,-1],[10,7],[2,6],[45,2],[8,5],[27,26],[26,32],[12,17],[20,44],[17,29],[29,29],[7,-4],[-10,-5],[-6,-13],[9,-16],[60,-33],[15,-2],[6,-20],[-5,-19],[-16,-22],[-31,-21],[10,-9],[6,-19],[9,-3],[15,8],[12,12],[24,39],[8,21],[5,6],[21,-5],[11,-11],[13,-20],[-5,-20],[-5,-10],[17,-15],[19,-3],[18,-12],[25,24],[20,5],[18,0],[24,13],[41,-18],[11,4],[16,-3],[17,-11],[6,-12],[-18,-24],[-3,-26],[6,-11],[12,-2],[2,-15],[7,-4],[37,2],[-3,-8],[-2,-8],[-11,-19],[65,-11],[9,10],[14,5],[28,14],[11,-6],[13,-15],[12,-3],[11,3],[25,21],[30,1],[12,-7],[13,3],[39,-24],[14,-3],[19,-32],[10,-1],[11,14],[10,-1],[9,-13],[16,-4],[7,-20],[8,-7],[58,-16],[29,7],[42,-2],[21,-9],[21,1],[35,-35],[18,-6],[4,-8],[52,-9],[19,19],[32,5],[29,15],[16,0],[19,-4],[8,2],[5,7],[46,-27],[26,-30],[12,-23],[54,-32],[16,-18],[11,-20],[6,-2],[5,6],[19,-2],[7,-3],[13,-5],[41,-10],[39,6],[72,-35],[45,-64],[36,-31],[15,-22],[24,-19],[55,-42],[18,-4],[32,-20],[20,2],[34,-4],[23,-16],[46,-45],[9,-3],[3,3],[-16,43],[-3,5],[-18,16],[-22,8],[-1,3],[-4,15],[1,6],[5,3],[16,0],[9,2],[2,6],[-7,2],[-9,6],[-9,10],[-6,10],[20,64],[7,-6],[11,15],[18,-10],[4,5],[2,33],[3,8],[5,6],[13,3]],[[1476,0],[-94,0],[13,14],[19,10],[37,8],[30,1],[8,-13],[-16,3],[-7,-3],[5,-4],[6,-10],[-1,-6]],[[1660,0],[-14,0],[-25,58],[-12,13],[-13,1],[-7,22],[-6,29],[12,12],[10,5],[10,-9],[11,-38],[11,-5],[-3,-38],[13,-35],[13,-15]],[[0,641],[0,79],[0,79],[18,-14],[19,-11],[7,4],[4,-2],[11,-19],[7,-9],[37,-23],[16,-25],[14,-29],[-7,5],[-12,19],[1,-22],[4,-15],[20,-15],[21,-11],[13,-13],[5,-12],[2,-21],[-3,-19],[12,7],[12,16],[-6,13],[-39,46],[-8,15],[11,-8],[52,-58],[14,-22],[-6,-4],[-4,-13],[4,-5],[7,4],[10,2],[10,-7],[11,-15],[25,-18],[142,-143],[3,-25],[4,-11],[2,-15],[1,-24],[-13,-29],[20,3],[3,3],[5,12],[6,8],[8,-10],[6,-19],[-2,-26],[-6,-21],[0,-35],[5,-30],[5,-13],[4,-14],[1,-43],[-9,-20],[-5,-32],[5,-4],[18,-3],[5,-6],[10,-15],[2,-8],[-502,0],[0,7],[0,79],[0,80],[0,79],[0,79],[0,79],[0,80],[0,79],[0,79]],[[829,0],[-274,0],[-2,3],[-16,6],[-9,13],[-3,16],[8,7],[8,12],[5,29],[-2,16],[-2,15],[-4,22],[-6,13],[-12,6],[-5,12],[-8,0],[-8,3],[-3,5],[0,9],[9,4],[52,1],[18,12],[9,-4],[8,-8],[31,-12],[-1,-6],[-5,-5],[-9,-26],[-2,-15],[0,-19],[8,-3],[7,8],[-4,15],[-1,18],[4,8],[4,2],[8,-14],[9,-4],[29,-6],[8,2],[3,7],[-6,8],[-38,18],[-1,11],[36,-13],[15,-11],[16,-9],[22,3],[22,-14],[20,-36],[19,-46],[20,-27],[20,-21],[3,-5]],[[102,1639],[40,-12],[8,-4],[13,-15],[7,-6],[7,-9],[7,-15],[15,-16],[21,-19],[5,-6],[3,-14],[-3,-17],[-27,-32],[-22,-9],[-42,-8],[-57,-25],[-24,-6],[-8,1],[-21,16],[-24,7],[0,32],[0,29],[0,70],[0,21],[0,24],[14,4],[14,9],[13,1],[13,-5],[14,2],[13,8],[11,-1],[10,-5]],[[3728,991],[-8,-12],[-11,13],[-4,6],[14,17],[6,-1],[13,-10],[5,-9],[-15,-4]]]}