{"objects":{"water":{"type":"GeometryCollection","geometries":[{"type":"MultiPolygon","properties":{"source":"naturalearthdata.com","kind":"ocean","area":990044000000000,"sort_rank":200,"min_zoom":0,"id":1},"arcs":[[[0],[1],[2]]]},{"type":"LineString","properties":{"source":"naturalearthdata.com","kind":"ocean","sort_rank":205,"boundary":true,"min_zoom":0,"id":436},"arcs":[3]},{"type":"LineString","properties":{"source":"naturalearthdata.com","kind":"ocean","sort_rank":205,"boundary":true,"min_zoom":0,"id":437},"arcs":[4]}]},"buildings":{"type":"GeometryCollection","geometries":[]},"places":{"type":"GeometryCollection","geometries":[]},"transit":{"type":"GeometryCollection","geometries":[]},"pois":{"type":"GeometryCollection","geometries":[]},"boundaries":{"type":"GeometryCollection","geometries":[]},"roads":{"type":"GeometryCollection","geometries":[]},"earth":{"type":"GeometryCollection","geometries":[{"type":"MultiPolygon","properties":{"sort_rank":10,"source":"naturalearthdata.com","kind":"earth","min_zoom":2.0,"area":1753086625268},"arcs":[[[5]]]}]},"landuse":{"type":"GeometryCollection","geometries":[]}},"type":"Topology","transform":{"translate":[-180.0,-66.5132604431],"scale":[0.0109863281,0.006233731]},"arcs":[[[0,4096],[4096,0],[0,-4096],[-4096,0],[0,82],[0,161],[0,160],[0,161],[0,160],[0,160],[0,161],[0,160],[0,161],[0,160],[0,161],[0,160],[0,160],[0,161],[0,160],[0,161],[0,160],[0,160],[0,161],[0,160],[0,161],[0,160],[0,161],[0,160],[0,160],[0,161],[0,3]],[[353,3568],[-3,8],[-7,-2],[2,-6],[-1,-10],[4,2],[5,8]],[[334,3607],[-5,12],[-5,0],[-5,15],[5,7],[-1,2],[-6,3],[2,3],[8,1],[3,-5],[-1,-12],[10,16],[6,0],[3,4],[-35,4],[-10,-8],[-8,1],[-8,-10],[4,-2],[15,2],[8,-5],[2,-8],[-3,-8],[-6,-8],[0,-5],[3,-12],[2,-1],[5,0],[6,6],[11,5],[0,3]],[[339,3649],[6,0],[3,4],[-35,4],[-10,-8],[-8,1],[-8,-10],[4,-2],[15,2],[8,-5],[2,-8],[-3,-8],[-6,-8],[0,-5],[3,-12],[2,-1],[5,0],[6,6],[11,5],[0,3],[-5,12],[-5,0],[-5,15],[5,7],[-1,2],[-6,3],[2,3],[8,1],[3,-5],[-1,-12],[10,16]],[[343,3574],[2,-6],[-1,-10],[4,2],[5,8],[-3,8],[-7,-2]],[[348,3653],[-3,-4],[-6,0],[-10,-16],[1,12],[-3,5],[-8,-1],[-2,-3],[6,-3],[1,-2],[-5,-7],[5,-15],[5,0],[5,-12],[0,-3],[-11,-5],[-6,-6],[-5,0],[-2,1],[-3,12],[0,5],[6,8],[3,8],[-2,8],[-8,5],[-15,-2],[-4,2],[8,10],[8,-1],[10,8],[35,-4]]]}