{"objects":{"water":{"type":"GeometryCollection","geometries":[{"type":"Polygon","properties":{"source":"naturalearthdata.com","kind":"ocean","area":989871000000000,"sort_rank":200,"min_zoom":0,"id":1},"arcs":[[0]]}]},"buildings":{"type":"GeometryCollection","geometries":[]},"places":{"type":"GeometryCollection","geometries":[]},"transit":{"type":"GeometryCollection","geometries":[]},"pois":{"type":"GeometryCollection","geometries":[]},"boundaries":{"type":"GeometryCollection","geometries":[]},"roads":{"type":"GeometryCollection","geometries":[]},"earth":{"type":"GeometryCollection","geometries":[]},"landuse":{"type":"GeometryCollection","geometries":[{"type":"MultiPolygon","properties":{"kind":"protected_area","protect_class":"4","area":1870422308431,"sort_rank":17,"source":"openstreetmap.org","min_zoom":4.0,"tier":2,"id":-9299402},"arcs":[[[1]]]}]}},"type":"Topology","transform":{"translate":[78.75,-40.9798980696],"scale":[0.002746582,0.0022040371]},"arcs":[[[4096,4096],[0,-4096],[-4096,0],[0,4096],[4096,0]],[[719,0],[-719,0],[0,2891],[67,-16],[277,-130],[245,-182],[205,-226],[159,-262],[107,-287],[51,-318],[0,-590],[-49,-283],[-101,-263],[-176,-269],[-66,-65]]]}