{"objects":{"water":{"type":"GeometryCollection","geometries":[{"type":"Polygon","properties":{"source":"naturalearthdata.com","kind":"ocean","area":989871000000000,"sort_rank":200,"min_zoom":0,"id":1},"arcs":[[0]]}]},"buildings":{"type":"GeometryCollection","geometries":[]},"places":{"type":"GeometryCollection","geometries":[]},"transit":{"type":"GeometryCollection","geometries":[]},"pois":{"type":"GeometryCollection","geometries":[]},"boundaries":{"type":"GeometryCollection","geometries":[]},"roads":{"type":"GeometryCollection","geometries":[]},"earth":{"type":"GeometryCollection","geometries":[]},"landuse":{"type":"GeometryCollection","geometries":[{"type":"MultiPolygon","properties":{"kind":"nature_reserve","protect_class":"1","area":181979890370,"sort_rank":23,"operator":"Australian Government Department of Environment","source":"openstreetmap.org","min_zoom":4.0,"tier":2,"id":-8449402},"arcs":[[[1]]]}]}},"type":"Topology","transform":{"translate":[78.75,-55.7765730187],"scale":[0.002746582,0.0016733579]},"arcs":[[[4096,4096],[0,-4096],[-4096,0],[0,4096],[4096,0]],[[0,2307],[0,152],[80,-152],[-80,0]]]}