{"objects":{"water":{"type":"GeometryCollection","geometries":[{"type":"MultiPolygon","properties":{"source":"naturalearthdata.com","kind":"ocean","area":989871000000000,"sort_rank":200,"min_zoom":0,"id":1},"arcs":[[[0],[1],[2],[3]]]},{"type":"LineString","properties":{"source":"naturalearthdata.com","kind":"ocean","sort_rank":205,"boundary":true,"min_zoom":0,"id":3075},"arcs":[4]},{"type":"LineString","properties":{"source":"naturalearthdata.com","kind":"ocean","sort_rank":205,"boundary":true,"min_zoom":0,"id":3077},"arcs":[5]},{"type":"LineString","properties":{"source":"naturalearthdata.com","kind":"ocean","sort_rank":205,"boundary":true,"min_zoom":0,"id":3078},"arcs":[6]},{"type":"LineString","properties":{"source":"naturalearthdata.com","kind":"ocean","sort_rank":205,"boundary":true,"min_zoom":0,"id":3517},"arcs":[7]}]},"buildings":{"type":"GeometryCollection","geometries":[]},"places":{"type":"GeometryCollection","geometries":[]},"transit":{"type":"GeometryCollection","geometries":[]},"pois":{"type":"GeometryCollection","geometries":[]},"boundaries":{"type":"GeometryCollection","geometries":[]},"roads":{"type":"GeometryCollection","geometries":[]},"earth":{"type":"GeometryCollection","geometries":[{"type":"Polygon","properties":{"sort_rank":10,"source":"naturalearthdata.com","min_zoom":0,"kind":"earth","area":92616631212867},"arcs":[[8]]},{"type":"MultiPolygon","properties":{"sort_rank":10,"source":"naturalearthdata.com","min_zoom":3.0,"kind":"earth","area":25285855466},"arcs":[[[9]],[[10]]]},{"type":"MultiPolygon","properties":{"sort_rank":10,"source":"naturalearthdata.com","kind":"earth","min_zoom":4.0,"area":1492664684},"arcs":[[[11]]]}]},"landuse":{"type":"GeometryCollection","geometries":[]}},"type":"Topology","transform":{"translate":[78.75,-70.612614238],"scale":[0.002746582,0.0010008188]},"arcs":[[[4096,4096],[0,-271],[-22,-9],[-20,6],[-27,-1],[-19,-13],[-38,-39],[-20,-5],[-45,4],[-11,4],[-29,25],[-22,7],[-43,-7],[-21,3],[-34,21],[-12,0],[-30,-18],[-10,-3],[-54,25],[-4,0],[-18,-11],[-27,-1],[-62,-45],[-19,-5],[-19,0],[-31,-13],[-7,6],[-2,9],[-4,31],[-3,14],[-3,7],[-4,6],[-9,9],[-10,5],[-62,2],[-9,-5],[-9,-8],[-26,-36],[-10,-5],[-32,4],[-11,-3],[-21,-13],[-21,-6],[-39,-31],[-134,-60],[-34,-31],[-36,-47],[-80,-52],[-10,-1],[-9,6],[-21,25],[-10,6],[-118,-21],[-41,11],[-20,-3],[-6,-5],[-3,-7],[-3,-8],[-5,-9],[-5,-4],[-10,-3],[-19,-18],[-5,-6],[-3,-10],[-5,-21],[-4,-6],[-37,-24],[-19,1],[-11,-4],[-20,-18],[-9,-5],[-47,16],[-5,-1],[-7,-12],[-4,-5],[-9,-1],[-21,9],[-18,13],[-53,10],[-9,7],[-9,17],[-8,9],[-20,-5],[-9,2],[20,40],[-39,13],[-133,-37],[-39,3],[-19,-6],[-9,-8],[-29,-45],[-10,-13],[-5,-9],[-11,-27],[-5,-6],[-54,-38],[-137,-52],[-17,-15],[-10,-24],[-10,-30],[-14,-16],[-61,-29],[-11,-19],[-1,-33],[17,-65],[26,-20],[29,-6],[27,-22],[-2,-5],[-3,-12],[-3,-12],[-2,-10],[-4,-6],[-53,-20],[-30,14],[-10,9],[-15,28],[-9,11],[-18,14],[-11,3],[-10,-2],[-10,-7],[-20,-22],[-9,-1],[-19,5],[-12,-3],[-33,-28],[-10,2],[-9,8],[-17,24],[-9,5],[-41,-11],[-30,6],[-6,-4],[-10,-15],[-5,-4],[-5,-2],[-34,-30],[-9,-14],[-13,-32],[-5,-2],[-13,6],[-6,-3],[-3,-5],[-3,-2],[-7,5],[-4,6],[-2,6],[-3,4],[-41,20],[-23,-3],[-22,-12],[-20,-22],[-5,-3],[-5,1],[-10,8],[-5,0],[-112,-73],[-21,0],[-116,-60],[-115,-59],[-29,10],[-22,-2],[-158,-74],[-158,-73],[-40,-7],[-114,-54],[-114,-55],[-139,-114],[0,1747],[4096,0]],[[2516,3866],[-1,0],[-13,5],[-20,2],[-30,15],[-51,2],[-13,-4],[-12,-14],[-6,-29],[8,-35],[9,-31],[12,-25],[13,-20],[89,-63],[8,1],[-5,-8],[-5,-10],[-9,-24],[9,-5],[63,18],[33,32],[18,26],[5,21],[-38,96],[-15,24],[-9,10],[-40,16]],[[2839,3906],[-3,8],[-2,9],[-1,8],[2,9],[-7,2],[-67,-11],[-14,-9],[-13,-17],[-10,-26],[2,-14],[10,-18],[18,-24],[11,-6],[21,-4],[35,12],[43,38],[22,27],[-24,-2],[-11,3],[-12,15]],[[2349,4041],[-5,14],[-7,30],[-6,8],[-15,-4],[-7,-25],[-5,-32],[-8,-29],[21,-29],[32,-11],[31,9],[20,33],[-39,23],[-12,13]],[[2516,3866],[-1,0],[-13,5],[-20,2],[-30,15],[-51,2],[-13,-4],[-12,-14],[-6,-29],[8,-35],[9,-31],[12,-25],[13,-20],[89,-63],[8,1],[-5,-8],[-5,-10],[-9,-24],[9,-5],[63,18],[33,32],[18,26],[5,21],[-38,96],[-15,24],[-9,10],[-40,16]],[[2839,3906],[-3,8],[-2,9],[-1,8],[2,9],[-7,2],[-67,-11],[-14,-9],[-13,-17],[-10,-26],[2,-14],[10,-18],[18,-24],[11,-6],[21,-4],[35,12],[43,38],[22,27],[-24,-2],[-11,3],[-12,15]],[[2349,4041],[-5,14],[-7,30],[-6,8],[-15,-4],[-7,-25],[-5,-32],[-8,-29],[21,-29],[32,-11],[31,9],[20,33],[-39,23],[-12,13]],[[4096,3825],[-22,-9],[-20,6],[-27,-1],[-19,-13],[-38,-39],[-20,-5],[-45,4],[-11,4],[-29,25],[-22,7],[-43,-7],[-21,3],[-34,21],[-12,0],[-30,-18],[-10,-3],[-54,25],[-4,0],[-18,-11],[-27,-1],[-62,-45],[-19,-5],[-19,0],[-31,-13],[-7,6],[-2,9],[-4,31],[-3,14],[-3,7],[-4,6],[-9,9],[-10,5],[-62,2],[-9,-5],[-9,-8],[-26,-36],[-10,-5],[-32,4],[-11,-3],[-21,-13],[-21,-6],[-39,-31],[-134,-60],[-34,-31],[-36,-47],[-80,-52],[-10,-1],[-9,6],[-21,25],[-10,6],[-118,-21],[-41,11],[-20,-3],[-6,-5],[-3,-7],[-3,-8],[-5,-9],[-5,-4],[-10,-3],[-19,-18],[-5,-6],[-3,-10],[-5,-21],[-4,-6],[-37,-24],[-19,1],[-11,-4],[-20,-18],[-9,-5],[-47,16],[-5,-1],[-7,-12],[-4,-5],[-9,-1],[-21,9],[-18,13],[-53,10],[-9,7],[-9,17],[-8,9],[-20,-5],[-9,2],[20,40],[-39,13],[-133,-37],[-39,3],[-19,-6],[-9,-8],[-29,-45],[-10,-13],[-5,-9],[-11,-27],[-5,-6],[-54,-38],[-137,-52],[-17,-15],[-10,-24],[-10,-30],[-14,-16],[-61,-29],[-11,-19],[-1,-33],[17,-65],[26,-20],[29,-6],[27,-22],[-2,-5],[-3,-12],[-3,-12],[-2,-10],[-4,-6],[-53,-20],[-30,14],[-10,9],[-15,28],[-9,11],[-18,14],[-11,3],[-10,-2],[-10,-7],[-20,-22],[-9,-1],[-19,5],[-12,-3],[-33,-28],[-10,2],[-9,8],[-17,24],[-9,5],[-41,-11],[-30,6],[-6,-4],[-10,-15],[-5,-4],[-5,-2],[-34,-30],[-9,-14],[-13,-32],[-5,-2],[-13,6],[-6,-3],[-3,-5],[-3,-2],[-7,5],[-4,6],[-2,6],[-3,4],[-41,20],[-23,-3],[-22,-12],[-20,-22],[-5,-3],[-5,1],[-10,8],[-5,0],[-112,-73],[-21,0],[-116,-60],[-115,-59],[-29,10],[-22,-2],[-158,-74],[-158,-73],[-40,-7],[-114,-54],[-114,-55],[-139,-114]],[[0,2349],[139,114],[114,55],[114,54],[40,7],[158,73],[158,74],[22,2],[29,-10],[115,59],[116,60],[21,0],[112,73],[5,0],[10,-8],[5,-1],[5,3],[20,22],[22,12],[23,3],[41,-20],[3,-4],[2,-6],[4,-6],[7,-5],[3,2],[3,5],[6,3],[13,-6],[5,2],[13,32],[9,14],[34,30],[5,2],[5,4],[10,15],[6,4],[30,-6],[41,11],[9,-5],[17,-24],[9,-8],[10,-2],[33,28],[12,3],[19,-5],[9,1],[20,22],[10,7],[10,2],[11,-3],[18,-14],[9,-11],[15,-28],[10,-9],[30,-14],[53,20],[4,6],[2,10],[3,12],[3,12],[2,5],[-27,22],[-29,6],[-26,20],[-17,65],[1,33],[11,19],[61,29],[14,16],[10,30],[10,24],[17,15],[137,52],[54,38],[5,6],[11,27],[5,9],[10,13],[17,26],[12,19],[9,8],[19,6],[39,-3],[133,37],[39,-13],[-20,-40],[9,-2],[20,5],[8,-9],[9,-17],[9,-7],[53,-10],[18,-13],[21,-9],[9,1],[4,5],[7,12],[5,1],[47,-16],[9,5],[20,18],[11,4],[19,-1],[37,24],[4,6],[5,21],[3,10],[5,6],[19,18],[10,3],[5,4],[5,9],[3,8],[3,7],[6,5],[20,3],[41,-11],[118,21],[10,-6],[21,-25],[9,-6],[10,1],[80,52],[36,47],[34,31],[134,60],[39,31],[21,6],[21,13],[11,3],[32,-4],[10,5],[26,36],[9,8],[9,5],[62,-2],[10,-5],[9,-9],[4,-6],[3,-7],[3,-14],[4,-31],[2,-9],[7,-6],[31,13],[19,0],[19,5],[62,45],[27,1],[18,11],[4,0],[54,-25],[10,3],[30,18],[12,0],[34,-21],[21,-3],[43,7],[22,-7],[29,-25],[11,-4],[45,-4],[20,5],[38,39],[19,13],[27,1],[20,-6],[22,9],[0,-3825],[-4096,0],[0,2349]],[[2839,3906],[12,-15],[11,-3],[24,2],[-22,-27],[-43,-38],[-35,-12],[-21,4],[-11,6],[-18,24],[-10,18],[-2,14],[10,26],[13,17],[14,9],[67,11],[7,-2],[-2,-9],[1,-8],[2,-9],[3,-8]],[[2516,3866],[40,-16],[9,-10],[15,-24],[38,-96],[-5,-21],[-18,-26],[-33,-32],[-63,-18],[-9,5],[9,24],[5,10],[5,8],[-8,-1],[-89,63],[-13,20],[-12,25],[-9,31],[-8,35],[6,29],[12,14],[13,4],[51,-2],[30,-15],[20,-2],[13,-5],[1,0]],[[2349,4041],[12,-13],[39,-23],[-20,-33],[-31,-9],[-32,11],[-21,29],[8,29],[5,32],[7,25],[15,4],[6,-8],[7,-30],[5,-14]]]}