{"objects":{"water":{"type":"GeometryCollection","geometries":[{"type":"MultiPolygon","properties":{"source":"naturalearthdata.com","kind":"ocean","area":989871000000000,"sort_rank":200,"min_zoom":0,"id":1},"arcs":[[[0],[1],[2]]]},{"type":"LineString","properties":{"source":"naturalearthdata.com","kind":"ocean","sort_rank":205,"boundary":true,"min_zoom":0,"id":1967},"arcs":[3]},{"type":"LineString","properties":{"source":"naturalearthdata.com","kind":"ocean","sort_rank":205,"boundary":true,"min_zoom":0,"id":4131},"arcs":[4]}]},"buildings":{"type":"GeometryCollection","geometries":[]},"places":{"type":"GeometryCollection","geometries":[]},"transit":{"type":"GeometryCollection","geometries":[]},"pois":{"type":"GeometryCollection","geometries":[]},"boundaries":{"type":"GeometryCollection","geometries":[]},"roads":{"type":"GeometryCollection","geometries":[]},"earth":{"type":"GeometryCollection","geometries":[{"type":"MultiPolygon","properties":{"sort_rank":10,"source":"naturalearthdata.com","min_zoom":0.5,"kind":"earth","area":12600116455},"arcs":[[[5]]]},{"type":"MultiPolygon","properties":{"sort_rank":10,"source":"naturalearthdata.com","min_zoom":3.0,"kind":"earth","area":203468181153},"arcs":[[[6]]]}]},"landuse":{"type":"GeometryCollection","geometries":[{"type":"MultiPolygon","properties":{"kind":"nature_reserve","protect_class":"1","area":2495102325819,"sort_rank":23,"source":"openstreetmap.org","min_zoom":4.0,"tier":2,"id":-9349959},"arcs":[[[7]],[[8]]]}]}},"type":"Topology","transform":{"translate":[78.75,76.8408164144],"scale":[0.002746582,0.0005689742]},"arcs":[[[4096,4096],[0,-4096],[-4096,0],[0,4096],[4096,0]],[[3983,773],[-13,38],[-18,18],[-109,-8],[-14,-17],[-20,-36],[-18,-49],[-10,-57],[18,-37],[43,-86],[69,-12],[93,42],[25,81],[-32,59],[-14,64]],[[3749,527],[-95,-30],[-44,-76],[13,-71],[42,-96],[38,-14],[25,22],[11,41],[-18,46],[27,66],[20,38],[13,50],[-32,24]],[[3983,773],[-13,38],[-18,18],[-109,-8],[-14,-17],[-20,-36],[-18,-49],[-10,-57],[18,-37],[43,-86],[69,-12],[93,42],[25,81],[-32,59],[-14,64]],[[3749,527],[32,-24],[-13,-50],[-20,-38],[-27,-66],[18,-46],[-11,-41],[-25,-22],[-38,14],[-42,96],[-13,71],[44,76],[95,30]],[[3749,527],[32,-24],[-13,-50],[-20,-38],[-27,-66],[18,-46],[-11,-41],[-25,-22],[-38,14],[-42,96],[-13,71],[44,76],[95,30]],[[3983,773],[14,-64],[32,-59],[-25,-81],[-93,-42],[-69,12],[-43,86],[-18,37],[10,57],[18,49],[20,36],[14,17],[109,8],[18,-18],[13,-38]],[[3593,424],[33,87],[156,182],[57,127],[53,28],[204,19],[0,-537],[-64,-105],[-337,-15],[-68,77],[-34,137]],[[1236,1201],[27,46],[90,-13],[90,-113],[4,-41],[-25,-20],[-148,36],[-38,105]]]}