{"objects":{"water":{"type":"GeometryCollection","geometries":[{"type":"MultiPolygon","properties":{"source":"naturalearthdata.com","kind":"ocean","area":989871000000000,"sort_rank":200,"min_zoom":0,"id":1},"arcs":[[[0],[1],[2],[3],[4],[5],[6],[7],[8],[9],[10],[11],[12]]]},{"type":"MultiLineString","properties":{"source":"naturalearthdata.com","kind":"ocean","sort_rank":205,"boundary":true,"min_zoom":0,"id":465},"arcs":[[13],[14],[15]]},{"type":"MultiLineString","properties":{"source":"naturalearthdata.com","kind":"ocean","sort_rank":205,"boundary":true,"min_zoom":0,"id":1934},"arcs":[[16],[17]]},{"type":"LineString","properties":{"source":"naturalearthdata.com","kind":"ocean","sort_rank":205,"boundary":true,"min_zoom":0,"id":1935},"arcs":[18]},{"type":"LineString","properties":{"source":"naturalearthdata.com","kind":"ocean","sort_rank":205,"boundary":true,"min_zoom":0,"id":1936},"arcs":[19]},{"type":"LineString","properties":{"source":"naturalearthdata.com","kind":"ocean","sort_rank":205,"boundary":true,"min_zoom":0,"id":1940},"arcs":[20]},{"type":"LineString","properties":{"source":"naturalearthdata.com","kind":"ocean","sort_rank":205,"boundary":true,"min_zoom":0,"id":1943},"arcs":[21]},{"type":"LineString","properties":{"source":"naturalearthdata.com","kind":"ocean","sort_rank":205,"boundary":true,"min_zoom":0,"id":1944},"arcs":[22]},{"type":"LineString","properties":{"source":"naturalearthdata.com","kind":"ocean","sort_rank":205,"boundary":true,"min_zoom":0,"id":1945},"arcs":[23]},{"type":"LineString","properties":{"source":"naturalearthdata.com","kind":"ocean","sort_rank":205,"boundary":true,"min_zoom":0,"id":1946},"arcs":[24]},{"type":"LineString","properties":{"source":"naturalearthdata.com","kind":"ocean","sort_rank":205,"boundary":true,"min_zoom":0,"id":1947},"arcs":[25]},{"type":"LineString","properties":{"source":"naturalearthdata.com","kind":"ocean","sort_rank":205,"boundary":true,"min_zoom":0,"id":1948},"arcs":[26]},{"type":"LineString","properties":{"source":"naturalearthdata.com","kind":"ocean","sort_rank":205,"boundary":true,"min_zoom":0,"id":1949},"arcs":[27]},{"type":"LineString","properties":{"source":"naturalearthdata.com","kind":"ocean","sort_rank":205,"boundary":true,"min_zoom":0,"id":1954},"arcs":[28]},{"type":"LineString","properties":{"source":"naturalearthdata.com","kind":"ocean","sort_rank":205,"boundary":true,"min_zoom":0,"id":1955},"arcs":[29]}]},"buildings":{"type":"GeometryCollection","geometries":[]},"places":{"type":"GeometryCollection","geometries":[]},"transit":{"type":"GeometryCollection","geometries":[]},"pois":{"type":"GeometryCollection","geometries":[]},"boundaries":{"type":"GeometryCollection","geometries":[]},"roads":{"type":"GeometryCollection","geometries":[]},"earth":{"type":"GeometryCollection","geometries":[{"type":"MultiPolygon","properties":{"sort_rank":10,"source":"naturalearthdata.com","kind":"earth","min_zoom":4.0,"area":36266068607},"arcs":[[[30]],[[31]],[[32]],[[33]]]},{"type":"MultiPolygon","properties":{"sort_rank":10,"source":"naturalearthdata.com","kind":"earth","min_zoom":5.0,"area":29754728941},"arcs":[[[34]],[[35]],[[36]],[[37]],[[38]],[[39]]]},{"type":"MultiPolygon","properties":{"sort_rank":10,"source":"naturalearthdata.com","min_zoom":3.0,"kind":"earth","area":203468181153},"arcs":[[[40]],[[41]],[[42]]]},{"type":"MultiPolygon","properties":{"sort_rank":10,"source":"naturalearthdata.com","min_zoom":0,"kind":"earth","area":11714569654858},"arcs":[[[43]],[[44]],[[45]]]}]},"landuse":{"type":"GeometryCollection","geometries":[{"type":"MultiPolygon","properties":{"kind":"nature_reserve","protect_class":"1","area":2495102325819,"sort_rank":23,"source":"openstreetmap.org","min_zoom":4.0,"tier":2,"id":-9349959},"arcs":[[[46]],[[47]],[[48]],[[49]],[[50]],[[51]],[[52]],[[53]]]}]}},"type":"Topology","transform":{"translate":[78.75,74.0195433115],"scale":[0.002746582,0.0006887874]},"arcs":[[[4096,2220],[0,-44],[-53,-4],[-80,-16],[-8,-18],[4,-21],[26,-25],[10,-13],[-7,-12],[-9,-2],[-9,3],[-8,8],[-8,1],[-19,-13],[-6,9],[-53,2],[-1,24],[-7,8],[-23,12],[-18,35],[-6,5],[-6,-6],[-15,-45],[-6,-12],[-7,-9],[-7,-6],[-42,-2],[-24,-16],[-70,-35],[-8,-10],[99,35],[17,-12],[11,-32],[-28,16],[-31,-3],[-29,-20],[-27,-33],[18,-20],[-24,-16],[-51,-10],[-23,-43],[16,-27],[7,-20],[5,-23],[-40,24],[-13,-5],[-40,-35],[-12,-19],[-4,-11],[-3,-11],[0,-12],[-1,-42],[-1,-13],[-3,-7],[-5,-8],[-14,-12],[-16,-5],[-15,-13],[-10,-31],[-9,25],[-12,-3],[-33,-53],[-14,-10],[-15,1],[-118,61],[-18,-3],[-123,41],[-64,-7],[-14,-16],[-18,-39],[-7,-22],[-7,-34],[7,-17],[8,-3],[25,23],[10,4],[84,-29],[21,-18],[11,-24],[4,-6],[5,0],[12,9],[5,-1],[10,-9],[101,0],[21,-18],[-9,-13],[-10,-6],[-21,-1],[10,-12],[-4,-19],[-11,-19],[-10,-9],[-27,-11],[-3,-5],[16,-35],[-9,-11],[-8,3],[-16,19],[-15,5],[-8,8],[-4,16],[6,6],[7,13],[3,14],[-9,9],[-7,13],[-3,5],[-5,1],[-10,-1],[-21,10],[-21,-2],[-21,-12],[-14,-26],[28,-35],[9,-5],[21,5],[11,-5],[8,-19],[-7,-14],[-20,-22],[-16,-9],[-62,-75],[-13,-32],[-9,-58],[7,-17],[7,-10],[2,-12],[-5,-25],[-1,-10],[1,-26],[-1,-8],[-4,-6],[-6,3],[-5,7],[-4,10],[-16,29],[-19,4],[-21,-17],[-18,-30],[3,-11],[-5,-6],[-10,-7],[-5,-7],[12,-28],[41,8],[17,-10],[-8,-19],[-8,-10],[-3,-14],[9,-26],[9,-8],[5,-8],[1,-14],[-4,-9],[-6,0],[-23,24],[-13,7],[-12,2],[-12,-4],[-21,-17],[-10,7],[-9,30],[6,16],[2,3],[-16,-3],[-9,3],[-5,10],[1,17],[9,19],[2,14],[-60,41],[-23,3],[-7,-3],[-6,-10],[-4,-10],[-3,-8],[-7,-3],[-5,5],[-15,40],[-19,29],[-6,15],[60,-10],[-4,24],[-7,8],[-16,-1],[-8,5],[-22,35],[-9,5],[-27,-5],[-3,3],[-2,6],[-2,7],[-4,3],[-12,1],[-6,-3],[-5,-8],[30,-37],[5,-22],[-1,-31],[-8,-23],[-9,-17],[-7,-9],[-14,-5],[-29,20],[-14,-7],[-21,-32],[-3,-21],[11,-24],[-24,-12],[-11,-14],[-10,-24],[165,-20],[31,-22],[11,-1],[6,-4],[16,-26],[7,-5],[19,-2],[5,-4],[10,-13],[4,-3],[106,-9],[-9,-20],[-71,-32],[-10,-19],[4,-7],[16,-2],[4,-7],[8,-24],[6,-3],[11,0],[6,-6],[3,-9],[2,-23],[2,-8],[5,-5],[12,-1],[6,-4],[2,-7],[4,-19],[3,-3],[93,29],[11,-3],[4,-8],[-1,-15],[-9,-19],[-1,-15],[7,-18],[10,-15],[6,-6],[40,-17],[10,-13],[-52,0],[-25,16],[-12,2],[-5,-18],[2,-13],[12,-35],[3,-23],[-3,-29],[-8,-19],[-10,-4],[-9,14],[6,11],[2,12],[-1,15],[-10,48],[-4,5],[-8,-2],[-7,-9],[-18,-42],[-9,-7],[-19,8],[-15,-7],[-9,0],[-6,8],[1,19],[6,7],[23,6],[38,31],[15,21],[10,34],[-9,1],[-19,10],[-10,-1],[-18,-19],[-6,0],[-21,18],[-7,1],[-20,-11],[-10,-1],[-10,12],[4,7],[11,14],[-6,4],[-4,11],[-3,13],[-4,11],[-7,9],[-35,22],[-58,-30],[-12,-16],[-11,-10],[-19,17],[-23,-11],[-17,2],[-8,-2],[-7,-11],[8,-12],[8,-6],[39,-3],[11,-6],[8,-13],[4,-12],[6,-47],[4,-9],[3,-1],[3,-3],[0,-16],[-1,-15],[-3,-7],[-4,0],[-17,30],[-30,35],[-80,15],[-12,-19],[3,-22],[6,-9],[7,-7],[4,-12],[-1,-21],[-3,-10],[0,-10],[9,-23],[17,-20],[177,-11],[57,-28],[18,-17],[16,-24],[17,-34],[-26,-59],[-3,-17],[4,-4],[40,-21],[7,-9],[-2,-16],[-1,-7],[-2,-7],[17,-25],[144,-11],[26,-22],[16,-41],[-27,0],[-28,28],[-94,16],[-21,-24],[7,-20],[-944,0],[10,2],[6,9],[3,19],[-5,11],[-9,0],[-49,-34],[-28,-7],[-6,0],[-49,22],[-14,-2],[-5,-11],[-25,-4],[-4,-5],[-1870,0],[0,4096],[4096,0],[0,-1830],[-17,-4],[-14,-25],[13,-13],[16,-2],[2,-2]],[[1734,148],[-121,49],[-44,-27],[-52,-8],[-21,-18],[-16,-36],[5,-9],[0,-11],[92,10],[113,-74],[15,1],[12,15],[-12,5],[-11,17],[-3,18],[40,16],[11,-5],[-3,-22],[20,9],[12,11],[2,15],[-8,20],[-10,14],[-11,7],[-10,3]],[[1390,208],[-41,-3],[-21,-11],[-17,-18],[-6,-9],[-4,-11],[-2,-15],[1,-22],[5,-23],[7,-7],[72,-10],[15,-25],[10,-3],[17,19],[16,26],[11,23],[-63,89]],[[2229,706],[-102,-10],[-63,-45],[-12,-15],[4,-25],[15,-22],[107,-43],[13,21],[-82,68],[13,17],[35,13],[64,-14],[17,5],[14,15],[-1,16],[-9,13],[-13,6]],[[2472,806],[-110,1],[-21,-21],[-12,-34],[7,-37],[15,-32],[15,-20],[23,-15],[69,-2],[-2,51],[49,17],[5,51],[-10,4],[-19,30],[-9,7]],[[2668,778],[-32,32],[-19,7],[-23,-8],[-18,2],[-8,-5],[-5,-10],[-14,-59],[-6,-28],[-3,-9],[-19,-27],[-6,-17],[18,-9],[35,-33],[20,2],[22,25],[22,12],[5,11],[6,22],[-5,1],[-4,5],[-4,9],[-2,14],[10,6],[16,-1],[15,-10],[6,-20],[6,-11],[12,9],[22,27],[-2,32],[-14,15],[-31,16]],[[315,845],[-7,3],[-12,13],[-83,18],[-15,16],[3,4],[3,7],[2,8],[2,10],[-28,4],[-15,-11],[-7,-32],[30,-13],[16,-17],[2,-26],[-12,-16],[-14,13],[-16,20],[-14,8],[-5,0],[15,-29],[87,-95],[22,-8],[16,13],[-4,35],[10,29],[14,25],[10,21]],[[2358,1053],[51,11],[22,-11],[13,-14],[8,-20],[8,-7],[35,31],[19,-18],[9,-4],[10,13],[-9,13],[-7,19],[-5,25],[3,33],[-8,13],[-9,2],[-19,-6],[-8,4],[-15,16],[-11,0],[-21,-34],[-22,-18],[-85,-18],[-6,-14],[6,-15],[41,-1]],[[3014,1411],[-41,-3],[-72,-50],[-36,-6],[2,7],[5,24],[-42,22],[-10,-13],[6,-18],[6,-22],[-10,-29],[26,-19],[9,-1],[-11,-29],[-21,-10],[-69,15],[-9,9],[-9,13],[-7,4],[-7,-6],[-7,-16],[7,-12],[17,-18],[4,-15],[3,-21],[8,-10],[16,-4],[38,10],[9,-4],[19,-14],[9,-3],[59,13],[51,-42],[17,-1],[10,30],[-44,16],[-16,20],[-15,9],[-16,22],[-3,13],[4,21],[10,9],[47,-5],[25,-35],[8,-7],[18,0],[21,10],[9,13],[16,48],[6,6],[-6,21],[-34,58]],[[1233,1630],[-8,24],[-12,-1],[-11,-17],[-9,-26],[11,-15],[34,-33],[0,19],[0,19],[-2,16],[-3,14]],[[1271,1969],[-4,17],[-2,16],[-2,13],[-5,11],[-18,7],[-19,-5],[-18,5],[-15,35],[43,-29],[12,20],[-11,4],[-1,24],[7,61],[0,11],[5,4],[2,5],[0,10],[-76,-14],[-23,-26],[4,-9],[10,-5],[5,-5],[0,-20],[-7,-9],[-16,-6],[-6,-16],[9,-3],[10,-13],[8,-19],[8,-24],[-10,-14],[-62,-19],[-11,3],[13,21],[-15,14],[3,25],[11,30],[8,30],[-15,-3],[-15,-14],[-68,-105],[-12,-28],[7,-17],[9,-5],[17,2],[-2,-10],[-8,-30],[32,-48],[17,-15],[13,14],[-1,8],[-2,8],[-2,24],[7,-22],[10,-9],[21,0],[-5,33],[6,11],[10,-3],[9,-8],[10,-72],[0,-25],[-1,-19],[0,-17],[4,-23],[9,-24],[9,-14],[11,-7],[10,0],[-3,9],[3,19],[0,19],[-3,18],[-4,15],[3,12],[3,9],[4,6],[5,2],[4,5],[-1,12],[-3,23],[1,13],[5,13],[0,13],[-3,22],[0,11],[-1,12],[13,12],[61,-19],[18,2],[-4,16],[-11,28],[-4,16]],[[1223,2714],[-154,62],[-18,-1],[0,6],[-3,2],[-10,1],[-8,-2],[-9,-7],[14,-20],[31,-6],[30,-28],[169,-48],[13,22],[-12,16],[-43,3]],[[1649,2812],[-13,9],[-100,20],[-99,21],[-14,12],[-35,0],[-10,-7],[-25,-32],[-19,-10],[-56,10],[6,-24],[14,-12],[27,-5],[53,20],[63,-20],[42,16],[12,-16],[-5,-28],[7,-11],[20,0],[39,19],[14,1],[41,-21],[14,1],[23,20],[8,18],[-7,19]],[[4096,2266],[-17,-4],[-14,-25],[13,-13],[16,-2],[2,-2]],[[4096,2176],[-53,-4],[-80,-16],[-8,-18],[4,-21],[26,-25],[10,-13],[-7,-12],[-9,-2],[-9,3],[-8,8],[-8,1],[-19,-13],[-6,9],[-53,2],[-1,24],[-7,8],[-23,12],[-18,35],[-6,5],[-6,-6],[-15,-45],[-6,-12],[-7,-9],[-7,-6],[-42,-2],[-24,-16],[-70,-35],[-8,-10],[99,35],[17,-12],[11,-32],[-28,16],[-31,-3],[-29,-20],[-27,-33],[18,-20],[-24,-16],[-51,-10],[-23,-43],[16,-27],[7,-20],[5,-23],[-40,24],[-13,-5],[-40,-35],[-12,-19],[-4,-11],[-3,-11],[0,-12],[-1,-42],[-1,-13],[-3,-7],[-5,-8],[-14,-12],[-16,-5],[-15,-13],[-10,-31],[-9,25],[-12,-3],[-33,-53],[-14,-10],[-15,1],[-118,61],[-18,-3],[-123,41],[-64,-7],[-14,-16],[-18,-39],[-7,-22],[-7,-34],[7,-17],[8,-3],[25,23],[10,4],[84,-29],[21,-18],[11,-24],[4,-6],[5,0],[12,9],[5,-1],[10,-9],[101,0],[21,-18],[-9,-13],[-10,-6],[-21,-1],[10,-12],[-4,-19],[-11,-19],[-10,-9],[-27,-11],[-3,-5],[16,-35],[-9,-11],[-8,3],[-16,19],[-15,5],[-8,8],[-4,16],[6,6],[7,13],[3,14],[-9,9],[-7,13],[-3,5],[-5,1],[-10,-1],[-21,10],[-21,-2],[-21,-12],[-14,-26],[28,-35],[9,-5],[21,5],[11,-5],[8,-19],[-7,-14],[-20,-22],[-16,-9],[-62,-75],[-13,-32],[-9,-58],[7,-17],[7,-10],[2,-12],[-5,-25],[-1,-10],[1,-26],[-1,-8],[-4,-6],[-6,3],[-5,7],[-4,10],[-16,29],[-19,4],[-21,-17],[-18,-30],[3,-11],[-5,-6],[-10,-7],[-5,-7],[12,-28],[41,8],[17,-10],[-8,-19],[-8,-10],[-3,-14],[9,-26],[9,-8],[5,-8],[1,-14],[-4,-9],[-6,0],[-23,24],[-13,7],[-12,2],[-12,-4],[-21,-17],[-10,7],[-9,30],[6,16],[2,3],[-16,-3],[-9,3],[-5,10],[1,17],[9,19],[2,14],[-60,41],[-23,3],[-7,-3],[-6,-10],[-4,-10],[-3,-8],[-7,-3],[-5,5],[-15,40],[-19,29],[-6,15],[60,-10],[-4,24],[-7,8],[-16,-1],[-8,5],[-22,35],[-9,5],[-27,-5],[-3,3],[-2,6],[-2,7],[-4,3],[-12,1],[-6,-3],[-5,-8],[30,-37],[5,-22],[-1,-31],[-8,-23],[-9,-17],[-7,-9],[-14,-5],[-29,20],[-14,-7],[-21,-32],[-3,-21],[11,-24],[-24,-12],[-11,-14],[-10,-24],[165,-20],[31,-22],[11,-1],[6,-4],[16,-26],[7,-5],[19,-2],[5,-4],[10,-13],[4,-3],[106,-9],[-9,-20],[-71,-32],[-10,-19],[4,-7],[16,-2],[4,-7],[8,-24],[6,-3],[11,0],[6,-6],[3,-9],[2,-23],[2,-8],[5,-5],[12,-1],[6,-4],[2,-7],[4,-19],[3,-3],[93,29],[11,-3],[4,-8],[-1,-15],[-9,-19],[-1,-15],[7,-18],[10,-15],[6,-6],[40,-17],[10,-13],[-52,0],[-25,16],[-12,2],[-5,-18],[2,-13],[12,-35],[3,-23],[-3,-29],[-8,-19],[-10,-4],[-9,14],[6,11],[2,12],[-1,15],[-10,48],[-4,5],[-8,-2],[-7,-9],[-18,-42],[-9,-7],[-19,8],[-15,-7],[-9,0],[-6,8],[1,19],[6,7],[23,6],[38,31],[15,21],[10,34],[-9,1],[-19,10],[-10,-1],[-18,-19],[-6,0],[-21,18],[-7,1],[-20,-11],[-10,-1],[-10,12],[4,7],[11,14],[-6,4],[-4,11],[-3,13],[-4,11],[-7,9],[-35,22],[-58,-30],[-12,-16],[-11,-10],[-19,17],[-23,-11],[-17,2],[-8,-2],[-7,-11],[8,-12],[8,-6],[39,-3],[11,-6],[8,-13],[4,-12],[6,-47],[4,-9],[3,-1],[3,-3],[0,-16],[-1,-15],[-3,-7],[-4,0],[-17,30],[-30,35],[-80,15],[-12,-19],[3,-22],[6,-9],[7,-7],[4,-12],[-1,-21],[-3,-10],[0,-10],[9,-23],[17,-20],[177,-11],[57,-28],[18,-17],[16,-24],[17,-34],[-26,-59],[-3,-17],[4,-4],[40,-21],[7,-9],[-2,-16],[-1,-7],[-2,-7],[17,-25],[144,-11],[26,-22],[16,-41]],[[3125,0],[-28,28],[-94,16],[-21,-24],[7,-20]],[[2045,0],[10,2],[6,9],[3,19],[-5,11],[-9,0],[-49,-34],[-28,-7]],[[1967,0],[-49,22],[-14,-2],[-5,-11],[-25,-4],[-4,-5]],[[1734,148],[-121,49],[-44,-27],[-52,-8],[-21,-18],[-16,-36],[5,-9],[0,-11],[92,10],[113,-74],[15,1],[12,15],[-12,5],[-11,17],[-3,18],[40,16],[11,-5],[-3,-22],[20,9],[12,11],[2,15],[-8,20],[-10,14],[-11,7],[-10,3]],[[1390,208],[-41,-3],[-21,-11],[-17,-18],[-6,-9],[-4,-11],[-2,-15],[1,-22],[5,-23],[7,-7],[72,-10],[15,-25],[10,-3],[17,19],[16,26],[11,23],[-63,89]],[[2229,706],[-102,-10],[-63,-45],[-12,-15],[4,-25],[15,-22],[107,-43],[13,21],[-82,68],[13,17],[35,13],[64,-14],[17,5],[14,15],[-1,16],[-9,13],[-13,6]],[[2472,806],[-110,1],[-21,-21],[-12,-34],[7,-37],[15,-32],[15,-20],[23,-15],[69,-2],[-2,51],[49,17],[5,51],[-10,4],[-19,30],[-9,7]],[[2668,778],[-32,32],[-19,7],[-23,-8],[-18,2],[-8,-5],[-5,-10],[-14,-59],[-6,-28],[-3,-9],[-19,-27],[-6,-17],[18,-9],[35,-33],[20,2],[22,25],[22,12],[5,11],[6,22],[-5,1],[-4,5],[-4,9],[-2,14],[10,6],[16,-1],[15,-10],[6,-20],[6,-11],[12,9],[22,27],[-2,32],[-14,15],[-31,16]],[[315,845],[-7,3],[-12,13],[-83,18],[-15,16],[3,4],[3,7],[2,8],[2,10],[-28,4],[-15,-11],[-7,-32],[30,-13],[16,-17],[2,-26],[-12,-16],[-14,13],[-16,20],[-14,8],[-5,0],[15,-29],[87,-95],[22,-8],[16,13],[-4,35],[10,29],[14,25],[10,21]],[[2358,1053],[51,11],[22,-11],[13,-14],[8,-20],[8,-7],[35,31],[19,-18],[9,-4],[10,13],[-9,13],[-7,19],[-5,25],[3,33],[-8,13],[-9,2],[-19,-6],[-8,4],[-15,16],[-11,0],[-21,-34],[-22,-18],[-85,-18],[-6,-14],[6,-15],[41,-1]],[[3014,1411],[-41,-3],[-72,-50],[-36,-6],[2,7],[5,24],[-42,22],[-10,-13],[6,-18],[6,-22],[-10,-29],[26,-19],[9,-1],[-11,-29],[-21,-10],[-69,15],[-9,9],[-9,13],[-7,4],[-7,-6],[-7,-16],[7,-12],[17,-18],[4,-15],[3,-21],[8,-10],[16,-4],[38,10],[9,-4],[19,-14],[9,-3],[59,13],[51,-42],[17,-1],[10,30],[-44,16],[-16,20],[-15,9],[-16,22],[-3,13],[4,21],[10,9],[47,-5],[25,-35],[8,-7],[18,0],[21,10],[9,13],[16,48],[6,6],[-6,21],[-34,58]],[[1233,1630],[-8,24],[-12,-1],[-11,-17],[-9,-26],[11,-15],[34,-33],[0,19],[0,19],[-2,16],[-3,14]],[[1271,1969],[-4,17],[-2,16],[-2,13],[-5,11],[-18,7],[-19,-5],[-18,5],[-15,35],[43,-29],[12,20],[-11,4],[-1,24],[7,61],[0,11],[5,4],[2,5],[0,10],[-76,-14],[-23,-26],[4,-9],[10,-5],[5,-5],[0,-20],[-7,-9],[-16,-6],[-6,-16],[9,-3],[10,-13],[8,-19],[8,-24],[-10,-14],[-62,-19],[-11,3],[13,21],[-15,14],[3,25],[11,30],[8,30],[-15,-3],[-15,-14],[-68,-105],[-12,-28],[7,-17],[9,-5],[17,2],[-2,-10],[-8,-30],[32,-48],[17,-15],[13,14],[-1,8],[-2,8],[-2,24],[7,-22],[10,-9],[21,0],[-5,33],[6,11],[10,-3],[9,-8],[10,-72],[0,-25],[-1,-19],[0,-17],[4,-23],[9,-24],[9,-14],[11,-7],[10,0],[-3,9],[3,19],[0,19],[-3,18],[-4,15],[3,12],[3,9],[4,6],[5,2],[4,5],[-1,12],[-3,23],[1,13],[5,13],[0,13],[-3,22],[0,11],[-1,12],[13,12],[61,-19],[18,2],[-4,16],[-11,28],[-4,16]],[[1223,2714],[-154,62],[-18,-1],[0,6],[-3,2],[-10,1],[-8,-2],[-9,-7],[14,-20],[31,-6],[30,-28],[169,-48],[13,22],[-12,16],[-43,3]],[[1649,2812],[-13,9],[-100,20],[-99,21],[-14,12],[-35,0],[-10,-7],[-25,-32],[-19,-10],[-56,10],[6,-24],[14,-12],[27,-5],[53,20],[63,-20],[42,16],[12,-16],[-5,-28],[7,-11],[20,0],[39,19],[14,1],[41,-21],[14,1],[23,20],[8,18],[-7,19]],[[1390,208],[63,-89],[-11,-23],[-16,-26],[-17,-19],[-10,3],[-15,25],[-72,10],[-7,7],[-5,23],[-1,22],[2,15],[4,11],[6,9],[17,18],[21,11],[41,3]],[[2229,706],[13,-6],[9,-13],[1,-16],[-14,-15],[-17,-5],[-64,14],[-35,-13],[-13,-17],[82,-68],[-13,-21],[-107,43],[-15,22],[-4,25],[12,15],[63,45],[102,10]],[[2358,1053],[-41,1],[-6,15],[6,14],[85,18],[22,18],[21,34],[11,0],[15,-16],[8,-4],[19,6],[9,-2],[8,-13],[-3,-33],[5,-25],[7,-19],[9,-13],[-10,-13],[-9,4],[-19,18],[-35,-31],[-8,7],[-8,20],[-13,14],[-22,11],[-51,-11]],[[1649,2812],[7,-19],[-8,-18],[-23,-20],[-14,-1],[-41,21],[-14,-1],[-39,-19],[-20,0],[-7,11],[5,28],[-12,16],[-42,-16],[-63,20],[-53,-20],[-27,5],[-14,12],[-6,24],[56,-10],[19,10],[25,32],[10,7],[35,0],[14,-12],[99,-21],[100,-20],[13,-9]],[[1967,0],[-97,0],[4,5],[25,4],[5,11],[14,2],[49,-22]],[[2045,0],[-72,0],[28,7],[49,34],[9,0],[5,-11],[-3,-19],[-6,-9],[-10,-2]],[[2668,778],[31,-16],[14,-15],[2,-32],[-22,-27],[-12,-9],[-6,11],[-6,20],[-15,10],[-16,1],[-10,-6],[2,-14],[4,-9],[4,-5],[5,-1],[-6,-22],[-5,-11],[-22,-12],[-22,-25],[-20,-2],[-35,33],[-18,9],[6,17],[19,27],[3,9],[6,28],[14,59],[5,10],[8,5],[18,-2],[23,8],[19,-7],[32,-32]],[[315,845],[-10,-21],[-14,-25],[-10,-29],[4,-35],[-16,-13],[-22,8],[-87,95],[-15,29],[5,0],[14,-8],[16,-20],[14,-13],[12,16],[-2,26],[-16,17],[-30,13],[7,32],[15,11],[28,-4],[-2,-10],[-2,-8],[-3,-7],[-3,-4],[15,-16],[83,-18],[12,-13],[7,-3]],[[2472,806],[9,-7],[19,-30],[10,-4],[-5,-51],[-49,-17],[2,-51],[-69,2],[-23,15],[-15,20],[-15,32],[-7,37],[12,34],[21,21],[110,-1]],[[1223,2714],[43,-3],[12,-16],[-13,-22],[-169,48],[-30,28],[-31,6],[-14,20],[9,7],[8,2],[10,-1],[3,-2],[0,-6],[18,1],[154,-62]],[[1734,148],[10,-3],[11,-7],[10,-14],[8,-20],[-2,-15],[-12,-11],[-20,-9],[3,22],[-11,5],[-40,-16],[3,-18],[11,-17],[12,-5],[-12,-15],[-15,-1],[-113,74],[-92,-10],[0,11],[-5,9],[16,36],[21,18],[52,8],[44,27],[121,-49]],[[3014,1411],[34,-58],[6,-21],[-6,-6],[-16,-48],[-9,-13],[-21,-10],[-18,0],[-8,7],[-25,35],[-47,5],[-10,-9],[-4,-21],[3,-13],[16,-22],[15,-9],[16,-20],[44,-16],[-10,-30],[-17,1],[-51,42],[-59,-13],[-9,3],[-19,14],[-9,4],[-38,-10],[-16,4],[-8,10],[-3,21],[-4,15],[-17,18],[-7,12],[7,16],[7,6],[7,-4],[9,-13],[9,-9],[69,-15],[21,10],[11,29],[-9,1],[-26,19],[10,29],[-6,22],[-6,18],[10,13],[42,-22],[-5,-24],[-2,-7],[36,6],[72,50],[41,3]],[[1271,1969],[4,-16],[11,-28],[4,-16],[-18,-2],[-61,19],[-13,-12],[1,-12],[0,-11],[3,-22],[0,-13],[-5,-13],[-1,-13],[3,-23],[1,-12],[-4,-5],[-5,-2],[-4,-6],[-3,-9],[-3,-12],[4,-15],[3,-18],[0,-19],[-3,-19],[3,-9],[-10,0],[-11,7],[-9,14],[-9,24],[-4,23],[0,17],[1,19],[0,25],[-10,72],[-9,8],[-10,3],[-6,-11],[5,-33],[-21,0],[-10,9],[-7,22],[2,-24],[2,-8],[1,-8],[-13,-14],[-17,15],[-32,48],[8,30],[2,10],[-17,-2],[-9,5],[-7,17],[12,28],[68,105],[15,14],[15,3],[-8,-30],[-11,-30],[-3,-25],[15,-14],[-13,-21],[11,-3],[62,19],[10,14],[-8,24],[-8,19],[-10,13],[-9,3],[6,16],[16,6],[7,9],[0,20],[-5,5],[-10,5],[-4,9],[23,26],[76,14],[0,-10],[-2,-5],[-5,-4],[0,-11],[-7,-61],[1,-24],[11,-4],[-12,-20],[-43,29],[15,-35],[18,-5],[19,5],[18,-7],[5,-11],[2,-13],[2,-16],[4,-17]],[[4096,2220],[-2,2],[-16,2],[-13,13],[14,25],[17,4],[0,-46]],[[4096,2176],[0,-2176],[-944,0],[-16,41],[-26,22],[-144,11],[-17,25],[2,7],[1,7],[2,16],[-7,9],[-40,21],[-4,4],[3,17],[26,59],[-17,34],[-16,24],[-18,17],[-57,28],[-177,11],[-17,20],[-9,23],[0,10],[3,10],[1,21],[-4,12],[-7,7],[-6,9],[-3,22],[12,19],[80,-15],[30,-35],[17,-30],[4,0],[3,7],[1,15],[0,16],[-3,3],[-3,1],[-4,9],[-6,47],[-4,12],[-8,13],[-11,6],[-39,3],[-8,6],[-8,12],[7,11],[8,2],[17,-2],[23,11],[19,-17],[11,10],[12,16],[58,30],[35,-22],[7,-9],[4,-11],[3,-13],[4,-11],[6,-4],[-11,-14],[-4,-7],[10,-12],[10,1],[20,11],[7,-1],[21,-18],[6,0],[18,19],[10,1],[19,-10],[9,-1],[-10,-34],[-15,-21],[-38,-31],[-23,-6],[-6,-7],[-1,-19],[6,-8],[9,0],[15,7],[19,-8],[9,7],[18,42],[7,9],[8,2],[4,-5],[10,-48],[1,-15],[-2,-12],[-6,-11],[9,-14],[10,4],[8,19],[3,29],[-3,23],[-12,35],[-2,13],[5,18],[12,-2],[25,-16],[52,0],[-10,13],[-40,17],[-6,6],[-10,15],[-7,18],[1,15],[9,19],[1,15],[-4,8],[-11,3],[-93,-29],[-3,3],[-4,19],[-2,7],[-6,4],[-12,1],[-5,5],[-2,8],[-2,23],[-3,9],[-6,6],[-11,0],[-6,3],[-8,24],[-4,7],[-16,2],[-4,7],[10,19],[71,32],[9,20],[-106,9],[-4,3],[-10,13],[-5,4],[-19,2],[-7,5],[-16,26],[-6,4],[-11,1],[-31,22],[-165,20],[10,24],[11,14],[24,12],[-11,24],[3,21],[21,32],[14,7],[29,-20],[14,5],[7,9],[9,17],[8,23],[1,31],[-5,22],[-30,37],[5,8],[6,3],[12,-1],[4,-3],[2,-7],[2,-6],[3,-3],[27,5],[9,-5],[22,-35],[8,-5],[16,1],[7,-8],[4,-24],[-60,10],[6,-15],[19,-29],[15,-40],[5,-5],[7,3],[3,8],[4,10],[6,10],[7,3],[23,-3],[60,-41],[-2,-14],[-9,-19],[-1,-17],[5,-10],[9,-3],[16,3],[-2,-3],[-6,-16],[9,-30],[10,-7],[21,17],[12,4],[12,-2],[13,-7],[23,-24],[6,0],[4,9],[-1,14],[-5,8],[-9,8],[-9,26],[3,14],[8,10],[8,19],[-17,10],[-41,-8],[-12,28],[5,7],[10,7],[5,6],[-3,11],[18,30],[21,17],[19,-4],[16,-29],[4,-10],[5,-7],[6,-3],[4,6],[1,8],[-1,26],[1,10],[5,25],[-2,12],[-7,10],[-7,17],[9,58],[13,32],[62,75],[16,9],[20,22],[7,14],[-8,19],[-11,5],[-21,-5],[-9,5],[-28,35],[14,26],[21,12],[21,2],[21,-10],[10,1],[5,-1],[3,-5],[7,-13],[9,-9],[-3,-14],[-7,-13],[-6,-6],[4,-16],[8,-8],[15,-5],[16,-19],[8,-3],[9,11],[-16,35],[3,5],[27,11],[10,9],[11,19],[4,19],[-10,12],[21,1],[10,6],[9,13],[-21,18],[-101,0],[-10,9],[-5,1],[-12,-9],[-5,0],[-4,6],[-11,24],[-21,18],[-84,29],[-10,-4],[-25,-23],[-8,3],[-7,17],[7,34],[7,22],[18,39],[14,16],[64,7],[123,-41],[18,3],[118,-61],[15,-1],[14,10],[33,53],[12,3],[9,-25],[10,31],[15,13],[16,5],[14,12],[5,8],[3,7],[1,13],[1,42],[0,12],[3,11],[4,11],[12,19],[40,35],[13,5],[40,-24],[-5,23],[-7,20],[-16,27],[23,43],[51,10],[24,16],[-18,20],[27,33],[29,20],[31,3],[28,-16],[-11,32],[-17,12],[-99,-35],[8,10],[70,35],[24,16],[42,2],[7,6],[7,9],[6,12],[15,45],[6,6],[6,-5],[18,-35],[23,-12],[7,-8],[1,-24],[53,-2],[6,-9],[19,13],[8,-1],[8,-8],[9,-3],[9,2],[7,12],[-10,13],[-26,25],[-4,21],[8,18],[80,16],[53,4]],[[3125,0],[-136,0],[-7,20],[21,24],[94,-16],[28,-28]],[[3386,1675],[44,48],[64,8],[124,178],[12,83],[126,74],[35,-4],[49,106],[152,-37],[104,18],[0,-777],[-18,32],[-41,-18],[-40,17],[8,-121],[-84,-15],[-22,91],[-37,-6],[-26,26],[-42,-17],[-145,91],[-213,-6],[16,86],[-34,55],[22,41],[-54,47]],[[3712,0],[-901,0],[0,1],[-88,73],[62,86],[126,11],[17,96],[-58,74],[-62,-3],[-34,45],[-110,8],[-60,68],[24,92],[57,4],[70,-114],[-7,122],[-83,38],[65,27],[24,-18],[1,0],[-2,33],[45,1],[4,24],[76,-27],[26,-42],[-30,-32],[59,0],[-2,-36],[1,-1],[22,42],[69,-5],[84,-71],[20,15],[-11,107],[104,21],[95,-25],[133,64],[8,53],[76,-19],[18,-90],[58,-67],[0,-47],[206,-8],[57,-95],[55,-2],[-75,-119],[16,-35],[-31,-37],[41,-38],[-14,-35],[-85,12],[-28,83],[-125,-82],[-50,-1],[137,-151]],[[3495,2428],[128,23],[161,-32],[-118,-40],[-171,49]],[[2355,197],[16,68],[184,-37],[-4,-49],[-62,-20],[-126,6],[-8,32]],[[1997,642],[232,92],[0,1],[-24,17],[18,44],[51,39],[253,-16],[9,-18],[-35,-224],[33,-99],[-38,-97],[-245,25],[-225,143],[-29,93]],[[1038,2761],[51,82],[322,46],[239,-60],[22,-52],[-22,-50],[-100,3],[-220,-93],[-226,-46],[-56,39],[-10,131]],[[1011,1891],[34,131],[82,109],[92,59],[86,-4],[7,-38],[-41,-20],[-9,-40],[66,-196],[-84,-398],[-40,17],[-143,189],[-50,191]],[[144,821],[25,92],[56,17],[13,-46],[98,-55],[-4,-43],[-30,-13],[15,-78],[-122,28],[-51,98]]]}