{"objects":{"water":{"type":"GeometryCollection","geometries":[{"type":"MultiPolygon","properties":{"source":"naturalearthdata.com","kind":"ocean","area":989871000000000,"sort_rank":200,"min_zoom":0,"id":1},"arcs":[[[24]],[[25],[26]],[[27]],[[28]]]},{"type":"MultiLineString","properties":{"source":"naturalearthdata.com","kind":"ocean","sort_rank":205,"boundary":true,"min_zoom":0,"id":465},"arcs":[[29],[30],[31],[32],[33]]},{"type":"LineString","properties":{"source":"naturalearthdata.com","kind":"ocean","sort_rank":205,"boundary":true,"min_zoom":0,"id":495},"arcs":[34]},{"type":"MultiLineString","properties":{"source":"naturalearthdata.com","kind":"ocean","sort_rank":205,"boundary":true,"min_zoom":0,"id":1925},"arcs":[[35],[36]]},{"type":"MultiLineString","properties":{"source":"naturalearthdata.com","kind":"ocean","sort_rank":205,"boundary":true,"min_zoom":0,"id":1934},"arcs":[[37],[38],[39]]},{"type":"MultiLineString","properties":{"source":"naturalearthdata.com","kind":"ocean","sort_rank":205,"boundary":true,"min_zoom":0,"id":4129},"arcs":[[40],[41]]}]},"buildings":{"type":"GeometryCollection","geometries":[]},"places":{"type":"GeometryCollection","geometries":[{"type":"Point","properties":{"name:pt":"Dikson","collision_rank":368,"name:nl":"Dikson","name:id":null,"name":"Dikson","name:hi":null,"name:tr":null,"name:sv":"Dikson","name:ar":null,"min_zoom":5.0,"name:it":"Dikson","name:vi":null,"name:ru":"\u0414\u0438\u043a\u0441\u043e\u043d","name:pl":"Dikson","name:hu":null,"id":6891,"name:ja":"\u30c7\u30a3\u30af\u30bd\u30f3","name:el":null,"kind":"locality","name:en":"Dikson","population_rank":3,"source":"naturalearthdata.com","name:bn":null,"name:de":"Dikson","name:ko":"\ub515\uc190","name:fr":"Dikson","wikidata_id":"Q678299","population":1113,"name:zh":"\u8fea\u514b\u68ee","name:es":"Dikson"},"coordinates":[654,3480]}]},"transit":{"type":"GeometryCollection","geometries":[]},"pois":{"type":"GeometryCollection","geometries":[]},"boundaries":{"type":"GeometryCollection","geometries":[{"type":"MultiLineString","properties":{"sort_rank":256,"kind_detail":"4","kind":"region","min_zoom":2.0,"source":"naturalearthdata.com"},"arcs":[[0],[1],[2],[3],[4],[5],[6],[7],[8],[9],[10],[11],[12],[13],[14],[15],[16],[17],[18],[19],[20],[21],[22],[23]]}]},"roads":{"type":"GeometryCollection","geometries":[]},"earth":{"type":"GeometryCollection","geometries":[{"type":"MultiPolygon","properties":{"sort_rank":10,"source":"naturalearthdata.com","kind":"earth","min_zoom":2.0,"area":372226641930},"arcs":[[[42]]]},{"type":"MultiPolygon","properties":{"sort_rank":10,"source":"naturalearthdata.com","kind":"earth","min_zoom":5.0,"area":29754728941},"arcs":[[[43]],[[44]],[[45]]]},{"type":"MultiPolygon","properties":{"sort_rank":10,"source":"naturalearthdata.com","min_zoom":0,"kind":"earth","area":11714569654858},"arcs":[[[46]],[[47]],[[48]]]}]},"landuse":{"type":"GeometryCollection","geometries":[{"type":"MultiPolygon","properties":{"kind":"nature_reserve","protect_class":"1","area":2495102325819,"sort_rank":23,"source":"openstreetmap.org","min_zoom":4.0,"tier":2,"id":-9349959},"arcs":[[[49]],[[50]]]},{"type":"MultiPolygon","properties":{"kind":"nature_reserve","protect_class":"4","area":132389094746,"sort_rank":23,"source":"openstreetmap.org","min_zoom":4.0,"tier":2,"id":-7008416},"arcs":[[[51]]]}]}},"type":"Topology","transform":{"translate":[78.75,70.612614238],"scale":[0.002746582,0.0008317698]},"arcs":[[[65,1807],[-5,1],[-4,3],[0,6],[1,6],[2,7],[0,6],[-1,5],[-4,4],[-40,26],[-3,5],[2,3],[3,3],[1,5],[-2,3],[-6,0]],[[9,1890],[-9,-1]],[[130,1756],[-5,3],[-2,6],[0,7],[0,7],[0,9],[-3,6],[-3,4],[-19,14],[-8,2]],[[90,1814],[-5,0],[-20,-7]],[[215,1737],[-42,22],[-28,2]],[[145,1761],[-10,-5],[-5,0]],[[250,1716],[-6,4],[-5,11],[-5,6],[-4,3]],[[230,1740],[-15,-3]],[[422,1651],[-4,3],[-6,8],[-2,4],[0,1],[0,3],[0,5],[-2,11],[-2,7],[-4,5],[-58,39],[-5,0]],[[339,1737],[-25,-18],[-11,-1]],[[303,1718],[-34,6]],[[269,1724],[-5,-2],[-9,-6],[-5,0]],[[522,1594],[-27,14],[-6,5],[-1,7],[-7,9],[-5,5],[-5,6],[-10,8],[-30,5]],[[431,1653],[-9,-2]],[[569,1514],[4,1],[4,4],[3,5],[0,6],[-1,6],[-10,13],[-4,4],[-12,8],[-6,7],[-3,8],[-3,13],[-3,7],[-4,3]],[[534,1599],[-4,-2],[-4,-2],[-4,-1]],[[559,1517],[10,-3]],[[548,1493],[5,1],[2,7],[0,10],[1,6],[3,0]],[[520,1508],[28,-15]],[[407,1189],[39,19],[4,5],[2,5],[3,9],[4,11],[2,6],[1,6],[1,6],[3,3],[18,0],[4,2],[4,4],[4,5],[2,7],[0,15],[-2,14],[-13,69],[0,10],[4,4],[10,1],[2,6],[0,6],[-2,6],[-7,16],[-2,6],[-2,5],[-3,4],[-10,4],[-5,3],[-1,5],[0,7],[1,7],[3,5],[3,5],[8,8],[27,9],[4,4],[4,10],[3,2]],[[236,1206],[5,-2],[19,-13],[11,-4]],[[721,0],[0,1],[2,7],[2,7],[2,6],[2,6],[1,8],[1,8],[0,9],[-1,9],[-2,7],[-3,6],[-9,14],[-3,4],[-5,2],[-9,0],[-4,2],[-19,21],[-3,8],[-2,7],[0,8],[0,7],[1,8],[2,7],[2,7],[3,5],[14,18],[8,16],[2,6],[2,7],[0,6],[-2,5],[-13,17],[-2,5],[-17,20],[-6,9],[-3,8],[-1,7],[-2,13],[-1,6],[-1,15],[-1,14],[0,14],[1,44],[0,22],[-3,33],[0,11],[0,5],[1,44],[-1,12],[-3,6],[-4,5],[-45,33],[-163,52],[-142,172],[-36,28],[-48,18],[-33,2],[-6,4],[-7,10],[-9,19],[-3,13],[-2,10],[-1,15],[-8,37],[-1,10],[0,8],[4,12],[9,16],[56,43],[4,5],[3,5],[2,6],[2,7],[8,37],[1,7],[1,8],[-1,9],[-2,10],[-3,15],[-3,8],[-2,8],[-8,16],[2,4],[10,13],[4,3],[6,1]],[[292,1195],[115,-6]],[[271,1187],[7,0],[14,8]],[[3125,4096],[27,0],[5,-9],[-20,-2],[-12,11]],[[2045,4096],[944,0],[1,-2],[29,-31],[14,-38],[4,-7],[9,-10],[10,-19],[2,-8],[1,-14],[2,-11],[3,-8],[8,-9],[19,-34],[21,-23],[24,-18],[24,-8],[9,6],[12,13],[11,18],[5,17],[-1,33],[1,18],[5,8],[13,2],[11,-2],[13,-10],[7,-18],[-7,-27],[3,-8],[-13,-46],[-22,-26],[-84,-58],[-17,-28],[-12,-47],[9,-1],[19,22],[7,-5],[-12,-26],[-27,-36],[-12,-25],[-14,-25],[-20,-7],[-97,1],[-26,-27],[-104,-15],[-103,-16],[-47,-36],[-38,-11],[-32,-27],[-14,-68],[1,-6],[3,-10],[1,-4],[0,-7],[-2,-14],[-1,-4],[0,-25],[1,-8],[3,-13],[12,-29],[15,-19],[115,-56],[46,-40],[12,-17],[18,-39],[11,-16],[8,-5],[26,-5],[14,-12],[14,-17],[30,-57],[8,-25],[5,-22],[1,-23],[1,-55],[-3,4],[-6,9],[-5,12],[-4,14],[-2,12],[-2,24],[-1,12],[-3,13],[-7,27],[-5,10],[-6,9],[-12,11],[-7,8],[-32,31],[-71,20],[-29,52],[2,9],[-2,8],[-5,21],[-117,63],[-24,22],[-5,7],[-5,10],[-5,13],[-3,17],[0,14],[1,15],[1,16],[-7,64],[1,30],[11,13],[6,4],[21,29],[30,18],[52,65],[58,15],[44,29],[45,58],[36,12],[19,17],[19,11],[9,9],[27,45],[15,17],[54,16],[5,6],[5,14],[4,17],[5,13],[11,18],[3,12],[-1,20],[-7,12],[-108,37],[-140,-21],[-139,-22],[-54,-51],[-96,-3],[-7,-3],[-6,-7],[-17,-33],[-15,-20],[-4,-11],[3,-10],[4,-9],[2,-8],[-8,-21],[-17,-10],[-120,7],[-25,-10],[-8,1],[-29,27],[-49,39],[-80,-14],[-75,-52],[-116,-9],[-117,-9],[-89,-48],[-153,-2],[-178,10],[-99,0],[-125,1],[-156,-18],[-77,-29],[-23,-23],[-123,-21],[-31,-18],[-94,15],[-14,-5],[-8,-16],[-1,-16],[0,-46],[-2,-21],[13,-13],[34,32],[16,-11],[-6,-8],[-7,-6],[-7,-9],[-3,-14],[0,-19],[-2,-11],[-3,-8],[-5,-7],[-8,-9],[-26,-7],[-3,-5],[-21,-57],[-4,-1],[-4,9],[-5,7],[-8,2],[-8,-4],[-3,-13],[-7,-20],[-14,-14],[-10,-16],[6,-24],[26,-13],[35,-4],[32,-17],[15,-53],[-2,-19],[-4,-5],[-7,1],[-16,-15],[-8,-3],[-52,-1],[-18,-9],[-16,-23],[9,0],[17,9],[9,-1],[27,-22],[44,-10],[17,-18],[10,-32],[-30,0],[-16,-6],[-12,-10],[12,-18],[13,-10],[54,-15],[13,-9],[22,-24],[3,-9],[1,-18],[1,-10],[5,-7],[5,-6],[3,-7],[6,-20],[5,-43],[5,-19],[-8,-60],[-6,-28],[-6,-27],[-2,-2],[-2,2],[-1,1],[0,-5],[0,-17],[0,-4],[-5,-12],[-24,-42],[-19,-21],[-4,-12],[-1,-20],[2,-16],[9,-24],[2,-18],[8,-27],[40,-12],[14,-19],[-7,-16],[-4,-6],[-4,-2],[-4,-4],[-1,-9],[0,-8],[0,-4],[-22,-26],[-6,-15],[32,-52],[16,-34],[9,-10],[17,-12],[91,-109],[19,-12],[138,-5],[100,-41],[30,-29],[67,-18],[3,0],[11,8],[6,2],[5,-5],[3,-8],[3,-14],[2,-8],[4,-6],[13,-9],[8,-13],[4,-16],[2,-19],[1,-26],[-3,-58],[-12,-17],[-15,-7],[-14,-26],[33,-16],[16,-16],[22,-32],[18,-16],[15,-7],[44,-70],[11,-25],[5,-32],[2,-16],[4,-12],[5,-9],[4,-6],[10,-2],[6,7],[6,12],[8,10],[10,4],[66,-9],[30,-15],[40,-1],[36,-32],[37,-21],[15,-25],[5,-14],[1,-10],[-1,-11],[0,-15],[0,-6],[-2,-7],[-1,-10],[1,-9],[3,-5],[14,-8],[25,-45],[3,-6],[2,-7],[0,-8],[1,-15],[2,-6],[7,-8],[12,-20],[7,-16],[3,-25],[1,-42],[-4,-23],[-21,-56],[-8,-16],[-17,-17],[-19,-7],[-9,0],[-7,-3],[-5,-11],[-2,-24],[-1,-30],[0,-15],[4,-31],[-4,-15],[-9,-19],[-20,-59],[-11,-23],[-20,-14],[-13,-23],[-6,-5],[-4,-7],[4,-16],[19,-51],[10,-58],[7,-29],[-6,-5],[-45,1],[6,-18],[6,-12],[7,-8],[53,-19],[12,-12],[12,-28],[7,-35],[-6,-33],[8,-21],[18,-29],[8,-20],[4,-21],[7,-45],[5,-20],[-3,-8],[8,-51],[2,-7],[7,-3],[9,-9],[6,-14],[3,-19],[-1,-17],[-2,-14],[-1,-13],[2,-18],[4,-15],[13,-23],[5,-12],[4,-16],[4,-30],[3,-12],[-143,0],[1,38],[26,23],[25,34],[9,55],[-35,61],[-25,21],[-17,-5],[-9,-39],[-3,-50],[-6,-49],[-22,-44],[-5,-45],[-24,0],[0,1],[0,14],[-4,36],[-1,15],[4,30],[8,37],[9,33],[9,16],[-2,27],[1,26],[3,23],[1,23],[-4,43],[-10,17],[-27,12],[-24,33],[-12,24],[-6,23],[-1,17],[-4,17],[-5,7],[-5,-12],[1,-12],[6,-41],[1,-16],[-3,-16],[-5,-11],[-3,1],[-4,16],[-2,14],[-3,11],[-39,16],[-17,-4],[-21,-39],[-13,-13],[-6,-9],[-2,-11],[1,-14],[1,-13],[1,-12],[-5,-20],[-24,-38],[-8,-20],[3,-17],[5,-8],[12,-8],[7,-12],[0,-7],[-6,-3],[-9,-1],[-4,-6],[-1,-12],[0,-16],[-1,-13],[-5,-14],[-5,-10],[-6,-5],[-8,0],[1,-5],[0,-4],[1,-3],[1,-4],[-2,-18],[5,-12],[6,-13],[3,-19],[-3,-20],[0,-1],[-108,0],[1,0],[6,11],[5,14],[0,14],[-2,7],[-1,7],[4,17],[12,30],[49,56],[14,28],[3,14],[-3,15],[-22,34],[0,16],[-5,8],[-4,10],[3,20],[-1,13],[-5,13],[-5,14],[2,14],[-36,95],[-2,35],[12,24],[29,28],[10,21],[4,23],[-2,27],[-6,31],[-4,13],[-9,17],[-5,11],[-1,12],[1,28],[-1,14],[-2,12],[-3,11],[-2,13],[0,14],[5,17],[8,10],[96,63],[95,62],[44,8],[15,14],[24,7],[-4,17],[-6,9],[-6,7],[-5,12],[-2,12],[1,15],[4,26],[5,39],[5,25],[9,14],[31,12],[13,17],[25,50],[18,25],[5,12],[6,18],[0,12],[-3,11],[-6,13],[-16,27],[-17,14],[-19,3],[-49,-12],[-14,10],[-3,1],[-3,2],[-3,8],[-5,16],[-3,7],[-3,6],[-21,18],[-134,-38],[-29,-21],[-42,-8],[-40,-27],[-167,-10],[-69,50],[-74,28],[-13,14],[-10,24],[-7,36],[0,5],[1,4],[2,7],[-1,9],[-2,9],[-4,6],[-110,105],[-109,105],[-6,14],[7,24],[13,16],[16,4],[30,-3],[-6,-15],[-16,-12],[-7,-15],[25,-24],[7,0],[6,11],[3,15],[1,16],[1,11],[-6,17],[-131,83],[-169,67],[-82,68],[-99,117],[-44,29],[-67,5],[-70,-16],[-94,19],[-3,1],[0,470],[15,-7],[33,-38],[10,-7],[33,4],[144,-49],[51,27],[13,17],[-3,34],[-3,7],[-4,5],[-2,7],[-2,10],[0,7],[2,7],[2,5],[1,5],[-2,14],[-2,12],[-2,9],[-4,6],[2,24],[-1,20],[-5,17],[-6,13],[6,9],[6,-2],[6,-5],[7,-2],[-7,21],[-35,46],[-16,29],[-2,8],[0,12],[-1,9],[-1,7],[-3,9],[-5,11],[-17,14],[-31,49],[-11,13],[-12,4],[-12,-7],[-87,-120],[-55,-76],[0,1307],[1870,0],[-1,-1],[1,-15],[4,-10],[5,-5],[98,-11],[18,-21],[38,-14],[16,1],[15,17],[-25,33],[-8,18],[10,7],[4,1]],[[2965,3708],[5,9],[-20,-7],[-58,-43],[-43,-11],[-24,-14],[-8,-24],[-8,-4],[-24,-29],[132,11],[8,5],[5,8],[0,14],[-3,14],[1,9],[7,16],[25,38],[5,8]],[[1967,4096],[6,0],[-4,-1],[-2,1]],[[0,364],[0,25],[3,-1],[52,49],[-21,16],[-10,3],[-11,-2],[22,28],[44,-32],[28,37],[11,7],[10,-4],[5,-19],[-5,-16],[-11,-13],[-19,-14],[4,1],[5,-3],[4,-6],[2,-11],[-3,-13],[-5,-6],[-27,-10],[-7,2],[2,14],[-8,7],[-5,-10],[-6,-14],[-6,-7],[-41,-9],[-7,1]],[[3152,4096],[5,-9],[-20,-2],[-12,11]],[[2989,4096],[1,-2],[29,-31],[14,-38],[4,-7],[9,-10],[10,-19],[2,-8],[1,-14],[2,-11],[3,-8],[8,-9],[19,-34],[21,-23],[24,-18],[24,-8],[9,6],[12,13],[11,18],[5,17],[-1,33],[1,18],[5,8],[13,2],[11,-2],[13,-10],[7,-18],[-7,-27],[3,-8],[-13,-46],[-22,-26],[-84,-58],[-17,-28],[-12,-47],[9,-1],[19,22],[7,-5],[-12,-26],[-27,-36],[-12,-25],[-14,-25],[-20,-7],[-97,1],[-26,-27],[-104,-15],[-103,-16],[-47,-36],[-38,-11],[-32,-27],[-14,-68],[1,-6],[3,-10],[1,-4],[0,-7],[-2,-14],[-1,-4],[0,-25],[1,-8],[3,-13],[12,-29],[15,-19],[115,-56],[46,-40],[12,-17],[18,-39],[11,-16],[8,-5],[26,-5],[14,-12],[14,-17],[30,-57],[8,-25],[5,-22],[1,-23],[1,-55],[-3,4],[-6,9],[-5,12],[-4,14],[-2,12],[-2,24],[-1,12],[-3,13],[-7,27],[-5,10],[-6,9],[-12,11],[-7,8],[-32,31],[-71,20],[-29,52],[2,9],[-2,8],[-5,21],[-117,63],[-24,22],[-5,7],[-5,10],[-5,13],[-3,17],[0,14],[1,15],[1,16],[-7,64],[1,30],[11,13],[6,4],[21,29],[30,18],[52,65],[58,15],[44,29],[45,58],[36,12],[19,17],[19,11],[9,9],[27,45],[15,17],[54,16],[5,6],[5,14],[4,17],[5,13],[11,18],[3,12],[-1,20],[-7,12],[-108,37],[-140,-21],[-139,-22],[-54,-51],[-96,-3],[-7,-3],[-6,-7],[-17,-33],[-15,-20],[-4,-11],[3,-10],[4,-9],[2,-8],[-8,-21],[-17,-10],[-120,7],[-25,-10],[-8,1],[-29,27],[-49,39],[-80,-14],[-75,-52],[-116,-9],[-117,-9],[-89,-48],[-153,-2],[-178,10],[-99,0],[-125,1],[-156,-18],[-77,-29],[-23,-23],[-123,-21],[-31,-18],[-94,15],[-14,-5],[-8,-16],[-1,-16],[0,-46],[-2,-21],[13,-13],[34,32],[16,-11],[-6,-8],[-7,-6],[-7,-9],[-3,-14],[0,-19],[-2,-11],[-3,-8],[-5,-7],[-8,-9],[-26,-7],[-3,-5],[-21,-57],[-4,-1],[-4,9],[-5,7],[-8,2],[-8,-4],[-3,-13],[-7,-20],[-14,-14],[-10,-16],[6,-24],[26,-13],[35,-4],[32,-17],[15,-53],[-2,-19],[-4,-5],[-7,1],[-16,-15],[-8,-3],[-52,-1],[-18,-9],[-16,-23],[9,0],[17,9],[9,-1],[27,-22],[44,-10],[17,-18],[10,-32],[-30,0],[-16,-6],[-12,-10],[12,-18],[13,-10],[54,-15],[13,-9],[22,-24],[3,-9],[1,-18],[1,-10],[5,-7],[5,-6],[3,-7],[6,-20],[5,-43],[5,-19],[-8,-60],[-6,-28],[-6,-27],[-2,-2],[-2,2],[-1,1],[0,-5],[0,-17],[0,-4],[-5,-12],[-24,-42],[-19,-21],[-4,-12],[-1,-20],[2,-16],[9,-24],[2,-18],[8,-27],[40,-12],[14,-19],[-7,-16],[-4,-6],[-4,-2],[-4,-4],[-1,-9],[0,-8],[0,-4],[-22,-26],[-6,-15],[32,-52],[16,-34],[9,-10],[17,-12],[91,-109],[19,-12],[138,-5],[100,-41],[30,-29],[67,-18],[3,0],[11,8],[6,2],[5,-5],[3,-8],[3,-14],[2,-8],[4,-6],[13,-9],[8,-13],[4,-16],[2,-19],[1,-26],[-3,-58],[-12,-17],[-15,-7],[-14,-26],[33,-16],[16,-16],[22,-32],[18,-16],[15,-7],[44,-70],[11,-25],[5,-32],[2,-16],[4,-12],[5,-9],[4,-6],[10,-2],[6,7],[6,12],[8,10],[10,4],[66,-9],[30,-15],[40,-1],[36,-32],[37,-21],[15,-25],[5,-14],[1,-10],[-1,-11],[0,-15],[0,-6],[-2,-7],[-1,-10],[1,-9],[3,-5],[14,-8],[25,-45],[3,-6],[2,-7],[0,-8],[1,-15],[2,-6],[7,-8],[12,-20],[7,-16],[3,-25],[1,-42],[-4,-23],[-21,-56],[-8,-16],[-17,-17],[-19,-7],[-9,0],[-7,-3],[-5,-11],[-2,-24],[-1,-30],[0,-15],[4,-31],[-4,-15],[-9,-19],[-20,-59],[-11,-23],[-20,-14],[-13,-23],[-6,-5],[-4,-7],[4,-16],[19,-51],[10,-58],[7,-29],[-6,-5],[-45,1],[6,-18],[6,-12],[7,-8],[53,-19],[12,-12],[12,-28],[7,-35],[-6,-33],[8,-21],[18,-29],[8,-20],[4,-21],[7,-45],[5,-20],[-3,-8],[8,-51],[2,-7],[7,-3],[9,-9],[6,-14],[3,-19],[-1,-17],[-2,-14],[-1,-13],[2,-18],[4,-15],[13,-23],[5,-12],[4,-16],[4,-30],[3,-12]],[[1572,0],[0,1],[0,14],[-4,36],[-1,15],[4,30],[8,37],[9,33],[9,16],[-2,27],[1,26],[3,23],[1,23],[-4,43],[-10,17],[-27,12],[-24,33],[-12,24],[-6,23],[-1,17],[-4,17],[-5,7],[-5,-12],[1,-12],[6,-41],[1,-16],[-3,-16],[-5,-11],[-3,1],[-4,16],[-2,14],[-3,11],[-39,16],[-17,-4],[-21,-39],[-13,-13],[-6,-9],[-2,-11],[1,-14],[1,-13],[1,-12],[-5,-20],[-24,-38],[-8,-20],[3,-17],[5,-8],[12,-8],[7,-12],[0,-7],[-6,-3],[-9,-1],[-4,-6],[-1,-12],[0,-16],[-1,-13],[-5,-14],[-5,-10],[-6,-5],[-8,0],[1,-5],[0,-4],[1,-3],[1,-4],[-2,-18],[5,-12],[6,-13],[3,-19],[-3,-20],[0,-1]],[[1244,0],[1,0],[6,11],[5,14],[0,14],[-2,7],[-1,7],[4,17],[12,30],[49,56],[14,28],[3,14],[-3,15],[-22,34],[0,16],[-5,8],[-4,10],[3,20],[-1,13],[-5,13],[-5,14],[2,14],[-36,95],[-2,35],[12,24],[29,28],[10,21],[4,23],[-2,27],[-6,31],[-4,13],[-9,17],[-5,11],[-1,12],[1,28],[-1,14],[-2,12],[-3,11],[-2,13],[0,14],[5,17],[8,10],[96,63],[95,62],[44,8],[15,14],[24,7],[-4,17],[-6,9],[-6,7],[-5,12],[-2,12],[1,15],[4,26],[5,39],[5,25],[9,14],[31,12],[13,17],[25,50],[18,25],[5,12],[6,18],[0,12],[-3,11],[-6,13],[-16,27],[-17,14],[-19,3],[-49,-12],[-14,10],[-3,1],[-3,2],[-3,8],[-5,16],[-3,7],[-3,6],[-21,18],[-134,-38],[-29,-21],[-42,-8],[-40,-27],[-167,-10],[-69,50],[-74,28],[-13,14],[-10,24],[-7,36],[0,5],[1,4],[2,7],[-1,9],[-2,9],[-4,6],[-110,105],[-109,105],[-6,14],[7,24],[13,16],[16,4],[30,-3],[-6,-15],[-16,-12],[-7,-15],[25,-24],[7,0],[6,11],[3,15],[1,16],[1,11],[-6,17],[-131,83],[-169,67],[-82,68],[-99,117],[-44,29],[-67,5],[-70,-16],[-94,19],[-3,1]],[[0,389],[3,-1],[52,49],[-21,16],[-10,3],[-11,-2],[22,28],[44,-32],[28,37],[11,7],[10,-4],[5,-19],[-5,-16],[-11,-13],[-19,-14],[4,1],[5,-3],[4,-6],[2,-11],[-3,-13],[-5,-6],[-27,-10],[-7,2],[2,14],[-8,7],[-5,-10],[-6,-14],[-6,-7],[-41,-9],[-7,1]],[[2965,3708],[5,9],[-20,-7],[-58,-43],[-43,-11],[-24,-14],[-8,-24],[-8,-4],[-24,-29],[132,11],[8,5],[5,8],[0,14],[-3,14],[1,9],[7,16],[25,38],[5,8]],[[296,2592],[-3,7],[-4,5],[-2,7],[-2,10],[0,7],[2,7],[2,5],[1,5],[-2,14],[-2,12],[-2,9],[-4,6],[2,24],[-1,20],[-5,17],[-6,13],[6,9],[6,-2],[6,-5],[7,-2],[-7,21],[-35,46],[-16,29],[-2,8],[0,12],[-1,9],[-1,7],[-3,9],[-5,11],[-17,14],[-31,49],[-11,13],[-12,4],[-12,-7],[-87,-120],[-55,-76]],[[0,2611],[15,-7],[33,-38],[10,-7],[33,4],[144,-49],[51,27],[13,17],[-3,34]],[[2041,4095],[4,1]],[[1973,4096],[-4,-1],[-2,1]],[[1870,4096],[-1,-1],[1,-15],[4,-10],[5,-5],[98,-11],[18,-21],[38,-14],[16,1],[15,17],[-25,33],[-8,18],[10,7]],[[1658,232],[25,-21],[35,-61],[-9,-55],[-25,-34],[-26,-23],[-1,-38]],[[1596,0],[5,45],[22,44],[6,49],[3,50],[9,39],[17,5]],[[0,2611],[0,178],[55,76],[87,120],[12,7],[12,-4],[11,-13],[31,-49],[17,-14],[5,-11],[3,-9],[1,-7],[1,-9],[0,-12],[2,-8],[16,-29],[35,-46],[7,-21],[-7,2],[-6,5],[-6,2],[-6,-9],[6,-13],[5,-17],[1,-20],[-2,-24],[4,-6],[2,-9],[2,-12],[2,-14],[-1,-5],[-2,-5],[-2,-7],[0,-7],[2,-10],[2,-7],[4,-5],[3,-7],[3,-34],[-13,-17],[-51,-27],[-144,49],[-33,-4],[-10,7],[-33,38],[-15,7]],[[1657,0],[-61,0],[5,45],[22,44],[6,49],[3,50],[9,39],[17,5],[25,-21],[35,-61],[-9,-55],[-25,-34],[-26,-23],[-1,-38]],[[2965,3708],[-5,-8],[-25,-38],[-7,-16],[-1,-9],[3,-14],[0,-14],[-5,-8],[-8,-5],[-132,-11],[24,29],[8,4],[8,24],[24,14],[43,11],[58,43],[20,7],[-5,-9]],[[1973,4096],[72,0],[-4,-1],[-10,-7],[8,-18],[25,-33],[-15,-17],[-16,-1],[-38,14],[-18,21],[-98,11],[-5,5],[-4,10],[-1,15],[1,1],[97,0],[2,-1],[4,1]],[[4096,2925],[0,-2925],[-2296,0],[-3,12],[-4,30],[-4,16],[-5,12],[-13,23],[-4,15],[-2,18],[1,13],[2,14],[1,17],[-3,19],[-6,14],[-9,9],[-7,3],[-2,7],[-8,51],[3,8],[-5,20],[-7,45],[-4,21],[-8,20],[-18,29],[-8,21],[6,33],[-7,35],[-12,28],[-12,12],[-53,19],[-7,8],[-6,12],[-6,18],[45,-1],[6,5],[-7,29],[-10,58],[-19,51],[-4,16],[4,7],[6,5],[13,23],[20,14],[11,23],[20,59],[9,19],[4,15],[-4,31],[0,15],[1,30],[2,24],[5,11],[7,3],[9,0],[19,7],[17,17],[8,16],[21,56],[4,23],[-1,42],[-3,25],[-7,16],[-12,20],[-7,8],[-2,6],[-1,15],[0,8],[-2,7],[-3,6],[-25,45],[-14,8],[-3,5],[-1,9],[1,10],[2,7],[0,6],[0,15],[1,11],[-1,10],[-5,14],[-15,25],[-37,21],[-36,32],[-40,1],[-30,15],[-66,9],[-10,-4],[-8,-10],[-6,-12],[-6,-7],[-10,2],[-4,6],[-5,9],[-4,12],[-2,16],[-5,32],[-11,25],[-44,70],[-15,7],[-18,16],[-22,32],[-16,16],[-33,16],[14,26],[15,7],[12,17],[3,58],[-1,26],[-2,19],[-4,16],[-8,13],[-13,9],[-4,6],[-2,8],[-3,14],[-3,8],[-5,5],[-6,-2],[-11,-8],[-3,0],[-67,18],[-30,29],[-100,41],[-138,5],[-19,12],[-91,109],[-17,12],[-9,10],[-16,34],[-32,52],[6,15],[22,26],[0,4],[0,8],[1,9],[4,4],[4,2],[4,6],[7,16],[-14,19],[-40,12],[-8,27],[-2,18],[-9,24],[-2,16],[1,20],[4,12],[19,21],[24,42],[5,12],[0,4],[0,17],[0,5],[1,-1],[2,-2],[2,2],[6,27],[6,28],[8,60],[-5,19],[-5,43],[-6,20],[-3,7],[-5,6],[-5,7],[-1,10],[-1,18],[-3,9],[-8,9],[-14,15],[-13,9],[-54,15],[-13,10],[-12,18],[12,10],[16,6],[30,0],[-10,32],[-17,18],[-44,10],[-27,22],[-9,1],[-17,-9],[-9,0],[16,23],[18,9],[52,1],[8,3],[16,15],[7,-1],[4,5],[2,19],[-15,53],[-32,17],[-35,4],[-26,13],[-6,24],[10,16],[14,14],[7,20],[3,13],[8,4],[8,-2],[5,-7],[4,-9],[4,1],[21,57],[3,5],[26,7],[8,9],[5,7],[3,8],[2,11],[0,19],[3,14],[7,9],[7,6],[6,8],[-16,11],[-34,-32],[-13,13],[2,21],[0,46],[1,16],[8,16],[14,5],[94,-15],[31,18],[123,21],[23,23],[77,29],[156,18],[125,-1],[99,0],[178,-10],[153,2],[84,46],[5,2],[117,9],[116,9],[75,52],[80,14],[49,-39],[29,-27],[8,-1],[25,10],[120,-7],[17,10],[8,21],[-2,8],[-4,9],[-3,10],[4,11],[15,20],[17,33],[6,7],[7,3],[96,3],[54,51],[139,22],[140,21],[108,-37],[7,-12],[1,-20],[-3,-12],[-11,-18],[-5,-13],[-4,-17],[-5,-14],[-5,-6],[-54,-16],[-15,-17],[-27,-45],[-9,-9],[-19,-11],[-19,-17],[-36,-12],[-45,-58],[-44,-29],[-58,-15],[-52,-65],[-30,-18],[-21,-29],[-6,-4],[-11,-13],[-1,-30],[7,-64],[-1,-16],[-1,-15],[0,-14],[3,-17],[5,-13],[5,-10],[5,-7],[24,-22],[117,-63],[5,-21],[2,-8],[-2,-9],[29,-52],[71,-20],[32,-31],[7,-8],[12,-11],[6,-9],[5,-10],[7,-27],[3,-13],[1,-12],[2,-21],[0,-3],[2,-12],[4,-14],[5,-12],[6,-9],[3,-4],[-1,54],[0,1],[-1,23],[-5,22],[-8,25],[-30,57],[-14,17],[-14,12],[-26,5],[-8,5],[-11,16],[-18,39],[-12,17],[-46,40],[-115,56],[-15,19],[-12,29],[-3,13],[-1,8],[0,25],[1,4],[2,14],[0,7],[-1,4],[-3,10],[-1,6],[14,68],[32,27],[38,11],[47,36],[103,16],[104,15],[26,27],[97,-1],[20,7],[14,25],[12,25],[27,36],[12,26],[-7,5],[-19,-22],[-9,1],[12,47],[17,28],[84,58],[22,26],[13,46],[-3,8],[7,27],[-7,18],[-13,10],[-11,2],[-13,-2],[-5,-8],[-1,-18],[1,-33],[-5,-17],[-11,-18],[-12,-13],[-9,-6],[-24,8],[-24,18],[-21,23],[-19,34],[-8,9],[-3,8],[-2,11],[-1,14],[-2,8],[-10,19],[-9,10],[-4,7],[-14,38],[-29,31],[-1,2],[136,0],[12,-11],[20,2],[-5,9],[944,0],[0,-1171]],[[0,389],[0,1752],[3,-1],[94,-19],[70,16],[67,-5],[44,-29],[99,-117],[82,-68],[169,-67],[131,-83],[6,-17],[-1,-11],[-1,-16],[-3,-15],[-6,-11],[-7,0],[-25,24],[7,15],[16,12],[6,15],[-30,3],[-16,-4],[-13,-16],[-7,-24],[6,-14],[109,-105],[110,-105],[4,-6],[2,-9],[1,-9],[-2,-7],[-1,-4],[0,-5],[7,-36],[10,-24],[13,-14],[74,-28],[69,-50],[167,10],[40,27],[42,8],[29,21],[134,38],[21,-18],[3,-6],[3,-7],[5,-16],[3,-8],[3,-2],[3,-1],[14,-10],[49,12],[19,-3],[17,-14],[16,-27],[6,-13],[3,-11],[0,-12],[-6,-18],[-5,-12],[-18,-25],[-25,-50],[-13,-17],[-31,-12],[-9,-14],[-5,-25],[-5,-39],[-4,-26],[-1,-15],[2,-12],[5,-12],[6,-7],[6,-9],[4,-17],[-24,-7],[-15,-14],[-44,-8],[-95,-62],[-96,-63],[-8,-10],[-5,-17],[0,-14],[2,-13],[3,-11],[2,-12],[1,-14],[-1,-28],[1,-12],[5,-11],[9,-17],[4,-13],[6,-31],[2,-27],[-4,-23],[-10,-21],[-29,-28],[-12,-24],[2,-35],[36,-95],[-2,-14],[5,-14],[5,-13],[1,-13],[-3,-20],[4,-10],[5,-8],[0,-16],[22,-34],[3,-15],[-3,-14],[-14,-28],[-49,-56],[-12,-30],[-4,-17],[1,-7],[2,-7],[0,-14],[-5,-14],[-6,-11],[-1,0],[-1244,0],[0,364],[7,-1],[41,9],[6,7],[6,14],[5,10],[8,-7],[-2,-14],[7,-2],[27,10],[5,6],[3,13],[-2,11],[-4,6],[-5,3],[-4,-1],[19,14],[11,13],[5,16],[-5,19],[-10,4],[-11,-7],[-28,-37],[-44,32],[-22,-28],[11,2],[10,-3],[21,-16],[-52,-49],[-3,1]],[[1572,0],[-220,0],[0,1],[3,20],[-3,19],[-6,13],[-5,12],[2,18],[-1,4],[-1,3],[0,4],[-1,5],[8,0],[6,5],[5,10],[5,14],[1,13],[0,16],[1,12],[4,6],[9,1],[6,3],[0,7],[-7,12],[-12,8],[-5,8],[-3,17],[8,20],[24,38],[5,20],[-1,12],[-1,13],[-1,14],[2,11],[6,9],[13,13],[21,39],[17,4],[39,-16],[3,-11],[2,-14],[4,-16],[3,-1],[5,11],[3,16],[-1,16],[-6,41],[-1,12],[5,12],[5,-7],[4,-17],[1,-17],[6,-23],[12,-24],[24,-33],[27,-12],[10,-17],[4,-43],[-1,-23],[-3,-23],[-1,-26],[2,-27],[-9,-16],[-9,-33],[-8,-37],[-4,-30],[1,-15],[4,-36],[0,-14],[0,-1]],[[2811,4096],[901,0],[4,-4],[-72,-64],[-33,-75],[-33,-10],[12,-74],[96,56],[82,-39],[-131,-51],[14,-52],[-73,-12],[-41,-43],[-4,-77],[-114,-59],[-16,12],[22,-36],[37,7],[5,-52],[26,-23],[-291,-40],[-93,46],[-18,-14],[-47,42],[-40,-11],[24,28],[-26,2],[12,48],[-23,7],[-64,-45],[-82,3],[-141,-36],[10,30],[73,25],[46,74],[95,13],[29,60],[72,20],[22,46],[29,-51],[36,9],[39,27],[12,46],[-49,20],[-143,137],[-95,-26],[-47,19],[-22,117]],[[0,2580],[0,545],[4,27],[95,42],[100,-7],[83,-182],[-27,-114],[52,-120],[46,-274],[-114,-35],[-53,47],[-171,13],[-3,54],[-12,4]],[[2444,1839],[38,126],[45,60],[47,5],[19,55],[-49,200],[-78,84],[17,43],[-24,117],[164,-4],[37,19],[61,-18],[147,64],[214,-31],[23,-30],[269,-2],[100,-36],[112,-92],[-12,-77],[34,-86],[-42,-76],[43,-95],[-25,-55],[79,-65],[28,-78],[-29,-121],[-20,-2],[61,-183],[-68,-76],[1,-79],[19,4],[4,-11],[-11,-3],[-27,21],[-19,-61],[-41,26],[61,119],[-15,69],[-23,2],[-69,106],[-27,-3],[13,40],[-78,44],[-70,-2],[-6,27],[-36,-49],[-122,12],[-100,-51],[-41,20],[-141,-37],[-78,-50],[-64,67],[29,81],[-32,-6],[-47,40],[-19,-24],[-30,49],[-87,-37],[-28,15],[0,-36],[-87,-11],[-20,72]]]}